{"type":"FeatureCollection","features":[{"type":"Feature","id":"8830","geometry":{"type":"Polygon","coordinates":[[[-86.5704760585204,36.1582392104893],[-86.5704800822933,36.1581992477338],[-86.570505212086,36.1579496238876],[-86.5701202140066,36.1579082189612],[-86.5701779272662,36.1576684001331],[-86.5699994738125,36.1576285017709],[-86.5695108914028,36.1575192597605],[-86.5696359191143,36.15752484059],[-86.5697607494374,36.1575328015423],[-86.5698853167761,36.1575431375203],[-86.5703979324628,36.1575896486484],[-86.5708098557595,36.1576345051323],[-86.5707484191268,36.1582401208887],[-86.5707482026437,36.1582571529767],[-86.5704760585204,36.1582392104893]]]},"properties":{"id":"8830","parcel":"09800019700","address":"0 EARHART RD","owner":"BINKLEY-STEELE & HAGAR CEMETARY","point":[-86.57047154458006,36.157789466690254]}},{"type":"Feature","id":"16210","geometry":{"type":"Polygon","coordinates":[[[-86.5751759763466,36.1600788454473],[-86.5751776252493,36.1598857206624],[-86.575307369169,36.1598862008788],[-86.5753063434371,36.1600246569302],[-86.5752487530173,36.1600243816806],[-86.5752484733039,36.1600793236633],[-86.5751759763466,36.1600788454473]]]},"properties":{"id":"16210","parcel":"098060B09000CO","address":"1100 CHICKADEE CIR","owner":"KARSCHNER, RANDY & DEBORAH","point":[-86.57524194544072,36.15995516317924]}},{"type":"Feature","id":"16211","geometry":{"type":"Polygon","coordinates":[[[-86.5747781797538,36.159036591507],[-86.5750002342751,36.1589671318885],[-86.5750119296663,36.1589912505984],[-86.5750257021487,36.1590219512086],[-86.574963174654,36.1590414783492],[-86.574983815466,36.1590850585591],[-86.5748246229758,36.1591347137304],[-86.5747781797538,36.159036591507]]]},"properties":{"id":"16211","parcel":"098060B09500CO","address":"1006 LARKWOOD DR","owner":"TRAMEL, AMANDA J.","point":[-86.57488199701571,36.1590629436545]}},{"type":"Feature","id":"17680","geometry":{"type":"Polygon","coordinates":[[[-86.57501183218,36.1601466550365],[-86.5750142457372,36.1598252398352],[-86.5753618220495,36.1598271549727],[-86.5753763041899,36.1598957617451],[-86.5754126884466,36.160068102461],[-86.5754138707682,36.1600795698303],[-86.5754126769138,36.1600910377137],[-86.5754091412113,36.1601021823961],[-86.5754033614284,36.1601126924773],[-86.5753954999164,36.1601222733731],[-86.5753857770072,36.1601306563591],[-86.5753744655092,36.1601376058074],[-86.5753618818749,36.16014292734],[-86.5753483806768,36.1601464723609],[-86.5753343390614,36.1601481399337],[-86.57501183218,36.1601466550365]],[[-86.5751776252493,36.1598857206624],[-86.5750478760054,36.1598849654485],[-86.5750465066404,36.1600231482494],[-86.5751040970521,36.1600234226942],[-86.5751038172385,36.1600783646766],[-86.5751759763466,36.1600788454473],[-86.5752484733039,36.1600793236633],[-86.5752487530173,36.1600243816806],[-86.5753063434371,36.1600246569302],[-86.575307369169,36.1598862008788],[-86.5751776252493,36.1598857206624]]]},"properties":{"id":"17680","parcel":"098060B08800CO","address":"0 CHICKADEE CIR","owner":"O.I.C BRIDGEWATER","point":[-86.57534835430411,36.159959940855316]}},{"type":"Feature","id":"17682","geometry":{"type":"Polygon","coordinates":[[[-86.5748792059969,36.1592811460228],[-86.5751074776667,36.159227864815],[-86.5751275353493,36.1592843582921],[-86.5750629411665,36.1592992250143],[-86.575078849897,36.1593442003689],[-86.5749151690731,36.159382340044],[-86.5748792059969,36.1592811460228]]]},"properties":{"id":"17682","parcel":"098060B09200CO","address":"1010 LARKWOOD DR","owner":"PERKS TRUST, THE","point":[-86.5749821472507,36.1593213977252]}},{"type":"Feature","id":"17684","geometry":{"type":"Polygon","coordinates":[[[-86.5748792059969,36.1592811460228],[-86.5748432430058,36.1591799510869],[-86.5750072612977,36.1591418098976],[-86.5750231679801,36.1591865112887],[-86.5750874231161,36.1591716462025],[-86.5751074776667,36.159227864815],[-86.5748792059969,36.1592811460228]]]},"properties":{"id":"17684","parcel":"098060B09300CO","address":"1008 LARKWOOD DR","owner":"VANCE, ROBIN ELISE & DODSON, JEFFREY ALAN JR","point":[-86.57497640006449,36.159206872469554]}},{"type":"Feature","id":"18167","geometry":{"type":"Polygon","coordinates":[[[-86.573764994873,36.1584304708879],[-86.5740573831623,36.1581560245791],[-86.5742417971215,36.1583619994041],[-86.5738762953364,36.1585505371693],[-86.5738342417829,36.158496895101],[-86.5738133173612,36.1584733140464],[-86.5737901880491,36.1584511269018],[-86.573764994873,36.1584304708879]]]},"properties":{"id":"18167","parcel":"098060A01500CO","address":"1504 GOLDFINCH CIR","owner":"COMIA, MARILOU R. & JENNER A.","point":[-86.57404900779247,36.15825865428725]}},{"type":"Feature","id":"18168","geometry":{"type":"Polygon","coordinates":[[[-86.5736154066102,36.1583559134451],[-86.5737738181202,36.1580109565527],[-86.5740573831623,36.1581560245791],[-86.573764994873,36.1584304708879],[-86.5737311813163,36.1584074350722],[-86.573694738531,36.1583872047432],[-86.5736560224532,36.1583699746808],[-86.5736154066102,36.1583559134451]]]},"properties":{"id":"18168","parcel":"098060A01600CO","address":"1508 GOLDFINCH CIR","owner":"ZAWITA, JABAR","point":[-86.57380603074681,36.15825586115135]}},{"type":"Feature","id":"18169","geometry":{"type":"Polygon","coordinates":[[[-86.5730297188254,36.1583103496622],[-86.5730582344382,36.157942932815],[-86.5732612155448,36.1579532318153],[-86.5732327041889,36.1583206468912],[-86.5730297188254,36.1583103496622]]]},"properties":{"id":"18169","parcel":"098060A01900CO","address":"1520 GOLDFINCH CIR","owner":"ALMUSHAAYAKHCHI, ABBAS & ALGATRANI, ZAHRAA & FATEMA","point":[-86.57314546822138,36.15813179080186]}},{"type":"Feature","id":"18170","geometry":{"type":"Polygon","coordinates":[[[-86.5722184559975,36.1582688711219],[-86.5722469709188,36.1579014562858],[-86.572449955148,36.1579117566349],[-86.5724214400513,36.1582791715232],[-86.5722184559975,36.1582688711219]]]},"properties":{"id":"18170","parcel":"098060A02300CO","address":"1536 GOLDFINCH CIR","owner":"MCKINLEY, SARAH A.","point":[-86.57233420556459,36.15809031393779]}},{"type":"Feature","id":"18171","geometry":{"type":"Polygon","coordinates":[[[-86.5714235435418,36.1581929736031],[-86.571645362073,36.1580433075284],[-86.5718690276443,36.1583381046203],[-86.5718340943333,36.1583568585875],[-86.5718009280835,36.158377615779],[-86.5717697048243,36.1584002681131],[-86.5717405881704,36.1584246949488],[-86.5714235435418,36.1581929736031]]]},"properties":{"id":"18171","parcel":"098060A02500CO","address":"1548 GOLDFINCH CIR","owner":"CAVIN, CULLEN E., III & ROBIN R.","point":[-86.57166832454791,36.158265618153884]}},{"type":"Feature","id":"18178","geometry":{"type":"Polygon","coordinates":[[[-86.5751784778754,36.1587413006672],[-86.575173309201,36.1587292376328],[-86.5752810877021,36.1586902654507],[-86.5755905730717,36.1585786335628],[-86.5756206434003,36.1586611787364],[-86.5756883951758,36.1588482009065],[-86.575288154005,36.1589641122561],[-86.5752536280536,36.1588891912551],[-86.5752170629595,36.1588149090402],[-86.5751784778754,36.1587413006672]],[[-86.5754380381284,36.1588922488],[-86.575596540983,36.1588409477011],[-86.5755480674249,36.1587431094284],[-86.5754999329465,36.1586452695173],[-86.5753417713732,36.1586968437503],[-86.5753630882318,36.1587401457934],[-86.575299552124,36.1587607765528],[-86.575327045479,36.1588150372917],[-86.5753531861248,36.1588695784549],[-86.5754167223059,36.1588489476679],[-86.5754380381284,36.1588922488]]]},"properties":{"id":"18178","parcel":"098060B00100CO","address":"0 LARKWOOD DR","owner":"O.I.C. BRIDGEWATER","point":[-86.57525800087899,36.158787710792176]}},{"type":"Feature","id":"18179","geometry":{"type":"Polygon","coordinates":[[[-86.5754380381284,36.1588922488],[-86.5754167223059,36.1588489476679],[-86.5753531861248,36.1588695784549],[-86.575327045479,36.1588150372917],[-86.5755480674249,36.1587431094284],[-86.575596540983,36.1588409477011],[-86.5754380381284,36.1588922488]]]},"properties":{"id":"18179","parcel":"098060B00300CO","address":"1007 LARKWOOD DR","owner":"RICHEY, BRUCE A. & JULIA A.","point":[-86.57546169204205,36.15882799221342]}},{"type":"Feature","id":"18180","geometry":{"type":"Polygon","coordinates":[[[-86.5754600768304,36.158941590315],[-86.5756227156954,36.1589001589613],[-86.5756617197814,36.1590005145199],[-86.5754345029826,36.1590587360538],[-86.5754127565391,36.1590028004426],[-86.5754773384625,36.1589862851888],[-86.5754600768304,36.158941590315]]]},"properties":{"id":"18180","parcel":"098060B00500CO","address":"1009 LARKWOOD DR","owner":"FRANCOIS, YVES & MICHELLE R & ETAL","point":[-86.57555822908812,36.158964255097565]}},{"type":"Feature","id":"18299","geometry":{"type":"Polygon","coordinates":[[[-86.5755905730717,36.1585786335628],[-86.5754481605673,36.1581859371112],[-86.575525666137,36.1581659137908],[-86.5756041343774,36.1581485310208],[-86.5756834299152,36.1581338173839],[-86.5757634118143,36.1581218005887],[-86.5758604028366,36.158603992921],[-86.5756206434003,36.1586611787364],[-86.5755905730717,36.1585786335628]]]},"properties":{"id":"18299","parcel":"098060A00500CO","address":"5174 JOHN HAGAR RD","owner":"ROBERTS, MATTHEW CARTER & DALY, KELSEY ANN","point":[-86.57566769260295,36.15838281105963]}},{"type":"Feature","id":"18300","geometry":{"type":"Polygon","coordinates":[[[-86.5740573831623,36.1581560245791],[-86.5742105429368,36.1580687643809],[-86.5745193417324,36.1584238602331],[-86.5743719116485,36.1585072478776],[-86.5742417971215,36.1583619994041],[-86.5740573831623,36.1581560245791]]]},"properties":{"id":"18300","parcel":"098060A01300CO","address":"5205 NEW JOHN HAGAR RD","owner":"WOODS, PATEICIA A. & MICHAEL T. & STEPHEN R.","point":[-86.57426313900154,36.15825941578431]}},{"type":"Feature","id":"18301","geometry":{"type":"Polygon","coordinates":[[[-86.5738762953364,36.1585505371693],[-86.5742417971215,36.1583619994041],[-86.5743719116485,36.1585072478776],[-86.5741627437451,36.158625629299],[-86.5740777264834,36.1586737445217],[-86.5740650206033,36.1586796613334],[-86.5740512465348,36.1586837140162],[-86.5740368179434,36.1586857807352],[-86.5740221656151,36.1586858017605],[-86.5740077285257,36.158683774103],[-86.5739939372363,36.1586797606054],[-86.5739812060352,36.1586738791649],[-86.5739699140837,36.1586663082299],[-86.5739603997493,36.1586572715062],[-86.5738762953364,36.1585505371693]]]},"properties":{"id":"18301","parcel":"098060A01400CO","address":"1500 GOLDFINCH CIR","owner":"PIERRE, ANDREW JONATHAN","point":[-86.57412601228116,36.15852889956871]}},{"type":"Feature","id":"18302","geometry":{"type":"Polygon","coordinates":[[[-86.5734356896116,36.15833094468],[-86.5734642009128,36.1579638053378],[-86.5737738181202,36.1580109565527],[-86.5736154066102,36.1583559134451],[-86.5735735370517,36.1583450684341],[-86.5735305475271,36.1583376472017],[-86.5734868608876,36.1583337234426],[-86.5734356896116,36.15833094468]]]},"properties":{"id":"18302","parcel":"098060A01700CO","address":"1512 GOLDFINCH CIR","owner":"ISAM, DURAID","point":[-86.57357417365608,36.15817084184446]}},{"type":"Feature","id":"18303","geometry":{"type":"Polygon","coordinates":[[[-86.5728270735585,36.1583000468728],[-86.57285558568,36.1579326327972],[-86.5730582344382,36.157942932815],[-86.5730297188254,36.1583103496622],[-86.5728270735585,36.1583000468728]]]},"properties":{"id":"18303","parcel":"098060A02000CO","address":"1524 GOLDFINCH CIR","owner":"KEY, KENNETH D. & MARGARET A.","point":[-86.5729426532344,36.15812148990043]}},{"type":"Feature","id":"18304","geometry":{"type":"Polygon","coordinates":[[[-86.5726240896381,36.158289472269],[-86.5726526024561,36.1579223331251],[-86.57285558568,36.1579326327972],[-86.5728270735585,36.1583000468728],[-86.5726240896381,36.158289472269]]]},"properties":{"id":"18304","parcel":"098060A02100CO","address":"1528 GOLDFINCH CIR","owner":"CLARK, MICHAEL E. & CINDY C.","point":[-86.57273984305543,36.15811105261177]}},{"type":"Feature","id":"18305","geometry":{"type":"Polygon","coordinates":[[[-86.5712626831831,36.1583874009872],[-86.5714235435418,36.1581929736031],[-86.5717405881704,36.1584246949488],[-86.5717136434907,36.158450713924],[-86.5716890757545,36.158478236647],[-86.5716670117416,36.1585071201203],[-86.5716475648508,36.1585372151003],[-86.5712626831831,36.1583874009872]]]},"properties":{"id":"18305","parcel":"098060A02600CO","address":"1552 GOLDFINCH CIR","owner":"KMIEC, BRETT A. & KIMBERLY M.","point":[-86.57145035808685,36.158290571180274]}},{"type":"Feature","id":"18306","geometry":{"type":"Polygon","coordinates":[[[-86.572741911826,36.158422146983],[-86.5729099949626,36.1584309619896],[-86.5729237452804,36.158433162475],[-86.5729368574039,36.1584371739115],[-86.5729489715831,36.1584428889549],[-86.572959755474,36.1584501478583],[-86.5729689109106,36.1584587528598],[-86.5729761883327,36.1584684654099],[-86.5729813857789,36.158479020597],[-86.5729843611113,36.1584901270885],[-86.5729850320999,36.1585014788476],[-86.572982810722,36.1585569338616],[-86.5729832412884,36.1586124150379],[-86.5729863221207,36.1586678430739],[-86.5729920492657,36.1587231314673],[-86.572716810151,36.1587458653492],[-86.572741911826,36.158422146983]]]},"properties":{"id":"18306","parcel":"098060A02900CO","address":"1525 GOLDFINCH CIR","owner":"WOLFE, MICHAEL & MARGARET LAURETTE","point":[-86.57285620267842,36.15858422212732]}},{"type":"Feature","id":"18307","geometry":{"type":"Polygon","coordinates":[[[-86.5725221454707,36.1587621725539],[-86.572716810151,36.1587458653492],[-86.5729920492657,36.1587231314673],[-86.5729997908631,36.1587755803465],[-86.5730099966244,36.1588277507526],[-86.5730226504554,36.1588795679567],[-86.5725889218405,36.1589557964543],[-86.5725221454707,36.1587621725539]]]},"properties":{"id":"18307","parcel":"098060A03000CO","address":"1404 BRIDGECROSS PKWY","owner":"SCHILLO, DARYA IRENE","point":[-86.5727847253494,36.158852833307606]}},{"type":"Feature","id":"18316","geometry":{"type":"Polygon","coordinates":[[[-86.5732258263566,36.1584470430945],[-86.5734820149988,36.1584601109075],[-86.5735157116222,36.1584638964845],[-86.5735486461958,36.1584708067291],[-86.5735803768494,36.1584807509124],[-86.5736104836264,36.1584935949415],[-86.573638564084,36.158509167689],[-86.5736642421964,36.1585272627532],[-86.5736871772457,36.1585476384157],[-86.5737070616253,36.1585700212568],[-86.5738287785628,36.1587251997246],[-86.5738348046228,36.1587359780519],[-86.5738384650051,36.1587474345579],[-86.5738396538904,36.1587592290708],[-86.5738383332059,36.1587710147874],[-86.5738345448889,36.1587824436228],[-86.5738283987473,36.1587931779843],[-86.5738200769639,36.1588028988614],[-86.5738098253224,36.1588113220903],[-86.573797946527,36.1588181965827],[-86.5737043780744,36.1588595801452],[-86.5736092180398,36.1588985062595],[-86.5735125661581,36.1589349338915],[-86.5734145221909,36.1589688256121],[-86.5733151859198,36.1590001466963],[-86.5733013017491,36.1590028172868],[-86.5732870673626,36.1590036239362],[-86.5732728593527,36.1590025432255],[-86.5732605032157,36.1589998116253],[-86.5732487877719,36.158995615141],[-86.5732379737806,36.1589900498699],[-86.5732283055325,36.1589832399266],[-86.5732199952778,36.1589753357146],[-86.5732132332475,36.1589665165821],[-86.573208167552,36.1589569773988],[-86.5731868913846,36.1588946870959],[-86.5731694339232,36.1588316206945],[-86.5731558362806,36.158767932116],[-86.5731461329142,36.1587037771156],[-86.5731403482789,36.1586393114956],[-86.5731384946241,36.1585746938196],[-86.5731405775116,36.158510079979],[-86.5731428833534,36.1584988078141],[-86.5731474631169,36.1584880025166],[-86.5731541922691,36.158477963895],[-86.5731628827744,36.1584689704294],[-86.5731732952613,36.1584612711022],[-86.5731851378845,36.1584550817982],[-86.5731980840091,36.1584505717024],[-86.573211773348,36.1584478668993],[-86.5732258263566,36.1584470430945]]]},"properties":{"id":"18316","parcel":"098060A08000CO","address":"1501 GOLDFINCH CIR","owner":"BRIDGEWATER MASTER ASSOCIATION","point":[-86.5734908061719,36.15872937485486]}},{"type":"Feature","id":"18317","geometry":{"type":"Polygon","coordinates":[[[-86.5722027652105,36.1583947592799],[-86.5725155414855,36.1584105827453],[-86.5724944658065,36.1586818152547],[-86.5725221454707,36.1587621725539],[-86.5725889218405,36.1589557964543],[-86.5726515440173,36.1591370783738],[-86.5725398611233,36.1591487243685],[-86.5724277500034,36.1591572458288],[-86.5723153428434,36.1591626313115],[-86.5722027752093,36.159164875667],[-86.5720901782277,36.1591639746682],[-86.571977685294,36.1591599303867],[-86.5718654320453,36.1591527475875],[-86.5717535496993,36.1591424346624],[-86.5717401175912,36.1591395241479],[-86.5717274542341,36.1591348705632],[-86.5717159006241,36.1591286002718],[-86.5717057669315,36.1591208803397],[-86.5716973280744,36.1591119212606],[-86.5716908102791,36.1591019625988],[-86.5716863888633,36.1590912739014],[-86.5716841837005,36.1590801421019],[-86.571684253637,36.1590688679416],[-86.5717499790885,36.1586938605932],[-86.5717580712446,36.1586597916732],[-86.5717702992145,36.1586265449325],[-86.5717865419849,36.1585944471985],[-86.5718066384826,36.1585638182778],[-86.5718303897264,36.1585349610326],[-86.5718575610434,36.158508160469],[-86.5718878820691,36.1584836837367],[-86.5719210522458,36.1584617719924],[-86.5719567452742,36.1584426412795],[-86.571994605786,36.1584264834455],[-86.5720342592809,36.1584134570823],[-86.5720753132639,36.158403691126],[-86.5721173605659,36.1583972830389],[-86.5721599859921,36.1583942960738],[-86.5722027652105,36.1583947592799]]]},"properties":{"id":"18317","parcel":"098060A08100CO","address":"1549 GOLDFINCH DR","owner":"BRIDGEWATER MASTER ASSOCIATION","point":[-86.57213854733328,36.158857495305966]}},{"type":"Feature","id":"18318","geometry":{"type":"Polygon","coordinates":[[[-86.5750630552236,36.1583336404467],[-86.5750738596424,36.1583283697789],[-86.5752810877021,36.1586902654507],[-86.575173309201,36.1587292376328],[-86.5751688093824,36.1587160736786],[-86.5751509323137,36.1586331981064],[-86.575145905766,36.1586191218847],[-86.5751392143908,36.158605508732],[-86.5750328582661,36.1584200410096],[-86.5750282200558,36.1584098590694],[-86.575025610094,36.1583992141322],[-86.5750250902925,36.1583883681692],[-86.5750266748211,36.1583775896879],[-86.5750303245051,36.1583671474495],[-86.5750359489636,36.1583572987429],[-86.5750434088123,36.1583482866704],[-86.5750525189585,36.1583403347244],[-86.5750630552236,36.1583336404467]]]},"properties":{"id":"18318","parcel":"098060A08500CO","address":"0 LARKWOOD DR","owner":"BRIDGEWATER VILLAS TOWNHOUSE CORPORATION","point":[-86.5751328397753,36.158512940954154]}},{"type":"Feature","id":"18321","geometry":{"type":"Polygon","coordinates":[[[-86.5753417713732,36.1586968437503],[-86.5754999329465,36.1586452695173],[-86.5755480674249,36.1587431094284],[-86.575327045479,36.1588150372917],[-86.575299552124,36.1587607765528],[-86.5753630882318,36.1587401457934],[-86.5753417713732,36.1586968437503]]]},"properties":{"id":"18321","parcel":"098060B00200CO","address":"1005 LARKWOOD DR","owner":"PETTY, KENNETH J. & BEVERLY B.","point":[-86.57544435408828,36.15871882072301]}},{"type":"Feature","id":"18428","geometry":{"type":"Polygon","coordinates":[[[-86.5725889218405,36.1589557964543],[-86.5730226504554,36.1588795679567],[-86.573039855533,36.158938171648],[-86.5730600779057,36.1589961391409],[-86.5730621768907,36.1590054689056],[-86.5730626817353,36.1590172044861],[-86.5730607274665,36.1590288399876],[-86.5730563683284,36.159040038082],[-86.5730497342411,36.159050475502],[-86.5730410141826,36.1590598503299],[-86.5730304606998,36.1590678909889],[-86.5730183799711,36.1590743653029],[-86.5730051207318,36.1590790859565],[-86.5728881606546,36.1591019103913],[-86.5727702495698,36.1591212495568],[-86.5726515440173,36.1591370783738],[-86.5725889218405,36.1589557964543]]]},"properties":{"id":"18428","parcel":"098060A03100CO","address":"1408 BRIDGECROSS PKWY","owner":"HODGE, MICAH & APHTAEN REV LIVING TRUST","point":[-86.57283498821826,36.15901052556593]}},{"type":"Feature","id":"18429","geometry":{"type":"Polygon","coordinates":[[[-86.5729568341192,36.1598982075828],[-86.5733757900789,36.159839628817],[-86.5733948061758,36.1599019352184],[-86.5734114127042,36.1599646919767],[-86.5734255925518,36.1600278387899],[-86.5730083273708,36.1600861348099],[-86.5729568341192,36.1598982075828]]]},"properties":{"id":"18429","parcel":"098060A03200CO","address":"1424 BRIDGECROSS PKWY","owner":"EDMOND, DANA CHARLES & JILL R.","point":[-86.57318456795774,36.159932534828926]}},{"type":"Feature","id":"18434","geometry":{"type":"Polygon","coordinates":[[[-86.575288154005,36.1589641122561],[-86.5756883951758,36.1588482009065],[-86.5757895703554,36.1591130827413],[-86.5753816971313,36.1592043066004],[-86.5753527964955,36.1591236655679],[-86.5753216094239,36.1590435869964],[-86.575288154005,36.1589641122561]],[[-86.5755380922806,36.1591425763675],[-86.5757007295228,36.1591008700368],[-86.5756617197814,36.1590005145199],[-86.5756227156954,36.1589001589613],[-86.5754600768304,36.158941590315],[-86.5754773384625,36.1589862851888],[-86.5754127565391,36.1590028004426],[-86.5754345029826,36.1590587360538],[-86.5754562485816,36.1591143976821],[-86.5755208305867,36.1590978824054],[-86.5755380922806,36.1591425763675]]]},"properties":{"id":"18434","parcel":"098060B00400CO","address":"0 LARKWOOD DR","owner":"O.I.C. BRIDGEWATER","point":[-86.57536685129199,36.15902319255203]}},{"type":"Feature","id":"18435","geometry":{"type":"Polygon","coordinates":[[[-86.5755380922806,36.1591425763675],[-86.5755208305867,36.1590978824054],[-86.5754562485816,36.1591143976821],[-86.5754345029826,36.1590587360538],[-86.5756617197814,36.1590005145199],[-86.5757007295228,36.1591008700368],[-86.5755380922806,36.1591425763675]]]},"properties":{"id":"18435","parcel":"098060B00600CO","address":"1011 LARKWOOD DR","owner":"POWELL, MARK EDWARD & DEBORAH ANNE","point":[-86.5755671779462,36.159078626539966]}},{"type":"Feature","id":"18436","geometry":{"type":"Polygon","coordinates":[[[-86.5755547059575,36.159191394868],[-86.5757208024231,36.1591595606125],[-86.5757506762701,36.1592621578588],[-86.5755186161572,36.1593063926007],[-86.5755012667943,36.1592496122904],[-86.5755679083423,36.1592369328346],[-86.5755547059575,36.159191394868]]]},"properties":{"id":"18436","parcel":"098060B00800CO","address":"1013 LARKWOOD DR","owner":"LAMB, JULIA","point":[-86.57564909493915,36.159214474984815]}},{"type":"Feature","id":"18779","geometry":{"type":"Polygon","coordinates":[[[-86.5743718039457,36.159943397749],[-86.5744705653125,36.1598750783231],[-86.5745810855281,36.1599805878245],[-86.5745372656245,36.1600107389139],[-86.5745809297711,36.1600525611752],[-86.5745259882768,36.160090731422],[-86.5743718039457,36.159943397749]]]},"properties":{"id":"18779","parcel":"098060B08400CO","address":"1108 CHICKADEE CIR","owner":"DANIELS, FRANKLIN B & TINA R","point":[-86.57449259002958,36.159995426779695]}},{"type":"Feature","id":"18780","geometry":{"type":"Polygon","coordinates":[[[-86.5746729953006,36.1601356324242],[-86.5746754778449,36.1598235548346],[-86.5750142457372,36.1598252398352],[-86.57501183218,36.1601466550365],[-86.5749732243807,36.1601469831788],[-86.5749348139652,36.1601501646504],[-86.574896921938,36.1601561735885],[-86.574859862459,36.160164959829],[-86.5748453058353,36.160167337285],[-86.5748304607094,36.1601676306039],[-86.5748157771401,36.1601658313333],[-86.574801701191,36.1601619932266],[-86.5747886604958,36.1601562341147],[-86.5747677534226,36.1601461972451],[-86.5747451496192,36.1601389749675],[-86.5747214194342,36.1601347484215],[-86.57469716491,36.1601336246928],[-86.5746729953006,36.1601356324242]],[[-86.574850036299,36.1598839846749],[-86.5747202870611,36.1598832291088],[-86.574719255,36.1600214130008],[-86.5747768453963,36.1600216857993],[-86.5747762155632,36.1600749810472],[-86.5747826654182,36.1600768754149],[-86.5748487244541,36.1600771078462],[-86.5749208835594,36.1600775887694],[-86.5749211623818,36.1600226458915],[-86.5749787539106,36.1600229212921],[-86.5749801233805,36.1598847366894],[-86.574850036299,36.1598839846749]]]},"properties":{"id":"18780","parcel":"098060B08500CO","address":"0 CHICKADEE CIR","owner":"O.I.C BRIDGEWATER","point":[-86.57469711066358,36.15995253309103]}},{"type":"Feature","id":"18781","geometry":{"type":"Polygon","coordinates":[[[-86.574719255,36.1600214130008],[-86.5747202870611,36.1598832291088],[-86.574850036299,36.1598839846749],[-86.5748487244541,36.1600771078462],[-86.5747826654182,36.1600768754149],[-86.5747762155632,36.1600749810472],[-86.5747768453963,36.1600216857993],[-86.574719255,36.1600214130008]]]},"properties":{"id":"18781","parcel":"098060B08600CO","address":"1106 CHICKADEE CIR","owner":"SALTS FAMILY TRUST, THE","point":[-86.57478466895155,36.15995269893903]}},{"type":"Feature","id":"18782","geometry":{"type":"Polygon","coordinates":[[[-86.5748487244541,36.1600771078462],[-86.574850036299,36.1598839846749],[-86.5749801233805,36.1598847366894],[-86.5749787539106,36.1600229212921],[-86.5749211623818,36.1600226458915],[-86.5749208835594,36.1600775887694],[-86.5748487244541,36.1600771078462]]]},"properties":{"id":"18782","parcel":"098060B08700CO","address":"1104 CHICKADEE CIR","owner":"OESER, ELIZABETH J.","point":[-86.5749145021164,36.15995356300213]}},{"type":"Feature","id":"18783","geometry":{"type":"Polygon","coordinates":[[[-86.5750465066404,36.1600231482494],[-86.5750478760054,36.1598849654485],[-86.5751776252493,36.1598857206624],[-86.5751759763466,36.1600788454473],[-86.5751038172385,36.1600783646766],[-86.5751040970521,36.1600234226942],[-86.5750465066404,36.1600231482494]]]},"properties":{"id":"18783","parcel":"098060B08900CO","address":"1102 CHICKADEE CIR","owner":"VDORICK, CAROLYN MORROW","point":[-86.5751121132326,36.15995443464221]}},{"type":"Feature","id":"18784","geometry":{"type":"Polygon","coordinates":[[[-86.5747313979108,36.1589381950915],[-86.5748905900652,36.1588885400404],[-86.5749112308107,36.158932122067],[-86.5749737582125,36.1589125922492],[-86.5750002342751,36.1589671318885],[-86.5747781797538,36.159036591507],[-86.5747313979108,36.1589381950915]]]},"properties":{"id":"18784","parcel":"098060B09600CO","address":"1004 LARKWOOD DR","owner":"RIDGWAY, JAMES GARY & BETTY H.","point":[-86.57486574586837,36.158952663316065]}},{"type":"Feature","id":"19426","geometry":{"type":"Polygon","coordinates":[[[-86.576053839821,36.1581015837647],[-86.5760998457806,36.1581016624734],[-86.5761438083818,36.1581025701629],[-86.5760967449092,36.1585891297825],[-86.5758604028366,36.158603992921],[-86.5757634118143,36.1581218005887],[-86.5757667395434,36.1581213782452],[-86.5757830450749,36.1581193077711],[-86.5758446247422,36.1581124924552],[-86.5759064486231,36.1581073234418],[-86.5759684478577,36.1581038064668],[-86.576053839821,36.1581015837647]]]},"properties":{"id":"19426","parcel":"098060A00400CO","address":"5170 JOHN HAGAR RD","owner":"HO, LEE KWANG","point":[-86.57596480445757,36.15835558827875]}},{"type":"Feature","id":"19430","geometry":{"type":"Polygon","coordinates":[[[-86.5732327041889,36.1583206468912],[-86.5732612155448,36.1579532318153],[-86.5734642009128,36.1579638053378],[-86.5734356896116,36.15833094468],[-86.5732327041889,36.1583206468912]]]},"properties":{"id":"19430","parcel":"098060A01800CO","address":"1516 GOLDFINCH CIR","owner":"KEY, DEBORAH L.","point":[-86.57334844738936,36.15814222615552]}},{"type":"Feature","id":"19434","geometry":{"type":"Polygon","coordinates":[[[-86.5711811358509,36.1585883203735],[-86.5712626831831,36.1583874009872],[-86.5716475648508,36.1585372151003],[-86.5716318774231,36.1585661846243],[-86.5716185683509,36.1585959269752],[-86.5716076967277,36.1586263138949],[-86.5715993105137,36.1586572144749],[-86.5715952946739,36.1586641010774],[-86.5715929399993,36.1586663094956],[-86.5715921847527,36.1586669953246],[-86.5715911419455,36.1586678753846],[-86.5715905009741,36.1586683795196],[-86.5715879985466,36.1586701335024],[-86.5715877518395,36.1586702905885],[-86.57158360535,36.1586726165451],[-86.5715790805594,36.1586744197614],[-86.571574277203,36.1586756601097],[-86.5715692995594,36.1586763109595],[-86.5715647159704,36.1586761226746],[-86.5715636174938,36.1586760629865],[-86.5715617536264,36.1586758978711],[-86.5715609505147,36.1586758016351],[-86.5715602362846,36.158675701373],[-86.5715591870527,36.1586755351033],[-86.5715584559058,36.1586754006736],[-86.5715577736646,36.1586752669135],[-86.5711811358509,36.1585883203735]]]},"properties":{"id":"19434","parcel":"098060A02700CO","address":"1556 GOLDFINCH CIR","owner":"GRIFFITH, JENNIFER E. & WILLIAM E.","point":[-86.57134386385403,36.15846190997078]}},{"type":"Feature","id":"19438","geometry":{"type":"Polygon","coordinates":[[[-86.5724944658065,36.1586818152547],[-86.5725155414855,36.1584105827453],[-86.572741911826,36.158422146983],[-86.572716810151,36.1587458653492],[-86.5725221454707,36.1587621725539],[-86.5724944658065,36.1586818152547]]]},"properties":{"id":"19438","parcel":"098060A02800CO","address":"1529 GOLDFINCH CIR","owner":"MAZRIMAS, DARLENE FRANCES","point":[-86.57261819936149,36.158551981222445]}},{"type":"Feature","id":"19453","geometry":{"type":"Polygon","coordinates":[[[-86.570744779016,36.1584876459545],[-86.5707482026437,36.1582571529767],[-86.5707484191268,36.1582401208887],[-86.5708098557595,36.1576345051323],[-86.571363408141,36.1576925051416],[-86.5719173607157,36.1577479366401],[-86.5724716945188,36.1578007970082],[-86.5730263939382,36.1578510863146],[-86.5735814388909,36.1578988010448],[-86.5741368115355,36.1579439403772],[-86.5741804557279,36.1579472449383],[-86.5742236088166,36.1579534845133],[-86.5742659726361,36.1579626145575],[-86.5743072522172,36.1579745715848],[-86.5743471613505,36.1579892740425],[-86.5742105429368,36.1580687643809],[-86.5740573831623,36.1581560245791],[-86.5737738181202,36.1580109565527],[-86.5734642009128,36.1579638053378],[-86.5732612155448,36.1579532318153],[-86.5730582344382,36.157942932815],[-86.57285558568,36.1579326327972],[-86.5726526024561,36.1579223331251],[-86.572449955148,36.1579117566349],[-86.5722469709188,36.1579014562858],[-86.5719328511995,36.1579342622533],[-86.5720369762681,36.1582812684668],[-86.5719930262167,36.158291359972],[-86.5719502055029,36.1583042535264],[-86.5719087847184,36.1583198685381],[-86.5718690276443,36.1583381046203],[-86.571645362073,36.1580433075284],[-86.5714235435418,36.1581929736031],[-86.5712626831831,36.1583874009872],[-86.5711811358509,36.1585883203735],[-86.570744779016,36.1584876459545]]]},"properties":{"id":"19453","parcel":"098060A08200CO","address":"1544 GOLDFINCH CIR","owner":"BRIDGEWATER MASTER ASSOCIATION","point":[-86.57115959640987,36.15810177953853]}},{"type":"Feature","id":"19463","geometry":{"type":"Polygon","coordinates":[[[-86.5750738596424,36.1583283697789],[-86.5751455867081,36.1582947571359],[-86.5752190167472,36.1582636535457],[-86.5752940134751,36.1582351155331],[-86.5753704405619,36.1582091933143],[-86.5754481605673,36.1581859371112],[-86.5755905730717,36.1585786335628],[-86.5752810877021,36.1586902654507],[-86.5750738596424,36.1583283697789]]]},"properties":{"id":"19463","parcel":"098060A00600CO","address":"5178 JOHN HAGAR RD","owner":"WATERS, DEONESHA","point":[-86.5753453000633,36.15845354834896]}},{"type":"Feature","id":"19465","geometry":{"type":"Polygon","coordinates":[[[-86.5753816971313,36.1592043066004],[-86.5757895703554,36.1591130827413],[-86.5758701038265,36.1593808091049],[-86.5754529215084,36.1594498246621],[-86.5754315607024,36.1593675389564],[-86.5754078146867,36.1592856846037],[-86.5753816971313,36.1592043066004]],[[-86.5756144579912,36.159396313624],[-86.5757802178927,36.1593647557791],[-86.5757506762701,36.1592621578588],[-86.5757208024231,36.1591595606125],[-86.5755547059575,36.159191394868],[-86.5755679083423,36.1592369328346],[-86.5755012667943,36.1592496122904],[-86.5755186161572,36.1593063926007],[-86.5755346147969,36.1593637300176],[-86.5756012544418,36.1593507756697],[-86.5756144579912,36.159396313624]]]},"properties":{"id":"19465","parcel":"098060B00700CO","address":"0 LARKWOOD DR","owner":"O.I.C. BRIDGEWATER","point":[-86.57545622889475,36.15927348527442]}},{"type":"Feature","id":"19467","geometry":{"type":"Polygon","coordinates":[[[-86.5742105429368,36.1580687643809],[-86.5743471613505,36.1579892740425],[-86.574372624138,36.1579971199781],[-86.5744100761004,36.1580109085179],[-86.5744457029426,36.1580275789434],[-86.5744791656663,36.1580469733474],[-86.5745101517685,36.1580689093627],[-86.5745383685594,36.1580931783915],[-86.574563547661,36.1581195527941],[-86.5746014885163,36.1581637068282],[-86.574676626114,36.1582511468869],[-86.5746826982034,36.1582593689873],[-86.5746873076331,36.1582681928826],[-86.574690366498,36.1582774504563],[-86.574691827043,36.1582886812844],[-86.5746910140219,36.1582999553843],[-86.5746879485925,36.1583109716353],[-86.5746827119766,36.1583214358402],[-86.5746754444088,36.1583310688425],[-86.5746663385263,36.1583396146685],[-86.5746556393956,36.1583468441327],[-86.5745193417324,36.1584238602331],[-86.5742105429368,36.1580687643809]]]},"properties":{"id":"19467","parcel":"098060A01200CO","address":"5201 NEW JOHN HAGAR RD","owner":"WRIGHT, NEAL W.","point":[-86.57448461455327,36.15820687815521]}},{"type":"Feature","id":"19472","geometry":{"type":"Polygon","coordinates":[[[-86.5724214400513,36.1582791715232],[-86.572449955148,36.1579117566349],[-86.5726526024561,36.1579223331251],[-86.5726240896381,36.158289472269],[-86.5724214400513,36.1582791715232]]]},"properties":{"id":"19472","parcel":"098060A02200CO","address":"1532 GOLDFINCH CIR","owner":"CAMPBELL, CHRIS ALLEN & NANCY DENNIS","point":[-86.57253701663274,36.15810075236691]}},{"type":"Feature","id":"19476","geometry":{"type":"Polygon","coordinates":[[[-86.5722469709188,36.1579014562858],[-86.5722184559975,36.1582688711219],[-86.572172776187,36.1582676420859],[-86.5721271172523,36.1582693086744],[-86.5720817591747,36.1582738596464],[-86.5720369762681,36.1582812684668],[-86.5719328511995,36.1579342622533],[-86.5722469709188,36.1579014562858]]]},"properties":{"id":"19476","parcel":"098060A02400CO","address":"1540 GOLDFINCH CIR","owner":"TEASDALE, DAVID & SHANA","point":[-86.57210711637318,36.1581011462845]}},{"type":"Feature","id":"19658","geometry":{"type":"Polygon","coordinates":[[[-86.5748592544101,36.1581959213415],[-86.5748458997502,36.1581917292146],[-86.5748336224096,36.1581857501681],[-86.5748227826369,36.1581781600342],[-86.57481370211,36.158169179892],[-86.574742086296,36.1580857175189],[-86.5747140957048,36.1580530973065],[-86.5747294528167,36.1579571979328],[-86.5753987776308,36.1580067366393],[-86.5753468467721,36.158021804511],[-86.5752956271152,36.1580383975033],[-86.5752851758374,36.1580419360931],[-86.5752109338357,36.1580669366733],[-86.5751378904076,36.1580941612074],[-86.5750661475234,36.1581235722599],[-86.5749958060165,36.158155128796],[-86.574926961151,36.1581887880053],[-86.5749155121517,36.1581934461718],[-86.5749033381933,36.1581966765933],[-86.5748907088029,36.1581984049838],[-86.5748779015678,36.1581985957732],[-86.574868501074,36.1581976104147],[-86.5748592544101,36.1581959213415]]]},"properties":{"id":"19658","parcel":"09800019800","address":"0 JOHN HAGAR RD","owner":"IMAX MOTORS, LLC","point":[-86.57495852667816,36.15807626349483]}},{"type":"Feature","id":"19908","geometry":{"type":"Polygon","coordinates":[[[-86.57475921491,36.1591776069688],[-86.575154099575,36.1590702370973],[-86.5751893723714,36.1591598802112],[-86.5752214279411,36.1592503137289],[-86.5752502390592,36.1593414629782],[-86.5748453249324,36.1594205823389],[-86.57475921491,36.1591776069688]],[[-86.5751074776667,36.159227864815],[-86.5750874231161,36.1591716462025],[-86.5750231679801,36.1591865112887],[-86.5750072612977,36.1591418098976],[-86.5748432430058,36.1591799510869],[-86.5748792059969,36.1592811460228],[-86.5749151690731,36.159382340044],[-86.575078849897,36.1593442003689],[-86.5750629411665,36.1592992250143],[-86.5751275353493,36.1592843582921],[-86.5751074776667,36.159227864815]]]},"properties":{"id":"19908","parcel":"098060B09100CO","address":"0 LARKWOOD DR","owner":"O.I.C BRIDGEWATER","point":[-86.57516445599809,36.15923908929682]}},{"type":"Feature","id":"19910","geometry":{"type":"Polygon","coordinates":[[[-86.5746470748537,36.1589418934308],[-86.5750292248314,36.1588068420795],[-86.5750738705211,36.158893685428],[-86.5751155070879,36.1589815065425],[-86.575154099575,36.1590702370973],[-86.57475921491,36.1591776069688],[-86.5746470748537,36.1589418934308]],[[-86.5750002342751,36.1589671318885],[-86.5749737582125,36.1589125922492],[-86.5749112308107,36.158932122067],[-86.5748905900652,36.1588885400404],[-86.5747313979108,36.1589381950915],[-86.5747781797538,36.159036591507],[-86.5748246229758,36.1591347137304],[-86.574983815466,36.1590850585591],[-86.574963174654,36.1590414783492],[-86.5750257021487,36.1590219512086],[-86.5750119296663,36.1589912505984],[-86.5750002342751,36.1589671318885]]]},"properties":{"id":"19910","parcel":"098060B09400CO","address":"0 LARKWOOD DR","owner":"O.I.C BRIDGEWATER","point":[-86.57507270193463,36.15900679213532]}},{"type":"Feature","id":"22072","geometry":{"type":"Polygon","coordinates":[[[-86.5712343457084,36.1590525018133],[-86.5713624835498,36.1586872969405],[-86.5715561560462,36.1587319798938],[-86.5715567717629,36.1587321355991],[-86.5715569254077,36.1587321736255],[-86.5715578617893,36.1587324107278],[-86.5715587583571,36.1587326750564],[-86.5715592127598,36.158732808093],[-86.5715604159993,36.1587332169729],[-86.5715613074322,36.1587335399076],[-86.5715625501464,36.1587340288124],[-86.5715642215452,36.1587347833605],[-86.5715673043579,36.1587364577167],[-86.5715674293934,36.1587365355339],[-86.5715684755342,36.1587371984111],[-86.5715703512268,36.1587385423152],[-86.5715721290352,36.1587400290815],[-86.5715733880036,36.1587412317052],[-86.571573780942,36.1587416263975],[-86.5715738548296,36.1587417008519],[-86.5715746917165,36.1587426287886],[-86.57157498984,36.158742975262],[-86.5715753632805,36.1587434403447],[-86.5715758332574,36.1587440383564],[-86.5715759476661,36.1587441838182],[-86.5715765696219,36.1587450514873],[-86.5715771798398,36.1587459868062],[-86.5715779404889,36.1587472855208],[-86.5715783022029,36.1587479741709],[-86.5715786270608,36.1587486377603],[-86.5715787477403,36.1587488823308],[-86.571578971558,36.1587494049014],[-86.5715792135791,36.1587499859675],[-86.5715793164705,36.1587502297209],[-86.571579480965,36.1587506939907],[-86.5715796625061,36.1587512104527],[-86.5715798090047,36.1587516450663],[-86.5715800152666,36.158752353379],[-86.5715802187072,36.1587531329044],[-86.571580253151,36.1587532859551],[-86.5715803552283,36.1587537252853],[-86.5715805042129,36.1587545050687],[-86.5715807123399,36.1587559352798],[-86.5715807459682,36.1587606045356],[-86.5715805648772,36.1587620023424],[-86.5715312839756,36.1590421221367],[-86.5715274597286,36.159052467756],[-86.5715216850207,36.159062199843],[-86.5715141014959,36.1590710788934],[-86.5715048965065,36.1590788850142],[-86.571494298726,36.1590854260555],[-86.5714825681672,36.159090540362],[-86.5714699939975,36.1590941021905],[-86.5714568878778,36.159096022643],[-86.5714435728876,36.1590962551267],[-86.5714303757325,36.1590947935883],[-86.5713319947341,36.1590747620754],[-86.5712343457084,36.1590525018133]]]},"properties":{"id":"22072","parcel":"098060A08600CO","address":"5231 NEW JOHN HAGAR RD","owner":"SFR II BORROWER 2021 3 LLC","point":[-86.571421695764,36.158901581904225]}},{"type":"Feature","id":"22075","geometry":{"type":"Polygon","coordinates":[[[-86.5699407054563,36.1594686928024],[-86.5699435975387,36.1590163687574],[-86.5700317111529,36.1590175298016],[-86.5701197185361,36.1590212301253],[-86.5701168545367,36.1594694334979],[-86.5699407054563,36.1594686928024]]]},"properties":{"id":"22075","parcel":"098060A10400CO","address":"5256 NEW JOHN HAGAR RD","owner":"CLARK, CHRISTOPHER","point":[-86.57003021243685,36.15924496150386]}},{"type":"Feature","id":"22076","geometry":{"type":"Polygon","coordinates":[[[-86.5706723961642,36.1594717647598],[-86.5706747345402,36.1591048410365],[-86.570894595231,36.159156152531],[-86.5708925755847,36.1594726890616],[-86.5706723961642,36.1594717647598]]]},"properties":{"id":"22076","parcel":"098060A10800CO","address":"5240 NEW JOHN HAGAR RD","owner":"CHOI, JOSHUA MYUNG-JOON","point":[-86.57078349510505,36.15931395869758]}},{"type":"Feature","id":"22616","geometry":{"type":"Polygon","coordinates":[[[-86.5741446140421,36.155806949162],[-86.5742264865023,36.1552149339456],[-86.5746694752298,36.1552559991436],[-86.5745733065585,36.1559383050047],[-86.5747883097399,36.1563316249148],[-86.5745638256823,36.1579243083832],[-86.5741902867078,36.1578501299922],[-86.5738650559361,36.1578283001258],[-86.5739710122014,36.1569876066396],[-86.5741446140421,36.155806949162]]]},"properties":{"id":"22616","parcel":"09800012100","address":"5187 JOHN HAGAR RD","owner":"BATTISTA, DANA LIVING TRUST & KENNEY, MIRANDA B.","point":[-86.57438066392864,36.156659620053595]}},{"type":"Feature","id":"22763","geometry":{"type":"Polygon","coordinates":[[[-86.5706572492245,36.1589179966285],[-86.5707849439355,36.1585540418031],[-86.5709780213445,36.1585985924072],[-86.5708502196084,36.1589628516664],[-86.5706572492245,36.1589179966285]]]},"properties":{"id":"22763","parcel":"098060A08900CO","address":"5243 NEW JOHN HAGAR RD","owner":"NORRIS, GERALD R. & ERWIN A.","point":[-86.57081763536831,36.15875829462871]}},{"type":"Feature","id":"22764","geometry":{"type":"Polygon","coordinates":[[[-86.5702652322131,36.1588558387412],[-86.5703129861084,36.1584888193299],[-86.5705068480676,36.1585054343058],[-86.5705437931277,36.1585092197759],[-86.570462670631,36.1588809916262],[-86.5703642385802,36.1588669294959],[-86.5702652322131,36.1588558387412]]]},"properties":{"id":"22764","parcel":"098060A09100CO","address":"5251 NEW JOHN HAGAR RD","owner":"PARNHAM, LINDA L.","point":[-86.57039686667248,36.15868250191226]}},{"type":"Feature","id":"22765","geometry":{"type":"Polygon","coordinates":[[[-86.5700339080874,36.1584649386809],[-86.5703129861084,36.1584888193299],[-86.5702652322131,36.1588558387412],[-86.5701867151826,36.1588492069591],[-86.570107992605,36.1588444380946],[-86.570093424219,36.1588426881768],[-86.5700794492528,36.15883891844],[-86.5700664897367,36.1588332422519],[-86.570054939233,36.1588258325978],[-86.5700451461007,36.1588169131469],[-86.5700374056709,36.1588067519807],[-86.5700319524352,36.1587956571233],[-86.5700289510636,36.1587839639662],[-86.5700159716452,36.1586874690589],[-86.5700051681972,36.1585907989405],[-86.5699965442657,36.1584939842374],[-86.5699966889514,36.158489215902],[-86.5699978478807,36.1584845401121],[-86.5699999864937,36.1584800967258],[-86.5700030401855,36.1584760203355],[-86.5700069175885,36.1584724330425],[-86.5700115005656,36.1584694435555],[-86.5700166519449,36.1584671408456],[-86.5700222166432,36.1584655959433],[-86.5700280271717,36.1584648547026],[-86.5700339080874,36.1584649386809]]]},"properties":{"id":"22765","parcel":"098060A09200CO","address":"5255 NEW JOHN HAGAR RD","owner":"BROWN, L. DAVID JR. & BRADY, ANGELA","point":[-86.57015193308888,36.15863964153084]}},{"type":"Feature","id":"22766","geometry":{"type":"Polygon","coordinates":[[[-86.5698912738168,36.1579647519597],[-86.569862348604,36.1576298775696],[-86.5699994738125,36.1576285017709],[-86.5701779272662,36.1576684001331],[-86.5701202140066,36.1579082189612],[-86.5700331851656,36.1579995822768],[-86.570007928492,36.1579860213824],[-86.5699805147761,36.1579755727989],[-86.569951522404,36.1579684573052],[-86.5699215648183,36.1579648252171],[-86.5698912738168,36.1579647519597]]]},"properties":{"id":"22766","parcel":"098060A09500CO","address":"2212 BUTTONQUAIL CT","owner":"MAFFETT, KENDALL & CHRISTY WILSON","point":[-86.57001250965533,36.15778781926631]}},{"type":"Feature","id":"22770","geometry":{"type":"Polygon","coordinates":[[[-86.5701168545367,36.1594694334979],[-86.5701197185361,36.1590212301253],[-86.570207910167,36.1590275251355],[-86.5702957689333,36.1590363695088],[-86.5702930002733,36.1594701721497],[-86.5701168545367,36.1594694334979]]]},"properties":{"id":"22770","parcel":"098060A10500CO","address":"5252 NEW JOHN HAGAR RD","owner":"BOAZ, CRAIG STEPHEN & STEPHANIE HANSON","point":[-86.57020631257105,36.159252901544434]}},{"type":"Feature","id":"22771","geometry":{"type":"Polygon","coordinates":[[[-86.5702930002733,36.1594701721497],[-86.5702957689333,36.1590363695088],[-86.5703874582779,36.1590484059926],[-86.5704785263538,36.1590632212162],[-86.5704759212832,36.1594709398035],[-86.5702930002733,36.1594701721497]]]},"properties":{"id":"22771","parcel":"098060A10600CO","address":"5248 NEW JOHN HAGAR RD","owner":"REYNOLDS, MICHAEL & BROWN, TRAVIS LYNN","point":[-86.57038576259775,36.15926669672053]}},{"type":"Feature","id":"24033","geometry":{"type":"Polygon","coordinates":[[[-86.570289789474,36.1574946543528],[-86.5702995955492,36.1561685025784],[-86.5712270519813,36.1562608121058],[-86.5712393852412,36.1575923469622],[-86.5708394461848,36.1575517180346],[-86.5704396987869,36.1575098638704],[-86.570289789474,36.1574946543528]]]},"properties":{"id":"24033","parcel":"09800011700","address":"5227 JOHN HAGAR RD","owner":"LA RETRAITE TRUST","point":[-86.57076357272884,36.15687775265703]}},{"type":"Feature","id":"24198","geometry":{"type":"Polygon","coordinates":[[[-86.5718982569254,36.1576565711397],[-86.5719360025156,36.1549872227031],[-86.5720187085439,36.1544308290263],[-86.5721176080512,36.1538655684585],[-86.5727333863963,36.153954948144],[-86.5724231124788,36.1577053228897],[-86.5718982569254,36.1576565711397]]]},"properties":{"id":"24198","parcel":"09800012000","address":"5211 JOHN HAGAR RD","owner":"GAMMONS FAMILY PROTECTION TRUST","point":[-86.5722272579027,36.156323005328794]}},{"type":"Feature","id":"24371","geometry":{"type":"Polygon","coordinates":[[[-86.5724231124788,36.1577053228897],[-86.5727333863963,36.153954948144],[-86.57338713477,36.1540485397249],[-86.5729211368882,36.1577496114354],[-86.5724231124788,36.1577053228897]]]},"properties":{"id":"24371","parcel":"09800007600","address":"5207 JOHN HAGAR RD","owner":"SULLIVAN, KEELY & ROBERT","point":[-86.57286564799254,36.15587679179166]}},{"type":"Feature","id":"25411","geometry":{"type":"Polygon","coordinates":[[[-86.5710422842136,36.1590076764345],[-86.5711702506728,36.1586429448351],[-86.5713624835498,36.1586872969405],[-86.5712343457084,36.1590525018133],[-86.5710422842136,36.1590076764345]]]},"properties":{"id":"25411","parcel":"098060A08700CO","address":"5235 NEW JOHN HAGAR RD","owner":"SCATES, LISA","point":[-86.57120238284212,36.15884748679398]}},{"type":"Feature","id":"25415","geometry":{"type":"Polygon","coordinates":[[[-86.5708502196084,36.1589628516664],[-86.5709780213445,36.1585985924072],[-86.5711702506728,36.1586429448351],[-86.5710422842136,36.1590076764345],[-86.5708502196084,36.1589628516664]]]},"properties":{"id":"25415","parcel":"098060A08800CO","address":"5239 NEW JOHN HAGAR RD","owner":"JOHNSON, WILLIAM SCOTT & JAMIE","point":[-86.571010235491,36.15880289836208]}},{"type":"Feature","id":"25417","geometry":{"type":"Polygon","coordinates":[[[-86.570109814297,36.158167588736],[-86.5704800822933,36.1581992477338],[-86.5704760585204,36.1582392104893],[-86.5704502289885,36.1584453167937],[-86.57001962583,36.1584084720613],[-86.5700143643854,36.1584076740642],[-86.5700093237988,36.158406214402],[-86.5700046288122,36.1584041303384],[-86.5700003964792,36.1584014717909],[-86.5699967328691,36.1583983067542],[-86.5699937296816,36.158394714106],[-86.5699914608994,36.15839078182],[-86.569989982808,36.1583866096701],[-86.5699893339373,36.1583823011189],[-86.5699870177681,36.158331381997],[-86.5699877458631,36.158319950613],[-86.5699908041381,36.158308775897],[-86.5699961070165,36.1582981673844],[-86.5700035076944,36.1582884204794],[-86.5700128025025,36.1582798047182],[-86.5700237308731,36.1582725592633],[-86.5700446026996,36.158259274379],[-86.5700632237577,36.1582439470581],[-86.5700792924256,36.158226825671],[-86.57009254952,36.1582081872279],[-86.5701027782774,36.158188334675],[-86.570109814297,36.158167588736]]]},"properties":{"id":"25417","parcel":"098060A09300CO","address":"2204 BUTTONQUAIL CT","owner":"STAR BORROWER SFR6, L.P.,","point":[-86.57023062372959,36.15830432307245]}},{"type":"Feature","id":"25420","geometry":{"type":"Polygon","coordinates":[[[-86.570109814297,36.158167588736],[-86.5701137151782,36.1581442205275],[-86.570113566908,36.1581206407252],[-86.5701093716612,36.1580973062565],[-86.5701012116282,36.1580746736702],[-86.5700892455586,36.1580531820294],[-86.5700737076296,36.1580332502128],[-86.5700548984842,36.1580152670435],[-86.5700331851656,36.1579995822768],[-86.5701202140066,36.1579082189612],[-86.570505212086,36.1579496238876],[-86.5704800822933,36.1581992477338],[-86.570109814297,36.158167588736]]]},"properties":{"id":"25420","parcel":"098060A09400CO","address":"2208 BUTTONQUAIL CT","owner":"KARST, CHRISTY & JAYSON","point":[-86.57028855854077,36.15804395941551]}},{"type":"Feature","id":"25423","geometry":{"type":"Polygon","coordinates":[[[-86.5704759212832,36.1594709398035],[-86.5704785263538,36.1590632212162],[-86.5705770902822,36.1590826045549],[-86.5706747345402,36.1591048410365],[-86.5706723961642,36.1594717647598],[-86.5704759212832,36.1594709398035]]]},"properties":{"id":"25423","parcel":"098060A10700CO","address":"5244 NEW JOHN HAGAR RD","owner":"FLETCHER, MICHELLE & JOHN B","point":[-86.57057532942592,36.15928789047021]}},{"type":"Feature","id":"25442","geometry":{"type":"Polygon","coordinates":[[[-86.5708925755847,36.1594726890616],[-86.570894595231,36.159156152531],[-86.5712118876609,36.1592302017782],[-86.5712972523728,36.1592491756444],[-86.571383181311,36.1592663956359],[-86.5713993982754,36.1592706539035],[-86.5714145081464,36.1592770524894],[-86.5714280861754,36.1592854095487],[-86.5714397483634,36.1592954916719],[-86.5714491659087,36.1593070138166],[-86.5714560741757,36.15931965008],[-86.5714602794537,36.1593330462843],[-86.571461662317,36.159346823566],[-86.5714613977134,36.1594750728347],[-86.5708925755847,36.1594726890616]]]},"properties":{"id":"25442","parcel":"098060A12700CO","address":"5236 NEW JOHN HAGAR RD","owner":"BRIDGEWATER MASTER ASSOCIATION","point":[-86.5711731125801,36.159312331310765]}},{"type":"Feature","id":"25446","geometry":{"type":"Polygon","coordinates":[[[-86.5704502289885,36.1584453167937],[-86.5704760585204,36.1582392104893],[-86.5707482026437,36.1582571529767],[-86.570744779016,36.1584876459545],[-86.5706721883431,36.1584726894851],[-86.5705987827802,36.1584606316641],[-86.5705247370015,36.1584514996031],[-86.5704502289885,36.1584453167937]]]},"properties":{"id":"25446","parcel":"098060A13000CO","address":"0 BUTTONQUAIL CT","owner":"BRIDGEWATER MASTER ASSOCIATION","point":[-86.57060443922282,36.15835125370982]}},{"type":"Feature","id":"25609","geometry":{"type":"Polygon","coordinates":[[[-86.5702995955492,36.1561685025784],[-86.5703043781798,36.1557025818158],[-86.5693151994968,36.1555575254862],[-86.5693502928369,36.1555055529036],[-86.5695697782874,36.155216810348],[-86.5696242070847,36.1551437335841],[-86.5696750363021,36.1550689713092],[-86.5712472380713,36.1553003511595],[-86.5712270519813,36.1562608121058],[-86.5702995955492,36.1561685025784]]]},"properties":{"id":"25609","parcel":"09800009600","address":"3330 EARHART RD","owner":"MAYNORD, JOHN P. ET UX","point":[-86.57052499459854,36.15563262184802]}},{"type":"Feature","id":"25749","geometry":{"type":"Polygon","coordinates":[[[-86.570462670631,36.1588809916262],[-86.5705437931277,36.1585092197759],[-86.5706051711413,36.1585173824844],[-86.5706660231365,36.1585278152128],[-86.5707262233678,36.158540495124],[-86.5707849439355,36.1585540418031],[-86.5706572492245,36.1589179966285],[-86.5705603839332,36.1588980303224],[-86.570462670631,36.1588809916262]]]},"properties":{"id":"25749","parcel":"098060A09000CO","address":"5247 NEW JOHN HAGAR RD","owner":"MOORE, TERRY & GAYNELLE","point":[-86.57061294891695,36.15871747789064]}},{"type":"Feature","id":"26119","geometry":{"type":"Polygon","coordinates":[[[-86.5730590173589,36.1577615365484],[-86.5733139660834,36.1557378647207],[-86.5735878539595,36.1557622887648],[-86.573938656553,36.1557911158738],[-86.5741446140421,36.155806949162],[-86.5739710122014,36.1569876066396],[-86.5738650559361,36.1578283001258],[-86.5734619581574,36.1577955385465],[-86.5730590173589,36.1577615365484]]]},"properties":{"id":"26119","parcel":"09800017100","address":"5195 JOHN HAGAR RD","owner":"COLE TENNESSEE COMMUNITY PROPERTY TRUST","point":[-86.57364453854841,36.15639580724709]}},{"type":"Feature","id":"26121","geometry":{"type":"Polygon","coordinates":[[[-86.5750447944164,36.1557198428757],[-86.5752553540053,36.1542258441251],[-86.575641975666,36.1542414308669],[-86.5759201485438,36.15425264375],[-86.5763505071078,36.154269990538],[-86.5763441841096,36.1543119815441],[-86.5762560740274,36.1548971407855],[-86.5762512110838,36.1549300824791],[-86.5760974082643,36.1559720921465],[-86.5758215918338,36.157903759271],[-86.5756470209213,36.1579062350784],[-86.5756479524597,36.1578959977527],[-86.5759532232995,36.1557570668674],[-86.5750447944164,36.1557198428757]]]},"properties":{"id":"26121","parcel":"09800018400","address":"5173 JOHN HAGAR RD","owner":"DECKER, MARILYNN THOMPSON","point":[-86.57587265078709,36.15693404514132]}},{"type":"Feature","id":"26201","geometry":{"type":"Polygon","coordinates":[[[-86.5743582850112,36.1541896757407],[-86.5735417652013,36.1540719784727],[-86.5738142831767,36.1525107542999],[-86.57381611319,36.152500261251],[-86.5747169012437,36.1525700436586],[-86.5747448149271,36.1525722062226],[-86.5747373315525,36.1526073648335],[-86.574669805678,36.1529246123745],[-86.574619341981,36.1531616927323],[-86.5745677119203,36.1534042582603],[-86.5745124586194,36.1536640126838],[-86.5744662599105,36.15387309124],[-86.5745679386516,36.1540289034687],[-86.5746239728729,36.1541147690646],[-86.5746885134366,36.1541225370052],[-86.5751042595127,36.1541725725728],[-86.5752834268403,36.1540838341435],[-86.575498032009,36.15397754387],[-86.5755580444395,36.1536329109748],[-86.5755880931096,36.1534603460039],[-86.5756326799559,36.1532042956409],[-86.5756798351501,36.1529571888021],[-86.5757022506296,36.1528398974542],[-86.5757249284165,36.1529098360233],[-86.5757227159851,36.1530929391642],[-86.5757224049267,36.1531182326812],[-86.5757231711127,36.1531181479125],[-86.5757552093056,36.1533145948041],[-86.5757531256858,36.1533282407941],[-86.5757086776915,36.1535238746383],[-86.5756439561472,36.1538087369659],[-86.5755908317758,36.1540425579067],[-86.575641975666,36.1542414308669],[-86.5752553540053,36.1542258441251],[-86.5743582850112,36.1541896757407]]]},"properties":{"id":"26201","parcel":"098130C14400CO","address":"0 AMANDA MEADOW CT","owner":"MEADOWS OF SEVEN POINTS HOMEOWNERS ASSOCIATION, INC.","point":[-86.57412106224088,36.15336255922357]}},{"type":"Feature","id":"26346","geometry":{"type":"Polygon","coordinates":[[[-86.5792665017232,36.150291895702],[-86.5790697815518,36.1501162073456],[-86.5790713748511,36.1501163249749],[-86.5790561905337,36.1501026148715],[-86.5796986804386,36.1501556425276],[-86.5796974211467,36.1501629145351],[-86.579632707084,36.1504476855694],[-86.579612646283,36.1504502477748],[-86.5795932842358,36.1504552129847],[-86.5795750546288,36.1504624691627],[-86.5795603440256,36.150470586264],[-86.5795470655995,36.1504801916754],[-86.5795354481841,36.1504911211703],[-86.5795256345556,36.1505032956538],[-86.5795178903362,36.1505164146324],[-86.5792665017232,36.150291895702]]]},"properties":{"id":"26346","parcel":"098130C01500CO","address":"1005 E POINT CV","owner":"CALABRESE, JOSEPH M. & SHELLEY R.","point":[-86.57950179441858,36.15036997404012]}},{"type":"Feature","id":"26347","geometry":{"type":"Polygon","coordinates":[[[-86.5791252300449,36.1505671480068],[-86.5792665017232,36.150291895702],[-86.5795178903362,36.1505164146324],[-86.5795113077282,36.1505338414618],[-86.5795083669998,36.1505519114247],[-86.5795091500857,36.1505701266323],[-86.5795136344458,36.1505879869937],[-86.5795162422292,36.1505976774337],[-86.5795172101057,36.1506075650138],[-86.579516907045,36.1506143051892],[-86.579515833499,36.150620994088],[-86.5795133858143,36.1506292740007],[-86.5795097647386,36.1506372648364],[-86.5795050183828,36.1506448591141],[-86.5794976767906,36.1506534617467],[-86.5794888109685,36.1506610586825],[-86.5794811608338,36.1506660622627],[-86.5794785953595,36.1506674940667],[-86.5794767653744,36.1506684455722],[-86.5794650531298,36.1506733929522],[-86.5794576405599,36.1506756231148],[-86.5794544457166,36.1506763928106],[-86.5794499627247,36.1506772894608],[-86.5794394318531,36.1506785963844],[-86.5794357450135,36.1506787979448],[-86.5794312337438,36.150678865571],[-86.579423016458,36.1506784868432],[-86.5794125077008,36.150677038507],[-86.5793998373917,36.1506737457557],[-86.5793903376987,36.1506700177927],[-86.5793314240794,36.150644044242],[-86.5792715610889,36.1506195406684],[-86.579198983853,36.1505922636293],[-86.5791252300449,36.1505671480068]]]},"properties":{"id":"26347","parcel":"098130C01600CO","address":"1001 E POINT CV","owner":"GIBSON, MICHAEL G. & PENNY S. & STRUBE, PAMELA","point":[-86.5793007055265,36.15040383386717]}},{"type":"Feature","id":"26473","geometry":{"type":"Polygon","coordinates":[[[-86.579632707084,36.1504476855694],[-86.5796974211467,36.1501629145351],[-86.5796986804386,36.1501556425276],[-86.5802273767708,36.1501992748832],[-86.5802263084033,36.1502025588042],[-86.5802277994271,36.1502026706011],[-86.580196295434,36.1502948479335],[-86.5797644933652,36.1505074522103],[-86.5797524654535,36.1504916937877],[-86.5797373418327,36.1504777996218],[-86.5797195554456,36.1504661641859],[-86.5796996087806,36.1504571185312],[-86.5796780726884,36.1504509203784],[-86.5796555585416,36.1504477461406],[-86.579632707084,36.1504476855694]]]},"properties":{"id":"26473","parcel":"098130C01400CO","address":"1008 E POINT CV","owner":"SCHROEDER, CHARLES J. & LIANNA","point":[-86.57984524916861,36.15037101432066]}},{"type":"Feature","id":"26478","geometry":{"type":"Polygon","coordinates":[[[-86.578248747424,36.1504194240575],[-86.5783004862008,36.1500589118999],[-86.5783010432393,36.1500589524908],[-86.5783037392328,36.1500405070025],[-86.5786281509213,36.1500672856622],[-86.5786259090221,36.1500830729675],[-86.5786271799073,36.1500831705184],[-86.5785723112634,36.1504530123478],[-86.578248747424,36.1504194240575]]]},"properties":{"id":"26478","parcel":"098130C01900CO","address":"5860 SEVEN POINTS TRCE","owner":"MALLORY, ALBERT S. & RUTH ANN","point":[-86.5784375554601,36.15025129600409]}},{"type":"Feature","id":"27004","geometry":{"type":"Polygon","coordinates":[[[-86.5696750363021,36.1550689713092],[-86.5697199502398,36.1549964369084],[-86.5697614773139,36.1549225864199],[-86.5697995560437,36.1548475237821],[-86.5698341338587,36.154771355595],[-86.5698651626344,36.1546941884372],[-86.5712470054434,36.1548915919462],[-86.5712472380713,36.1553003511595],[-86.5696750363021,36.1550689713092]]]},"properties":{"id":"27004","parcel":"09800006900","address":"3336 EARHART RD","owner":"SEHORN, DAVID & CONNIE JOHNSON","point":[-86.57049388042978,36.154962215395514]}},{"type":"Feature","id":"27152","geometry":{"type":"Polygon","coordinates":[[[-86.5700833353686,36.1535704963075],[-86.5703948298013,36.151648283965],[-86.5703993407291,36.1516206354455],[-86.5715765221364,36.1519280420517],[-86.5724776286653,36.1521633459616],[-86.5738142831767,36.1525107542999],[-86.5735417652013,36.1540719784727],[-86.57338713477,36.1540485397249],[-86.5727333863963,36.153954948144],[-86.5721176080512,36.1538655684585],[-86.5700833353686,36.1535704963075]]]},"properties":{"id":"27152","parcel":"09800005800","address":"3364 EARHART RD","owner":"GILLIAM, MARJORIE S. TRS.","point":[-86.57194545976132,36.15304062792457]}},{"type":"Feature","id":"27598","geometry":{"type":"Polygon","coordinates":[[[-86.5699949224155,36.1541160771456],[-86.5700833353686,36.1535704963075],[-86.5721176080512,36.1538655684585],[-86.5720187085439,36.1544308290263],[-86.5699949224155,36.1541160771456]]]},"properties":{"id":"27598","parcel":"09800005701","address":"3350 EARHART RD","owner":"WARREN, JANICE","point":[-86.57105543318943,36.153990824531874]}},{"type":"Feature","id":"27674","geometry":{"type":"Polygon","coordinates":[[[-86.5712470054434,36.1548915919462],[-86.5698651626344,36.1546941884372],[-86.5698938110721,36.1546124036476],[-86.5699184725744,36.1545297679637],[-86.5699391091833,36.1544464104472],[-86.5699432172719,36.154427463717],[-86.5699561206154,36.1543599580013],[-86.5699663879737,36.1542921556012],[-86.5699949224155,36.1541160771456],[-86.5720187085439,36.1544308290263],[-86.5719360025156,36.1549872227031],[-86.5712470054434,36.1548915919462]]]},"properties":{"id":"27674","parcel":"09800006700","address":"3342 EARHART RD","owner":"ELTRINGHAM, FRED & MELISSA","point":[-86.57095144410029,36.15457483551372]}},{"type":"Feature","id":"27679","geometry":{"type":"Polygon","coordinates":[[[-86.5712393852412,36.1575923469622],[-86.5712270519813,36.1562608121058],[-86.5712472380713,36.1553003511595],[-86.5712470054434,36.1548915919462],[-86.5719360025156,36.1549872227031],[-86.5718982569254,36.1576565711397],[-86.5712393852412,36.1575923469622]]]},"properties":{"id":"27679","parcel":"09800007200","address":"5219 JOHN HAGAR RD","owner":"LACROIX, MONNIE THOMAS & PATRICIA LEE REV LIV TRUST","point":[-86.57157088201507,36.15692778812365]}},{"type":"Feature","id":"28835","geometry":{"type":"Polygon","coordinates":[[[-86.579742373393,36.1506324920295],[-86.5797447097516,36.1506304259324],[-86.579757433924,36.1506169017809],[-86.5797591403502,36.1506147053235],[-86.579769477795,36.1505980256102],[-86.5797761838787,36.15058016647],[-86.5797790645764,36.1505616452578],[-86.5797780382165,36.1505429950106],[-86.5797731343033,36.1505247554414],[-86.5797644933652,36.1505074522103],[-86.580196295434,36.1502948479335],[-86.5801879985565,36.1503182376686],[-86.5800739132608,36.1506511807103],[-86.5800470481498,36.1507293238047],[-86.579742373393,36.1506324920295]]]},"properties":{"id":"28835","parcel":"098130C01300CO","address":"1004 E POINT CV","owner":"BUGGS, WAMON & FLOYD-BUGGS, KATHY","point":[-86.57994429522206,36.15051671946925]}},{"type":"Feature","id":"28841","geometry":{"type":"Polygon","coordinates":[[[-86.5785723112634,36.1504530123478],[-86.5786271799073,36.1500831705184],[-86.5786259090221,36.1500830729675],[-86.5786281509213,36.1500672856622],[-86.5789791202268,36.1500962540705],[-86.5789749539437,36.1501090295923],[-86.5789742112116,36.1501089736728],[-86.5788499563758,36.1504947934943],[-86.5787642057024,36.1504786955242],[-86.5786777298041,36.1504653957779],[-86.5785906655241,36.1504549170304],[-86.5785723112634,36.1504530123478]]]},"properties":{"id":"28841","parcel":"098130C01800CO","address":"5856 SEVEN POINTS TRCE","owner":"WHITEHEAD, PHIL & DONNA","point":[-86.5787582788501,36.15028096713767]}},{"type":"Feature","id":"29239","geometry":{"type":"Polygon","coordinates":[[[-86.5788499563758,36.1504947934943],[-86.5789742112116,36.1501089736728],[-86.5789749539437,36.1501090295923],[-86.5789791202268,36.1500962540705],[-86.5790561905337,36.1501026148715],[-86.5790713748511,36.1501163249749],[-86.5790697815518,36.1501162073456],[-86.5792665017232,36.150291895702],[-86.5791252300449,36.1505671480068],[-86.5790348084852,36.1505397663402],[-86.578942991592,36.1505156331321],[-86.5788499563758,36.1504947934943]]]},"properties":{"id":"29239","parcel":"098130C01700CO","address":"5852 SEVEN POINTS TRCE","owner":"SCHMIED, ERICA L. & MICHAEL B.","point":[-86.57904848975593,36.150393310547194]}},{"type":"Feature","id":"29242","geometry":{"type":"Polygon","coordinates":[[[-86.5747294528167,36.1579571979328],[-86.5750447944164,36.1557198428757],[-86.5759532232995,36.1557570668674],[-86.5756479524597,36.1578959977527],[-86.5756470209213,36.1579062350784],[-86.5756423168431,36.1579579221256],[-86.5755805472501,36.157967038255],[-86.5755192972335,36.1579782265706],[-86.5754586722218,36.1579914667426],[-86.5753987776308,36.1580067366393],[-86.5747294528167,36.1579571979328]]]},"properties":{"id":"29242","parcel":"09800005600","address":"5181 JOHN HAGAR RD","owner":"IMAX MOTORS, LLC","point":[-86.57534493053551,36.15682491750903]}},{"type":"Feature","id":"29248","geometry":{"type":"Polygon","coordinates":[[[-86.5729211368882,36.1577496114354],[-86.57338713477,36.1540485397249],[-86.5735417652013,36.1540719784727],[-86.5743582850112,36.1541896757407],[-86.5743680614932,36.1541910847424],[-86.5742264865023,36.1552149339456],[-86.5741446140421,36.155806949162],[-86.573938656553,36.1557911158738],[-86.5735878539595,36.1557622887648],[-86.5733139660834,36.1557378647207],[-86.5730590173589,36.1577615365484],[-86.5729211368882,36.1577496114354]]]},"properties":{"id":"29248","parcel":"09800005700","address":"5201 JOHN HAGAR RD","owner":"COLE TENNESSEE COMMUNITY PROPERTY TRUST","point":[-86.5731133547875,36.15677678716301]}},{"type":"Feature","id":"32044","geometry":{"type":"Polygon","coordinates":[[[-86.5723284022391,36.1597504956055],[-86.572328458756,36.1597504728061],[-86.5723907183977,36.1598478918503],[-86.5724110810563,36.1598797322249],[-86.5719569236999,36.1600705969727],[-86.5718743130218,36.1599413326908],[-86.5723284022391,36.1597504956055]]]},"properties":{"id":"32044","parcel":"098060A19400CO","address":"1613 ROBINDALE DR","owner":"THAREJA, GAURAV","point":[-86.57214269693709,36.15991053275868]}},{"type":"Feature","id":"32045","geometry":{"type":"Polygon","coordinates":[[[-86.5711100866759,36.1601116282734],[-86.571112594998,36.1597180968746],[-86.5713260031497,36.1597189911465],[-86.5713234665864,36.1601172524858],[-86.5712819351223,36.1601215002374],[-86.5712400909889,36.1601224553599],[-86.571198330884,36.1601201069627],[-86.5711100866759,36.1601116282734]]]},"properties":{"id":"32045","parcel":"098060A19600CO","address":"2104 BLUEJAY CT","owner":"LEDBETTER, LINDSAY KRISTINE & CHRISTOPHER L.","point":[-86.57121804538839,36.15991530976437]}},{"type":"Feature","id":"33141","geometry":{"type":"Polygon","coordinates":[[[-86.5703360584863,36.1598420337826],[-86.5703368715423,36.1597148427253],[-86.5706959394162,36.1597163501786],[-86.5706936729089,36.1600716193472],[-86.5705050954403,36.1600535007165],[-86.5704916360863,36.1600512985801],[-86.5704787922093,36.1600473622179],[-86.5704669035211,36.1600417936689],[-86.5704562789457,36.160034741082],[-86.5704471998814,36.1600263887862],[-86.5704399035246,36.1600169564689],[-86.5704345839288,36.1600066919599],[-86.5704313797409,36.1599958658829],[-86.5704303741301,36.1599847617406],[-86.5704284874457,36.1599607061914],[-86.5704223974338,36.1599371130264],[-86.5704122298069,36.159914462922],[-86.5703981912705,36.1598932172453],[-86.5703805650056,36.1598738081614],[-86.5703597139383,36.1598566296052],[-86.5703360584863,36.1598420337826]]]},"properties":{"id":"33141","parcel":"098060A19900CO","address":"2116 BLUEJAY CT","owner":"MASSEY, SOPHIA R.","point":[-86.5705421220594,36.15988406061144]}},{"type":"Feature","id":"33144","geometry":{"type":"Polygon","coordinates":[[[-86.5721276557487,36.1597080762346],[-86.5723006422499,36.159707105534],[-86.5723006962061,36.1597071899963],[-86.572328458756,36.1597504728061],[-86.5723284022391,36.1597504956055],[-86.5718743130218,36.1599413326908],[-86.571828690226,36.1598699457831],[-86.5718162493035,36.1598482087245],[-86.5718061921527,36.1598256744739],[-86.5717985944797,36.1598025157148],[-86.5717887228545,36.1597660859006],[-86.5717801707454,36.1597404928597],[-86.5717686135454,36.1597156882353],[-86.5717657678937,36.1597099147441],[-86.5721276557487,36.1597080762346]]]},"properties":{"id":"33144","parcel":"098060A21200CO","address":"1605 ROBINDALE DR","owner":"O.I.C. BRIDGEWATER","point":[-86.57198815201214,36.15981475921129]}},{"type":"Feature","id":"33536","geometry":{"type":"Polygon","coordinates":[[[-86.5709069573666,36.1600921127857],[-86.5709093475585,36.1597172451872],[-86.571112594998,36.1597180968746],[-86.5711100866759,36.1601116282734],[-86.5709069573666,36.1600921127857]]]},"properties":{"id":"33536","parcel":"098060A19700CO","address":"2108 BLUEJAY CT","owner":"EATON, RUSSELL L. & DEBORAH A.","point":[-86.57100977639435,36.15990510487873]}},{"type":"Feature","id":"33737","geometry":{"type":"Polygon","coordinates":[[[-86.5713260031497,36.1597189911465],[-86.5715149264631,36.1597197810861],[-86.5715430230234,36.1597777115279],[-86.5715596164238,36.159804284923],[-86.5715796602312,36.1598292458475],[-86.5716029189261,36.159852298902],[-86.5716277184331,36.1598743271345],[-86.5716475616907,36.1598936588436],[-86.5716550592766,36.1599032361394],[-86.5716605103771,36.1599136838291],[-86.5716637662273,36.1599247160178],[-86.5716647390896,36.1599360330026],[-86.5716634000573,36.159947324888],[-86.5716597880361,36.159958284161],[-86.5716539986763,36.1599686120522],[-86.571646193316,36.1599780257035],[-86.5716365823878,36.159986269062],[-86.571625429898,36.159993117365],[-86.5714794358345,36.1600682345894],[-86.5714428541801,36.1600850819658],[-86.5714044183583,36.1600989504422],[-86.5713644941888,36.1601097085041],[-86.5713234665864,36.1601172524858],[-86.5713260031497,36.1597189911465]]]},"properties":{"id":"33737","parcel":"098060A19500CO","address":"2100 BLUEJAY CT","owner":"FERNAU, DEBORAH M. & KANE E.","point":[-86.5714934369972,36.159918596341484]}},{"type":"Feature","id":"33738","geometry":{"type":"Polygon","coordinates":[[[-86.5706936729089,36.1600716193472],[-86.5706959394162,36.1597163501786],[-86.5709093475585,36.1597172451872],[-86.5709069573666,36.1600921127857],[-86.5706936729089,36.1600716193472]]]},"properties":{"id":"33738","parcel":"098060A19800CO","address":"2112 BLUEJAY CT","owner":"LOEBBAKA, BRANDON CHARLES & DUFFY, ERIN MARGARET","point":[-86.57080151055663,36.1598944323203]}},{"type":"Feature","id":"64658","geometry":{"type":"Polygon","coordinates":[[[-86.5743680614932,36.1541910847424],[-86.5743582850112,36.1541896757407],[-86.5752553540053,36.1542258441251],[-86.5750447944164,36.1557198428757],[-86.5747294528167,36.1579571979328],[-86.5745638256823,36.1579243083832],[-86.5747883097399,36.1563316249148],[-86.5745733065585,36.1559383050047],[-86.5746694752298,36.1552559991436],[-86.5742264865023,36.1552149339456],[-86.5743680614932,36.1541910847424]]]},"properties":{"id":"64658","parcel":"09800020700","address":"5185 JOHN HAGAR RD","owner":"BATTISTA, DANA & KENNEY, MIRANDA B.","point":[-86.57483347099297,36.156135507133584]}}]}