{"type":"FeatureCollection","features":[{"type":"Feature","id":"287133","geometry":{"type":"Polygon","coordinates":[[[-86.5260752768877,36.1381444310527],[-86.5264966831688,36.1378041571011],[-86.5267324420178,36.1378119180648],[-86.5270165855817,36.1361294851253],[-86.5270422267691,36.1359833887352],[-86.529282532019,36.136312924972],[-86.5292818047969,36.1348426708104],[-86.530326921743,36.1326317207706],[-86.5305748710513,36.1320948395753],[-86.5321541162677,36.1321491886179],[-86.5311994041376,36.1285576658423],[-86.5335239330508,36.1272290055872],[-86.535627536206,36.1274482387208],[-86.5358093554904,36.1274628897625],[-86.5359906962619,36.1274810314456],[-86.5361714562613,36.1275026525102],[-86.5363515354505,36.1275277416875],[-86.5365308304343,36.1275562841189],[-86.5367092411371,36.1275882631292],[-86.5368866686004,36.1276236629399],[-86.537063013828,36.1276624623658],[-86.5372381755892,36.1277046384296],[-86.5374120571086,36.1277501699374],[-86.537897954868,36.1278974445988],[-86.537968311421,36.1278861426718],[-86.5380361967035,36.1279100136003],[-86.5380182822168,36.1279301177584],[-86.5379971970335,36.1279480856405],[-86.5379744360838,36.1279625451649],[-86.5379494686771,36.1279743666134],[-86.5379227554852,36.1279833307262],[-86.5378947897759,36.1279892739767],[-86.5378660885012,36.1279920850064],[-86.5376358969417,36.1280019020288],[-86.5375561420505,36.1280088420694],[-86.5374761457535,36.1280136020764],[-86.5374416314739,36.1280173266477],[-86.5374088466747,36.1280262636196],[-86.5373784638108,36.1280401342116],[-86.537351834846,36.128058108649],[-86.5373299740478,36.1280801824167],[-86.5373135497825,36.1281049790156],[-86.537302896059,36.1281319480911],[-86.5372990230384,36.1281599847035],[-86.5373015822523,36.1281879935688],[-86.5373105703426,36.1282151491445],[-86.5373259839687,36.1282406285913],[-86.5373437237894,36.1282811866178],[-86.5373579945973,36.1283226370222],[-86.5373687261803,36.1283647836433],[-86.5373758705264,36.1284074275168],[-86.5373895591841,36.1284285182781],[-86.5373964894213,36.1284518373243],[-86.5373966511863,36.1284757362917],[-86.5373896981985,36.1284991171821],[-86.5373762969658,36.1285203295168],[-86.5373571165959,36.1285382707727],[-86.5373328291773,36.1285521141993],[-86.5373054621248,36.1285610261083],[-86.5372763618714,36.128564177648],[-86.537233226053,36.128561627209],[-86.5371899869904,36.1285623713298],[-86.5371470234613,36.128566402015],[-86.5370994379025,36.1285741457368],[-86.5370526721987,36.1285846779021],[-86.537025660301,36.1285963361164],[-86.5370027429988,36.1286123706555],[-86.5369842513365,36.1286319571952],[-86.5369715369219,36.1286545390497],[-86.5369649263444,36.1286784681601],[-86.5369647547179,36.1287031923641],[-86.5369710127653,36.1287273390801],[-86.5369836941606,36.1287498078934],[-86.5370017738788,36.1287695065279],[-86.5370193727951,36.1287992590832],[-86.5370406236514,36.1288273974399],[-86.5370653056096,36.1288536287674],[-86.5370931601808,36.1288776784281],[-86.5371238957056,36.1288992953649],[-86.5371571918097,36.128918253884],[-86.5371907728822,36.1289266203866],[-86.5372226787663,36.1289382911589],[-86.5372522496563,36.1289534457879],[-86.5372795715169,36.1289711609997],[-86.5373043095935,36.1289912201808],[-86.5373254582898,36.12901392613],[-86.5373432309269,36.1290382964237],[-86.5373565929116,36.129064617767],[-86.5373662979335,36.1290919729237],[-86.5373722281952,36.1291200289523],[-86.5373734362208,36.1291483205157],[-86.5373702382501,36.1291766271986],[-86.5373830467735,36.1292414862913],[-86.5373988419928,36.129305910286],[-86.537417602197,36.1293698091524],[-86.5374329849233,36.1294304028097],[-86.5374509297562,36.1294905308137],[-86.5374599758326,36.1295032469836],[-86.5374664655944,36.1295169524116],[-86.5374702390115,36.1295313116401],[-86.5374712070437,36.1295459726722],[-86.5374693428083,36.1295605751229],[-86.5374646927874,36.1295747645887],[-86.5374573712612,36.1295881908702],[-86.5374475571032,36.129600526913],[-86.5374354915651,36.1296114697188],[-86.5374047733798,36.129634977201],[-86.5373715338263,36.129656105758],[-86.5373360505748,36.1296746802073],[-86.5372986214153,36.1296905433023],[-86.5372595609737,36.1297035629569],[-86.5372191962495,36.1297136295619],[-86.5371778666341,36.1297206586887],[-86.5371359161398,36.1297245920251],[-86.5370936989366,36.1297253946471],[-86.5370515682907,36.1297230622778],[-86.537016567942,36.1297181097281],[-86.536981089537,36.1297165561546],[-86.5369456353937,36.1297184254579],[-86.536910704144,36.1297236892819],[-86.5369013661211,36.1297422130313],[-86.5368953625791,36.1297616241039],[-86.5368928164057,36.1297815299041],[-86.5368937770936,36.1298015273475],[-86.5368982263557,36.1298212118485],[-86.53690607373,36.1298401845501],[-86.5369030464373,36.129874865986],[-86.5369037025946,36.1299096301674],[-86.5369080393589,36.129944220247],[-86.5369160238914,36.1299783795108],[-86.536927596727,36.1300118567706],[-86.5369426717495,36.130044402759],[-86.536948326334,36.1300915028023],[-86.5369513289869,36.1301387633564],[-86.5369516756942,36.1301860843993],[-86.5369493646939,36.1302333704051],[-86.5369495579074,36.1302619386621],[-86.5369446751895,36.1302905295108],[-86.5369350412791,36.1303180428667],[-86.5369209953746,36.1303442023336],[-86.5369021978844,36.1303687345366],[-86.5368793209212,36.1303908136298],[-86.5368533750534,36.1304098835412],[-86.5368240225583,36.130425946673],[-86.5367922762476,36.1304384496475],[-86.5367584771869,36.1304473909453],[-86.5367297711386,36.1304593288037],[-86.5367034633566,36.1304748312936],[-86.5366802236873,36.130493065374],[-86.5366610608881,36.1305140283617],[-86.5366459808791,36.1305374453474],[-86.5366349728855,36.1305622150379],[-86.5366290508836,36.1305877912653],[-86.5366282137187,36.1306141668255],[-86.5366321118078,36.1306402464373],[-86.5366407503334,36.1306654812085],[-86.5366289631926,36.1307342530866],[-86.5366144962665,36.1308026880936],[-86.5365973613001,36.130870716779],[-86.536577577815,36.1309382696576],[-86.5365509678998,36.1310027967121],[-86.5365270233951,36.1310680076801],[-86.5365057727047,36.1311338303359],[-86.5364872397765,36.1312001906709],[-86.5364875450403,36.1312322120591],[-86.5364838486517,36.1312640926199],[-86.5364761861679,36.1312955050368],[-86.5364646387266,36.1313261262963],[-86.5364493241705,36.1313556395303],[-86.536430400435,36.1313837421122],[-86.5364080633084,36.1314101429635],[-86.5363798662702,36.1314384453905],[-86.5363546722211,36.1314685532067],[-86.5363326541782,36.1315002574534],[-86.5363139661999,36.1315333384406],[-86.5362987356155,36.1315675666833],[-86.5362870719185,36.1316027037628],[-86.5362790534714,36.1316385077937],[-86.536274736357,36.1316747279765],[-86.5362706942376,36.1318283056711],[-86.5362671888126,36.1319110075346],[-86.5362672613321,36.131948717816],[-86.5362629353868,36.1319862655936],[-86.536254248677,36.1320233118247],[-86.5362412789465,36.1320595244985],[-86.5362241439962,36.1320945804382],[-86.5362029961105,36.1321281626224],[-86.5361780265805,36.132159971881],[-86.5361494590024,36.132189721518],[-86.5361175482147,36.1322171445262],[-86.5360884661163,36.1322426046254],[-86.5360621321157,36.1322699613793],[-86.536038734895,36.1322990219825],[-86.5360184396972,36.132329577511],[-86.5360013906208,36.132361413727],[-86.5359877105593,36.1323943020668],[-86.5359774957007,36.1324280077759],[-86.5359708188725,36.1324622916975],[-86.5359677273255,36.1324969111827],[-86.5359701830331,36.1325244482421],[-86.5359699938899,36.1325520556332],[-86.5359671587797,36.1325795684302],[-86.535961696572,36.1326068198155],[-86.5359513882079,36.132638529641],[-86.5359376798855,36.1326693812463],[-86.5359206799763,36.1326991353145],[-86.5359005191273,36.132727560541],[-86.5358773536114,36.1327544363221],[-86.5358733032957,36.1327790290173],[-86.5358658185377,36.132803086296],[-86.535854996083,36.1328262922865],[-86.5358409772086,36.1328483444374],[-86.5358239466115,36.1328689535238],[-86.5358148699969,36.132892884482],[-86.5358025526394,36.1329158438517],[-86.5357871503505,36.1329375425363],[-86.5357688568437,36.1329577101971],[-86.5357478981614,36.1329760925745],[-86.5357245405126,36.1329924604657],[-86.5356941235706,36.1330011115508],[-86.5356657590118,36.1330135991992],[-86.5356401337916,36.1330296454776],[-86.5356179119095,36.1330486985714],[-86.5356001136271,36.1330704799693],[-86.5355863885965,36.1330944396564],[-86.5355777526427,36.1331194762893],[-86.5355742035301,36.1331455871751],[-86.5355757357428,36.1331719539931],[-86.5355896008379,36.1332237582466],[-86.5356074646098,36.1332747507343],[-86.5356292556928,36.1333247271848],[-86.535632158151,36.1333532833908],[-86.5356311702727,36.1333855331146],[-86.5356258130267,36.1334174985118],[-86.5356161482311,36.1334487917646],[-86.5356022955186,36.1334790311073],[-86.5355844223926,36.1335078489814],[-86.5355627464739,36.1335348956309],[-86.5355375310754,36.1335598418257],[-86.535509083016,36.1335823842791],[-86.5354913746606,36.1336063192732],[-86.5354704657396,36.1336284902809],[-86.5354466221241,36.1336486176307],[-86.5354201443029,36.1336664476341],[-86.5353913662845,36.1336817543931],[-86.5353606533992,36.133694343415],[-86.5353283912251,36.1337040570691],[-86.5352746756002,36.1337227541411],[-86.5352228224139,36.1337446378987],[-86.5351731174911,36.1337695872085],[-86.5351258354387,36.1337974647646],[-86.5350812385222,36.1338281152907],[-86.5350395733634,36.1338613700617],[-86.5350073507263,36.1338913095634],[-86.5349727471974,36.1339194471769],[-86.5349359152569,36.13394565785],[-86.5348970196671,36.1339698254886],[-86.5348562297021,36.1339918438929],[-86.5348231352131,36.1340073345809],[-86.5347920218655,36.1340253255896],[-86.5347631763025,36.1340456516204],[-86.5347368639138,36.1340681258388],[-86.534713326619,36.1340925407853],[-86.5346927806764,36.1341186728915],[-86.5346754144488,36.1341462806873],[-86.5346613895627,36.1341751120059],[-86.534651746991,36.134201526547],[-86.5346319532476,36.1342247000724],[-86.534608719302,36.1342456672295],[-86.534582416218,36.1342640947078],[-86.5345534619963,36.134279689546],[-86.5345223171545,36.1342922027563],[-86.5344442134464,36.1343252321092],[-86.5343649291685,36.1343563595711],[-86.5342845385746,36.1343855568716],[-86.5341760211522,36.134444197587],[-86.5340658721955,36.1345008022661],[-86.5340420255301,36.1345109884328],[-86.5340205244135,36.1345241690177],[-86.5340019331377,36.1345399963412],[-86.5339867422146,36.1345580554561],[-86.5339753517415,36.1345778687268],[-86.5339680626457,36.134598915696],[-86.5339650645241,36.1346206421511],[-86.5339664379741,36.1346424763359],[-86.5339721469064,36.1346638425041],[-86.5340010506117,36.1346803419441],[-86.5340318390415,36.1346944203582],[-86.5340642068065,36.1347059348953],[-86.5340978287247,36.1347147734346],[-86.5341323697598,36.1347208455297],[-86.5341674861873,36.1347240905148],[-86.5342028267051,36.1347244774994],[-86.5342380379652,36.134722001739],[-86.5343057519317,36.1347075025049],[-86.5343743839896,36.1346961977422],[-86.5344437077553,36.1346881263055],[-86.5344635043375,36.1346905990919],[-86.53448254603,36.1346956393077],[-86.5345003308577,36.1347031139877],[-86.5345163897328,36.1347128242297],[-86.5345302987477,36.1347245159541],[-86.534541691397,36.1347378798504],[-86.5345502664327,36.1347525630584],[-86.5345557990417,36.1347681790325],[-86.5345581409003,36.1347843156525],[-86.5345459786166,36.1348168726247],[-86.5345301227083,36.1348483662492],[-86.5345107101978,36.1348785210328],[-86.5344879115237,36.1349070739516],[-86.5344619261028,36.1349337753724],[-86.5344329801266,36.1349583917657],[-86.5344013276906,36.1349807084051],[-86.534367244134,36.1350005302977],[-86.5342887919559,36.135066584194],[-86.5342079222501,36.1351306939065],[-86.5341247112708,36.1351927987086],[-86.5340778714747,36.1352031939212],[-86.5340321769049,36.1352165239602],[-86.5339879047782,36.1352327082887],[-86.5339453255249,36.1352516483752],[-86.5339047005667,36.1352732277033],[-86.53386627678,36.1352973144995],[-86.5338302898349,36.1353237626201],[-86.5337818316231,36.1353487743197],[-86.5337312784579,36.1353708896017],[-86.5336788906578,36.1353899919508],[-86.5336249431127,36.1354059837136],[-86.5335813704705,36.1354363407322],[-86.5335357093967,36.1354646061308],[-86.533488111473,36.1354906855057],[-86.5334387372184,36.1355144916239],[-86.5333929067619,36.1355433579562],[-86.5333449582962,36.1355698642186],[-86.5332950789204,36.1355939104429],[-86.5332434580115,36.1356154047624],[-86.5331902949946,36.1356342624763],[-86.5331253308514,36.1356578363398],[-86.5330622185604,36.135684517645],[-86.5330011863644,36.1357142125566],[-86.5329716793302,36.1357334811849],[-86.5329445266552,36.1357549069383],[-86.5329199670563,36.1357783004006],[-86.5328982135892,36.1358034560459],[-86.5328794614369,36.1358301540072],[-86.5328638723438,36.1358581583425],[-86.5328515835516,36.1358872242052],[-86.5328427044486,36.1359170951549],[-86.5328283028693,36.1359505351522],[-86.532818157888,36.1359849873916],[-86.5328123704525,36.1360200963316],[-86.5328110036997,36.1360555011898],[-86.5328140696172,36.1360908351002],[-86.5328116906273,36.136178874455],[-86.5328132193326,36.1362669253908],[-86.5328176906503,36.1363000909681],[-86.5328255756824,36.1363328359016],[-86.5328368184317,36.1363649279127],[-86.5328513385121,36.1363961429417],[-86.5328734980897,36.1364200411395],[-86.5328919112966,36.1364459467653],[-86.5329063055592,36.1364734752852],[-86.5329164670365,36.1365022193739],[-86.5329222473108,36.1365317524906],[-86.5329235567758,36.1365616370188],[-86.5329203802167,36.1365914278032],[-86.532901281098,36.1366205886372],[-86.5328856017674,36.1366510619206],[-86.5328734793478,36.1366825847822],[-86.5328650175647,36.136714884584],[-86.532860291209,36.1367476816058],[-86.5328593383893,36.1367806935852],[-86.5328623770042,36.1368068212308],[-86.532861753157,36.1368330605853],[-86.5328574745808,36.1368590745432],[-86.532849597913,36.1368845284861],[-86.5328382220715,36.1369090966213],[-86.5328234949334,36.1369324637549],[-86.5328056044826,36.1369543307382],[-86.5327847799276,36.1369744153644],[-86.5327769143421,36.13700367798],[-86.5327717001549,36.1370333272441],[-86.5327691640928,36.1370632062194],[-86.5327693206489,36.1370931562205],[-86.5327717911702,36.1371079791593],[-86.5327789933082,36.1371214076828],[-86.5327909215366,36.1371326180622],[-86.5328062159562,36.1371407916484],[-86.532823516672,36.1371451106934],[-86.5328418033845,36.1371450299335],[-86.532859384701,36.1371408317228],[-86.5328749092097,36.1371327969148],[-86.532886686248,36.1371214818453],[-86.5328940465518,36.1371079863055],[-86.5329212992763,36.1370755737643],[-86.5329452307889,36.1370414797147],[-86.5329656825904,36.137005926569],[-86.5329825195811,36.1369691465498],[-86.5329827997154,36.1369582454661],[-86.5329852487725,36.136947524967],[-86.5329898030876,36.1369372665268],[-86.5329963444828,36.1369277410457],[-86.5330046990948,36.1369191998419],[-86.5330146462092,36.1369118665014],[-86.533020624741,36.1369027400602],[-86.5330283771975,36.1368945376851],[-86.5330376906541,36.1368874847304],[-86.5330483097488,36.1368817742924],[-86.5330603077529,36.1368783902238],[-86.5330728290152,36.1368766522479],[-86.5330855316381,36.136876606938],[-86.5330980711989,36.1368782558161],[-86.5331098566887,36.1368822729329],[-86.5331206228043,36.1368878672527],[-86.5331300484401,36.1368948725603],[-86.5331378588875,36.1369030827798],[-86.5331447133234,36.136915687264],[-86.5331587081993,36.1369589958863],[-86.5331761773611,36.1370014672034],[-86.533197046238,36.1370429158837],[-86.5332013127606,36.1370801335125],[-86.533209721585,36.1371168840065],[-86.5332222040204,36.1371528648447],[-86.5332386580797,36.1371877790608],[-86.5332432396578,36.1372149949069],[-86.5332508392599,36.1372417630061],[-86.5332613942981,36.1372678628256],[-86.5332748200053,36.1372930802393],[-86.5332910038867,36.1373172084536],[-86.5332903352721,36.1373541297457],[-86.5332928539923,36.1373909972935],[-86.5332985455204,36.1374276327117],[-86.5333073819786,36.1374638549695],[-86.5333193210694,36.1374994867049],[-86.533309443475,36.1376423747508],[-86.5333081957903,36.1376850549502],[-86.5333039617623,36.137727608654],[-86.5332967537987,36.1377698988154],[-86.5332880199146,36.1378232127283],[-86.5332757196333,36.1378760620314],[-86.5332598885536,36.1379282888455],[-86.5332337563981,36.1379780151231],[-86.5332105972743,36.1380287016165],[-86.5331904670762,36.1380802327191],[-86.5331314900415,36.1381162625598],[-86.5330748053297,36.1381546372363],[-86.5330205545135,36.1381952605929],[-86.5329812413974,36.1382355827092],[-86.5329390004329,36.1382739079343],[-86.5328939884582,36.1383100967785],[-86.5328373680529,36.1383542823829],[-86.5327835146722,36.138400688163],[-86.5327398733105,36.1384580189678],[-86.5327341600021,36.138464635111],[-86.5284578853426,36.138010676794],[-86.5278494255474,36.1407782414008],[-86.5260535945886,36.1396257326282],[-86.5255641869525,36.1385466286032],[-86.5260752768877,36.1381444310527]]]},"properties":{"id":"287133","parcel":"90000000487","address":null,"owner":null,"point":[-86.53224473158922,36.134006349106045]}},{"type":"Feature","id":"287139","geometry":{"type":"Polygon","coordinates":[[[-86.5331278354714,36.1364190950887],[-86.5331301560542,36.1363695614559],[-86.5331352985803,36.1363201685668],[-86.5331393319778,36.1363058080794],[-86.5331404098657,36.1362911064564],[-86.5331385015716,36.1362764594869],[-86.5331336597629,36.1362622643943],[-86.5331260147943,36.1362489054404],[-86.53311577353,36.1362367440176],[-86.5331078763381,36.1361947594295],[-86.533102788245,36.1361524911486],[-86.5331005233958,36.1361100607831],[-86.5331010881823,36.13606759358],[-86.5330911626189,36.1360519771281],[-86.5330852942214,36.1360349710299],[-86.5330841625322,36.1360176700191],[-86.5330874308939,36.1360000737809],[-86.5330931003616,36.135987787076],[-86.5331008671926,36.1359762797068],[-86.5331105718543,36.1359657858042],[-86.5331220191163,36.1359565180267],[-86.5331399032342,36.1359468243483],[-86.5331601793081,36.1359404160079],[-86.5331814948474,36.1359375747673],[-86.5332407399674,36.1359213552068],[-86.5333012639257,36.1359086133375],[-86.5333627560654,36.1358994136194],[-86.5333924461481,36.1358943299337],[-86.5334226938912,36.1358923747555],[-86.5334530028804,36.1358935818234],[-86.5334828685546,36.1358979299357],[-86.5335118026851,36.1359053482496],[-86.5335492510519,36.1359071699268],[-86.533586345604,36.1359117275829],[-86.5336227805398,36.1359189820138],[-86.5336582588121,36.1359288741497],[-86.533676900095,36.1359260464529],[-86.5336958510372,36.1359254840545],[-86.5337146961697,36.1359271969039],[-86.533733023054,36.1359311498738],[-86.5337504288928,36.1359372546204],[-86.5337702613845,36.1359463471237],[-86.5337878849083,36.1359580567447],[-86.5338027782869,36.1359720397061],[-86.5338145043258,36.1359878842645],[-86.5338227154351,36.1360051205993],[-86.5338271715574,36.1360232432648],[-86.5338277390939,36.1360417166021],[-86.5338244032774,36.1360599972163],[-86.5338196434382,36.1360872543808],[-86.5338108514994,36.1361138444265],[-86.5337981592682,36.1361393765236],[-86.533781751985,36.1361634749268],[-86.5337736833216,36.1361832887939],[-86.5337693962853,36.1362038637181],[-86.5337689888137,36.1362247279071],[-86.5337724699136,36.1362454027515],[-86.5337797597394,36.1362654145412],[-86.5337906918749,36.1362843034673],[-86.5337916110248,36.1363033502523],[-86.5337960644841,36.1363220668602],[-86.5338039482603,36.1363400238493],[-86.5338150807095,36.1363568101465],[-86.5338292103673,36.1363720411238],[-86.5338326854663,36.1363852111936],[-86.5338371442036,36.1363923186357],[-86.5338428033956,36.1363988394527],[-86.5338495477148,36.1364046416694],[-86.5338572408211,36.1364096078239],[-86.5338657264722,36.1364136349621],[-86.5338751470459,36.1364160861638],[-86.5338849034026,36.1364174165131],[-86.5338947942445,36.1364175971588],[-86.533904613999,36.1364166245045],[-86.5339141605906,36.1364145192721],[-86.5339286741572,36.1364078623212],[-86.5339401283342,36.1363984709637],[-86.5339485168323,36.1363868968],[-86.5339661292885,36.1363655572087],[-86.5339804546964,36.1363426567588],[-86.5339912875192,36.136318527124],[-86.5339984712216,36.1362935168846],[-86.5340019015787,36.1362679879083],[-86.534014487681,36.136218426843],[-86.5340249928248,36.1361685478289],[-86.5340334062916,36.1361184085945],[-86.5340434893498,36.1360062849597],[-86.5340456337738,36.1359821820594],[-86.5340434883775,36.1359580783198],[-86.5340370998657,36.1359344746349],[-86.5340265981974,36.135911860715],[-86.5340195190509,36.135894763585],[-86.5340158717538,36.1358769726149],[-86.5340157504455,36.1358589389203],[-86.534019158173,36.1358411158218],[-86.5340260068852,36.1358239579444],[-86.5340309038263,36.1358000825952],[-86.53403929608,36.1357768560034],[-86.5340510647968,36.1357546139634],[-86.5340660377014,36.1357336780857],[-86.5340741822593,36.135700885702],[-86.5340848154247,36.1356685653768],[-86.5340978969175,36.1356368407607],[-86.5341146546198,36.1356139935118],[-86.5341350123492,36.135593159061],[-86.5341586081746,36.1355747085259],[-86.534185022102,36.1355589700207],[-86.5342137838212,36.1355462241158],[-86.5342325122878,36.1355284656559],[-86.5342541987963,36.1355130806335],[-86.5342916271922,36.135500238651],[-86.5343273900414,36.1354845812834],[-86.5343611638506,36.1354662478581],[-86.5343926475236,36.1354454037399],[-86.5344215578876,36.1354222358445],[-86.5344526841419,36.135414320081],[-86.5344826140057,36.1354037968538],[-86.5345110160576,36.1353907829933],[-86.5345375779404,36.1353754213824],[-86.5345620030399,36.1353578827738],[-86.5345866410757,36.1353397934474],[-86.5346138633287,36.1353243315572],[-86.5346432436594,36.1353117369228],[-86.5346743289616,36.1353022044206],[-86.5347066336068,36.1352958840085],[-86.5347396571597,36.1352928716348],[-86.5347728855378,36.135293216443],[-86.5348233260457,36.1352981327469],[-86.5348730601243,36.1353065409434],[-86.5349217218231,36.1353183786662],[-86.5349795232176,36.1353373282508],[-86.5350360705347,36.1353586266481],[-86.5350912156236,36.1353822168361],[-86.5351448192215,36.1354080417538],[-86.5352324972669,36.135447298394],[-86.535318751354,36.1354885810147],[-86.5354107415947,36.1355205902779],[-86.5355034011126,36.1355514978632],[-86.5355264124599,36.1355706394511],[-86.5355518967374,36.1355875962155],[-86.5355795381082,36.1356021595634],[-86.5356089964983,36.1356141516518],[-86.5356399120291,36.1356234235667],[-86.5356719017331,36.1356298625472],[-86.5357123165533,36.1356437040199],[-86.5357512498387,36.1356601044294],[-86.5357884553379,36.1356789585218],[-86.5358237000455,36.1357001483671],[-86.5358567597345,36.1357235397738],[-86.5358928221093,36.135751626022],[-86.5359318436942,36.1357769782071],[-86.5359735086679,36.1357993904394],[-86.5360174824965,36.1358186830488],[-86.5360634108169,36.1358347016893],[-86.5361534977322,36.1358817302473],[-86.536245546208,36.1359261904382],[-86.5362976350043,36.1359704271292],[-86.5363521427338,36.1360127036163],[-86.5364089554743,36.1360529320793],[-86.5364475905508,36.1360771078673],[-86.5364883349024,36.1360988841194],[-86.5365309643933,36.1361181410614],[-86.5365752416403,36.1361347715955],[-86.5366209226901,36.1361486830739],[-86.5366606095559,36.136169661849],[-86.5366988513089,36.1361923378051],[-86.5367355386242,36.1362166456379],[-86.5367705643682,36.1362425155271],[-86.5368348406192,36.1362783214424],[-86.5369010351967,36.1363117466677],[-86.5369690165379,36.136342724191],[-86.537009702141,36.1363869815821],[-86.5370533824692,36.1364293194618],[-86.5370999177422,36.1364696050625],[-86.5371364944004,36.1365126621971],[-86.5371702734212,36.1365571972265],[-86.5371805795727,36.1365678484061],[-86.537192992614,36.1365769012809],[-86.5372071407338,36.1365840862262],[-86.5372226036001,36.1365891879092],[-86.5372389179711,36.1365920533752],[-86.5373152203352,36.1366576426267],[-86.5373649872996,36.1366974982502],[-86.5374159949779,36.1367363091727],[-86.5358187817196,36.1385259723445],[-86.5335526989201,36.1374595023911],[-86.5335385645396,36.1373799421307],[-86.5335211809103,36.1373008072102],[-86.5335168237773,36.1372703007812],[-86.5335081764033,36.1372404018461],[-86.5334953525689,36.1372115073569],[-86.5334785226139,36.1371839986934],[-86.5334579078707,36.1371582398863],[-86.5334394379298,36.1371145184809],[-86.5334221003759,36.1370704928473],[-86.5334121819219,36.1370195839279],[-86.5334064105407,36.1369682565129],[-86.5334048110461,36.1369167322033],[-86.5333840600902,36.1368926800708],[-86.5333656674627,36.1368673963008],[-86.5333497452898,36.1368410327118],[-86.5333363879687,36.1368137484107],[-86.5333282139996,36.1367626758518],[-86.5333161202938,36.1367121172131],[-86.5333001537492,36.1366622714647],[-86.5332950882791,36.1366589501777],[-86.5332907198736,36.1366550300762],[-86.5332871558402,36.1366506071206],[-86.5332844835603,36.1366457881748],[-86.5332827660511,36.1366406919268],[-86.5332820463494,36.1366354398566],[-86.5332823419922,36.1366301616683],[-86.5332836449448,36.136624984475],[-86.5332767597983,36.1366097926139],[-86.5332675226303,36.1365954448144],[-86.5332560850484,36.1365821810425],[-86.5332426385299,36.1365702221615],[-86.5332162361738,36.136549218706],[-86.5331924682267,36.1365262370514],[-86.5331715627986,36.136501493395],[-86.5331537147822,36.1364752212049],[-86.5331390936125,36.1364476684815],[-86.5331278354714,36.1364190950887]]]},"properties":{"id":"287139","parcel":"90000000501","address":null,"owner":null,"point":[-86.53532339391703,36.13691220527358]}}]}