{"type":"FeatureCollection","features":[{"type":"Feature","id":"54521","geometry":{"type":"Polygon","coordinates":[[[-86.5759266636891,36.0544814536668],[-86.5761421848458,36.0533903463297],[-86.5764686590326,36.0534621747496],[-86.5767967765064,36.0535361466823],[-86.5765914164555,36.0545576502033],[-86.5759266636891,36.0544814536668]]]},"properties":{"id":"54521","parcel":"16500013100","address":"0 HAMILTON CHURCH RD","owner":"TIDWELL, RANDALL DAVID","point":[-86.57636088926864,36.05400879805487]}},{"type":"Feature","id":"270806","geometry":{"type":"Polygon","coordinates":[[[-86.5744540830355,36.0538501743215],[-86.5747686264682,36.0530657558765],[-86.5753326555737,36.0532034491778],[-86.5754864444317,36.0532409923584],[-86.5752567569116,36.0544037639165],[-86.5742775248058,36.0542910960362],[-86.5744540830355,36.0538501743215]]]},"properties":{"id":"270806","parcel":"16500001700","address":"3883 HAMILTON CHURCH RD","owner":"CRUZ, BELINDA L MARTINEZ & SANDOVAL, REINIERY ENRIQUE","point":[-86.5750013697161,36.05354569474124]}},{"type":"Feature","id":"270807","geometry":{"type":"Polygon","coordinates":[[[-86.5733052689549,36.0541783978406],[-86.5733555156093,36.053745557361],[-86.5744540830355,36.0538501743215],[-86.5742775248058,36.0542910960362],[-86.5734081993512,36.0541903359391],[-86.5733052689549,36.0541783978406]]]},"properties":{"id":"270807","parcel":"16500001900","address":"3897 HAMILTON CHURCH RD","owner":"G7 INVESTMENTS, LLC - SERIES J","point":[-86.57385609699517,36.05401420365137]}},{"type":"Feature","id":"271498","geometry":{"type":"Polygon","coordinates":[[[-86.5787662920771,36.054807944854],[-86.5791353077841,36.0530100109992],[-86.5798479562888,36.0530769474779],[-86.5798348192397,36.0531409647321],[-86.5794756165475,36.0548911622649],[-86.5787662920771,36.054807944854]]]},"properties":{"id":"271498","parcel":"16500001300","address":"3831 HAMILTON CHURCH RD","owner":"WARNACK, KENNETH R & SHIRLEY M.","point":[-86.57930056129875,36.05397445607883]}},{"type":"Feature","id":"271503","geometry":{"type":"Polygon","coordinates":[[[-86.5752567569116,36.0544037639165],[-86.5754864444317,36.0532409923584],[-86.5758133207718,36.0533206987311],[-86.5755917235305,36.0544425429491],[-86.5752567569116,36.0544037639165]]]},"properties":{"id":"271503","parcel":"16500001600","address":"3877 HAMILTON CHURCH RD","owner":"VALDEZ, MARIA GUADALUPE & ZARAGOZA, DAVID VALDEZ","point":[-86.57553504102356,36.05386223168493]}},{"type":"Feature","id":"271711","geometry":{"type":"Polygon","coordinates":[[[-86.5767730965268,36.0512467971715],[-86.5768847280054,36.0511580634215],[-86.5769984106922,36.051071066429],[-86.5771141048366,36.0509858343185],[-86.5772317685016,36.0509023997314],[-86.5773513597313,36.0508207926052],[-86.5773626543449,36.0508136841617],[-86.5780171371639,36.0513237405536],[-86.5801932410462,36.0515363595012],[-86.5800422148265,36.0522102170408],[-86.5775543609427,36.051977133567],[-86.5767937870365,36.0512673032572],[-86.5767730965268,36.0512467971715]]]},"properties":{"id":"271711","parcel":"16500002300","address":"4058 LAVERGNE COUCHVILLE PIKE","owner":"GRANT, JAMES MICHAEL","point":[-86.57803263467349,36.051426284720854]}},{"type":"Feature","id":"273099","geometry":{"type":"Polygon","coordinates":[[[-86.576923101285,36.0529077715103],[-86.5770924834826,36.0524820549345],[-86.5775465493091,36.0528607677974],[-86.5772139412155,36.0546300463407],[-86.5765914164555,36.0545576502033],[-86.5767967765064,36.0535361466823],[-86.576923101285,36.0529077715103]]]},"properties":{"id":"273099","parcel":"16500001400","address":"3859 HAMILTON CHURCH RD","owner":"TIDWELL, RANDALL D","point":[-86.57700862462892,36.05404800867769]}},{"type":"Feature","id":"273996","geometry":{"type":"Polygon","coordinates":[[[-86.5747686264682,36.0530657558765],[-86.5748730093505,36.0528053086136],[-86.5749472227529,36.0527618571178],[-86.5750313401781,36.0527100313811],[-86.5751135284301,36.0526562040312],[-86.5751937168209,36.0526004231774],[-86.5752718346637,36.0525427369288],[-86.5753516341689,36.0524823297425],[-86.5757312659074,36.0528570533354],[-86.5753326555737,36.0532034491778],[-86.5747686264682,36.0530657558765]]]},"properties":{"id":"273996","parcel":"16500002000","address":"4028 LAVERGNE COUCHVILLE PIKE","owner":"ELAM, SAMUEL R.","point":[-86.57528488455412,36.052831120621875]}},{"type":"Feature","id":"274330","geometry":{"type":"Polygon","coordinates":[[[-86.5755917235305,36.0544425429491],[-86.5758133207718,36.0533206987311],[-86.5760413843047,36.0533706592806],[-86.5761421848458,36.0533903463297],[-86.5759266636891,36.0544814536668],[-86.5755917235305,36.0544425429491]]]},"properties":{"id":"274330","parcel":"16500008100","address":"3873 HAMILTON CHURCH RD","owner":"MARTINEZ, FILOTEO & VERONICA","point":[-86.5758669560598,36.05391644499078]}},{"type":"Feature","id":"274768","geometry":{"type":"Polygon","coordinates":[[[-86.5794756165475,36.0548911622649],[-86.5798348192397,36.0531409647321],[-86.5804956984105,36.0532629849294],[-86.5801455943955,36.0549689219874],[-86.5800960275655,36.054961246418],[-86.5794756165475,36.0548911622649]]]},"properties":{"id":"274768","parcel":"16500010300","address":"3823 HAMILTON CHURCH RD","owner":"SOLIMAN, AMGAD","point":[-86.5799856628984,36.054077074772735]}},{"type":"Feature","id":"275980","geometry":{"type":"Polygon","coordinates":[[[-86.5753516341689,36.0524823297425],[-86.5754365717351,36.0524143226976],[-86.5755188801415,36.052344215542],[-86.5755984799619,36.0522720753551],[-86.5756752951136,36.0521979710031],[-86.5758163462526,36.0520763713036],[-86.5761966067208,36.0524526622986],[-86.5757312659074,36.0528570533354],[-86.5753516341689,36.0524823297425]]]},"properties":{"id":"275980","parcel":"16500002100","address":"4034 LAVERGNE COUCHVILLE PIKE","owner":"G7 INVESTMENT, LLC","point":[-86.5757749156651,36.052467499579215]}},{"type":"Feature","id":"276346","geometry":{"type":"Polygon","coordinates":[[[-86.5765520544338,36.0505543228295],[-86.5766199684028,36.0504874499438],[-86.5768289910815,36.0502892221097],[-86.5771642337867,36.0500086963616],[-86.5770955956011,36.0503274093023],[-86.5773160411537,36.0506345297952],[-86.5772259480126,36.0506939268179],[-86.5771365471332,36.0507523840245],[-86.5770490922863,36.0508127515764],[-86.5769636453134,36.0508749868213],[-86.5765520544338,36.0505543228295]]]},"properties":{"id":"276346","parcel":"16500006402","address":"4065 LAVERGNE COUCHVILLE PIKE","owner":"BOONE, MICHAEL B. & MINTER, MARJORIE BETH","point":[-86.57692934881844,36.050407682428954]}},{"type":"Feature","id":"276506","geometry":{"type":"Polygon","coordinates":[[[-86.5770955956011,36.0503274093023],[-86.5771642337867,36.0500086963616],[-86.5780991984211,36.0501435289858],[-86.5774222424757,36.0505660697441],[-86.5773160411537,36.0506345297952],[-86.5770955956011,36.0503274093023]]]},"properties":{"id":"276506","parcel":"16500006400","address":"4073 LAVERGNE COUCHVILLE PIKE","owner":"GARCIA, HERIBERTO RIVERA","point":[-86.57753283609406,36.05023524271489]}},{"type":"Feature","id":"276507","geometry":{"type":"Polygon","coordinates":[[[-86.5772139412155,36.0546300463407],[-86.5775465493091,36.0528607677974],[-86.5780613759413,36.0529091318774],[-86.578226493862,36.0529246421788],[-86.5778611209075,36.0547047346899],[-86.5772139412155,36.0546300463407]]]},"properties":{"id":"276507","parcel":"16500007700","address":"3851 HAMILTON CHURCH RD","owner":"PRESLEY, JOHN D. ET UX","point":[-86.57771285363003,36.053777319467855]}},{"type":"Feature","id":"276957","geometry":{"type":"Polygon","coordinates":[[[-86.5783211769653,36.0547575368259],[-86.5786884714284,36.0529680387072],[-86.5791353077841,36.0530100109992],[-86.5787662920771,36.054807944854],[-86.5784870387882,36.0547762058089],[-86.5783211769653,36.0547575368259]]]},"properties":{"id":"276957","parcel":"16500009600","address":"3839 HAMILTON CHURCH RD","owner":"MCILLWAIN, RICKY L. & JENNIFER REBECCA","point":[-86.57872824691474,36.05388377469726]}},{"type":"Feature","id":"277047","geometry":{"type":"Polygon","coordinates":[[[-86.5781407047953,36.0503247255464],[-86.5783848523868,36.0501714374595],[-86.5804509258904,36.0504482399488],[-86.5803527872641,36.0508244805929],[-86.5779764658154,36.0504264280866],[-86.5781407047953,36.0503247255464]]]},"properties":{"id":"277047","parcel":"16500009500","address":"4074 LAVERGNE COUCHVILLE PIKE","owner":"BANOUB, NADIA & FARAG, ASHRAF MONIR","point":[-86.57980325109907,36.050634263744165]}},{"type":"Feature","id":"277049","geometry":{"type":"Polygon","coordinates":[[[-86.5778611209075,36.0547047346899],[-86.578226493862,36.0529246421788],[-86.5786884714284,36.0529680387072],[-86.5783211769653,36.0547575368259],[-86.5778611209075,36.0547047346899]]]},"properties":{"id":"277049","parcel":"16500009700","address":"3835 HAMILTON CHURCH RD","owner":"MCILLWAIN, RICKY L. & JENNIFER REBECCA","point":[-86.57827480040154,36.053836387504184]}},{"type":"Feature","id":"277903","geometry":{"type":"Polygon","coordinates":[[[-86.5791353077841,36.0530100109992],[-86.5786884714284,36.0529680387072],[-86.578226493862,36.0529246421788],[-86.5780613759413,36.0529091318774],[-86.5765154021892,36.0514654455025],[-86.5766429731861,36.0513551293445],[-86.5767730965268,36.0512467971715],[-86.5767937870365,36.0512673032572],[-86.5775543609427,36.051977133567],[-86.5800422148265,36.0522102170408],[-86.5798479562888,36.0530769474779],[-86.5791353077841,36.0530100109992]]]},"properties":{"id":"277903","parcel":"16500012700","address":"4052 LAVERGNE COUCHVILLE PIKE","owner":"CHRIST MIRACLE CHAPEL","point":[-86.5779901669693,36.052090839849896]}},{"type":"Feature","id":"277981","geometry":{"type":"Polygon","coordinates":[[[-86.5762204170574,36.0501619900629],[-86.5761478423841,36.049862002781],[-86.5762750990965,36.0498802104076],[-86.5771642337867,36.0500086963616],[-86.5768289910815,36.0502892221097],[-86.5766199684028,36.0504874499438],[-86.5765520544338,36.0505543228295],[-86.5762992837685,36.0503573903597],[-86.5762483939882,36.0502938562733],[-86.5762204170574,36.0501619900629]]]},"properties":{"id":"277981","parcel":"16500006401","address":"4069 LAVERGNE COUCHVILLE PIKE","owner":"BOONE, MICHAEL B. & MINTER, MARJORIE BETH","point":[-86.57656855663699,36.05022576136011]}},{"type":"Feature","id":"279409","geometry":{"type":"Polygon","coordinates":[[[-86.5757312659074,36.0528570533354],[-86.5761966067208,36.0524526622986],[-86.5758163462526,36.0520763713036],[-86.5760493714054,36.0518739222005],[-86.5764175738693,36.0515526978702],[-86.5765154021892,36.0514654455025],[-86.5780613759413,36.0529091318774],[-86.5775465493091,36.0528607677974],[-86.5770924834826,36.0524820549345],[-86.576923101285,36.0529077715103],[-86.5767967765064,36.0535361466823],[-86.5764686590326,36.0534621747496],[-86.5761421848458,36.0533903463297],[-86.5760413843047,36.0533706592806],[-86.5758133207718,36.0533206987311],[-86.5754864444317,36.0532409923584],[-86.5753326555737,36.0532034491778],[-86.5757312659074,36.0528570533354]]]},"properties":{"id":"279409","parcel":"16500012800","address":"4046 LAVERGNE COUCHVILLE PIKE","owner":"G7 INVESTMENT, LLC","point":[-86.57648400940853,36.05266846295053]}},{"type":"Feature","id":"281419","geometry":{"type":"Polygon","coordinates":[[[-86.5728414690637,36.0540399510384],[-86.5729194746759,36.0535978443105],[-86.5734026221848,36.0534173759228],[-86.5741232896718,36.0531481833114],[-86.5742380674456,36.0531056358758],[-86.5743512605181,36.0530603749131],[-86.5744627714921,36.0530124396472],[-86.5745725029715,36.052961869302],[-86.5746803631621,36.0529087102854],[-86.5747862569152,36.0528530054161],[-86.5748730093505,36.0528053086136],[-86.5747686264682,36.0530657558765],[-86.5744540830355,36.0538501743215],[-86.5733555156093,36.053745557361],[-86.5733052689549,36.0541783978406],[-86.5730858645067,36.0541530689254],[-86.5730462517727,36.0541449618866],[-86.5730077027382,36.0541339837036],[-86.5729705299466,36.0541202248222],[-86.572935040554,36.0541037982463],[-86.5729015196611,36.0540848369129],[-86.5728702447607,36.0540634963276],[-86.5728414690637,36.0540399510384]]]},"properties":{"id":"281419","parcel":"16500011100","address":"4026 HAMILTON CHURCH RD","owner":"TNG PROPERTIES LLC","point":[-86.57387523056758,36.05351015100062]}},{"type":"Feature","id":"281493","geometry":{"type":"Polygon","coordinates":[[[-86.5775668687023,36.0506835032627],[-86.5779764658154,36.0504264280866],[-86.5803527872641,36.0508244805929],[-86.5801932410462,36.0515363595012],[-86.5780171371639,36.0513237405536],[-86.5773626543449,36.0508136841617],[-86.5775668687023,36.0506835032627]]]},"properties":{"id":"281493","parcel":"16500012900","address":"4070 LAVERGNE COUCHVILLE PIKE","owner":"COPELAND PROPERTIES, LLC","point":[-86.57899302477918,36.05107344241552]}},{"type":"Feature","id":"286221","geometry":{"type":"Polygon","coordinates":[[[-86.5727629200822,36.0536557287472],[-86.5729194746759,36.0535978443105],[-86.5728414690637,36.0540399510384],[-86.5728155487124,36.0540131033966],[-86.5727927398193,36.0539844546224],[-86.572773230551,36.0539542408602],[-86.5727571814365,36.0539227137075],[-86.5727447275287,36.0538901320927],[-86.5727359695645,36.0538567677251],[-86.5727309805463,36.0538228942481],[-86.5727298035615,36.0537887926571],[-86.5727324461938,36.0537547459183],[-86.5727388871511,36.0537210344313],[-86.5727490729418,36.0536879369453],[-86.5727629200822,36.0536557287472]]]},"properties":{"id":"286221","parcel":"90000001186","address":null,"owner":null,"point":[-86.57280653579288,36.053806114804225]}}]}