{"type":"FeatureCollection","features":[{"type":"Feature","id":"172681","geometry":{"type":"Polygon","coordinates":[[[-86.5158648908028,36.0966910701221],[-86.516292981813,36.0936184132779],[-86.5163554173694,36.0942208096138],[-86.5164670186452,36.0954951042698],[-86.5171325150647,36.0954737301526],[-86.5172501090243,36.0965642833664],[-86.5160279157315,36.0966744111334],[-86.5158648908028,36.0966910701221]]]},"properties":{"id":"172681","parcel":"13800002800","address":"3984 COUCHVILLE PIKE","owner":"LILES, JOHN D. & LISA","point":[-86.51626614580408,36.09484534260063]}},{"type":"Feature","id":"172685","geometry":{"type":"Polygon","coordinates":[[[-86.51687859607,36.0893555038518],[-86.5181326519908,36.0901375698205],[-86.5182058008903,36.0901799405469],[-86.5182798546951,36.0902212645692],[-86.5177562780741,36.090851532678],[-86.5176767635082,36.0913357769279],[-86.5185357127895,36.091428686161],[-86.5184688987688,36.0918582493788],[-86.5191407959807,36.0918948179206],[-86.5192723340347,36.0931297486103],[-86.519401153876,36.0943391268943],[-86.5195480572829,36.0957182223355],[-86.5186508700234,36.0959021265936],[-86.5184481340943,36.0959809834284],[-86.5184063958297,36.0964856311863],[-86.5172501090243,36.0965642833664],[-86.5171325150647,36.0954737301526],[-86.5164670186452,36.0954951042698],[-86.5163554173694,36.0942208096138],[-86.516292981813,36.0936184132779],[-86.5162125082062,36.092841969615],[-86.5157350191931,36.0927019609532],[-86.51633153436,36.0916365097867],[-86.5166858655643,36.08925632128],[-86.51687859607,36.0893555038518]]]},"properties":{"id":"172685","parcel":"13800003300","address":"0 COUCHVILLE PIKE","owner":"LILES, JOHN D & LISA A","point":[-86.51774222289849,36.092985868073626]}},{"type":"Feature","id":"173962","geometry":{"type":"Polygon","coordinates":[[[-86.5172501090243,36.0965642833664],[-86.5184063958297,36.0964856311863],[-86.5187426057674,36.0996426422795],[-86.5154703490277,36.0995106872896],[-86.5158648908028,36.0966910701221],[-86.5160279157315,36.0966744111334],[-86.5172501090243,36.0965642833664]]]},"properties":{"id":"173962","parcel":"13800002700","address":"0 COUCHVILLE PIKE","owner":"LILES, JOHN D. & LISA","point":[-86.51712364170398,36.09810675541879]}}]}