{"type":"FeatureCollection","features":[{"type":"Feature","id":"266392","geometry":{"type":"Polygon","coordinates":[[[-86.5844250468675,36.0496757992913],[-86.5847898012651,36.0495476015685],[-86.5848128323812,36.0495867271538],[-86.5848382778705,36.0496248523108],[-86.5848660715468,36.0496618809221],[-86.5845913786912,36.0497994362763],[-86.5844250468675,36.0496757992913]]]},"properties":{"id":"266392","parcel":"165090A06900CO","address":"1868 LAKEWOOD VILLAGE DR","owner":"SUSTAITA, ELADIO CESPEDES & CASTRO, BRENDA A.","point":[-86.58464878066698,36.04966885147009]}},{"type":"Feature","id":"266393","geometry":{"type":"Polygon","coordinates":[[[-86.5842381440541,36.0498368625394],[-86.5844250468675,36.0496757992913],[-86.5845913786912,36.0497994362763],[-86.5847294850963,36.0499490335315],[-86.5847200118555,36.049948807307],[-86.5846986011419,36.0499486110587],[-86.5846773949374,36.0499510194228],[-86.5846568722927,36.0499559768993],[-86.5846364268482,36.0499643381424],[-86.5846179462006,36.0499753107808],[-86.5846019342477,36.0499885958491],[-86.5845888223057,36.050003834348],[-86.5842381440541,36.0498368625394]]]},"properties":{"id":"266393","parcel":"165090A07100CO","address":"1987 PORT JAMES CIR","owner":"SAVANH, ANDY & BOUANGERN","point":[-86.5845164243421,36.049892903554145]}},{"type":"Feature","id":"269493","geometry":{"type":"Polygon","coordinates":[[[-86.5845913786912,36.0497994362763],[-86.5848660715468,36.0496618809221],[-86.5848919378355,36.0496929334623],[-86.5849194552852,36.0497230361425],[-86.5849485712975,36.0497521297323],[-86.5849566237781,36.0497612368644],[-86.5849627442747,36.0497712871025],[-86.5849667676596,36.0497820117647],[-86.5849685897255,36.0497931256505],[-86.5849681616699,36.0498043315735],[-86.5849654924011,36.0498153320672],[-86.5849606552301,36.0498258338587],[-86.5849537790522,36.0498355560232],[-86.5849450462002,36.0498442399085],[-86.5849346891484,36.0498516536576],[-86.584809498899,36.0499272181924],[-86.5847914037104,36.0499365729874],[-86.5847716864263,36.0499434354923],[-86.5847508662493,36.0499476256345],[-86.5847294850963,36.0499490335315],[-86.5845913786912,36.0497994362763]]]},"properties":{"id":"269493","parcel":"165090A07000CO","address":"1872 LAKEWOOD VILLAGE DR","owner":"TAYYAR, SHIRZAD M. & HESEN, NARIN A.","point":[-86.58478331463252,36.04980919640268]}},{"type":"Feature","id":"270382","geometry":{"type":"Polygon","coordinates":[[[-86.5849726780604,36.0495391486673],[-86.5853352823604,36.0493876047772],[-86.5854499375657,36.0495222060188],[-86.585197012114,36.0496753492533],[-86.5851850803304,36.0496817233804],[-86.5851719982712,36.0496863771351],[-86.5851581378679,36.0496891771239],[-86.5851438958731,36.0496900448111],[-86.5851296771931,36.0496889538961],[-86.5851158871654,36.0496859366595],[-86.5851029182079,36.0496810795222],[-86.5850911397967,36.0496745185868],[-86.5850808885045,36.0496664432915],[-86.5850411505845,36.0496261199415],[-86.5850050203554,36.0495836177898],[-86.5849726780604,36.0495391486673]]]},"properties":{"id":"270382","parcel":"165090A09500CO","address":"1869 LAKEWOOD VILLAGE DR","owner":"MATTA, MINA & SEIF, MARY","point":[-86.58521470543022,36.049530689335384]}},{"type":"Feature","id":"270409","geometry":{"type":"Polygon","coordinates":[[[-86.5853395472698,36.0499666753527],[-86.5856446698822,36.0497814115382],[-86.5857595938124,36.0499063962882],[-86.5854829460048,36.0500538871956],[-86.5854728512286,36.0500391984627],[-86.5854601364416,36.050025916741],[-86.5854450947026,36.0500143506476],[-86.5854280720155,36.050004764379],[-86.585409460678,36.0499973786458],[-86.5853900883928,36.0499929122554],[-86.5853717228855,36.0499862030868],[-86.5853547558906,36.0499773952457],[-86.5853395472698,36.0499666753527]]]},"properties":{"id":"270409","parcel":"165090A08000CO","address":"1877 LAKEWOOD VILLAGE DR","owner":"VILLATORO, ROMAN CRUZ","point":[-86.5855460832171,36.04993652394932]}},{"type":"Feature","id":"270414","geometry":{"type":"Polygon","coordinates":[[[-86.5857595938124,36.0499063962882],[-86.5856446698822,36.0497814115382],[-86.5859228507516,36.0496127596835],[-86.5859596356165,36.0496447818682],[-86.5859978814733,36.0496756523085],[-86.5860375358549,36.0497053297991],[-86.5857868764428,36.0499362069953],[-86.5857595938124,36.0499063962882]]]},"properties":{"id":"270414","parcel":"165090A08300CO","address":"2004 WHITNEY CREEK DR","owner":"INVITATION HOMES 7 LP","point":[-86.58585191470006,36.04974340817868]}},{"type":"Feature","id":"270813","geometry":{"type":"Polygon","coordinates":[[[-86.5858598541718,36.0500155184343],[-86.5857868764428,36.0499362069953],[-86.5860375358549,36.0497053297991],[-86.5860868276484,36.0497388323194],[-86.5861379525537,36.0497704719654],[-86.5861908024315,36.049800183467],[-86.5859836647002,36.0500610702806],[-86.5858598541718,36.0500155184343]]]},"properties":{"id":"270813","parcel":"165090A08400CO","address":"2008 WHITNEY CREEK DR","owner":"JOHNSON, LINDA F.","point":[-86.58599879629364,36.04986822978523]}},{"type":"Feature","id":"270814","geometry":{"type":"Polygon","coordinates":[[[-86.5843483466864,36.0495044759576],[-86.5847354344734,36.0494243058099],[-86.5847509606272,36.0494661401249],[-86.5847690975785,36.0495072740907],[-86.5847898012651,36.0495476015685],[-86.5844250468675,36.0496757992913],[-86.5843426070241,36.0495056033527],[-86.5843483466864,36.0495044759576]]]},"properties":{"id":"270814","parcel":"165090A06800CO","address":"1864 LAKEWOOD VILLAGE DR","owner":"MALDONADO, WILLIAM","point":[-86.58450053194468,36.04961133016649]}},{"type":"Feature","id":"270815","geometry":{"type":"Polygon","coordinates":[[[-86.5859836647002,36.0500610702806],[-86.5861908024315,36.049800183467],[-86.5862429971396,36.0498266823556],[-86.5862966653214,36.0498511632914],[-86.5863516889339,36.0498735727699],[-86.5861983829296,36.0501399653358],[-86.5859836647002,36.0500610702806]]]},"properties":{"id":"270815","parcel":"165090A08500CO","address":"2012 WHITNEY CREEK DR","owner":"MIRANDA, MARIO F. & TERESA","point":[-86.58617793915742,36.04996735709054]}},{"type":"Feature","id":"273499","geometry":{"type":"Polygon","coordinates":[[[-86.5853250241275,36.0499527336482],[-86.5852672641992,36.0498898333467],[-86.5852595667173,36.0498796564914],[-86.5852541553818,36.0498685519289],[-86.5852511891458,36.0498568541649],[-86.5852507605056,36.0498449160532],[-86.5852528821031,36.0498330980454],[-86.5852574888596,36.0498217564642],[-86.5852644423355,36.0498112326665],[-86.5852735328838,36.0498018440201],[-86.5852844862425,36.0497938748594],[-86.5855232647,36.0496490406088],[-86.5856446698822,36.0497814115382],[-86.5853395472698,36.0499666753527],[-86.5853250241275,36.0499527336482]]]},"properties":{"id":"273499","parcel":"165090A08100CO","address":"1976 PORT JAMES CIR","owner":"AH4R-TN3, LLC","point":[-86.5854351908479,36.0498071131662]}},{"type":"Feature","id":"273505","geometry":{"type":"Polygon","coordinates":[[[-86.5855232647,36.0496490406088],[-86.5857297136803,36.0495241425612],[-86.5857401257531,36.0495187888078],[-86.5857513852358,36.0495147197691],[-86.5857632541621,36.049512024026],[-86.5857754787964,36.0495107586912],[-86.5857878007309,36.0495109493552],[-86.5858017450082,36.049512910363],[-86.5858150882116,36.0495167417489],[-86.5858274510839,36.0495223354003],[-86.5858384850631,36.0495295316822],[-86.5858478778993,36.0495381284229],[-86.5858843967973,36.0495760850684],[-86.5859228507516,36.0496127596835],[-86.5856446698822,36.0497814115382],[-86.5855232647,36.0496490406088]]]},"properties":{"id":"273505","parcel":"165090A08200CO","address":"1972 PORT JAMES CIR","owner":"CHAPLINE, BRIAN K & MARY JANE & AUSTIN BUTLER","point":[-86.58572309033511,36.04963090042547]}},{"type":"Feature","id":"273998","geometry":{"type":"Polygon","coordinates":[[[-86.5839773931512,36.0504058523403],[-86.5807223671439,36.0500696158265],[-86.580935107489,36.0497791986383],[-86.5800858648641,36.0491053969224],[-86.5801763338406,36.0490393363345],[-86.5802640794646,36.0489708940817],[-86.5803490046247,36.0489001463452],[-86.5804310199797,36.0488271692691],[-86.5805100339825,36.0487520408102],[-86.5805859628761,36.0486748415922],[-86.5806587251634,36.0485956576353],[-86.5807282404452,36.0485145731519],[-86.5808650660251,36.0483512844773],[-86.5812149457141,36.047922721179],[-86.5821185102168,36.0484059333433],[-86.5821046850214,36.0484880763447],[-86.5843820963747,36.0487265448975],[-86.5842436410439,36.0495261367101],[-86.5840895162212,36.0504177232473],[-86.5839773931512,36.0504058523403]]]},"properties":{"id":"273998","parcel":"16500002800","address":"4118 LAVERGNE COUCHVILLE PIKE","owner":"G7 INVESTMENT, LLC","point":[-86.58231090134842,36.049316294083084]}},{"type":"Feature","id":"277983","geometry":{"type":"Polygon","coordinates":[[[-86.5783848523868,36.0501714374595],[-86.5786643991984,36.0499969519854],[-86.5798002288524,36.0492882338933],[-86.5798979028789,36.0492298538339],[-86.5799931494981,36.0491688860773],[-86.5800858648641,36.0491053969224],[-86.580935107489,36.0497791986383],[-86.5807223671439,36.0500696158265],[-86.5804509258904,36.0504482399488],[-86.5783848523868,36.0501714374595]]]},"properties":{"id":"277983","parcel":"16500008800","address":"4094 LAVERGNE COUCHVILLE PIKE","owner":"TADROS, ASHARF","point":[-86.5800195117433,36.04953249851368]}}]}