{"type":"FeatureCollection","features":[{"type":"Feature","id":"155959","geometry":{"type":"Polygon","coordinates":[[[-86.6837992798405,36.0023347689747],[-86.6839230345744,36.0022904696046],[-86.6840467891627,36.0022461692057],[-86.6841705436209,36.0022018695805],[-86.6842942979412,36.0021575698276],[-86.6844180521236,36.0021132699473],[-86.6845418061681,36.0020689699392],[-86.684665560067,36.0020246689025],[-86.6847893138358,36.0019803686393],[-86.6849130685681,36.001936067341],[-86.6850368220612,36.0018917668226],[-86.6851605754163,36.0018474661767],[-86.6852843286336,36.0018031654032],[-86.6854080817051,36.0017588636009],[-86.6855318346467,36.0017145625722],[-86.6856555874503,36.001670261416],[-86.6854919255198,36.0013684008767],[-86.6854042235961,36.0012349174686],[-86.6853619660702,36.0011569756986],[-86.6853421505887,36.0011234069288],[-86.685319711467,36.001090947261],[-86.6852947419227,36.0010597304569],[-86.68526734735,36.0010298875048],[-86.6852376408523,36.0010015430401],[-86.6852326519207,36.000996288012],[-86.6852287649426,36.0009904507844],[-86.6852260832626,36.0009841821877],[-86.6852246737251,36.0009776449765],[-86.6852245743988,36.00097100928],[-86.685225787868,36.0009644463301],[-86.6852282823262,36.0009581266531],[-86.6852319926308,36.0009522137547],[-86.6852368225057,36.0009468623045],[-86.6852874175167,36.0008965983283],[-86.6853344950711,36.0008441272363],[-86.6853779101416,36.0007896093879],[-86.68541752777,36.000733214999],[-86.6854532252302,36.0006751178213],[-86.685484892053,36.0006154978453],[-86.685512432227,36.0005545394857],[-86.6855357564281,36.0004924307238],[-86.6855547964528,36.0004293648283],[-86.6855694918779,36.0003655368256],[-86.6855797978163,36.0003011425547],[-86.6855856816283,36.0002363831922],[-86.6855871250697,36.0001714571284],[-86.6855841243618,36.0001065680785],[-86.6855766878717,36.0000419133791],[-86.6855648395329,35.9999776947841],[-86.6855486165648,35.9999141112676],[-86.6854337327624,35.9995194122019],[-86.6854190343458,35.9994634630009],[-86.6854073676959,35.9994070449931],[-86.6853987548039,35.9993502653086],[-86.6853222730146,35.9987352458179],[-86.685313833087,35.9986815322563],[-86.6853019319136,35.9986282529863],[-86.6852866018296,35.998575555636],[-86.6852678851285,35.9985235850725],[-86.6851601728295,35.9982512791191],[-86.6851077616934,35.9981773201412],[-86.6851017716838,35.9981669496185],[-86.6850979853774,35.9981559149203],[-86.6850965085588,35.998144521887],[-86.6850973827861,35.9981330884407],[-86.6851005830638,35.9981219319809],[-86.6851060211162,35.9981113630565],[-86.6851135453019,35.998101675452],[-86.6851229460897,35.9980931380449],[-86.6851339626742,35.9980859902613],[-86.6851989670828,35.9980496306683],[-86.6852537717793,35.9980173966377],[-86.6853169626652,35.9979783388943],[-86.6853184308818,35.9979774040041],[-86.6854094338166,35.9979172751021],[-86.6854975645445,35.9978543864763],[-86.6858508522061,35.999983101024],[-86.6861136222346,36.001566329924],[-86.6838265383565,36.0023850481591],[-86.6837992798405,36.0023347689747]]]},"properties":{"id":"155959","parcel":"181110D90000CO","address":"8001 WARBLER WAY","owner":"GREEN TRAILS, LLC","point":[-86.68573123994005,36.00013939417762]}}]}