{"type":"FeatureCollection","features":[{"type":"Feature","id":"118457","geometry":{"type":"Polygon","coordinates":[[[-86.6800148204871,36.04528879599],[-86.6799086214889,36.0448161128569],[-86.6796889485927,36.043838348896],[-86.6796722767855,36.0437724802477],[-86.6796520139048,36.043707278976],[-86.6796281965799,36.043642874658],[-86.6796008758507,36.0435793949873],[-86.6795701038434,36.0435169649467],[-86.679535941561,36.043455709469],[-86.6794984566258,36.0433957489429],[-86.6794577244123,36.0433372019106],[-86.6794273670645,36.0432922274743],[-86.6794009700275,36.0432456345181],[-86.6793786628707,36.0431976512416],[-86.6793605563821,36.0431485158642],[-86.6793467391774,36.0430984694337],[-86.6793372799583,36.0430477603202],[-86.6793322252238,36.0429966361172],[-86.6793315982148,36.0429453499566],[-86.6793354044086,36.0428941541687],[-86.6793436248767,36.0428433021221],[-86.679356217348,36.0427930428103],[-86.679373120687,36.0427436253323],[-86.679394251518,36.0426952935048],[-86.6794195053122,36.0426482831515],[-86.6794487586691,36.042602829301],[-86.6794818669888,36.0425591535816],[-86.6795186656517,36.0425174723269],[-86.6800389055481,36.0418253626124],[-86.6804846967562,36.0414833625018],[-86.6833676566117,36.0418917843654],[-86.6832935968649,36.0423890342289],[-86.684329128784,36.0424640352558],[-86.6843544637992,36.0428328056513],[-86.6850273594886,36.0434989049334],[-86.6834655522802,36.0436343745893],[-86.6830198728099,36.0440356609535],[-86.6829695603435,36.0441384398786],[-86.6829682161246,36.044144737598],[-86.6829680879336,36.04415112937],[-86.6829691777602,36.0441574592601],[-86.6829714598973,36.0441635768989],[-86.6829748809096,36.044169333876],[-86.6829793552725,36.044174592779],[-86.6829847775634,36.0441792253206],[-86.6829910181004,36.0441831213771],[-86.6829979240363,36.0441861871794],[-86.6837384661656,36.0444565899618],[-86.6837709173114,36.0444702235067],[-86.6838013328192,36.0444866616907],[-86.6838293480923,36.0445057073993],[-86.683854625989,36.0445271300146],[-86.6838768624422,36.0445506734949],[-86.683895789764,36.0445760536523],[-86.6839111789131,36.044602963547],[-86.6839228451205,36.0446310824687],[-86.6823976733828,36.0445958728936],[-86.6823795205488,36.0451380103157],[-86.6823794920086,36.0451388225391],[-86.680134154049,36.0450655428337],[-86.6801335190644,36.0450655220827],[-86.6800100533609,36.0455301313774],[-86.6800189672901,36.0454903035771],[-86.6800246527792,36.045450086611],[-86.6800270835772,36.0454096545766],[-86.6800262511744,36.0453691796684],[-86.6800221570639,36.0453288358266],[-86.6800148204871,36.04528879599]]]},"properties":{"id":"118457","parcel":"16200029500","address":"900 BRITTANY PARK DR","owner":"WHETSTONE PARTNERS, II, LLC","point":[-86.68220322223966,36.04350771287874]}},{"type":"Feature","id":"132595","geometry":{"type":"Polygon","coordinates":[[[-86.6841568711394,36.0401818131727],[-86.6838999476987,36.0394542752641],[-86.6873035992954,36.039700546126],[-86.6873029316101,36.0397063641622],[-86.6870400900753,36.0419972522436],[-86.6845433770622,36.0416393824572],[-86.6843119769042,36.0409967463984],[-86.6842926529758,36.0409379766308],[-86.6842926277479,36.0409378821385],[-86.6842767601531,36.0408785330388],[-86.6842643317504,36.0408185479242],[-86.684264316471,36.040818448869],[-86.6842553955255,36.0407581527189],[-86.6842180860367,36.0404436068746],[-86.6842083394526,36.0403773722941],[-86.6842083255778,36.04037730748],[-86.6841948678904,36.0403115698508],[-86.6841948449365,36.0403114816546],[-86.6841777002959,36.0402463381777],[-86.684177674075,36.0402462572104],[-86.6841568711394,36.0401818131727]]]},"properties":{"id":"132595","parcel":"162150A00200CO","address":"7000 HARRIS HILLS LN","owner":"ALT INVESTMENTS HILLSON, LLC & ET AL","point":[-86.68571807606199,36.04060477170503]}},{"type":"Feature","id":"132909","geometry":{"type":"Polygon","coordinates":[[[-86.6859296999392,36.0445793127317],[-86.6859327351958,36.0445044676687],[-86.6860340633155,36.0445184115403],[-86.6860074990991,36.0445987550285],[-86.6859296999392,36.0445793127317]]]},"properties":{"id":"132909","parcel":"16200030300","address":"0 BELL RD","owner":"CEMETERY","point":[-86.68597744957465,36.04454885053971]}},{"type":"Feature","id":"133058","geometry":{"type":"Polygon","coordinates":[[[-86.6846228124702,36.0418599843498],[-86.6845433770622,36.0416393824572],[-86.6870400900753,36.0419972522436],[-86.6868982296955,36.0432336326318],[-86.6869546108684,36.0444227626456],[-86.6865591013597,36.0446464365043],[-86.6865468776583,36.0446520436701],[-86.6865337051188,36.0446559852489],[-86.6865199247019,36.0446581619585],[-86.6865058921374,36.0446585140897],[-86.6864919724929,36.0446570350564],[-86.6864919324799,36.044657028074],[-86.686491901337,36.0446570201398],[-86.6864918613085,36.0446570113549],[-86.686478569572,36.0446535774505],[-86.6864785228461,36.0446535641973],[-86.6864784894292,36.0446535499671],[-86.6864784448838,36.044653532195],[-86.686466050396,36.0446483608989],[-86.6864660069448,36.044648341318],[-86.686465974591,36.044648321674],[-86.6864659377982,36.0446483020552],[-86.6864548120975,36.0446413651137],[-86.686445167552,36.0446330939368],[-86.686437243437,36.0446236944584],[-86.6864312370983,36.0446134007913],[-86.6862575068741,36.0442226130741],[-86.6862326185482,36.0441711811928],[-86.6862326004656,36.0441711434416],[-86.6862325858134,36.0441711173876],[-86.6862325655191,36.0441710805503],[-86.6862041909467,36.0441208843555],[-86.6862041538274,36.0441208268843],[-86.686172367361,36.0440719939335],[-86.6861723157141,36.0440719248283],[-86.6861372275828,36.0440246248349],[-86.6861371715126,36.0440245575574],[-86.6860988827632,36.0439789251368],[-86.6860988178074,36.0439788570086],[-86.6860574528837,36.0439350374584],[-86.6860573868727,36.0439349756452],[-86.6860130667559,36.0438930989606],[-86.6860130186874,36.0438930586762],[-86.6859658977897,36.0438532708852],[-86.6859658631313,36.04385324134],[-86.6859658385539,36.0438532225527],[-86.6859658027936,36.0438531939151],[-86.6859099710627,36.0438115855106],[-86.6858512155033,36.0437727237284],[-86.6857897392507,36.0437367426018],[-86.6854849544624,36.0435709746858],[-86.6854363205921,36.0435428048105],[-86.6854362424604,36.0435427529801],[-86.6853898123353,36.0435123587854],[-86.685389764314,36.0435123239082],[-86.6853455904269,36.0434797438535],[-86.6853455378968,36.0434797008903],[-86.6853038078714,36.0434450718085],[-86.6853037474566,36.0434450153708],[-86.6852646099821,36.0434084635006],[-86.6850502632895,36.0431959529985],[-86.6850126594011,36.0431562684562],[-86.685012629159,36.0431562361817],[-86.6850126011286,36.0431562029933],[-86.6850125730981,36.0431561698049],[-86.6849780371247,36.0431147355324],[-86.6849779865814,36.0431146655191],[-86.6849466150126,36.043071603546],[-86.6849465767695,36.0430715442782],[-86.6849185021179,36.0430270359145],[-86.6849184796128,36.0430269999908],[-86.6849184615778,36.0430269676468],[-86.6849184412843,36.0430269308093],[-86.6848937288106,36.0429810802357],[-86.6848724697485,36.0429340437603],[-86.684872447026,36.0429339826018],[-86.6848547669176,36.0428860344063],[-86.6848547474855,36.0428859687226],[-86.684840689628,36.0428372401509],[-86.6848406757755,36.0428371780406],[-86.6848302893714,36.0427878418621],[-86.684749454887,36.0423183261628],[-86.684733945898,36.0422369097133],[-86.6847339170605,36.0422367827952],[-86.6847155261554,36.0421558937493],[-86.6847155009189,36.042155798356],[-86.6846942095899,36.0420753484914],[-86.6846941821806,36.0420752585181],[-86.6846700145474,36.0419953414302],[-86.6846699735655,36.0419952217915],[-86.6846429615854,36.0419159391432],[-86.6846228124702,36.0418599843498]]]},"properties":{"id":"133058","parcel":"162150A00100CO","address":"0 BELL RD","owner":"RICHLAND SOUTH, LLC","point":[-86.68595211238454,36.04313796259555]}},{"type":"Feature","id":"133061","geometry":{"type":"Polygon","coordinates":[[[-86.6856021734319,36.0446759147553],[-86.6855557464847,36.0445542361766],[-86.6852754072455,36.0437445661446],[-86.6852057341894,36.0436754755796],[-86.6850273594886,36.0434989049334],[-86.6843544637992,36.0428328056513],[-86.684329128784,36.0424640352558],[-86.6832935968649,36.0423890342289],[-86.6833676566117,36.0418917843654],[-86.6834919771729,36.0410570621753],[-86.6819732426757,36.0409369581977],[-86.6819735620391,36.0409349897748],[-86.6825958900475,36.0371075444535],[-86.6826038681713,36.0370585050699],[-86.68371443711,36.0372057381511],[-86.6838008731387,36.037217197886],[-86.6837700270721,36.0376457431055],[-86.6837089090394,36.0383225070453],[-86.6836461022247,36.0387198234736],[-86.6835733564739,36.0391313735166],[-86.6835245062981,36.0394271108685],[-86.6836832890263,36.0394386037256],[-86.6839617924122,36.0402272550876],[-86.6839802625159,36.0402844750356],[-86.6839954876209,36.040342321771],[-86.6840074345005,36.0404006747105],[-86.68401607657,36.0404594114305],[-86.6840533852669,36.0407739573361],[-86.6840634513228,36.0408419908875],[-86.6840634630324,36.0408420620229],[-86.6840774590259,36.0409096163082],[-86.6840774786585,36.0409097054246],[-86.6840953826076,36.0409766751164],[-86.6840953997882,36.0409767372079],[-86.6841171896485,36.0410430097685],[-86.6844481722697,36.0419622030385],[-86.6844795688723,36.0420556768746],[-86.6844795973833,36.0420557659404],[-86.6845067717859,36.0421500559847],[-86.6845068107113,36.0421501945622],[-86.6845297537659,36.0422452711269],[-86.6845297745479,36.042245364743],[-86.6845484611511,36.0423411495606],[-86.6846292944792,36.0428106662935],[-86.684641773978,36.0428699444445],[-86.6846586663707,36.0429284981201],[-86.6846799098553,36.0429861086563],[-86.684705426045,36.0430425646931],[-86.6847351210244,36.0430976558594],[-86.6847688843006,36.0431511799901],[-86.6848065909847,36.0432029386064],[-86.6848481007047,36.0432527396263],[-86.6848932620674,36.0433004000434],[-86.6851076086219,36.0435129108197],[-86.6851545988494,36.0435567960517],[-86.6851546469484,36.0435568399414],[-86.6852047469025,36.0435984154924],[-86.6852047860149,36.0435984468152],[-86.6852578034163,36.0436375506412],[-86.6852578514299,36.0436375846171],[-86.6853135964119,36.0436740771929],[-86.6853136622511,36.0436741191792],[-86.6853720220608,36.0437079236313],[-86.6856293765214,36.0438478954911],[-86.6856774238023,36.0438757063071],[-86.6856774896186,36.0438757455893],[-86.6857234496573,36.0439057701147],[-86.6857235255779,36.0439058228588],[-86.6857673303556,36.0439380236288],[-86.6858138168902,36.0439767101251],[-86.6858138470786,36.0439767360907],[-86.6858570969971,36.044017805975],[-86.6858571361722,36.0440178445075],[-86.6858969681489,36.0440611194584],[-86.6858970118563,36.0440611687806],[-86.6859332567321,36.0441064659013],[-86.6859333027524,36.0441065260258],[-86.6859658236584,36.0441536748534],[-86.6859658517752,36.0441537179553],[-86.6859944992685,36.0442025057379],[-86.6859945195627,36.0442025425752],[-86.6860191810929,36.0442527878955],[-86.6862454620308,36.0447617809908],[-86.6862490746892,36.044772608342],[-86.686250468434,36.0447837718923],[-86.6862496094677,36.0447949563826],[-86.6862496052777,36.0447949852478],[-86.6862465154692,36.0448058958318],[-86.6862465057227,36.0448059238272],[-86.6862412681091,36.044816280632],[-86.6862412539003,36.0448163059491],[-86.6862339960566,36.0448258459726],[-86.6862249121818,36.0448343103398],[-86.6862142466005,36.0448414615209],[-86.6858379696024,36.0450542548395],[-86.6857577481107,36.0450836508841],[-86.6857522137838,36.0450691463769],[-86.6856021734319,36.0446759147553]],[[-86.6860340633155,36.0445184115403],[-86.6859327351958,36.0445044676687],[-86.6859296999392,36.0445793127317],[-86.6860074990991,36.0445987550285],[-86.6860340633155,36.0445184115403]]]},"properties":{"id":"133061","parcel":"162150A90000CO","address":"0 BELL RD","owner":"RICHLAND SOUTH, LLC","point":[-86.68385157493427,36.04147553609736]}},{"type":"Feature","id":"256001","geometry":{"type":"Polygon","coordinates":[[[-86.6861652645436,36.0452132331419],[-86.68664331687,36.0457313673045],[-86.6865738428408,36.0461471296557],[-86.6868634942261,36.0464707400568],[-86.6871913765131,36.0468336902462],[-86.6869516184953,36.046960326504],[-86.6866606905989,36.0471158247219],[-86.6865222711415,36.0473825360525],[-86.6864546655205,36.0477015882018],[-86.6865928182788,36.0480304576159],[-86.6865546966865,36.0480659692825],[-86.6865197807753,36.0481035924211],[-86.6864882475883,36.0481431367552],[-86.6863167296594,36.0477111650032],[-86.6863897102833,36.0473876867334],[-86.6865437408815,36.047048361672],[-86.6854906189494,36.0470016123047],[-86.6852574721162,36.0463260438283],[-86.6848457328535,36.0459657623238],[-86.6849777303425,36.0458955091789],[-86.6852194131825,36.0457639114832],[-86.6854590453524,36.0456298626356],[-86.6856965893109,36.045493386295],[-86.6859320085962,36.0453545025093],[-86.6861652645436,36.0452132331419]]]},"properties":{"id":"256001","parcel":"16200020200","address":"1439 BELL RD","owner":"BELL ROAD BAPTIST CHURCH, TRS.","point":[-86.68619798689664,36.046650047225725]}},{"type":"Feature","id":"259439","geometry":{"type":"Polygon","coordinates":[[[-86.6869516184953,36.046960326504],[-86.6871913765131,36.0468336902462],[-86.6868634942261,36.0464707400568],[-86.6872755226714,36.0462420518941],[-86.6872755646476,36.0462420291225],[-86.6872756044043,36.0462420063635],[-86.6872756463806,36.0462419835918],[-86.6874882781446,36.0461243709985],[-86.6874883355404,36.0461243346195],[-86.6872875750713,36.0476309098198],[-86.6869373019463,36.0478087241429],[-86.6869516184953,36.046960326504]]]},"properties":{"id":"259439","parcel":"16200018200","address":"247 BENZING RD","owner":"BARRETT, PAMELA KAYE REVOCABLE TRUST","point":[-86.68713907486443,36.04729566911616]}},{"type":"Feature","id":"259839","geometry":{"type":"Polygon","coordinates":[[[-86.6896085896564,36.0434683751591],[-86.689424203665,36.0434254760692],[-86.6895300369502,36.0433919833557],[-86.6896370476794,36.0433610551915],[-86.6897451395737,36.043332721867],[-86.6898542207155,36.0433070046355],[-86.6899641936778,36.0432839292882],[-86.6899578109505,36.043483957653],[-86.6896980766598,36.0434898400861],[-86.6896085896564,36.0434683751591]]]},"properties":{"id":"259839","parcel":"16200020400","address":"0 BELL RD","owner":"HAJIZADEH, DARYOOSH  ET AL","point":[-86.68977237517898,36.04337700801748]}},{"type":"Feature","id":"260292","geometry":{"type":"Polygon","coordinates":[[[-86.6823240080126,36.0467231337523],[-86.6823794920086,36.0451388225391],[-86.6823795205488,36.0451380103157],[-86.6823976733828,36.0445958728936],[-86.6839228451205,36.0446310824687],[-86.6839111789131,36.044602963547],[-86.683895789764,36.0445760536523],[-86.6838768624422,36.0445506734949],[-86.683854625989,36.0445271300146],[-86.6838293480923,36.0445057073993],[-86.6838013328192,36.0444866616907],[-86.6837709173114,36.0444702235067],[-86.6837384661656,36.0444565899618],[-86.6829979240363,36.0441861871794],[-86.6829910181004,36.0441831213771],[-86.6829847775634,36.0441792253206],[-86.6829793552725,36.044174592779],[-86.6829748809096,36.044169333876],[-86.6829714598973,36.0441635768989],[-86.6829691777602,36.0441574592601],[-86.6829680879336,36.04415112937],[-86.6829682161246,36.044144737598],[-86.6829695603435,36.0441384398786],[-86.6830198728099,36.0440356609535],[-86.6834655522802,36.0436343745893],[-86.6850273594886,36.0434989049334],[-86.6852057341894,36.0436754755796],[-86.6852754072455,36.0437445661446],[-86.6855557464847,36.0445542361766],[-86.6856021734319,36.0446759147553],[-86.6857522137838,36.0450691463769],[-86.6857577481107,36.0450836508841],[-86.6856701607636,36.0451157448863],[-86.6853641505401,36.0452895301282],[-86.6853081389421,36.0453164664563],[-86.6849743621762,36.0455046985375],[-86.6846330603327,36.0456971715366],[-86.6846427785072,36.0457084572513],[-86.6842605216008,36.0459255363178],[-86.6836366108928,36.0462631240022],[-86.6835128851167,36.0463219959346],[-86.6833872298736,36.0463781090177],[-86.6832597402562,36.0464314212474],[-86.6831305080519,36.0464818933421],[-86.6829996317233,36.0465294877854],[-86.6828672064198,36.0465741688828],[-86.6827333317538,36.0466159036186],[-86.68259810626,36.0466546625887],[-86.6824616317874,36.0466904145681],[-86.6823240080126,36.0467231337523]],[[-86.6833132904136,36.0449943288851],[-86.6832279742602,36.0449866947075],[-86.6832110316003,36.0451507371364],[-86.6834197735053,36.0451703552698],[-86.683441023646,36.0450057566199],[-86.6833132904136,36.0449943288851]]]},"properties":{"id":"260292","parcel":"16200025000","address":"1430 BELL RD","owner":"WHETSTONE PARTNERS I, LLC","point":[-86.68453431845953,36.045128230472514]}},{"type":"Feature","id":"261331","geometry":{"type":"Polygon","coordinates":[[[-86.6870049266608,36.044674405263],[-86.6877322001554,36.0442834629191],[-86.6877321604809,36.0442837515584],[-86.6875195768799,36.0458885232258],[-86.6874883355404,36.0461243346195],[-86.6874882781446,36.0461243709985],[-86.6872756463806,36.0462419835918],[-86.6872756044043,36.0462420063635],[-86.6872755646476,36.0462420291225],[-86.6870049266608,36.044674405263]]]},"properties":{"id":"261331","parcel":"16200018300","address":"1461 BELL RD","owner":"LEE, MAN U.","point":[-86.68735476945055,36.04528170583177]}},{"type":"Feature","id":"261691","geometry":{"type":"Polygon","coordinates":[[[-86.6866606905989,36.0471158247219],[-86.6869516184953,36.046960326504],[-86.6869373019463,36.0478087241429],[-86.6868736860915,36.0478388022522],[-86.686812291661,36.0478717842391],[-86.6867533197054,36.0479075617079],[-86.6866969623363,36.0479460191036],[-86.6866434026786,36.0479870283045],[-86.6865928182788,36.0480304576159],[-86.6864546655205,36.0477015882018],[-86.6865222711415,36.0473825360525],[-86.6866606905989,36.0471158247219]]]},"properties":{"id":"261691","parcel":"16200023100","address":"245 BENZING RD","owner":"POTTS, CLIFFORD DARRELL & ELLA DENISE","point":[-86.68671512513151,36.04754265460374]}},{"type":"Feature","id":"261809","geometry":{"type":"Polygon","coordinates":[[[-86.6881656898333,36.0437291535182],[-86.688291497018,36.0421163375606],[-86.6888527227131,36.0421450453331],[-86.688754323127,36.0433999300199],[-86.6887538244107,36.0434062842628],[-86.6886882578706,36.0434384745401],[-86.6881656898333,36.0437291535182]]]},"properties":{"id":"261809","parcel":"16200023900","address":"0 BELL RD","owner":"JORDAN, ALONZO B. ET UX","point":[-86.68852197615803,36.04277175664992]}},{"type":"Feature","id":"264547","geometry":{"type":"Polygon","coordinates":[[[-86.6829509455326,36.0484313546831],[-86.6821877388452,36.0477961444496],[-86.6817146912453,36.0477777491913],[-86.6815643466582,36.0470898931364],[-86.6817149448991,36.0470717491831],[-86.6817151400034,36.0470717228433],[-86.6818648785372,36.0470502713282],[-86.6818649472505,36.0470502601239],[-86.6820140300029,36.0470254701535],[-86.6820142361041,36.0470254320343],[-86.6821622929176,36.0469973669937],[-86.6821623715802,36.0469973512265],[-86.6823095520253,36.046965983234],[-86.6823097281391,36.0469659425802],[-86.6824557009562,36.0469313411113],[-86.6824558271997,36.0469313088512],[-86.6826006289331,36.046893466493],[-86.682600742969,36.046893434302],[-86.6827442274223,36.0468523879382],[-86.682744414494,36.0468523309984],[-86.6828863890238,36.0468081367038],[-86.6828865151817,36.0468080945296],[-86.6830270074558,36.0467607449424],[-86.6830271800536,36.0467606826765],[-86.6831659775939,36.0467102502079],[-86.6831660539202,36.046710220934],[-86.683303195393,36.0466566864435],[-86.6833033833954,36.0466566087679],[-86.6834385591141,36.0466000974938],[-86.683482255888,36.0466460019904],[-86.6848457328535,36.0459657623238],[-86.6852574721162,36.0463260438283],[-86.6854906189494,36.0470016123047],[-86.6865437408815,36.047048361672],[-86.6863897102833,36.0473876867334],[-86.6863167296594,36.0477111650032],[-86.6864882475883,36.0481431367552],[-86.6862877748938,36.0484321782352],[-86.6855156512143,36.0480212056288],[-86.6854046855581,36.0483339135286],[-86.685272600721,36.048708273287],[-86.684608876126,36.0486285321563],[-86.6829509455326,36.0484313546831]]]},"properties":{"id":"264547","parcel":"16200006500","address":"1500 BRENTRIDGE DR","owner":"NEW ALLEGRO I, LLC","point":[-86.68402492709403,36.04723894044556]}},{"type":"Feature","id":"264548","geometry":{"type":"Polygon","coordinates":[[[-86.6861652645436,36.0452132331419],[-86.6866551584564,36.0449093560516],[-86.6866466777185,36.0448676485191],[-86.6870049266608,36.044674405263],[-86.6872755646476,36.0462420291225],[-86.6872755226714,36.0462420518941],[-86.6868634942261,36.0464707400568],[-86.6865738428408,36.0461471296557],[-86.68664331687,36.0457313673045],[-86.6861652645436,36.0452132331419]]]},"properties":{"id":"264548","parcel":"16200006600","address":"1451 BELL RD","owner":"UNICO TN,, LLC","point":[-86.68677364938608,36.04547326596754]}},{"type":"Feature","id":"265027","geometry":{"type":"Polygon","coordinates":[[[-86.6894708381315,36.0495926451491],[-86.6894760970284,36.0495750309138],[-86.689494484869,36.0494945154108],[-86.68951101024,36.0494137347647],[-86.6895202716666,36.0493637999332],[-86.6899239483182,36.0494142330653],[-86.6898932674261,36.049620994971],[-86.6898881219493,36.0496517926314],[-86.6894708381315,36.0495926451491]]]},"properties":{"id":"265027","parcel":"16207021400","address":"709 YOEST CIR","owner":"ATRAQCHIE, MOHAMMED AL","point":[-86.68969559554942,36.0495353176582]}},{"type":"Feature","id":"265924","geometry":{"type":"Polygon","coordinates":[[[-86.6890299940282,36.0507065421316],[-86.6889920686513,36.0507023633717],[-86.6854104440017,36.0502568705854],[-86.6852912576352,36.050244364327],[-86.685304928235,36.0502214848903],[-86.6853742815138,36.0501357051166],[-86.6854406847648,36.0500483999742],[-86.6855040875098,36.049959635549],[-86.6855644404045,36.0498694806243],[-86.6856216985447,36.0497780039581],[-86.6856758170344,36.0496852752094],[-86.6857267543238,36.0495913658207],[-86.6858297645307,36.0494347404225],[-86.6866349668193,36.0482104293377],[-86.6866733527352,36.0481661997738],[-86.6867151762368,36.0481240758485],[-86.6867602623684,36.048084232504],[-86.6868084227956,36.0480468375485],[-86.686859455759,36.0480120462488],[-86.686913149419,36.0479800031138],[-86.6869692796436,36.0479508428085],[-86.6870276099856,36.0479246874503],[-86.6872728402298,36.0478046128086],[-86.6877451236701,36.0482788212483],[-86.6878515947537,36.0483859014214],[-86.6883102211747,36.0488448014674],[-86.6884958565996,36.0490305458526],[-86.688749757232,36.0492862274091],[-86.6889244754921,36.0494610450033],[-86.6889195582487,36.0495182139339],[-86.6888957730777,36.0498963549913],[-86.6889402155656,36.0500279640107],[-86.6889436571654,36.0500348644324],[-86.6892900460435,36.0507293222515],[-86.689218048682,36.0507222361957],[-86.6890299940282,36.0507065421316]]]},"properties":{"id":"265924","parcel":"16200004900","address":"208 BENZING RD","owner":"ROSE, LIOR","point":[-86.68731939830269,36.04915499447933]}},{"type":"Feature","id":"266059","geometry":{"type":"Polygon","coordinates":[[[-86.6888527227131,36.0421450453331],[-86.6891031245867,36.0398340587346],[-86.6899031210339,36.0398907968564],[-86.6894726303626,36.0426712236376],[-86.689799317745,36.0426416871137],[-86.6897976797378,36.0430113670751],[-86.6897976461276,36.0430188750166],[-86.6897660794477,36.0430260073608],[-86.6896549961877,36.0430542316476],[-86.6895311481528,36.043090891946],[-86.6894083008604,36.0431297085863],[-86.689351020993,36.0431486596339],[-86.6892719054337,36.0431758354498],[-86.6891935061146,36.0432043473356],[-86.6891651283027,36.0432160290229],[-86.689103195544,36.0432360646762],[-86.6889770314024,36.0432890455916],[-86.6888690349211,36.0433353259753],[-86.6887673169765,36.0433836009822],[-86.6887636016121,36.0433861827835],[-86.6887603836284,36.043389171829],[-86.6887577290859,36.0433925073546],[-86.6887556950809,36.0433961187335],[-86.688754323127,36.0433999300199],[-86.6888527227131,36.0421450453331]]]},"properties":{"id":"266059","parcel":"16200011301","address":"1488 BELL RD","owner":"BELL ROAD SELF STORAGE, LLC","point":[-86.68935171865681,36.0410178544832]}},{"type":"Feature","id":"266060","geometry":{"type":"Polygon","coordinates":[[[-86.6870400900753,36.0419972522436],[-86.6873029316101,36.0397063641622],[-86.6878991107016,36.0397486558571],[-86.6875109814208,36.0440946746964],[-86.6869546108684,36.0444227626456],[-86.6868982296955,36.0432336326318],[-86.6870400900753,36.0419972522436]]]},"properties":{"id":"266060","parcel":"16200011400","address":"1456 BELL RD","owner":"RICHLAND SOUTH, LLC","point":[-86.68730604777392,36.04261632154596]}},{"type":"Feature","id":"266094","geometry":{"type":"Polygon","coordinates":[[[-86.6894044803269,36.0497424683964],[-86.689426073419,36.049706586231],[-86.6894443921271,36.0496695231779],[-86.6894593404959,36.0496314762686],[-86.6894708381315,36.0495926451491],[-86.6898881219493,36.0496517926314],[-86.6898498948263,36.0499245270002],[-86.6894044803269,36.0497424683964]]]},"properties":{"id":"266094","parcel":"16207021500","address":"713 YOEST CIR","owner":"ORR, LAURA & BURRIDGE, BRUCE, JR.","point":[-86.68974487783063,36.04983380252189]}},{"type":"Feature","id":"266324","geometry":{"type":"Polygon","coordinates":[[[-86.6897548604429,36.0484739197772],[-86.6896113788163,36.048468150681],[-86.6898716031689,36.0482051314969],[-86.6898913798539,36.0482146296333],[-86.6899126873857,36.0482216125171],[-86.6899350427123,36.0482259215821],[-86.6899580278763,36.0482265867295],[-86.6899808600637,36.0482243325709],[-86.6900029792732,36.0482192136861],[-86.6900234985386,36.0482106961833],[-86.6900420778094,36.0481996247156],[-86.6900582401116,36.04818628502],[-86.6900715700195,36.0481710210651],[-86.6900799900102,36.0481627927485],[-86.6900898839946,36.0481557285683],[-86.6901010126509,36.0481500029421],[-86.6901131030504,36.0481457544284],[-86.6901258608734,36.0481430865581],[-86.6901389748251,36.0481420651052],[-86.6900769863644,36.0484830641796],[-86.6897548604429,36.0484739197772]]]},"properties":{"id":"266324","parcel":"16211000100","address":"572 JANICE DR","owner":"JAMES, CHRISTINE H. (LE) & HYLER, SANDRA L.","point":[-86.68991625991458,36.04834770915296]}},{"type":"Feature","id":"266325","geometry":{"type":"Polygon","coordinates":[[[-86.6894909933128,36.0483171948807],[-86.6893624520409,36.0481618927269],[-86.6893944905379,36.0481111624456],[-86.6898166987884,36.0481153393823],[-86.6898182614535,36.0481326018452],[-86.6898230880119,36.0481494616761],[-86.689831060645,36.0481655148699],[-86.6898419895456,36.0481803749582],[-86.6898556130354,36.0481936865276],[-86.6898716031689,36.0482051314969],[-86.6896113788163,36.048468150681],[-86.6894909933128,36.0483171948807]]]},"properties":{"id":"266325","parcel":"16211000200","address":"576 JANICE DR","owner":"YAEGER, TRUDE","point":[-86.6896299654727,36.04826103046558]}},{"type":"Feature","id":"266326","geometry":{"type":"Polygon","coordinates":[[[-86.6893944905379,36.0481111624456],[-86.6894451793962,36.0480273617025],[-86.6895785018771,36.0477980355173],[-86.6898597462532,36.0477744488451],[-86.6899240276268,36.0480092353699],[-86.6899022742351,36.0480146820184],[-86.6898819362998,36.0480229884628],[-86.6898635789266,36.04803392164],[-86.6898477144521,36.0480471784891],[-86.6898347802945,36.0480623914847],[-86.6898251390322,36.0480791376502],[-86.6898190541054,36.0480969522158],[-86.6898166987884,36.0481153393823],[-86.6893944905379,36.0481111624456]]]},"properties":{"id":"266326","parcel":"16211000300","address":"565 JANICE DR","owner":"CAMPOY, GERARDO","point":[-86.68970633964811,36.04790351930776]}},{"type":"Feature","id":"266327","geometry":{"type":"Polygon","coordinates":[[[-86.6895834771166,36.0474353849621],[-86.6896363983448,36.0474079902669],[-86.6896915447201,36.0473836607172],[-86.6897486453674,36.0473625150278],[-86.6898074248252,36.0473446548161],[-86.6898675942058,36.0473301691583],[-86.6899288622309,36.0473191273168],[-86.6899966705984,36.0476483947361],[-86.6898812231605,36.0477545462027],[-86.6895834771166,36.0474353849621]]]},"properties":{"id":"266327","parcel":"16211000500","address":"536 MICHELE DR","owner":"CORREA, IMANOL GARFIAS","point":[-86.68982870584456,36.047541989975926]}},{"type":"Feature","id":"266328","geometry":{"type":"Polygon","coordinates":[[[-86.6893681683714,36.0475728746375],[-86.6895834771166,36.0474353849621],[-86.6898812231605,36.0477545462027],[-86.6898597462532,36.0477744488451],[-86.6895785018771,36.0477980355173],[-86.6893681683714,36.0475728746375]]]},"properties":{"id":"266328","parcel":"16211000600","address":"540 MICHELE DR","owner":"CHI, JINGZHI & CHEN, WEIWEI","point":[-86.68962475210473,36.04766371084038]}},{"type":"Feature","id":"266329","geometry":{"type":"Polygon","coordinates":[[[-86.6891420564038,36.0477126212387],[-86.6893681683714,36.0475728746375],[-86.6895785018771,36.0477980355173],[-86.6894451793962,36.0480273617025],[-86.6891420564038,36.0477126212387]]]},"properties":{"id":"266329","parcel":"16211000700","address":"544 MICHELE DR","owner":"CERRATO, LEO & NAJERA, BRENDA","point":[-86.68942307306675,36.04791246871653]}},{"type":"Feature","id":"266330","geometry":{"type":"Polygon","coordinates":[[[-86.6887193737897,36.0470293546224],[-86.6887692226382,36.0470081895516],[-86.6888177674916,36.0469851130679],[-86.688899958419,36.0469448098589],[-86.6893397350337,36.0474148024018],[-86.6891782451249,36.0475168200675],[-86.6887193737897,36.0470293546224]]]},"properties":{"id":"266330","parcel":"16211001100","address":"549 MICHELE DR","owner":"ZERMENO, JOSE","point":[-86.68903009691354,36.047222080321774]}},{"type":"Feature","id":"266331","geometry":{"type":"Polygon","coordinates":[[[-86.688899958419,36.0469448098589],[-86.688962651214,36.0469081529237],[-86.6890236846644,36.0468696929493],[-86.6890829804041,36.0468294799573],[-86.689503926833,36.0473127681548],[-86.6894796893347,36.0473260935937],[-86.6893397350337,36.0474148024018],[-86.688899958419,36.0469448098589]]]},"properties":{"id":"266331","parcel":"16211001200","address":"545 MICHELE DR","owner":"HERNANDEZ, ANGIE ALEXA","point":[-86.68920789681421,36.04712880482296]}},{"type":"Feature","id":"266409","geometry":{"type":"Polygon","coordinates":[[[-86.6884736590904,36.0486548648513],[-86.6885004538857,36.048623944466],[-86.6886531801997,36.0484472546482],[-86.6888148844017,36.0483694108776],[-86.6890450727926,36.0486999487538],[-86.6890219061361,36.0487120323033],[-86.6890012869786,36.0487268493144],[-86.6889837017563,36.0487440527148],[-86.6889695620504,36.048763238178],[-86.6889592002251,36.0487839531604],[-86.6884736590904,36.0486548648513]]]},"properties":{"id":"266409","parcel":"16211003400","address":"665 ROXANNE DR","owner":"RESICAP TENNESSEE OWNER II, LLC","point":[-86.68875403838267,36.04853605978469]}},{"type":"Feature","id":"266700","geometry":{"type":"Polygon","coordinates":[[[-86.6893026551981,36.0498595271192],[-86.6893321850268,36.049832727831],[-86.6893591025087,36.0498041724454],[-86.6893832470429,36.0497740268187],[-86.6894044803269,36.0497424683964],[-86.6898498948263,36.0499245270002],[-86.6898370506628,36.0500037183703],[-86.6898064837448,36.0502236636246],[-86.6893026551981,36.0498595271192]]]},"properties":{"id":"266700","parcel":"16207021600","address":"717 YOEST CIR","owner":"RAQHIBUDIN, SYED MOHAMED","point":[-86.6896447122284,36.04996360833099]}},{"type":"Feature","id":"266707","geometry":{"type":"Polygon","coordinates":[[[-86.6889195582487,36.0495182139339],[-86.689279936035,36.0495688976344],[-86.6892671887393,36.0496071049804],[-86.6892502522261,36.0496442231919],[-86.6892292626063,36.0496799504581],[-86.689204390482,36.049713994685],[-86.6891758410011,36.049746079804],[-86.6891438449481,36.0497759422175],[-86.689108662167,36.0498033415956],[-86.6890705814915,36.0498280527644],[-86.689029911944,36.0498498747696],[-86.6889869849477,36.0498686299624],[-86.688942151013,36.0498841658216],[-86.6888957730777,36.0498963549913],[-86.6889195582487,36.0495182139339]]]},"properties":{"id":"266707","parcel":"16207021900","address":"712 YOEST CIR","owner":"MARTINEZ, JAVIER VAZQUEZ & CARRILLO, ELSA ORTIZ","point":[-86.68906259558877,36.049696572675415]}},{"type":"Feature","id":"266710","geometry":{"type":"Polygon","coordinates":[[[-86.6889195582487,36.0495182139339],[-86.6889244754921,36.0494610450033],[-86.688749757232,36.0492862274091],[-86.6893268146757,36.0493576503605],[-86.6893151944591,36.0494148549464],[-86.689298477661,36.0494920143788],[-86.689279936035,36.0495688976344],[-86.6889195582487,36.0495182139339]]]},"properties":{"id":"266710","parcel":"16207022000","address":"708 YOEST CIR","owner":"BAGLEY, KEITH & UNDRA","point":[-86.68910545494745,36.049437912845875]}},{"type":"Feature","id":"268085","geometry":{"type":"Polygon","coordinates":[[[-86.6875368225396,36.0476624536405],[-86.6875696540009,36.0476415655152],[-86.6876041349922,36.0476225111056],[-86.6877468330621,36.0475381842601],[-86.6880981609251,36.0481075826477],[-86.6880375525221,36.0481323554333],[-86.687978215114,36.0481590812363],[-86.6879202448753,36.0481877162477],[-86.6875368225396,36.0476624536405]]]},"properties":{"id":"268085","parcel":"16211002300","address":"577 MICHELE DR","owner":"KLEVE, JASON","point":[-86.68783006300535,36.04788505120758]}},{"type":"Feature","id":"268787","geometry":{"type":"Polygon","coordinates":[[[-86.6887072554216,36.043757034247],[-86.6888036267644,36.0437015678207],[-86.6889021979837,36.0436487105929],[-86.689002859714,36.0435985199649],[-86.6891055036848,36.0435510515295],[-86.6892100193681,36.0435063563861],[-86.6893162906571,36.0434644820613],[-86.689424203665,36.0434254760692],[-86.6896085896564,36.0434683751591],[-86.6894126973938,36.0449067987254],[-86.6891836384213,36.0465783674715],[-86.6891383842935,36.0466245812215],[-86.68909048876,36.046669006577],[-86.689041169319,36.0467104937387],[-86.6889894633301,36.0467500179959],[-86.6889354876406,36.0467874876475],[-86.6888793680391,36.0468228181515],[-86.6888212314479,36.0468559276636],[-86.6887612092922,36.0468867415238],[-86.6886994418993,36.0469151877256],[-86.6883732055679,36.0470555095693],[-86.6883131536194,36.0470811265382],[-86.6882545944198,36.0471089295914],[-86.6887072554216,36.043757034247]]]},"properties":{"id":"268787","parcel":"16200014400","address":"0 BELL RD","owner":"MOBLEY, IDA J.","point":[-86.68886879465533,36.045741469764096]}},{"type":"Feature","id":"269240","geometry":{"type":"Polygon","coordinates":[[[-86.6885387327716,36.0471073065011],[-86.6887193737897,36.0470293546224],[-86.6891782451249,36.0475168200675],[-86.689022130229,36.0476144120935],[-86.6885387327716,36.0471073065011]]]},"properties":{"id":"269240","parcel":"16211001000","address":"553 MICHELE DR","owner":"ARREDONDO, BERNARDO RAMIREZ & ELIZABETH","point":[-86.68885970841578,36.04731206687692]}},{"type":"Feature","id":"269282","geometry":{"type":"Polygon","coordinates":[[[-86.6890829804041,36.0468294799573],[-86.6891326042767,36.0467913537505],[-86.6891803635605,36.046751687968],[-86.6892261844168,36.0467105425192],[-86.6892699996893,36.0466679799794],[-86.6893103305735,36.0466254761092],[-86.6893487469509,36.0465818187099],[-86.6896845707008,36.047234814814],[-86.6896375235565,36.0472512919451],[-86.6895916461411,36.047269813699],[-86.6895470700462,36.0472903252469],[-86.689503926833,36.0473127681548],[-86.6890829804041,36.0468294799573]]]},"properties":{"id":"269282","parcel":"16211001300","address":"541 MICHELE DR","owner":"ORDONEZ, RICARDO & FERRUF, ELSY NOHEMY","point":[-86.68941991375142,36.04703224138352]}},{"type":"Feature","id":"269319","geometry":{"type":"Polygon","coordinates":[[[-86.6893487469509,36.0465818187099],[-86.6896678891644,36.0462481387476],[-86.6898871263685,36.0471875030839],[-86.6898187584726,36.0472008045206],[-86.6897511945117,36.0472165861722],[-86.6896845707008,36.047234814814],[-86.6893487469509,36.0465818187099]]]},"properties":{"id":"269319","parcel":"16211001400","address":"537 MICHELE DR","owner":"CUBIAS, KARLA X AMAYA & KENIA UMANZOR","point":[-86.68966045351631,36.04688477126335]}},{"type":"Feature","id":"269326","geometry":{"type":"Polygon","coordinates":[[[-86.6888110179629,36.0479232983927],[-86.6889671113479,36.0478235094317],[-86.6893086156387,36.0481951662305],[-86.6891551480798,36.0482861503335],[-86.6888110179629,36.0479232983927]]]},"properties":{"id":"269326","parcel":"16211001600","address":"552 MICHELE DR","owner":"AVILA, VERONICA","point":[-86.68906182399978,36.048059237775874]}},{"type":"Feature","id":"269332","geometry":{"type":"Polygon","coordinates":[[[-86.6884311851075,36.0481254603888],[-86.6885357754196,36.0480754469797],[-86.6886386801974,36.0480231799728],[-86.6888849350374,36.0483338475706],[-86.6888148844017,36.0483694108776],[-86.6886531801997,36.0484472546482],[-86.6884311851075,36.0481254603888]]]},"properties":{"id":"269332","parcel":"16211001800","address":"560 MICHELE DR","owner":"KOPP, KERRY P. ET UX","point":[-86.6886527142499,36.04822964031233]}},{"type":"Feature","id":"269337","geometry":{"type":"Polygon","coordinates":[[[-86.6882424231868,36.0482034581783],[-86.6883373612679,36.0481653484151],[-86.6884311851075,36.0481254603888],[-86.6886531801997,36.0484472546482],[-86.6885004538857,36.048623944466],[-86.6882424231868,36.0482034581783]]]},"properties":{"id":"269337","parcel":"16211001900","address":"564 MICHELE DR","owner":"HERNANDEZ, JOSE J","point":[-86.68844316068066,36.04832534452956]}},{"type":"Feature","id":"269341","geometry":{"type":"Polygon","coordinates":[[[-86.6889671113479,36.0478235094317],[-86.6891420564038,36.0477126212387],[-86.6894451793962,36.0480273617025],[-86.6893944905379,36.0481111624456],[-86.6893624520409,36.0481618927269],[-86.6893086156387,36.0481951662305],[-86.6889671113479,36.0478235094317]]]},"properties":{"id":"269341","parcel":"16211000800","address":"548 MICHELE DR","owner":"TAYLOR, BRUCE LAMONT & ROSA B.","point":[-86.68920389434956,36.047925429970334]}},{"type":"Feature","id":"269343","geometry":{"type":"Polygon","coordinates":[[[-86.6883607981472,36.0471852426466],[-86.6883980294122,36.0471677829003],[-86.6884362826884,36.0471518458907],[-86.6885387327716,36.0471073065011],[-86.689022130229,36.0476144120935],[-86.688857952903,36.0477186429305],[-86.6883607981472,36.0471852426466]]]},"properties":{"id":"269343","parcel":"16211000900","address":"557 MICHELE DR","owner":"MURREY, CAMPBELL","point":[-86.68868918691737,36.0473998219148]}},{"type":"Feature","id":"269345","geometry":{"type":"Polygon","coordinates":[[[-86.6896678891644,36.0462481387476],[-86.6898582835566,36.0460470572916],[-86.6898844676678,36.0460207420533],[-86.6899134169057,36.0459964127434],[-86.6899449065294,36.0459742608188],[-86.6899786883454,36.0459544607461],[-86.6900144951233,36.045937167273],[-86.6900520472696,36.0459225171921],[-86.6900709356373,36.0459161748114],[-86.6900385340439,36.0471712503134],[-86.689962619801,36.0471780868299],[-86.6898871263685,36.0471875030839],[-86.6896678891644,36.0462481387476]]]},"properties":{"id":"269345","parcel":"16211001500","address":"533 MICHELE DR","owner":"TOWNSEND, SANDRA L.","point":[-86.6899130001972,36.046709849335585]}},{"type":"Feature","id":"269347","geometry":{"type":"Polygon","coordinates":[[[-86.6886386801974,36.0480231799728],[-86.6887078693882,36.0479849295359],[-86.6887760259155,36.0479454754303],[-86.6888110179629,36.0479232983927],[-86.6891551480798,36.0482861503335],[-86.6888849350374,36.0483338475706],[-86.6886386801974,36.0480231799728]]]},"properties":{"id":"269347","parcel":"16211001700","address":"556 MICHELE DR","owner":"MCCOMB, STEVEN","point":[-86.68888668115844,36.04815463887848]}},{"type":"Feature","id":"269349","geometry":{"type":"Polygon","coordinates":[[[-86.6880482853771,36.0482858819489],[-86.6881052967748,36.048258789951],[-86.6881635141425,36.0482334467506],[-86.6882228578822,36.0482098879509],[-86.6882424231868,36.0482034581783],[-86.6885004538857,36.048623944466],[-86.6884736590904,36.0486548648513],[-86.6883798950839,36.0487652856446],[-86.6880482853771,36.0482858819489]]]},"properties":{"id":"269349","parcel":"16211002000","address":"568 MICHELE DR","owner":"TURNER, JESSE B. & WILSON, KATHERINE NELL","point":[-86.68828096638593,36.04845493057342]}},{"type":"Feature","id":"269350","geometry":{"type":"Polygon","coordinates":[[[-86.6877468330621,36.0475381842601],[-86.6879218552823,36.0474360885734],[-86.6883004342774,36.0480273096682],[-86.688243962045,36.0480514018953],[-86.6881863934144,36.0480737185078],[-86.6881278146789,36.0480942274663],[-86.6880981609251,36.0481075826477],[-86.6877468330621,36.0475381842601]]]},"properties":{"id":"269350","parcel":"16211002400","address":"573 MICHELE DR","owner":"TURNER, JESSE B. & WILSON, KATHERINE NELL","point":[-86.68802078079291,36.047782739863166]}},{"type":"Feature","id":"269352","geometry":{"type":"Polygon","coordinates":[[[-86.6879218552823,36.0474360885734],[-86.6880537871942,36.0473584175482],[-86.6885025750722,36.0479316538969],[-86.6884026230784,36.0479810396244],[-86.6883004342774,36.0480273096682],[-86.6879218552823,36.0474360885734]]]},"properties":{"id":"269352","parcel":"16211002500","address":"569 MICHELE DR","owner":"CASTILLO MANAGEMENT CO.","point":[-86.68819454005573,36.04768382562391]}},{"type":"Feature","id":"269356","geometry":{"type":"Polygon","coordinates":[[[-86.6878515947537,36.0483859014214],[-86.6879488620159,36.0483344936714],[-86.6880482853771,36.0482858819489],[-86.6883798950839,36.0487652856446],[-86.6883102211747,36.0488448014674],[-86.6878515947537,36.0483859014214]]]},"properties":{"id":"269356","parcel":"16211002100","address":"572 MICHELE DR","owner":"MCGAHA, REBA C.","point":[-86.68814495031621,36.04857566979549]}},{"type":"Feature","id":"269358","geometry":{"type":"Polygon","coordinates":[[[-86.6872728402298,36.0478046128086],[-86.6874057412202,36.0477346475096],[-86.6875368225396,36.0476624536405],[-86.6879202448753,36.0481877162477],[-86.6878316794356,36.0482319955861],[-86.6877451236701,36.0482788212483],[-86.6872728402298,36.0478046128086]]]},"properties":{"id":"269358","parcel":"16211002200","address":"581 MICHELE DR","owner":"KAKAR, MIKE & SPOZHMAI","point":[-86.68762201853673,36.04799623134557]}},{"type":"Feature","id":"269681","geometry":{"type":"Polygon","coordinates":[[[-86.6878991107016,36.0397486558571],[-86.6884155517752,36.0397852894237],[-86.6880881621108,36.0434270916985],[-86.6880581778847,36.0437905044749],[-86.6879819526966,36.0438338870538],[-86.6879045713808,36.0438758999133],[-86.6878086942403,36.0439291942889],[-86.6875109814208,36.0440946746964],[-86.6878991107016,36.0397486558571]]]},"properties":{"id":"269681","parcel":"16200014600","address":"1466 BELL RD","owner":"NATIVE AMERICAN INDIAN ASSOCIATION OF TENNESSEE","point":[-86.68799260346258,36.04160551661477]}},{"type":"Feature","id":"269685","geometry":{"type":"Polygon","coordinates":[[[-86.6880881621108,36.0434270916985],[-86.6884155517752,36.0397852894237],[-86.6891031245867,36.0398340587346],[-86.6888527227131,36.0421450453331],[-86.688291497018,36.0421163375606],[-86.6881656898333,36.0437291535182],[-86.6881253956285,36.0437515679734],[-86.6880581778847,36.0437905044749],[-86.6880881621108,36.0434270916985]]]},"properties":{"id":"269685","parcel":"16200014700","address":"0 BELL RD","owner":"JORDAN, ALONZO B.","point":[-86.68864403865543,36.0409750606352]}},{"type":"Feature","id":"270848","geometry":{"type":"Polygon","coordinates":[[[-86.6888889916256,36.0491140100177],[-86.6890335998223,36.0489373670449],[-86.6890585556848,36.048947051113],[-86.6890850874698,36.0489533977044],[-86.6891125223061,36.0489562448282],[-86.6891401681267,36.0489555207331],[-86.6891673203206,36.0489512429676],[-86.6891932928389,36.0489435218075],[-86.689217429215,36.0489325511799],[-86.6892391147884,36.0489186103957],[-86.6892559257235,36.0489067010529],[-86.6892758118156,36.0488983459284],[-86.6892974297233,36.0488946486716],[-86.6893197627699,36.0488953474141],[-86.689341121943,36.0489007194995],[-86.6893598100378,36.0489102257517],[-86.6893751464728,36.0489233265876],[-86.6893861085715,36.04893919687],[-86.6893913350712,36.0489567466169],[-86.6893911538655,36.0489748806896],[-86.6893783236966,36.0490557204043],[-86.6893604347257,36.0491772453031],[-86.6888889916256,36.0491140100177]]]},"properties":{"id":"270848","parcel":"16211003100","address":"700 YOEST CIR","owner":"SLOAN, NORA","point":[-86.6891777087349,36.0490147639991]}},{"type":"Feature","id":"270850","geometry":{"type":"Polygon","coordinates":[[[-86.6883102211747,36.0488448014674],[-86.6883798950839,36.0487652856446],[-86.6884736590904,36.0486548648513],[-86.6889592002251,36.0487839531604],[-86.6889548661538,36.048805963985],[-86.6889544589369,36.0488282524896],[-86.6889579856835,36.0488503580748],[-86.6889653747533,36.0488718259987],[-86.6884958565996,36.0490305458526],[-86.6883102211747,36.0488448014674]]]},"properties":{"id":"270850","parcel":"16211003300","address":"664 ROXANNE DR","owner":"COLE, JANET","point":[-86.68863704974831,36.048836539642544]}},{"type":"Feature","id":"270909","geometry":{"type":"Polygon","coordinates":[[[-86.6880537871942,36.0473584175482],[-86.6881884266939,36.0472807291111],[-86.6887018372173,36.0478162345371],[-86.6886749475676,36.0478361678988],[-86.68858939609,36.0478846666385],[-86.6885025750722,36.0479316538969],[-86.6880537871942,36.0473584175482]]]},"properties":{"id":"270909","parcel":"16211002600","address":"565 MICHELE DR","owner":"DIAZ, OVIDIO E MEJIA & PEREZ, VERONICA GUATZIN","point":[-86.68835766905485,36.04758727412619]}},{"type":"Feature","id":"270913","geometry":{"type":"Polygon","coordinates":[[[-86.6881884266939,36.0472807291111],[-86.6882557362684,36.0472407853201],[-86.6882894777819,36.0472207065628],[-86.6883245333868,36.0472021732118],[-86.6883607981472,36.0471852426466],[-86.688857952903,36.0477186429305],[-86.6887018372173,36.0478162345371],[-86.6881884266939,36.0472807291111]]]},"properties":{"id":"270913","parcel":"16211002700","address":"561 MICHELE DR","owner":"MOSBY, ABIGAIL","point":[-86.68852611403975,36.047499694086916]}},{"type":"Feature","id":"270918","geometry":{"type":"Polygon","coordinates":[[[-86.6895615115467,36.0491262121948],[-86.6895742295224,36.049032462136],[-86.6895818066791,36.0489700585838],[-86.6895840074908,36.0489593098344],[-86.6895883508008,36.0489489994698],[-86.68959471808,36.0489394093706],[-86.6896029384195,36.0489307964803],[-86.6896127874604,36.0489233973189],[-86.6896239994454,36.0489174098879],[-86.6896362683672,36.0489129981699],[-86.6896492634203,36.0489102821268],[-86.6896626300867,36.0489093349888],[-86.6896760067674,36.0489101813575],[-86.6899915126836,36.0489390994117],[-86.6900145616717,36.0489412116543],[-86.6899679308902,36.0491810259708],[-86.6895615115467,36.0491262121948]]]},"properties":{"id":"270918","parcel":"16211002800","address":"648 ROXANNE DR","owner":"CARTER, TERRY B. & CHARLOTTE A.","point":[-86.68977768162573,36.04907988023657]}},{"type":"Feature","id":"270921","geometry":{"type":"Polygon","coordinates":[[[-86.6895202716666,36.0493637999332],[-86.6895424842067,36.0492451884791],[-86.6895615115467,36.0491262121948],[-86.6899679308902,36.0491810259708],[-86.6899498652191,36.0492822242957],[-86.6899239483182,36.0494142330653],[-86.6895202716666,36.0493637999332]]]},"properties":{"id":"270921","parcel":"16211002900","address":"705 YOEST CIR","owner":"YAMASA CO., LTD","point":[-86.68974609604422,36.04926370635677]}},{"type":"Feature","id":"270925","geometry":{"type":"Polygon","coordinates":[[[-86.688749757232,36.0492862274091],[-86.6888889916256,36.0491140100177],[-86.6893604347257,36.0491772453031],[-86.6893420359216,36.0492672523293],[-86.6893268146757,36.0493576503605],[-86.688749757232,36.0492862274091]]]},"properties":{"id":"270925","parcel":"16211003000","address":"704 YOEST CIR","owner":"KUMSSA, YARED MELESSE","point":[-86.6890769341607,36.04922153777053]}},{"type":"Feature","id":"270929","geometry":{"type":"Polygon","coordinates":[[[-86.6888148844017,36.0483694108776],[-86.6888849350374,36.0483338475706],[-86.6891551480798,36.0482861503335],[-86.6893086156387,36.0481951662305],[-86.6893624520409,36.0481618927269],[-86.6891776166139,36.0486925979197],[-86.6891557509158,36.0486872962986],[-86.6891331762838,36.0486845845262],[-86.6891103560255,36.0486845203391],[-86.6890877596067,36.0486871037567],[-86.6890658482639,36.0486922816696],[-86.6890450727926,36.0486999487538],[-86.6888148844017,36.0483694108776]]]},"properties":{"id":"270929","parcel":"16211003500","address":"661 ROXANNE DR","owner":"AMNL ASSET COMPANY 1 LLC","point":[-86.68907979751633,36.04852726963509]}},{"type":"Feature","id":"270933","geometry":{"type":"Polygon","coordinates":[[[-86.6891776166139,36.0486925979197],[-86.6893624520409,36.0481618927269],[-86.6894909933128,36.0483171948807],[-86.6894298205919,36.0487526936031],[-86.6893215157542,36.0487467175081],[-86.6893037792658,36.0487463448792],[-86.6892863072984,36.0487438400872],[-86.6892694865792,36.0487392604053],[-86.6892536853521,36.048732707376],[-86.6892392566748,36.0487243231868],[-86.6892265173721,36.0487142952969],[-86.6892112611973,36.0487055787547],[-86.6891948911238,36.0486983151499],[-86.6891776166139,36.0486925979197]]]},"properties":{"id":"270933","parcel":"16211003600","address":"657 ROXANNE DR","owner":"PASTRANA, ELDA","point":[-86.68935382636201,36.04850494708839]}},{"type":"Feature","id":"270937","geometry":{"type":"Polygon","coordinates":[[[-86.6894298205919,36.0487526936031],[-86.6894909933128,36.0483171948807],[-86.6896113788163,36.048468150681],[-86.6897548604429,36.0484739197772],[-86.6897141565979,36.0487730409769],[-86.6894298205919,36.0487526936031]]]},"properties":{"id":"270937","parcel":"16211003700","address":"653 ROXANNE DR","owner":"ALVAREZ, NAVALIE","point":[-86.68959264707509,36.04861330759628]}},{"type":"Feature","id":"270941","geometry":{"type":"Polygon","coordinates":[[[-86.6897141565979,36.0487730409769],[-86.6897548604429,36.0484739197772],[-86.6900769863644,36.0484830641796],[-86.690020217967,36.0488020571691],[-86.6897141565979,36.0487730409769]]]},"properties":{"id":"270941","parcel":"16211003800","address":"649 ROXANNE DR","owner":"SILY, CHANDORA J.","point":[-86.68989252788305,36.04862804484569]}},{"type":"Feature","id":"271354","geometry":{"type":"Polygon","coordinates":[[[-86.6884958565996,36.0490305458526],[-86.6889653747533,36.0488718259987],[-86.6889783335297,36.0488907844364],[-86.6889942113373,36.0489082183273],[-86.6890127370499,36.0489238344991],[-86.6890335998223,36.0489373670449],[-86.6888889916256,36.0491140100177],[-86.688749757232,36.0492862274091],[-86.6884958565996,36.0490305458526]]]},"properties":{"id":"271354","parcel":"16211003200","address":"660 ROXANNE DR","owner":"PINEDA, ARNOLD RAMON LEIVA & VARGAS, ANA SUYAPA PEREZ","point":[-86.68872978152484,36.049072375091036]}},{"type":"Feature","id":"272760","geometry":{"type":"Polygon","coordinates":[[[-86.6894126973938,36.0449067987254],[-86.6906406148626,36.0448294408923],[-86.6905057684334,36.045816985554],[-86.6903215292084,36.0457916684468],[-86.6902763251885,36.045786916213],[-86.6902308042581,36.0457850318793],[-86.6901852395066,36.0457860246967],[-86.6901399083452,36.0457898903723],[-86.6900950835739,36.0457966048121],[-86.6900510367501,36.0458061286074],[-86.6900053429388,36.0458193580064],[-86.6899611536616,36.0458356143181],[-86.6899187742536,36.0458547858386],[-86.6898784954594,36.0458767420209],[-86.6898405923003,36.0459013307773],[-86.689805326333,36.0459283829729],[-86.6897729401165,36.0459577142599],[-86.6892426193319,36.0465142990603],[-86.689213737499,36.0465467024722],[-86.6891836384213,36.0465783674715],[-86.6894126973938,36.0449067987254]]]},"properties":{"id":"272760","parcel":"16200014500","address":"0 BENZING RD","owner":"JOHNSON, EMMA J.","point":[-86.68996125980276,36.04534627684361]}},{"type":"Feature","id":"272868","geometry":{"type":"Polygon","coordinates":[[[-86.6872875750713,36.0476309098198],[-86.6874883355404,36.0461243346195],[-86.6875195768799,36.0458885232258],[-86.6877321604809,36.0442837515584],[-86.6877322001554,36.0442834629191],[-86.6883945807521,36.0439258488135],[-86.6887072554216,36.043757034247],[-86.6882545944198,36.0471089295914],[-86.6882145127297,36.0471287813709],[-86.6881764792297,36.0471511342356],[-86.6875248738297,36.0475328551196],[-86.6872905668985,36.0476638583137],[-86.6872875750713,36.0476309098198]]]},"properties":{"id":"272868","parcel":"16200014300","address":"1477 BELL RD","owner":"JACOX, FRANCES D. JORDAN & FREDIS A., JR.","point":[-86.68807666137879,36.045087311114784]}}]}