{"type":"FeatureCollection","features":[{"type":"Feature","id":"32453","geometry":{"type":"Polygon","coordinates":[[[-86.6404523354036,36.0971734253656],[-86.6408619155494,36.0971703769311],[-86.640842130941,36.0972545422532],[-86.6406939670793,36.097701363633],[-86.6401302122706,36.0976773048731],[-86.6401353510028,36.0971757826258],[-86.6404523354036,36.0971734253656]]]},"properties":{"id":"32453","parcel":"13500042600","address":"134 UNA RECREATION RD","owner":"DIRECTORS, UNA RECREATION CENTER INC.","point":[-86.64045207147335,36.09746582178397]}},{"type":"Feature","id":"44677","geometry":{"type":"Polygon","coordinates":[[[-86.6473805160101,36.0923661643059],[-86.6473805233717,36.0923661137949],[-86.6477353456031,36.092408194218],[-86.6484619643643,36.0924943615307],[-86.6489815416071,36.0925527458245],[-86.6492831662692,36.0925866405041],[-86.6492652577762,36.092714201863],[-86.6500295240899,36.092816159207],[-86.6500293558521,36.0928162268085],[-86.6503329359894,36.0928455947299],[-86.6511895983379,36.0929284638438],[-86.6513723684158,36.0934731243138],[-86.651543680982,36.094031885548],[-86.6507415523382,36.0939510706451],[-86.6507131894764,36.0939480872611],[-86.6506693894077,36.0939438370578],[-86.6471739936203,36.0936045153298],[-86.6473805160101,36.0923661643059]]]},"properties":{"id":"44677","parcel":"13500043000","address":"2128 MURFREESBORO PIKE","owner":"REDEEMED CHRISTIAN CHURCH OF GOD, AGAPE HOUSE NASH.","point":[-86.64926213858331,36.09319490220338]}},{"type":"Feature","id":"53329","geometry":{"type":"Polygon","coordinates":[[[-86.6407569674505,36.0981445853262],[-86.6408640309682,36.0978048529039],[-86.6414057517091,36.0979166537566],[-86.6413397236137,36.0982732800445],[-86.6407569674505,36.0981445853262]]]},"properties":{"id":"53329","parcel":"13507000100","address":"141 UNA RECREATION RD","owner":"FRAZIER, KIMBERLY","point":[-86.64108881906255,36.098030642326094]}},{"type":"Feature","id":"53332","geometry":{"type":"Polygon","coordinates":[[[-86.640707576619,36.0983013109737],[-86.6407569674505,36.0981445853262],[-86.6413397236137,36.0982732800445],[-86.6412704259833,36.0986470253486],[-86.6406221153608,36.0985729019905],[-86.6406244719518,36.0985647797957],[-86.6406376619584,36.0985205886904],[-86.6406523047616,36.0984766999037],[-86.6406811437496,36.0983851889095],[-86.640707576619,36.0983013109737]]]},"properties":{"id":"53332","parcel":"13507000200","address":"147 UNA RECREATION RD","owner":"NWOZO, MADUBUEZE ET AL","point":[-86.64098842866598,36.09843190869879]}},{"type":"Feature","id":"98447","geometry":{"type":"Polygon","coordinates":[[[-86.6435010165197,36.0920243457059],[-86.6435401547137,36.0916330565048],[-86.6439018319538,36.0915967870172],[-86.6442226722366,36.0920319385092],[-86.6441050616372,36.0920211205892],[-86.6440896001909,36.0920918506786],[-86.6435010165197,36.0920243457059]]]},"properties":{"id":"98447","parcel":"13500043800","address":"790 B NASHBORO BLVD","owner":"CARY FELTS CEMETERY","point":[-86.64379650901917,36.09182701130562]}},{"type":"Feature","id":"102062","geometry":{"type":"Polygon","coordinates":[[[-86.6423851440698,36.0917489097385],[-86.6423965527136,36.0914851280963],[-86.6425018103779,36.0914894467967],[-86.6426068292794,36.0914966444552],[-86.6426506071174,36.0915005660286],[-86.6426942256241,36.0915055185951],[-86.6427290588623,36.0915020360561],[-86.6427618000485,36.0914908731606],[-86.6427890702303,36.0914728716899],[-86.6428091882702,36.0914494141563],[-86.6428208139336,36.0914221561437],[-86.6428226136572,36.091393576967],[-86.6428149405695,36.0913655971683],[-86.6427981544749,36.0913406879319],[-86.642773281398,36.0913202173312],[-86.6427423667105,36.0913060977837],[-86.6427081275496,36.0912994125575],[-86.6426729379434,36.0913006987756],[-86.6426522663327,36.0913062436518],[-86.6426395016966,36.0913096671374],[-86.6426101861775,36.0913257570514],[-86.6425876874087,36.0913478536936],[-86.642578946824,36.0913581162489],[-86.6425683407073,36.091367145884],[-86.6425561282304,36.0913747222068],[-86.6425426088171,36.0913806588595],[-86.6425281144286,36.0913848107698],[-86.6425129984809,36.0913870769137],[-86.6424976325213,36.0913874012344],[-86.6424823929251,36.0913857754175],[-86.642451227343,36.0913823697117],[-86.6423885664094,36.0913769344804],[-86.6423570732777,36.0913749049428],[-86.6422941627325,36.0913722442218],[-86.6422311761013,36.0913712972007],[-86.6421681866811,36.0913720652919],[-86.6421516055706,36.0913735857258],[-86.6421349488864,36.0913727632395],[-86.6421187165204,36.091369621308],[-86.6421033956084,36.0913642537741],[-86.6420894438582,36.0913568231344],[-86.6420772805872,36.0913475506734],[-86.6420676604844,36.0913365225007],[-86.6420604297088,36.0913243514031],[-86.6420557875393,36.0913113752001],[-86.6420538634665,36.0912979528121],[-86.6420556051084,36.0912555600832],[-86.6420603906115,36.0912133214872],[-86.6420682022673,36.0911713822237],[-86.642079014558,36.0911298830273],[-86.6420927897664,36.0910889664997],[-86.642410254091,36.0911707869956],[-86.6425043619939,36.0910889687527],[-86.6425850384922,36.0910204131049],[-86.6426925772836,36.0909253401526],[-86.6428216706163,36.0908169656056],[-86.6426006139353,36.0906027719791],[-86.642641031907,36.0905783816122],[-86.6426826545423,36.0905501318504],[-86.6427215958836,36.0905194656213],[-86.642757641872,36.090486551706],[-86.6427905973992,36.0904515677977],[-86.6428202830274,36.0904147068273],[-86.6428465360121,36.0903761661435],[-86.6428692137353,36.0903361601116],[-86.6428881913535,36.0902949039032],[-86.6429033663192,36.090252623386],[-86.6429146572265,36.0902095497227],[-86.6429220004654,36.0901659175855],[-86.6430442790671,36.0907346519753],[-86.6431189876482,36.0910821258046],[-86.6431414644135,36.0911866685334],[-86.6431391785598,36.0914368932796],[-86.6431357224397,36.091815234472],[-86.6427435410387,36.0917805805407],[-86.6425878676044,36.0917668239795],[-86.6423851440698,36.0917489097385]],[[-86.6429230704275,36.091636159064],[-86.6429282902005,36.0916119571797],[-86.6429554196059,36.0916184053649],[-86.6429686907995,36.0915853694904],[-86.6428710385548,36.0915639134233],[-86.6428498759422,36.0916255609398],[-86.6428313848957,36.0916827995822],[-86.6429290372758,36.0917042556808],[-86.6429396002222,36.0916712342506],[-86.6429124708002,36.0916647860618],[-86.6429230704275,36.091636159064]],[[-86.6425228772681,36.0917042224157],[-86.642533228174,36.0916448298854],[-86.6425463040048,36.0915876210473],[-86.6424432897645,36.0915727860487],[-86.6424381409447,36.0916057785894],[-86.6424679785787,36.0916122124549],[-86.6424654658336,36.0916364007964],[-86.6424575565349,36.0916628152044],[-86.6424277377784,36.0916585803515],[-86.6424198995396,36.0916937827302],[-86.6425228772681,36.0917042224157]],[[-86.64261477636,36.0916839541631],[-86.6426581154005,36.091685920499],[-86.6426633530348,36.0916639158452],[-86.6426958623147,36.0916659407884],[-86.6427310787511,36.0916679503916],[-86.6427285494084,36.0916899406125],[-86.642750978263,36.0916910341765],[-86.6427691812922,36.0916919213385],[-86.6427793708563,36.0916127511215],[-86.6427575704599,36.0916116479038],[-86.6427008154343,36.0916087743261],[-86.6426249482935,36.0916025858391],[-86.64261477636,36.0916839541631]],[[-86.6429692455364,36.0913194474342],[-86.6429689609159,36.0912842856254],[-86.6429391800573,36.0912844444231],[-86.6429389666111,36.0912580741928],[-86.6429360426794,36.0912317175135],[-86.642963118592,36.09123157314],[-86.6429628517672,36.0911986094505],[-86.6429022290637,36.0912002278281],[-86.642859978015,36.0912013552726],[-86.6428619346832,36.0912377230893],[-86.6428631687038,36.0912606756434],[-86.6428663749592,36.0913221932439],[-86.6429692455364,36.0913194474342]],[[-86.6425946721672,36.0912071649696],[-86.6425184510083,36.0911570248216],[-86.6424915884177,36.091183539327],[-86.6425133733458,36.0911988071456],[-86.6424918905989,36.0912208983566],[-86.642473100547,36.0912407779029],[-86.6424486218051,36.0912277226447],[-86.6424217591673,36.0912542371341],[-86.6425033957755,36.0913043493875],[-86.6425490317785,36.0912557571993],[-86.6425946721672,36.0912071649696]],[[-86.6422973347636,36.0912702838761],[-86.6423101974727,36.0911867057276],[-86.6422668220486,36.0911803421308],[-86.6422616021023,36.091204543989],[-86.6422318012862,36.091202505405],[-86.6421992722227,36.0911982831293],[-86.6421991123151,36.0911785045539],[-86.6421584651585,36.0911743255035],[-86.6421483094618,36.0912578919229],[-86.6422241762362,36.0912640807102],[-86.6422973347636,36.0912702838761]],[[-86.6426534748445,36.0911123508731],[-86.642654150481,36.0911958596106],[-86.6427299449948,36.0911932574078],[-86.6428057584024,36.0911928532716],[-86.6428050826139,36.0911093454361],[-86.6427617605537,36.0911095763775],[-86.6427619739479,36.0911359475104],[-86.6427294826695,36.0911361207048],[-86.6426996996451,36.0911362794552],[-86.6426967969065,36.0911121199705],[-86.6426534748445,36.0911123508731]],[[-86.6428282280908,36.0906235354795],[-86.6427818079379,36.0905754339277],[-86.6427009920505,36.0906264110482],[-86.6427255706805,36.0906526523113],[-86.6427498147911,36.0906371391779],[-86.6427716351862,36.0906568022913],[-86.642790784025,36.0906808742706],[-86.6427692481483,36.0906963729753],[-86.6427965372833,36.0907225997747],[-86.6428746660828,36.0906738342319],[-86.6428282280908,36.0906235354795]]]},"properties":{"id":"102062","parcel":"135110B90000CO","address":"0 LONGHUNTER CIR","owner":"O.I.C. NASHBORO VILLAGE TRACT 17  REV. ","point":[-86.6428672995982,36.09097355780419]}},{"type":"Feature","id":"156401","geometry":{"type":"Polygon","coordinates":[[[-86.6410279197462,36.0970771255521],[-86.641036500675,36.0969722633727],[-86.6410413078552,36.0968672427985],[-86.6410423364697,36.0967621530817],[-86.6410437190516,36.0967512808524],[-86.6410472275214,36.0967407271886],[-86.6410527741411,36.0967307665446],[-86.6410602143861,36.0967216547494],[-86.6410693558143,36.0967136271574],[-86.6410799635607,36.0967068914091],[-86.6410917613965,36.0967016211161],[-86.6411044483499,36.0966979512672],[-86.6411176953677,36.0966959773443],[-86.641131160825,36.0966957507335],[-86.641254726373,36.0967063560493],[-86.6413786018397,36.0967142170079],[-86.6415026961028,36.0967193277841],[-86.6416269158259,36.0967216834663],[-86.6416210995131,36.09675268856],[-86.6415385050888,36.0971928694578],[-86.6410279197462,36.0970771255521]]]},"properties":{"id":"156401","parcel":"13500028700","address":"2240 SMITH SPRINGS RD","owner":"WATTS, RICK ET UX","point":[-86.64131417355155,36.096920577374775]}},{"type":"Feature","id":"156843","geometry":{"type":"Polygon","coordinates":[[[-86.640804324761,36.0998656459724],[-86.6407773090042,36.0998151090252],[-86.6407466529343,36.0997659586479],[-86.6407097397319,36.0996871778394],[-86.6406765593313,36.0996073118798],[-86.6406471603978,36.0995264749754],[-86.6406215860871,36.0994447867695],[-86.6405998728842,36.0993623660387],[-86.6405839698121,36.0992794890374],[-86.6430068167221,36.0995441197191],[-86.6429965757124,36.1000038733607],[-86.640804324761,36.0998656459724]]]},"properties":{"id":"156843","parcel":"13500029500","address":"161 UNA RECREATION RD","owner":"CORDELL, DWIGHT, III","point":[-86.64184875753551,36.09965070450242]}},{"type":"Feature","id":"156916","geometry":{"type":"Polygon","coordinates":[[[-86.6438144781221,36.0940444534741],[-86.6426547858857,36.0939517444061],[-86.6426362585885,36.0940045867488],[-86.6399294514455,36.0937926219243],[-86.6398048090319,36.0937822949697],[-86.6398400438905,36.093450258037],[-86.6403629612018,36.0934892383203],[-86.640427785931,36.0934919412626],[-86.640492693637,36.0934914378887],[-86.6405574433635,36.0934877312813],[-86.6406217942415,36.093480835338],[-86.6406855099238,36.0934707738471],[-86.6407483541873,36.0934575859183],[-86.6408100919997,36.0934413205697],[-86.6408704983959,36.093422035779],[-86.6409293463141,36.093399804857],[-86.6409864187599,36.0933747100745],[-86.6410415054898,36.0933468444816],[-86.6410944007756,36.0933163101179],[-86.6411449100889,36.09328322068],[-86.6411928456377,36.0932476988418],[-86.6412380296977,36.0932098762364],[-86.6418276524211,36.0927913805131],[-86.6418727499163,36.0927569316023],[-86.6419150305914,36.0927202048213],[-86.6419543213346,36.0926813525094],[-86.6419904590876,36.0926405341622],[-86.642023296412,36.092597918205],[-86.6420526970324,36.0925536802137],[-86.6420785391611,36.092508001996],[-86.6421007177257,36.0924610724806],[-86.642119141009,36.0924130841298],[-86.6421337328908,36.0923642356315],[-86.6421444317091,36.0923147283003],[-86.6421511969146,36.0922647651405],[-86.6421539968781,36.0922145536149],[-86.6421528232745,36.0921642992592],[-86.6421476777873,36.0921142093581],[-86.6421385843077,36.0920644910776],[-86.6421240335852,36.0919393009891],[-86.6440664170963,36.093390398117],[-86.644519593766,36.0931769995433],[-86.6451457964217,36.0922638117643],[-86.6459874230434,36.0922043640057],[-86.6473805233717,36.0923661137949],[-86.6473805160101,36.0923661643059],[-86.6471739936203,36.0936045153298],[-86.6471739777496,36.0936046118516],[-86.6470578054974,36.0942996050602],[-86.6438144781221,36.0940444534741]]]},"properties":{"id":"156916","parcel":"13500033600","address":"600 B LONGHUNTER LN","owner":"WRPV XIII NV NASHVILLE LLC","point":[-86.6459621102476,36.09299246837468]}},{"type":"Feature","id":"156918","geometry":{"type":"Polygon","coordinates":[[[-86.6417924008293,36.0961364317625],[-86.6418715292374,36.0955404383764],[-86.6422610886084,36.0954944125144],[-86.6421018605092,36.0965655293532],[-86.6419793737113,36.0965742010589],[-86.6418566281174,36.0965799845272],[-86.6417337269782,36.0965828747013],[-86.6417924008293,36.0961364317625]]]},"properties":{"id":"156918","parcel":"13500033700","address":"2233 SMITH SPRINGS RD","owner":"FISCHER, KEVIN","point":[-86.64202087271413,36.09583899957544]}},{"type":"Feature","id":"158480","geometry":{"type":"Polygon","coordinates":[[[-86.6414178380568,36.0919622874503],[-86.6414535056885,36.0919362770326],[-86.6414736294198,36.0919553996218],[-86.641518400163,36.0919249434271],[-86.6415862666317,36.0919883152344],[-86.6415428661025,36.0920206865873],[-86.641552419984,36.0920302514788],[-86.6415221456325,36.0920534879421],[-86.6415105563826,36.0920433849992],[-86.6414437492056,36.0919855016989],[-86.6414178380568,36.0919622874503]]]},"properties":{"id":"158480","parcel":"135110C00400CO","address":"107 NASHBORO GRNS","owner":"RAMADHAN, SAADIYAH & ALHAJAJ, ZAID","point":[-86.64151495063551,36.09200435249793]}},{"type":"Feature","id":"158481","geometry":{"type":"Polygon","coordinates":[[[-86.6413441741947,36.0920192713523],[-86.6413758043916,36.0919963026112],[-86.6413993281636,36.0920176044405],[-86.6414437492056,36.0919855016989],[-86.6415105563826,36.0920433849992],[-86.64141698723,36.092108439426],[-86.6413862913675,36.0920794833523],[-86.6414004158802,36.0920681458656],[-86.6413441741947,36.0920192713523]]]},"properties":{"id":"158481","parcel":"135110C00500CO","address":"109 NASHBORO GRNS","owner":"POSEY, CATHERINE A.","point":[-86.64143925972255,36.092055716894706]}},{"type":"Feature","id":"158482","geometry":{"type":"Polygon","coordinates":[[[-86.6406085484199,36.0926739693568],[-86.6406945353959,36.0926342285601],[-86.6406976222701,36.092638882574],[-86.6407509953893,36.0927097484539],[-86.6406626586631,36.0927522488655],[-86.6406126701454,36.0926813649663],[-86.6406085484199,36.0926739693568]]]},"properties":{"id":"158482","parcel":"135110C01300CO","address":"125 NASHBORO GRNS","owner":"MCDANIEL, IAN C.","point":[-86.64068149608676,36.09269555572052]}},{"type":"Feature","id":"158483","geometry":{"type":"Polygon","coordinates":[[[-86.6405699024198,36.0927922995865],[-86.6405065826256,36.0927052788058],[-86.6405034990913,36.0927006247693],[-86.6405405785232,36.0926820219336],[-86.6405587211235,36.0927069242677],[-86.6406126701454,36.0926813649663],[-86.6406626586631,36.0927522488655],[-86.6406073460382,36.0927767167768],[-86.6406148811229,36.0927876651101],[-86.6405784635221,36.092804618721],[-86.6405699024198,36.0927922995865]]]},"properties":{"id":"158483","parcel":"135110C01400CO","address":"127 NASHBORO GRNS","owner":"BLACKSHEAR, NATASHA L. & JEFFREY W.","point":[-86.64058541699235,36.09272951078014]}},{"type":"Feature","id":"158487","geometry":{"type":"Polygon","coordinates":[[[-86.6408148547851,36.0929473082787],[-86.6409183833736,36.0929003314851],[-86.6409481719463,36.0929427512594],[-86.6409286173115,36.0929521978331],[-86.6409605100315,36.0930036732626],[-86.6408792199502,36.0930384439758],[-86.6408148547851,36.0929473082787]]]},"properties":{"id":"158487","parcel":"135110C03100CO","address":"120 NASHBORO GRNS","owner":"CRUZ, SAMUEL B.","point":[-86.64089040995353,36.09297777327665]}},{"type":"Feature","id":"159333","geometry":{"type":"Polygon","coordinates":[[[-86.6398055111819,36.1001074321656],[-86.6399067850174,36.0985119343244],[-86.640439572301,36.0985641982004],[-86.6404221907936,36.0986598779693],[-86.6404072846432,36.0987558311931],[-86.6404069978356,36.098783204447],[-86.6403979545496,36.098870380556],[-86.6403932630897,36.0989577814029],[-86.6403929312134,36.099045265447],[-86.6403969588829,36.0991326884845],[-86.6404056436978,36.0992205960087],[-86.6404188055597,36.0993081363687],[-86.6404364210594,36.0993951591745],[-86.6404584623598,36.0994815158618],[-86.6404848894075,36.0995670579306],[-86.6405156588317,36.0996516387006],[-86.6405507161629,36.0997351124513],[-86.6405900025178,36.0998173370907],[-86.6406197334655,36.0998648421865],[-86.6406460090479,36.0999136706775],[-86.6406687424049,36.0999636562915],[-86.6406878544277,36.1000146300109],[-86.6407032804218,36.1000664200376],[-86.6407149712031,36.1001188499843],[-86.64072288425,36.1001717434282],[-86.6398055111819,36.1001074321656]]]},"properties":{"id":"159333","parcel":"13500028600","address":"148 UNA RECREATION RD","owner":"RODRIGUEZ, GILBERTO & MERCED","point":[-86.64014060383879,36.099350786166546]}},{"type":"Feature","id":"159337","geometry":{"type":"Polygon","coordinates":[[[-86.6405839698121,36.0992794890374],[-86.640573335893,36.0992057797541],[-86.6405662479494,36.0991317893619],[-86.6405622086783,36.0990514882677],[-86.6405621868593,36.098971120768],[-86.6405661824308,36.0988908184493],[-86.6405741897862,36.0988107138283],[-86.6405861955381,36.0987309385616],[-86.6406021796363,36.0986516243405],[-86.6406221153608,36.0985729019905],[-86.6412704259833,36.0986470253486],[-86.6417719130413,36.098694873112],[-86.6422434416271,36.0987398617804],[-86.6430306152257,36.0988149592903],[-86.6430221961081,36.0988637884205],[-86.6430068167221,36.0995441197191],[-86.6405839698121,36.0992794890374]]]},"properties":{"id":"159337","parcel":"13500029300","address":"151 UNA RECREATION RD","owner":"MARTINEZ, CELEDONIO ZARAGOZA","point":[-86.64179055388243,36.09909531110462]}},{"type":"Feature","id":"159364","geometry":{"type":"Polygon","coordinates":[[[-86.6462459729124,36.0900360672063],[-86.6463333700469,36.089130154459],[-86.6482682997419,36.0893351399395],[-86.6482738225923,36.0896801455367],[-86.6481112089772,36.0896612411681],[-86.6481287811177,36.0901556246318],[-86.6506439338787,36.0904519517696],[-86.6510473674572,36.0911112759448],[-86.6485213509791,36.0921402160299],[-86.6486561066058,36.0923944219703],[-86.6484621302347,36.0924942759186],[-86.6484619643643,36.0924943615307],[-86.6477353456031,36.092408194218],[-86.6473805233717,36.0923661137949],[-86.6459874230434,36.0922043640057],[-86.6462459729124,36.0900360672063]]]},"properties":{"id":"159364","parcel":"13500028400","address":"2200 MURFREESBORO PIKE","owner":"D.C.M HAMPTON, LLC","point":[-86.64850218156354,36.090774763211705]}},{"type":"Feature","id":"159398","geometry":{"type":"Polygon","coordinates":[[[-86.6444708956297,36.0915136170003],[-86.6444139204854,36.0914578782897],[-86.6442677465842,36.0909207798605],[-86.6442893643691,36.0908877533109],[-86.6443073351134,36.0908533159178],[-86.6443215210682,36.0908177342957],[-86.6443318111788,36.090781280324],[-86.6443381288934,36.0907442356112],[-86.6443404243247,36.0907068834255],[-86.644338680941,36.0906695122645],[-86.6443329099486,36.0906324077728],[-86.6443231580935,36.0905958563064],[-86.6443094987338,36.0905601395722],[-86.6442768728902,36.0904185619004],[-86.644922945524,36.0904958724202],[-86.6456772146525,36.0903511842243],[-86.6461303160302,36.0901311868797],[-86.6459501061078,36.0916111909764],[-86.6444708956297,36.0915136170003]]]},"properties":{"id":"159398","parcel":"13500030500","address":"730 NASHBORO BLVD","owner":"WRPV XIII NV NASHVILLE LLC","point":[-86.64516900672501,36.090873115761596]}},{"type":"Feature","id":"159447","geometry":{"type":"Polygon","coordinates":[[[-86.6410279197462,36.0970771255521],[-86.6415385050888,36.0971928694578],[-86.6414068515353,36.0979106517205],[-86.6414057517091,36.0979166537566],[-86.6408640309682,36.0978048529039],[-86.6409751313233,36.0974523052884],[-86.6409965055094,36.0973276083428],[-86.6410141051424,36.0972025231758],[-86.6410279197462,36.0970771255521]]]},"properties":{"id":"159447","parcel":"13500028800","address":"131 UNA RECREATION RD","owner":"REESE, JAMES J., JR.","point":[-86.64118893708195,36.09762938597466]}},{"type":"Feature","id":"159563","geometry":{"type":"Polygon","coordinates":[[[-86.6444708956297,36.0915136170003],[-86.6459501061078,36.0916111909764],[-86.6461303160302,36.0901311868797],[-86.6456772146525,36.0903511842243],[-86.644922945524,36.0904958724202],[-86.6442768728902,36.0904185619004],[-86.6441857377274,36.0904075106698],[-86.6441628028059,36.0903565686228],[-86.644136886347,36.0903065780246],[-86.6441080459131,36.0902576530281],[-86.6440763501553,36.0902099059241],[-86.64404186993,36.0901634471891],[-86.6440046860649,36.0901183845425],[-86.6442686368828,36.0899455578259],[-86.6442793604522,36.0899083417574],[-86.6442861837631,36.0898705246466],[-86.6442890579222,36.089832375336],[-86.6442879640307,36.0897941643104],[-86.6442829076405,36.089756164627],[-86.6442739264823,36.089718646467],[-86.6442610826706,36.0896818744732],[-86.6442476730566,36.0896499561768],[-86.6442385040329,36.0896170643736],[-86.6442336774295,36.0895835698467],[-86.6442332495939,36.0895498490297],[-86.6442372224803,36.0895162804487],[-86.6442455547382,36.0894832428608],[-86.6442581483153,36.0894511063127],[-86.6442748662389,36.0894202338487],[-86.6442955169895,36.0893909716796],[-86.6443198700401,36.0893636481992],[-86.6443476514067,36.0893385731063],[-86.6438600813082,36.0889807585208],[-86.6439757308087,36.0888789860086],[-86.6440885639673,36.0887751536844],[-86.6441281391764,36.0887338214784],[-86.6441691298027,36.0886934091117],[-86.6454061837827,36.0899856233325],[-86.6462459729124,36.0900360672063],[-86.6459874230434,36.0922043640057],[-86.6451457964217,36.0922638117643],[-86.6444708956297,36.0915136170003]]]},"properties":{"id":"159563","parcel":"13500033500","address":"700 NASHBORO BLVD","owner":"WRPV XIII NV NASHVILLE LLC","point":[-86.64485819340014,36.090457983310344]}},{"type":"Feature","id":"160480","geometry":{"type":"Polygon","coordinates":[[[-86.6410164291423,36.0925091735632],[-86.6409313899626,36.0924568810895],[-86.6409310535044,36.0924571577673],[-86.6409072375886,36.0924419004623],[-86.6409384484982,36.0924087694694],[-86.6409612417347,36.0924232084375],[-86.6409964845725,36.0923864842374],[-86.6410767811474,36.0924382521015],[-86.6410371832011,36.0924804936606],[-86.6410507967472,36.0924897612179],[-86.641026979091,36.0925162600967],[-86.6410160982482,36.0925097269035],[-86.6410164291423,36.0925091735632]]]},"properties":{"id":"160480","parcel":"135110C01000CO","address":"119 NASHBORO GRNS","owner":"GIBBS, MONIQUE R.","point":[-86.6409924278117,36.09244960983894]}},{"type":"Feature","id":"160481","geometry":{"type":"Polygon","coordinates":[[[-86.6406976222701,36.092638882574],[-86.6407468275103,36.0926127986385],[-86.640729731927,36.0925914616267],[-86.6407644493942,36.0925734210506],[-86.6408085397595,36.0926264810416],[-86.640822693252,36.092618713428],[-86.6408558507233,36.0926591947027],[-86.6407509953893,36.0927097484539],[-86.6406976222701,36.092638882574]]]},"properties":{"id":"160481","parcel":"135110C01200CO","address":"123 NASHBORO GRNS","owner":"HUANG, TENG-KAI & SHOUKUAN","point":[-86.64077640799698,36.0926490376797]}},{"type":"Feature","id":"160482","geometry":{"type":"Polygon","coordinates":[[[-86.6402141367908,36.0928722071149],[-86.6402087399544,36.0927906486051],[-86.6402087310633,36.0927895454898],[-86.6402703038754,36.0927859243972],[-86.6402694006617,36.0927579085029],[-86.6403049174525,36.0927549728179],[-86.6403115650259,36.0928238896862],[-86.6403335513613,36.0928221244977],[-86.6403393189885,36.092865773339],[-86.6402141367908,36.0928722071149]]]},"properties":{"id":"160482","parcel":"135110C01600CO","address":"131 NASHBORO GRNS","owner":"DAVENPORT, TURRON","point":[-86.64025982854578,36.092806352594266]}},{"type":"Feature","id":"160483","geometry":{"type":"Polygon","coordinates":[[[-86.6401116747251,36.0928840134333],[-86.6401112364294,36.0928716538503],[-86.6401078518698,36.0928716718173],[-86.640101825372,36.0927958839148],[-86.6401065646392,36.0927958587565],[-86.640105002958,36.0927697696812],[-86.6401486524238,36.0927684393049],[-86.6401501964169,36.0927920562719],[-86.6402087399544,36.0927906486051],[-86.6402141367908,36.0928722071149],[-86.6401549235953,36.0928747187979],[-86.6401556695831,36.092883231],[-86.6401116747251,36.0928840134333]]]},"properties":{"id":"160483","parcel":"135110C01700CO","address":"133 NASHBORO GRNS","owner":"LABIB, BESHOUI & BOTROS, DIANA","point":[-86.64015822583025,36.09283392412572]}},{"type":"Feature","id":"160486","geometry":{"type":"Polygon","coordinates":[[[-86.6402627875763,36.0931974790797],[-86.6402615711623,36.0931722128433],[-86.6402033737828,36.093174719155],[-86.6401999625,36.0930873792351],[-86.6403045365959,36.0930857253243],[-86.6403065589547,36.0931686770914],[-86.6403067870359,36.0931969705559],[-86.6402627875763,36.0931974790797]]]},"properties":{"id":"160486","parcel":"135110C02600CO","address":"130 NASHBORO GRNS","owner":"OKAFOR, JAYCEE C","point":[-86.64025355792342,36.093128029067366]}},{"type":"Feature","id":"160487","geometry":{"type":"Polygon","coordinates":[[[-86.6407735083878,36.093067026463],[-86.6407217497364,36.0929865372006],[-86.640774706124,36.0929637292935],[-86.6407664903194,36.092952234809],[-86.6408052753969,36.0929349972765],[-86.6408148547851,36.0929473082787],[-86.6408792199502,36.0930384439758],[-86.6408330082979,36.0930581941032],[-86.640825802973,36.0930461453752],[-86.6407735083878,36.093067026463]]]},"properties":{"id":"160487","parcel":"135110C03000CO","address":"122 NASHBORO GRNS","owner":"ABU QUDAIRA, ISLAM KHALED & SARAH KHALED","point":[-86.64079966879149,36.09301248816794]}},{"type":"Feature","id":"160494","geometry":{"type":"Polygon","coordinates":[[[-86.6411526508043,36.0928221675208],[-86.6410723537918,36.0927703997121],[-86.6411136829462,36.0927328193563],[-86.6411024456309,36.0927243629395],[-86.6411306539301,36.0926967420462],[-86.641141548137,36.0927046514073],[-86.6412201705866,36.0927589002775],[-86.6412423054699,36.0927752651162],[-86.6412154419133,36.092801780228],[-86.6411892462296,36.0927851620883],[-86.6411526508043,36.0928221675208]]]},"properties":{"id":"160494","parcel":"135110C03300CO","address":"116 NASHBORO GRNS","owner":"ENEH, CONSTANCE U. & MGBOH, CHIBULU","point":[-86.64115358934981,36.09276467195927]}},{"type":"Feature","id":"160642","geometry":{"type":"Polygon","coordinates":[[[-86.6400590690172,36.0932024063506],[-86.6400568421573,36.0931779692428],[-86.6399949082407,36.0931788477539],[-86.6399884601488,36.0930926226035],[-86.6400953950451,36.0930898576881],[-86.6401011692126,36.093176360399],[-86.6400974481758,36.0931766550411],[-86.6400983214626,36.0932011020373],[-86.6400590690172,36.0932024063506]]]},"properties":{"id":"160642","parcel":"135110C02400CO","address":"134 NASHBORO GRNS","owner":"TOWERS, THOMAS R","point":[-86.64004498218965,36.093134492017725]}},{"type":"Feature","id":"160643","geometry":{"type":"Polygon","coordinates":[[[-86.640632019213,36.0930241014892],[-86.6407217497364,36.0929865372006],[-86.6407735083878,36.093067026463],[-86.6406810661377,36.0931040536158],[-86.6406772897142,36.0930974808426],[-86.640632019213,36.0930241014892]]]},"properties":{"id":"160643","parcel":"135110C02900CO","address":"124 NASHBORO GRNS","owner":"TALARICO, ROBERT JAMES","point":[-86.64070248529234,36.093045563161915]}},{"type":"Feature","id":"160657","geometry":{"type":"Polygon","coordinates":[[[-86.6412832797026,36.0926937331274],[-86.6412009318179,36.0926397780961],[-86.6412429082622,36.0925983485043],[-86.6412316798284,36.0925909916097],[-86.6412551698504,36.0925658679789],[-86.641270818825,36.0925756744657],[-86.6413484141157,36.0926282802812],[-86.6413722368234,36.09264436123],[-86.6413470778389,36.0926719668633],[-86.6413232540088,36.0926561599039],[-86.6412832797026,36.0926937331274]]]},"properties":{"id":"160657","parcel":"135110C03500CO","address":"112 NASHBORO GRNS","owner":"MIRZAYEVA, SAIDA RADJABOVNA","point":[-86.64128212953226,36.0926340515325]}},{"type":"Feature","id":"160658","geometry":{"type":"Polygon","coordinates":[[[-86.6413484141157,36.0926282802812],[-86.641270818825,36.0925756744657],[-86.6413419495166,36.0924983775982],[-86.6413885999037,36.0925330169888],[-86.6413751703944,36.092546547187],[-86.6414306342013,36.0925827908211],[-86.641409180722,36.0926087274203],[-86.64138197347,36.0925926644815],[-86.6413484141157,36.0926282802812]]]},"properties":{"id":"160658","parcel":"135110C03600CO","address":"110 NASHBORO GRNS","owner":"PIPER, LARRY & CONNIE YVETTE","point":[-86.64134106350235,36.09256116491867]}},{"type":"Feature","id":"160659","geometry":{"type":"Polygon","coordinates":[[[-86.6398490491842,36.0933076364273],[-86.639503726843,36.0927092280719],[-86.640334621084,36.0926608642043],[-86.6417448338079,36.091589691949],[-86.6419242455912,36.0916766439087],[-86.6419708004619,36.0920763728433],[-86.6419778232928,36.0921250485673],[-86.6419805553855,36.0921740067025],[-86.6419789813965,36.0922229985782],[-86.6419731104118,36.0922717753935],[-86.6419629703942,36.0923200882465],[-86.641948615986,36.0923676916979],[-86.6419301174049,36.0924143438301],[-86.6419075693349,36.0924598071013],[-86.6418810865135,36.0925038519744],[-86.6418508047992,36.092546251503],[-86.6418168768172,36.0925867921706],[-86.6417794752463,36.0926252684653],[-86.6417387905995,36.0926614828917],[-86.6416950290456,36.0926952513901],[-86.6416484146381,36.0927264042263],[-86.6410507607294,36.0931559319405],[-86.6410042890988,36.0931881914313],[-86.6409553072046,36.0932179046216],[-86.6409040283499,36.0932449450972],[-86.6408506736846,36.0932691954153],[-86.6407954722343,36.0932905507094],[-86.6407386631214,36.0933089186773],[-86.6406804900125,36.0933242196113],[-86.6406212055892,36.0933363899789],[-86.6405610648199,36.0933453743474],[-86.6405003261503,36.0933511352917],[-86.6404392536802,36.0933536479753],[-86.6403781082946,36.0933529019993],[-86.6398904089758,36.0933159331135],[-86.6398693012059,36.0933131898795],[-86.6398490491842,36.0933076364273]],[[-86.6399961345456,36.093204938608],[-86.6399949082407,36.0931788477539],[-86.6400568421573,36.0931779692428],[-86.6400590690172,36.0932024063506],[-86.6400983214626,36.0932011020373],[-86.6400974481758,36.0931766550411],[-86.6401011692126,36.093176360399],[-86.640159715235,36.0931752258312],[-86.6401602487348,36.0931993970378],[-86.6402042459753,36.0931988885633],[-86.6402033737828,36.093174719155],[-86.6402615711623,36.0931722128433],[-86.6402627875763,36.0931974790797],[-86.6403067870359,36.0931969705559],[-86.6403065589547,36.0931686770914],[-86.6403678110765,36.0931672531636],[-86.640368667821,36.0931895002301],[-86.6404072495157,36.0931890204413],[-86.6404071031794,36.0931288619103],[-86.6404233475532,36.0931284989441],[-86.6404236561408,36.0930828954152],[-86.6403045365959,36.0930857253243],[-86.6401999625,36.0930873792351],[-86.6400953950451,36.0930898576881],[-86.6399884601488,36.0930926226035],[-86.6398886319591,36.0930953506127],[-86.6398886208943,36.093093977126],[-86.6398270157597,36.0930934793598],[-86.6398269338925,36.0930833160988],[-86.6397707586789,36.093084712816],[-86.6397708757873,36.0931413024459],[-86.6397911876424,36.0931417444546],[-86.6397943993334,36.0932043607233],[-86.6398370429715,36.0932038595647],[-86.639835169241,36.0931813439035],[-86.6398933666299,36.0931788368684],[-86.6399529286951,36.0931776970092],[-86.6399555340445,36.0932070774143],[-86.6399961345456,36.093204938608]],[[-86.640602278397,36.0931555682799],[-86.6406387061539,36.0931397168715],[-86.6406253414928,36.0931194595826],[-86.6406772897142,36.0930974808426],[-86.6406810661377,36.0931040536158],[-86.6407735083878,36.093067026463],[-86.640825802973,36.0930461453752],[-86.6408330082979,36.0930581941032],[-86.6408792199502,36.0930384439758],[-86.6409605100315,36.0930036732626],[-86.6409286173115,36.0929521978331],[-86.6409481719463,36.0929427512594],[-86.6409183833736,36.0929003314851],[-86.6408148547851,36.0929473082787],[-86.6408052753969,36.0929349972765],[-86.6407664903194,36.092952234809],[-86.640774706124,36.0929637292935],[-86.6407217497364,36.0929865372006],[-86.640632019213,36.0930241014892],[-86.6406292721061,36.0930191689769],[-86.6405206541424,36.0930650729961],[-86.6405480762632,36.0931077821289],[-86.6405669791256,36.0931013637643],[-86.640602278397,36.0931555682799]],[[-86.6398437543176,36.0929021928333],[-86.639841625991,36.092890391996],[-86.6399008292616,36.0928867836662],[-86.6399019448592,36.0928991369516],[-86.6399496441465,36.0928961367213],[-86.6399485274155,36.0928835058491],[-86.6400016388978,36.0928799279971],[-86.640005021243,36.0928796351555],[-86.6400064655942,36.0928908907429],[-86.6400490979951,36.0928890160225],[-86.6400489961722,36.092876379764],[-86.6401078518698,36.0928716718173],[-86.6401112364294,36.0928716538503],[-86.6401116747251,36.0928840134333],[-86.6401556695831,36.092883231],[-86.6401549235953,36.0928747187979],[-86.6402141367908,36.0928722071149],[-86.6403393189885,36.092865773339],[-86.6403335513613,36.0928221244977],[-86.6403115650259,36.0928238896862],[-86.6403049174525,36.0927549728179],[-86.6402694006617,36.0927579085029],[-86.6402703038754,36.0927859243972],[-86.6402087310633,36.0927895454898],[-86.6402087399544,36.0927906486051],[-86.6401501964169,36.0927920562719],[-86.6401486524238,36.0927684393049],[-86.640105002958,36.0927697696812],[-86.6401065646392,36.0927958587565],[-86.640101825372,36.0927958839148],[-86.6400459846216,36.0927967301084],[-86.6400440953442,36.0927722912061],[-86.6399977519498,36.0927755591672],[-86.6399986130148,36.0927980802032],[-86.6399380374099,36.0927997752442],[-86.6399365377421,36.0927816522217],[-86.6398962739189,36.0927835143332],[-86.6398978056683,36.0928054829331],[-86.6398947608933,36.0928057739803],[-86.6398355488477,36.0928082855005],[-86.6398336529994,36.0927830228634],[-86.6397869753332,36.0927868413945],[-86.6397912507608,36.0928134658533],[-86.6397394918181,36.092816762449],[-86.6397365556217,36.0927884824484],[-86.6396952890395,36.0927917233583],[-86.6397022282906,36.0928548678355],[-86.6396802353128,36.0928558109798],[-86.6396850175117,36.0929033099235],[-86.6398003449724,36.0928919845833],[-86.6398054195991,36.0928916827682],[-86.6398065484812,36.0929056871226],[-86.6398437543176,36.0929021928333]],[[-86.6404400231701,36.0928039778429],[-86.6404677373199,36.0928409163734],[-86.6405699024198,36.0927922995865],[-86.6405784635221,36.092804618721],[-86.6406148811229,36.0927876651101],[-86.6406073460382,36.0927767167768],[-86.6406626586631,36.0927522488655],[-86.6407509953893,36.0927097484539],[-86.6408558507233,36.0926591947027],[-86.640822693252,36.092618713428],[-86.6408085397595,36.0926264810416],[-86.6407644493942,36.0925734210506],[-86.640729731927,36.0925914616267],[-86.6407468275103,36.0926127986385],[-86.6406976222701,36.092638882574],[-86.6406945353959,36.0926342285601],[-86.6406085484199,36.0926739693568],[-86.6406126701454,36.0926813649663],[-86.6405587211235,36.0927069242677],[-86.6405405785232,36.0926820219336],[-86.6405034990913,36.0927006247693],[-86.6405065826256,36.0927052788058],[-86.6404199347213,36.0927472193883],[-86.6404575524357,36.0927950945883],[-86.6404400231701,36.0928039778429]],[[-86.6410160982482,36.0925097269035],[-86.641026979091,36.0925162600967],[-86.6410507967472,36.0924897612179],[-86.6410371832011,36.0924804936606],[-86.6410767811474,36.0924382521015],[-86.6410771176051,36.0924379754233],[-86.6410883559876,36.0924464318372],[-86.6411138669807,36.0924201988318],[-86.641104682827,36.0924144785899],[-86.6411416001284,36.0923755481313],[-86.6411446548658,36.0923766314465],[-86.6411507731937,36.0923798948836],[-86.6411762830364,36.092353386981],[-86.6411674342398,36.0923473909725],[-86.6412053652872,36.0923081802135],[-86.6412162494637,36.0923147151746],[-86.6412407565442,36.0922898610254],[-86.6412285121276,36.0922825095331],[-86.641265070665,36.0922413827285],[-86.6413392790642,36.0921676385432],[-86.6412964097948,36.0921401234436],[-86.6412873321105,36.092147588329],[-86.6412247587452,36.0921113851385],[-86.6411979076069,36.0921389988422],[-86.6412240942252,36.0921545201759],[-86.6411864997166,36.0921934542636],[-86.6411488840868,36.0922296386559],[-86.6411216747987,36.0922133007792],[-86.6410948291331,36.0922420139876],[-86.6411200030463,36.0922578129134],[-86.6410840785345,36.0922939909968],[-86.6410616206667,36.0922792762804],[-86.6410350936748,36.092305514677],[-86.6410606107087,36.0923218615697],[-86.6410216646589,36.0923610767772],[-86.640998534979,36.0923469153994],[-86.6409723177983,36.092369580375],[-86.640997155277,36.092385656905],[-86.6409964845725,36.0923864842374],[-86.6409612417347,36.0924232084375],[-86.6409384484982,36.0924087694694],[-86.6409072375886,36.0924419004623],[-86.6409310535044,36.0924571577673],[-86.6408971664109,36.0924941487296],[-86.6408723355791,36.0924788977135],[-86.6408465201403,36.0925095251076],[-86.6409070604984,36.0925457420012],[-86.6408963292624,36.0925581627527],[-86.6409500562164,36.0925889171489],[-86.6410160982482,36.0925097269035]],[[-86.641270818825,36.0925756744657],[-86.6412551698504,36.0925658679789],[-86.6412316798284,36.0925909916097],[-86.6412429082622,36.0925983485043],[-86.6412009318179,36.0926397780961],[-86.641200260014,36.0926400565578],[-86.6411900631251,36.0926348914866],[-86.6411655559224,36.0926597456234],[-86.641176121429,36.0926687553855],[-86.641141548137,36.0927046514073],[-86.6411306539301,36.0926967420462],[-86.6411024456309,36.0927243629395],[-86.6411136829462,36.0927328193563],[-86.6410723537918,36.0927703997121],[-86.6410079229952,36.0928391455347],[-86.6410881734746,36.0928851445612],[-86.6411268165406,36.0928503255744],[-86.6411530122328,36.0928669437274],[-86.6411795271558,36.0928390542345],[-86.6411526508043,36.0928221675208],[-86.6411892462296,36.0927851620883],[-86.6412154419133,36.092801780228],[-86.6412423054699,36.0927752651162],[-86.6412201705866,36.0927589002775],[-86.6412564272757,36.0927216217356],[-86.6412795726379,36.0927377063044],[-86.6413060941531,36.0927106441193],[-86.6412832797026,36.0926937331274],[-86.6413232540088,36.0926561599039],[-86.6413470778389,36.0926719668633],[-86.6413722368234,36.09264436123],[-86.6413484141157,36.0926282802812],[-86.64138197347,36.0925926644815],[-86.641409180722,36.0926087274203],[-86.6414306342013,36.0925827908211],[-86.6413751703944,36.092546547187],[-86.6413885999037,36.0925330169888],[-86.6413419495166,36.0924983775982],[-86.641270818825,36.0925756744657]],[[-86.6416944901845,36.0921871783984],[-86.6416188153251,36.0922466435666],[-86.6415438110505,36.092305281351],[-86.6414765673629,36.0923611307106],[-86.641404274495,36.0924203028586],[-86.6414748030079,36.09247789149],[-86.6415182060274,36.0924457941417],[-86.6415410293299,36.0924638036993],[-86.6415699502381,36.0924405744356],[-86.6415464351602,36.0924206452393],[-86.6415901501739,36.0923852502351],[-86.6416143259585,36.0924032525827],[-86.6416435766027,36.092378920186],[-86.6416190477321,36.0923592730902],[-86.6416631057964,36.092324426012],[-86.6416906849766,36.0923446075466],[-86.6417192626805,36.0923208302935],[-86.641693393519,36.0923031118675],[-86.6417374648298,36.0922696373355],[-86.6417599494558,36.0922876486549],[-86.6417905758138,36.0922660577938],[-86.6417650208998,36.0922450390372],[-86.6418104535266,36.0922123837033],[-86.6418312469981,36.09223095379],[-86.6418598423741,36.0922093737213],[-86.6418053014544,36.0921615899272],[-86.6418207661921,36.0921485968223],[-86.641781935316,36.0921183106032],[-86.6416944901845,36.0921871783984]],[[-86.6415105563826,36.0920433849992],[-86.6415221456325,36.0920534879421],[-86.641552419984,36.0920302514788],[-86.6415428661025,36.0920206865873],[-86.6415862666317,36.0919883152344],[-86.6415937773679,36.0919962416572],[-86.6416297913809,36.0919713261983],[-86.6416205761786,36.0919617604118],[-86.641662977276,36.0919313185748],[-86.6416708266735,36.0919397911672],[-86.6417044821259,36.0919157120035],[-86.6416969713862,36.0919077855874],[-86.6417400142478,36.0918729429772],[-86.6418140119361,36.0918154090759],[-86.641742471077,36.0917581009127],[-86.6417014370168,36.0917901857426],[-86.6416772358843,36.0917691624652],[-86.6416493179566,36.0917907379872],[-86.6416714815035,36.0918109483461],[-86.6416274126403,36.091844422846],[-86.6416005021229,36.091823139081],[-86.6415708796937,36.091843350108],[-86.6415940814447,36.0918663020488],[-86.641547970492,36.0918984138385],[-86.6415264842996,36.0918781998537],[-86.6414948619628,36.0919022681513],[-86.641518400163,36.0919249434271],[-86.6414736294198,36.0919553996218],[-86.6414535056885,36.0919362770326],[-86.6414178380568,36.0919622874503],[-86.6414437492056,36.0919855016989],[-86.6413993281636,36.0920176044405],[-86.6413758043916,36.0919963026112],[-86.6413441741947,36.0920192713523],[-86.6414004158802,36.0920681458656],[-86.6413862913675,36.0920794833523],[-86.64141698723,36.092108439426],[-86.6415105563826,36.0920433849992]]]},"properties":{"id":"160659","parcel":"135110C04200CO","address":"0 LONGHUNTER CT","owner":"GREENS HOMEOWNERS ASSOCIATION, INC., THE","point":[-86.64125677020579,36.09247009601566]}},{"type":"Feature","id":"160687","geometry":{"type":"Polygon","coordinates":[[[-86.6423097414949,36.090795519629],[-86.6423433757348,36.0907698622533],[-86.6423797481625,36.0907467976753],[-86.6424578583599,36.0906958351896],[-86.6426925772836,36.0909253401526],[-86.6425850384922,36.0910204131049],[-86.6423097414949,36.090795519629]]]},"properties":{"id":"160687","parcel":"13511000300","address":"113 LONGHUNTER CT","owner":"CRAWFORD, JASON T. & JENNIFER","point":[-86.64250768200007,36.09086044950186]}},{"type":"Feature","id":"160690","geometry":{"type":"Polygon","coordinates":[[[-86.6403086907878,36.0964981448703],[-86.6403411454627,36.0961573335289],[-86.6405172395564,36.0961673866601],[-86.6404901825697,36.0965059720724],[-86.6403086907878,36.0964981448703]]]},"properties":{"id":"160690","parcel":"13500022700","address":"2253 SMITH SPRINGS RD","owner":"STEPHENSON, DONALD W. & DELORIS COE","point":[-86.64041423339323,36.096332769619146]}},{"type":"Feature","id":"160860","geometry":{"type":"Polygon","coordinates":[[[-86.6483606157708,36.0989036067623],[-86.6486443474466,36.096467333289],[-86.6487451488157,36.0964591301833],[-86.6488462572255,36.0964539860755],[-86.6489475305845,36.096451906236],[-86.6490488301178,36.0964528941152],[-86.6491500136898,36.0964569495769],[-86.6492509402161,36.0964640652697],[-86.6493514697083,36.096474232034],[-86.6494514610301,36.0964874362105],[-86.6495507763324,36.0965036587151],[-86.6498732719966,36.0965349979855],[-86.6502631812632,36.0965728910857],[-86.6501752723743,36.0970400973545],[-86.6501147352637,36.0975011110778],[-86.6499128373334,36.09748187109],[-86.649885290357,36.0976729431846],[-86.6502203095535,36.0977035525143],[-86.6501042012377,36.0986126431181],[-86.65004022904,36.099109387287],[-86.6483606157708,36.0989036067623]]]},"properties":{"id":"160860","parcel":"13500041200","address":"2068 SMITH SPRINGS RD","owner":"METRO GOV'T  PW  PUBLIC WORKS","point":[-86.6493051403086,36.098155592408034]}},{"type":"Feature","id":"160863","geometry":{"type":"Polygon","coordinates":[[[-86.6427617605537,36.0911095763775],[-86.6428050826139,36.0911093454361],[-86.6428057584024,36.0911928532716],[-86.6427299449948,36.0911932574078],[-86.6427294826695,36.0911361207048],[-86.6427619739479,36.0911359475104],[-86.6427617605537,36.0911095763775]]]},"properties":{"id":"160863","parcel":"135110B00900CO","address":"207 LONGHUNTER CIR","owner":"EARPS, MICHAEL ALLEN","point":[-86.64276762052235,36.09116448699426]}},{"type":"Feature","id":"160866","geometry":{"type":"Polygon","coordinates":[[[-86.6424915884177,36.091183539327],[-86.6425184510083,36.0911570248216],[-86.6425946721672,36.0912071649696],[-86.6425490317785,36.0912557571993],[-86.6424918905989,36.0912208983566],[-86.6425133733458,36.0911988071456],[-86.6424915884177,36.091183539327]]]},"properties":{"id":"160866","parcel":"135110B01100CO","address":"203 LONGHUNTER CIR","owner":"EARPS, ALLEN","point":[-86.64254895731,36.09120297095517]}},{"type":"Feature","id":"160869","geometry":{"type":"Polygon","coordinates":[[[-86.6416493179566,36.0917907379872],[-86.6416772358843,36.0917691624652],[-86.6417014370168,36.0917901857426],[-86.641742471077,36.0917581009127],[-86.6418140119361,36.0918154090759],[-86.6417400142478,36.0918729429772],[-86.6416714815035,36.0918109483461],[-86.6416493179566,36.0917907379872]]]},"properties":{"id":"160869","parcel":"135110C00100CO","address":"101 NASHBORO GRNS","owner":"SUPAK, FRANCIS J., II","point":[-86.64174249921248,36.09184407285496]}},{"type":"Feature","id":"161056","geometry":{"type":"Polygon","coordinates":[[[-86.6421808440387,36.0909280666375],[-86.6421995237108,36.0909045609839],[-86.6422193979497,36.0908817105022],[-86.6422476571286,36.0908517214034],[-86.6422777984544,36.0908229651334],[-86.6423097414949,36.090795519629],[-86.6425850384922,36.0910204131049],[-86.6425043619939,36.0910889687527],[-86.6421808440387,36.0909280666375]]]},"properties":{"id":"161056","parcel":"13511000400","address":"117 LONGHUNTER CT","owner":"MOHAMMADKHAH, LIDA E.","point":[-86.64240103658005,36.090974294040464]}},{"type":"Feature","id":"161067","geometry":{"type":"Polygon","coordinates":[[[-86.6398346349616,36.0964764871149],[-86.6398772843811,36.0957202607038],[-86.6399294514455,36.0937926219243],[-86.6426362585885,36.0940045867488],[-86.6426547858857,36.0939517444061],[-86.6438144781221,36.0940444534741],[-86.6436585877497,36.0951902753699],[-86.6429373834756,36.0954116927279],[-86.6422610886084,36.0954944125144],[-86.6418715292374,36.0955404383764],[-86.6412835405947,36.095493022307],[-86.6410396669161,36.095472342281],[-86.6405763054969,36.0954330485217],[-86.6405172395564,36.0961673866601],[-86.6403411454627,36.0961573335289],[-86.6403086907878,36.0964981448703],[-86.6398346349616,36.0964764871149]]]},"properties":{"id":"161067","parcel":"13500022600","address":"2257 SMITH SPRINGS RD","owner":"STEPHENSON, DONALD W. & DELORIS COE","point":[-86.64182198739242,36.094611657158154]}},{"type":"Feature","id":"161070","geometry":{"type":"Polygon","coordinates":[[[-86.6405172395564,36.0961673866601],[-86.6405763054969,36.0954330485217],[-86.6410396669161,36.095472342281],[-86.6409994961092,36.0965340335742],[-86.6404901825697,36.0965059720724],[-86.6405172395564,36.0961673866601]]]},"properties":{"id":"161070","parcel":"13500022800","address":"2249 SMITH SPRINGS RD","owner":"CARDENAS, MAYRA & POPOCA, SAMUEL ROMERO","point":[-86.64078586922864,36.095819886999585]}},{"type":"Feature","id":"161073","geometry":{"type":"Polygon","coordinates":[[[-86.6412273364112,36.0965811711846],[-86.6412835405947,36.095493022307],[-86.6418715292374,36.0955404383764],[-86.6417924008293,36.0961364317625],[-86.641369812346,36.0961167034276],[-86.6413057558326,36.0965675675949],[-86.6412978101688,36.0965895865612],[-86.6412273364112,36.0965811711846]]]},"properties":{"id":"161073","parcel":"13500022900","address":"2245 A SMITH SPRINGS RD","owner":"CESPEDES, POMPEYO LUNA & JUDY","point":[-86.641549727235,36.09582835897926]}},{"type":"Feature","id":"161076","geometry":{"type":"Polygon","coordinates":[[[-86.6429373834756,36.0954116927279],[-86.6436585877497,36.0951902753699],[-86.6434994848111,36.0962745783375],[-86.6434354241835,36.096283008224],[-86.6433719516432,36.0962939846487],[-86.6433092213426,36.0963074824556],[-86.6432473851472,36.0963234683898],[-86.6431865926584,36.096341903801],[-86.6431006921129,36.0963707178913],[-86.6430138192376,36.0963975416797],[-86.6429260427195,36.0964223540686],[-86.6428374334594,36.0964451330474],[-86.6429373834756,36.0954116927279]]]},"properties":{"id":"161076","parcel":"13500023200","address":"2211 SMITH SPRINGS RD","owner":"MOORE, JOSEPH L. & LAURA S.","point":[-86.64322919562369,36.095843167914566]}},{"type":"Feature","id":"161258","geometry":{"type":"Polygon","coordinates":[[[-86.6416190477321,36.0923592730902],[-86.6415438110505,36.092305281351],[-86.6416188153251,36.0922466435666],[-86.641693393519,36.0923031118675],[-86.6417192626805,36.0923208302935],[-86.6416906849766,36.0923446075466],[-86.6416631057964,36.092324426012],[-86.6416190477321,36.0923592730902]]]},"properties":{"id":"161258","parcel":"135110C03900CO","address":"104 NASHBORO GRNS","owner":"JABEEN, SAMIA","point":[-86.64162039524085,36.09230420199466]}},{"type":"Feature","id":"161269","geometry":{"type":"Polygon","coordinates":[[[-86.6414948619628,36.0919022681513],[-86.6415264842996,36.0918781998537],[-86.641547970492,36.0918984138385],[-86.6415940814447,36.0918663020488],[-86.641662977276,36.0919313185748],[-86.6416205761786,36.0919617604118],[-86.6416297913809,36.0919713261983],[-86.6415937773679,36.0919962416572],[-86.6415862666317,36.0919883152344],[-86.641518400163,36.0919249434271],[-86.6414948619628,36.0919022681513]]]},"properties":{"id":"161269","parcel":"135110C00300CO","address":"105 NASHBORO GRNS","owner":"BEBAWY, NADY R. & ESKANDER, EMAN","point":[-86.64159149126259,36.09194638910929]}},{"type":"Feature","id":"161271","geometry":{"type":"Polygon","coordinates":[[[-86.6412240942252,36.0921545201759],[-86.6411979076069,36.0921389988422],[-86.6412247587452,36.0921113851385],[-86.6412873321105,36.092147588329],[-86.6412964097948,36.0921401234436],[-86.6413392790642,36.0921676385432],[-86.641265070665,36.0922413827285],[-86.6411864997166,36.0921934542636],[-86.6412240942252,36.0921545201759]]]},"properties":{"id":"161271","parcel":"135110C00600CO","address":"111 NASHBORO GRNS","owner":"CANTRELL, RONNIE  & LINDA","point":[-86.64126262362647,36.09218054563221]}},{"type":"Feature","id":"161274","geometry":{"type":"Polygon","coordinates":[[[-86.6410948291331,36.0922420139876],[-86.6411216747987,36.0922133007792],[-86.6411488840868,36.0922296386559],[-86.6411864997166,36.0921934542636],[-86.641265070665,36.0922413827285],[-86.6412285121276,36.0922825095331],[-86.6412407565442,36.0922898610254],[-86.6412162494637,36.0923147151746],[-86.6412053652872,36.0923081802135],[-86.6411200030463,36.0922578129134],[-86.6410948291331,36.0922420139876]]]},"properties":{"id":"161274","parcel":"135110C00700CO","address":"113 NASHBORO GRNS","owner":"CRAMBLIT, GREGORY & PEREZ, ADELITA PARRA","point":[-86.6411822526122,36.092250137555965]}},{"type":"Feature","id":"161278","geometry":{"type":"Polygon","coordinates":[[[-86.6410350936748,36.092305514677],[-86.6410616206667,36.0922792762804],[-86.6410840785345,36.0922939909968],[-86.6411200030463,36.0922578129134],[-86.6412053652872,36.0923081802135],[-86.6411674342398,36.0923473909725],[-86.6411762830364,36.092353386981],[-86.6411507731937,36.0923798948836],[-86.6411446548658,36.0923766314465],[-86.6410606107087,36.0923218615697],[-86.6410350936748,36.092305514677]]]},"properties":{"id":"161278","parcel":"135110C00800CO","address":"115 NASHBORO GRNS","owner":"CLARK, KEWAN","point":[-86.64112405021365,36.09231499414723]}},{"type":"Feature","id":"161281","geometry":{"type":"Polygon","coordinates":[[[-86.6410883559876,36.0924464318372],[-86.6410771176051,36.0924379754233],[-86.6410767811474,36.0924382521015],[-86.6409964845725,36.0923864842374],[-86.640997155277,36.092385656905],[-86.6409723177983,36.092369580375],[-86.640998534979,36.0923469153994],[-86.6410216646589,36.0923610767772],[-86.6410606107087,36.0923218615697],[-86.6411446548658,36.0923766314465],[-86.6411416001284,36.0923755481313],[-86.641104682827,36.0924144785899],[-86.6411138669807,36.0924201988318],[-86.6410883559876,36.0924464318372]]]},"properties":{"id":"161281","parcel":"135110C00900CO","address":"117 NASHBORO GRNS","owner":"ORR, DARLENE P.","point":[-86.6410629581524,36.09238112039548]}},{"type":"Feature","id":"161283","geometry":{"type":"Polygon","coordinates":[[[-86.6408465201403,36.0925095251076],[-86.6408723355791,36.0924788977135],[-86.6408971664109,36.0924941487296],[-86.6409310535044,36.0924571577673],[-86.6409313899626,36.0924568810895],[-86.6410164291423,36.0925091735632],[-86.6410160982482,36.0925097269035],[-86.6409500562164,36.0925889171489],[-86.6408963292624,36.0925581627527],[-86.6409070604984,36.0925457420012],[-86.6408465201403,36.0925095251076]]]},"properties":{"id":"161283","parcel":"135110C01100CO","address":"121 NASHBORO GRNS","owner":"LANKFORD, JAMES A. & VILAVAN","point":[-86.64093882250201,36.09252781944254]}},{"type":"Feature","id":"161287","geometry":{"type":"Polygon","coordinates":[[[-86.6404199347213,36.0927472193883],[-86.6405065826256,36.0927052788058],[-86.6405699024198,36.0927922995865],[-86.6404677373199,36.0928409163734],[-86.6404400231701,36.0928039778429],[-86.6404575524357,36.0927950945883],[-86.6404199347213,36.0927472193883]]]},"properties":{"id":"161287","parcel":"135110C01500CO","address":"129 NASHBORO GRNS","owner":"MANNING, SUSAN","point":[-86.6404955698349,36.092769761464666]}},{"type":"Feature","id":"161290","geometry":{"type":"Polygon","coordinates":[[[-86.6400064655942,36.0928908907429],[-86.640005021243,36.0928796351555],[-86.6400016388978,36.0928799279971],[-86.6399986130148,36.0927980802032],[-86.6399977519498,36.0927755591672],[-86.6400440953442,36.0927722912061],[-86.6400459846216,36.0927967301084],[-86.640101825372,36.0927958839148],[-86.6401078518698,36.0928716718173],[-86.6400489961722,36.092876379764],[-86.6400490979951,36.0928890160225],[-86.6400064655942,36.0928908907429]]]},"properties":{"id":"161290","parcel":"135110C01800CO","address":"135 NASHBORO GRNS","owner":"LEE, MIN SUP","point":[-86.64005245285904,36.092834873681085]}},{"type":"Feature","id":"161293","geometry":{"type":"Polygon","coordinates":[[[-86.6401602487348,36.0931993970378],[-86.640159715235,36.0931752258312],[-86.6401011692126,36.093176360399],[-86.6400953950451,36.0930898576881],[-86.6401999625,36.0930873792351],[-86.6402033737828,36.093174719155],[-86.6402042459753,36.0931988885633],[-86.6401602487348,36.0931993970378]]]},"properties":{"id":"161293","parcel":"135110C02500CO","address":"132 NASHBORO GRNS","owner":"SANSEVERINO, MICHELLE","point":[-86.64014996988668,36.09313229019192]}},{"type":"Feature","id":"161296","geometry":{"type":"Polygon","coordinates":[[[-86.640368667821,36.0931895002301],[-86.6403678110765,36.0931672531636],[-86.6403065589547,36.0931686770914],[-86.6403045365959,36.0930857253243],[-86.6404236561408,36.0930828954152],[-86.6404233475532,36.0931284989441],[-86.6404071031794,36.0931288619103],[-86.6404072495157,36.0931890204413],[-86.640368667821,36.0931895002301]]]},"properties":{"id":"161296","parcel":"135110C02700CO","address":"128 NASHBORO GRNS","owner":"ALI, HOSHYAR & MOHAMMED, SUHAM S.","point":[-86.64035660015537,36.093147964934666]}},{"type":"Feature","id":"161299","geometry":{"type":"Polygon","coordinates":[[[-86.640602278397,36.0931555682799],[-86.6405669791256,36.0931013637643],[-86.6405480762632,36.0931077821289],[-86.6405206541424,36.0930650729961],[-86.6406292721061,36.0930191689769],[-86.640632019213,36.0930241014892],[-86.6406772897142,36.0930974808426],[-86.6406253414928,36.0931194595826],[-86.6406387061539,36.0931397168715],[-86.640602278397,36.0931555682799]]]},"properties":{"id":"161299","parcel":"135110C02800CO","address":"126 NASHBORO GRNS","owner":"QUDAIRA, ANAS KHALED & HUSSEIN, MAHASEN SAEED","point":[-86.64059917332891,36.09308127754896]}},{"type":"Feature","id":"161348","geometry":{"type":"Polygon","coordinates":[[[-86.6410881734746,36.0928851445612],[-86.6410079229952,36.0928391455347],[-86.6410723537918,36.0927703997121],[-86.6411526508043,36.0928221675208],[-86.6411795271558,36.0928390542345],[-86.6411530122328,36.0928669437274],[-86.6411268165406,36.0928503255744],[-86.6410881734746,36.0928851445612]]]},"properties":{"id":"161348","parcel":"135110C03200CO","address":"118 NASHBORO GRNS","owner":"AYALEW, TESHOME & ASTER","point":[-86.64109121564218,36.0928303866518]}},{"type":"Feature","id":"161351","geometry":{"type":"Polygon","coordinates":[[[-86.6412201705866,36.0927589002775],[-86.641141548137,36.0927046514073],[-86.641176121429,36.0926687553855],[-86.6411655559224,36.0926597456234],[-86.6411900631251,36.0926348914866],[-86.641200260014,36.0926400565578],[-86.6412009318179,36.0926397780961],[-86.6412832797026,36.0926937331274],[-86.6413060941531,36.0927106441193],[-86.6412795726379,36.0927377063044],[-86.6412564272757,36.0927216217356],[-86.6412201705866,36.0927589002775]]]},"properties":{"id":"161351","parcel":"135110C03400CO","address":"114 NASHBORO GRNS","owner":"HENNES, GOUDA","point":[-86.64121897830086,36.09269921194216]}},{"type":"Feature","id":"161352","geometry":{"type":"Polygon","coordinates":[[[-86.6424578583599,36.0906958351896],[-86.6426006139353,36.0906027719791],[-86.6428216706163,36.0908169656056],[-86.6426925772836,36.0909253401526],[-86.6424578583599,36.0906958351896]]]},"properties":{"id":"161352","parcel":"13511000200","address":"109 LONGHUNTER CT","owner":"PEREZ-GALVEZ, FRANCISCO","point":[-86.64263948287581,36.09075639969581]}},{"type":"Feature","id":"161354","geometry":{"type":"Polygon","coordinates":[[[-86.6414748030079,36.09247789149],[-86.641404274495,36.0924203028586],[-86.6414765673629,36.0923611307106],[-86.6415464351602,36.0924206452393],[-86.6415699502381,36.0924405744356],[-86.6415410293299,36.0924638036993],[-86.6415182060274,36.0924457941417],[-86.6414748030079,36.09247789149]]]},"properties":{"id":"161354","parcel":"135110C03700CO","address":"108 NASHBORO GRNS","owner":"DLC TRUST","point":[-86.64147598633615,36.092390781730636]}},{"type":"Feature","id":"161355","geometry":{"type":"Polygon","coordinates":[[[-86.6420888418017,36.0916054418035],[-86.6420830533217,36.091559320936],[-86.6420836240849,36.0915461322141],[-86.6420870828418,36.0915331831751],[-86.6420932365833,36.0915209119657],[-86.642101901697,36.0915096827781],[-86.6421128166098,36.0914998313783],[-86.6421256583346,36.0914916514994],[-86.6421400435227,36.091485387626],[-86.6421555428402,36.0914812277071],[-86.6421716919997,36.0914792940846],[-86.6421880106582,36.091479646097],[-86.6422923259633,36.0914812715756],[-86.6423965527136,36.0914851280963],[-86.6423851440698,36.0917489097385],[-86.6420888418017,36.0916054418035]]]},"properties":{"id":"161355","parcel":"13511001300","address":"200 LONGHUNTER CIR","owner":"WILLS, RON","point":[-86.6423126099342,36.091677401590175]}},{"type":"Feature","id":"161357","geometry":{"type":"Polygon","coordinates":[[[-86.6415464351602,36.0924206452393],[-86.6414765673629,36.0923611307106],[-86.6415438110505,36.092305281351],[-86.6416190477321,36.0923592730902],[-86.6416435766027,36.092378920186],[-86.6416143259585,36.0924032525827],[-86.6415901501739,36.0923852502351],[-86.6415464351602,36.0924206452393]]]},"properties":{"id":"161357","parcel":"135110C03800CO","address":"106 NASHBORO GRNS","owner":"BELL, CHRISTOPHER","point":[-86.64155974756564,36.09237002450701]}},{"type":"Feature","id":"161360","geometry":{"type":"Polygon","coordinates":[[[-86.641693393519,36.0923031118675],[-86.6416188153251,36.0922466435666],[-86.6416944901845,36.0921871783984],[-86.6417650208998,36.0922450390372],[-86.6417905758138,36.0922660577938],[-86.6417599494558,36.0922876486549],[-86.6417374648298,36.0922696373355],[-86.641693393519,36.0923031118675]]]},"properties":{"id":"161360","parcel":"135110C04000CO","address":"102 NASHBORO GRNS","owner":"JOSEPH, ANDREA A.","point":[-86.64169318805068,36.09224584512135]}},{"type":"Feature","id":"161362","geometry":{"type":"Polygon","coordinates":[[[-86.6417650208998,36.0922450390372],[-86.6416944901845,36.0921871783984],[-86.641781935316,36.0921183106032],[-86.6418207661921,36.0921485968223],[-86.6418053014544,36.0921615899272],[-86.6418598423741,36.0922093737213],[-86.6418312469981,36.09223095379],[-86.6418104535266,36.0922123837033],[-86.6417650208998,36.0922450390372]]]},"properties":{"id":"161362","parcel":"135110C04100CO","address":"100 NASHBORO GRNS","owner":"ABDU, SHMESHAY & HUSSEN, ALIX","point":[-86.64176551421428,36.09217443086643]}},{"type":"Feature","id":"161371","geometry":{"type":"Polygon","coordinates":[[[-86.6413057558326,36.0965675675949],[-86.641369812346,36.0961167034276],[-86.6417924008293,36.0961364317625],[-86.6417337269782,36.0965828747013],[-86.6416265897846,36.0965823443506],[-86.6415195025771,36.0965796154269],[-86.6414125353318,36.0965746884597],[-86.6413057558326,36.0965675675949]]]},"properties":{"id":"161371","parcel":"13500023000","address":"2241 SMITH SPRINGS RD","owner":"STEPHENSON, DONALD W. ETUX","point":[-86.64155022921892,36.0963520033741]}},{"type":"Feature","id":"161413","geometry":{"type":"Polygon","coordinates":[[[-86.6447966777038,36.0966223219006],[-86.64471057132,36.0965903093155],[-86.6446260776828,36.096555585121],[-86.6445433238169,36.0965182009154],[-86.644462436804,36.0964782155073],[-86.6447251226266,36.0958131133835],[-86.6444238633298,36.0957290141508],[-86.6441715823534,36.0963413155608],[-86.6441001258404,36.0963201828964],[-86.6440273027012,36.0963023840986],[-86.6439533499321,36.0962879764823],[-86.6438785077723,36.0962770065301],[-86.6438030174833,36.0962695099046],[-86.6437271235772,36.0962655123377],[-86.6436510737805,36.0962650251241],[-86.6435751113046,36.0962680505706],[-86.6434994848111,36.0962745783375],[-86.6436585877497,36.0951902753699],[-86.6438144781221,36.0940444534741],[-86.6470578054974,36.0942996050602],[-86.6466574878563,36.0966818342354],[-86.646368077485,36.0967229464799],[-86.6462704319604,36.0967416963416],[-86.6461719110868,36.0967571440323],[-86.6460726867865,36.0967692624922],[-86.6459729288279,36.0967780327845],[-86.6458728092149,36.0967834377637],[-86.6457724978041,36.0967854693093],[-86.645672170041,36.0967841237776],[-86.6455719969737,36.0967794029567],[-86.6454721519218,36.0967713149321],[-86.6453728049323,36.0967598750175],[-86.6452741282949,36.0967451012192],[-86.645176291033,36.0967270196727],[-86.6450794622138,36.0967056619216],[-86.6449838076015,36.0966810631327],[-86.6448894919227,36.0966532674918],[-86.6447966777038,36.0966223219006]]]},"properties":{"id":"161413","parcel":"13500023300","address":"2151 SMITH SPRINGS RD","owner":"MYRICK, JOHN R.","point":[-86.6452403579018,36.09546320142854]}},{"type":"Feature","id":"161416","geometry":{"type":"Polygon","coordinates":[[[-86.6441715823534,36.0963413155608],[-86.6444238633298,36.0957290141508],[-86.6447251226266,36.0958131133835],[-86.644462436804,36.0964782155073],[-86.6444076551282,36.0964463453307],[-86.6443510454951,36.0964166542682],[-86.6442927394931,36.0963892101113],[-86.6442328720192,36.0963640779299],[-86.6441715823534,36.0963413155608]]]},"properties":{"id":"161416","parcel":"13500023400","address":"2201 SMITH SPRINGS RD","owner":"MYRICK, J. R.","point":[-86.64445060802854,36.09607722149254]}},{"type":"Feature","id":"161652","geometry":{"type":"Polygon","coordinates":[[[-86.6457843639998,36.1015323879601],[-86.6464018945117,36.0968853932728],[-86.6466351358378,36.0968519996656],[-86.6468677170094,36.0968157043342],[-86.6470995836474,36.0967765147844],[-86.6473306813952,36.0967344412257],[-86.6475609569995,36.0966894929612],[-86.6477903550015,36.0966416811086],[-86.648018821053,36.09659101678],[-86.6481202976635,36.0965621064514],[-86.6482231001942,36.0965364659496],[-86.648327070183,36.0965141357797],[-86.6484320435792,36.0964951519706],[-86.6485378573772,36.0964795424349],[-86.6486443474466,36.096467333289],[-86.6483606157708,36.0989036067623],[-86.65004022904,36.099109387287],[-86.6498088794453,36.1009108050539],[-86.6497193025771,36.1008849154768],[-86.6493610294037,36.1007857518402],[-86.6479562471671,36.100538377737],[-86.647786056372,36.1015853850996],[-86.6477627598447,36.1017173703884],[-86.6457843639998,36.1015323879601]]]},"properties":{"id":"161652","parcel":"13500016300","address":"2132 SMITH SPRINGS RD","owner":"STEVENSON TRUST NO. 8","point":[-86.64766082906173,36.09900198278205]}},{"type":"Feature","id":"161670","geometry":{"type":"Polygon","coordinates":[[[-86.642654150481,36.0911958596106],[-86.6426534748445,36.0911123508731],[-86.6426967969065,36.0911121199705],[-86.6426996996451,36.0911362794552],[-86.6427294826695,36.0911361207048],[-86.6427299449948,36.0911932574078],[-86.642654150481,36.0911958596106]]]},"properties":{"id":"161670","parcel":"135110B01000CO","address":"205 LONGHUNTER CIR","owner":"EARPS, MICHAEL","point":[-86.64269180614903,36.09116469980865]}},{"type":"Feature","id":"161673","geometry":{"type":"Polygon","coordinates":[[[-86.6424217591673,36.0912542371341],[-86.6424486218051,36.0912277226447],[-86.642473100547,36.0912407779029],[-86.6424918905989,36.0912208983566],[-86.6425490317785,36.0912557571993],[-86.6425033957755,36.0913043493875],[-86.6424217591673,36.0912542371341]]]},"properties":{"id":"161673","parcel":"135110B01200CO","address":"201 LONGHUNTER CIR","owner":"EARPS, ALLEN & BETTY","point":[-86.642494862324,36.09127995976917]}},{"type":"Feature","id":"161676","geometry":{"type":"Polygon","coordinates":[[[-86.6421483094618,36.0912578919229],[-86.6421584651585,36.0911743255035],[-86.6421991123151,36.0911785045539],[-86.6421992722227,36.0911982831293],[-86.6422318012862,36.091202505405],[-86.6422241762362,36.0912640807102],[-86.6421483094618,36.0912578919229]]]},"properties":{"id":"161676","parcel":"135110B01400CO","address":"125 LONGHUNTER CT","owner":"EARPS, ALLEN & BETTY","point":[-86.6421900233463,36.09123019857569]}},{"type":"Feature","id":"161679","geometry":{"type":"Polygon","coordinates":[[[-86.6427716351862,36.0906568022913],[-86.6427498147911,36.0906371391779],[-86.6427255706805,36.0906526523113],[-86.6427009920505,36.0906264110482],[-86.6427818079379,36.0905754339277],[-86.6428282280908,36.0906235354795],[-86.6427716351862,36.0906568022913]]]},"properties":{"id":"161679","parcel":"135110B01500CO","address":"101 LONGHUNTER CT","owner":"EARPS, ALLEN & BETTY","point":[-86.64277449295176,36.090599393716474]}},{"type":"Feature","id":"161682","geometry":{"type":"Polygon","coordinates":[[[-86.6427716351862,36.0906568022913],[-86.6428282280908,36.0906235354795],[-86.6428746660828,36.0906738342319],[-86.6427965372833,36.0907225997747],[-86.6427692481483,36.0906963729753],[-86.642790784025,36.0906808742706],[-86.6427716351862,36.0906568022913]]]},"properties":{"id":"161682","parcel":"135110B01600CO","address":"103 LONGHUNTER CT","owner":"EARPS, RICKY","point":[-86.64282261369073,36.09066531667228]}},{"type":"Feature","id":"161837","geometry":{"type":"Polygon","coordinates":[[[-86.6424381409447,36.0916057785894],[-86.6424432897645,36.0915727860487],[-86.6425463040048,36.0915876210473],[-86.642533228174,36.0916448298854],[-86.6424654658336,36.0916364007964],[-86.6424679785787,36.0916122124549],[-86.6424381409447,36.0916057785894]]]},"properties":{"id":"161837","parcel":"135110B00200CO","address":"204 LONGHUNTER CIR","owner":"ADEMOSU, RASHIDA","point":[-86.64249720907144,36.091609127241156]}},{"type":"Feature","id":"161865","geometry":{"type":"Polygon","coordinates":[[[-86.64261477636,36.0916839541631],[-86.6426249482935,36.0916025858391],[-86.6427008154343,36.0916087743261],[-86.6426958623147,36.0916659407884],[-86.6426633530348,36.0916639158452],[-86.6426581154005,36.091685920499],[-86.64261477636,36.0916839541631]]]},"properties":{"id":"161865","parcel":"135110B00300CO","address":"208 LONGHUNTER CIR","owner":"SHARMA, RAMESH CHANDER & RANI","point":[-86.64265958663114,36.09163627800303]}},{"type":"Feature","id":"161868","geometry":{"type":"Polygon","coordinates":[[[-86.6429022290637,36.0912002278281],[-86.6429628517672,36.0911986094505],[-86.642963118592,36.09123157314],[-86.6429360426794,36.0912317175135],[-86.6429389666111,36.0912580741928],[-86.6428631687038,36.0912606756434],[-86.6428619346832,36.0912377230893],[-86.642859978015,36.0912013552726],[-86.6429022290637,36.0912002278281]]]},"properties":{"id":"161868","parcel":"135110B00800CO","address":"209 LONGHUNTER CIR","owner":"EARPS, ALLEN & BETTY","point":[-86.6429118901515,36.091216465236045]}},{"type":"Feature","id":"161871","geometry":{"type":"Polygon","coordinates":[[[-86.6422241762362,36.0912640807102],[-86.6422318012862,36.091202505405],[-86.6422616021023,36.091204543989],[-86.6422668220486,36.0911803421308],[-86.6423101974727,36.0911867057276],[-86.6422973347636,36.0912702838761],[-86.6422241762362,36.0912640807102]]]},"properties":{"id":"161871","parcel":"135110B01300CO","address":"127 LONGHUNTER CT","owner":"EARPS, ALLEN & BETTY","point":[-86.64226535567424,36.09123437942042]}},{"type":"Feature","id":"161874","geometry":{"type":"Polygon","coordinates":[[[-86.6400599989445,36.0966844330694],[-86.640059508944,36.0966536697214],[-86.6401935410358,36.0966580882881],[-86.6403371061286,36.0966639188553],[-86.6404865152412,36.0966711809827],[-86.6404523354036,36.0971734253656],[-86.6401353510028,36.0971757826258],[-86.6400678405338,36.0971762851855],[-86.6400599989445,36.0966844330694]]]},"properties":{"id":"161874","parcel":"13500017000","address":"2252 SMITH SPRINGS RD","owner":"STEPHENSON, JO KELLY","point":[-86.64026640935329,36.096928960129695]}},{"type":"Feature","id":"161879","geometry":{"type":"Polygon","coordinates":[[[-86.6409994961092,36.0965340335742],[-86.6410396669161,36.095472342281],[-86.6412835405947,36.095493022307],[-86.6412273364112,36.0965811711846],[-86.6409996734612,36.0965560093413],[-86.6409994961092,36.0965340335742]]]},"properties":{"id":"161879","parcel":"13500035300","address":"2247 SMITH SPRINGS RD","owner":"SLATE, BRYAN","point":[-86.64113792127473,36.09601351727745]}},{"type":"Feature","id":"162136","geometry":{"type":"Polygon","coordinates":[[[-86.6420927897664,36.0910889664997],[-86.6421093618054,36.0910469066772],[-86.6421296358916,36.0910059275967],[-86.6421535049429,36.0909662452316],[-86.6421808440387,36.0909280666375],[-86.6425043619939,36.0910889687527],[-86.642410254091,36.0911707869956],[-86.6420927897664,36.0910889664997]]]},"properties":{"id":"162136","parcel":"13511000500","address":"121 LONGHUNTER CT","owner":"HA, HOANG","point":[-86.64228216504698,36.091067864158525]}},{"type":"Feature","id":"162140","geometry":{"type":"Polygon","coordinates":[[[-86.6422610886084,36.0954944125144],[-86.6429373834756,36.0954116927279],[-86.6428374334594,36.0964451330474],[-86.6427169924799,36.0964730161102],[-86.6425955279987,36.0964978014132],[-86.6424731597776,36.0965194657833],[-86.6423500109249,36.0965379878329],[-86.6422262034463,36.0965533470819],[-86.6421018605092,36.0965655293532],[-86.6422610886084,36.0954944125144]]]},"properties":{"id":"162140","parcel":"13500023100","address":"2231 SMITH SPRINGS RD","owner":"REYES, MARIA CANDELARIA ARANA ET AL","point":[-86.64253694764555,36.095969736410225]}},{"type":"Feature","id":"162154","geometry":{"type":"Polygon","coordinates":[[[-86.6466574878563,36.0966818342354],[-86.6470578054974,36.0942996050602],[-86.6471739777496,36.0936046118516],[-86.6471739936203,36.0936045153298],[-86.6506693894077,36.0939438370578],[-86.6507131894764,36.0939480872611],[-86.6507131790513,36.0939481702349],[-86.6506078799637,36.0946453173227],[-86.6503191290361,36.0963780957296],[-86.6498717277938,36.0963462673146],[-86.6498524224874,36.0963448995694],[-86.6497696872578,36.0963354557009],[-86.6496426715552,36.09632305351],[-86.6495153501637,36.096312918641],[-86.6493877864061,36.096305055258],[-86.6492600391556,36.0962994666485],[-86.649156726529,36.0962921024392],[-86.649053153505,36.0962877957711],[-86.6489494544751,36.0962865504269],[-86.6488457682578,36.0962883683629],[-86.6487422325315,36.0962932479372],[-86.6486389849383,36.096301183002],[-86.6485361608547,36.0963121620146],[-86.6484338978644,36.0963261716182],[-86.6483323301678,36.096343192166],[-86.6482345738441,36.0963626769582],[-86.6481377161801,36.0963849201538],[-86.6480418746409,36.0964098922827],[-86.6479471633679,36.0964375647943],[-86.6476913544978,36.0964935365641],[-86.6474344080803,36.096545963769],[-86.6471763973212,36.0965948315888],[-86.6469173987656,36.0966401260871],[-86.6466574878563,36.0966818342354]]]},"properties":{"id":"162154","parcel":"13500023500","address":"2101 SMITH SPRINGS RD","owner":"MYRICK, JOHN R.","point":[-86.64866702411098,36.09546268272705]}},{"type":"Feature","id":"162155","geometry":{"type":"Polygon","coordinates":[[[-86.6485213509791,36.0921402160299],[-86.6510473674572,36.0911112759448],[-86.6513054307137,36.0915428245179],[-86.6504174177697,36.0918882583321],[-86.6504395103363,36.0919408837192],[-86.6505420765929,36.0919007724402],[-86.6506982829967,36.0921284881376],[-86.6509247474896,36.0924583077217],[-86.6500295240899,36.092816159207],[-86.6492652577762,36.092714201863],[-86.6492831662692,36.0925866405041],[-86.6489815416071,36.0925527458245],[-86.6484619643643,36.0924943615307],[-86.6484621302347,36.0924942759186],[-86.6486561066058,36.0923944219703],[-86.6485213509791,36.0921402160299]]]},"properties":{"id":"162155","parcel":"13500024400","address":"2162 MURFREESBORO PIKE","owner":"2156 ASSOCIATES, LTD.","point":[-86.6497136224316,36.09203218901813]}},{"type":"Feature","id":"162680","geometry":{"type":"Polygon","coordinates":[[[-86.6424198995396,36.0916937827302],[-86.6424277377784,36.0916585803515],[-86.6424575565349,36.0916628152044],[-86.6424654658336,36.0916364007964],[-86.642533228174,36.0916448298854],[-86.6425228772681,36.0917042224157],[-86.6424198995396,36.0916937827302]]]},"properties":{"id":"162680","parcel":"135110B00100CO","address":"206 LONGHUNTER CIR","owner":"ADEMOSU, RASHIDA","point":[-86.64247535326001,36.09167840824463]}},{"type":"Feature","id":"162685","geometry":{"type":"Polygon","coordinates":[[[-86.6421240335852,36.0919393009891],[-86.6420888418017,36.0916054418035],[-86.6423851440698,36.0917489097385],[-86.6425878676044,36.0917668239795],[-86.6427435410387,36.0917805805407],[-86.6431357224397,36.091815234472],[-86.6431391785598,36.0914368932796],[-86.6431414644135,36.0911866685334],[-86.6431189876482,36.0910821258046],[-86.6430442790671,36.0907346519753],[-86.6429220004654,36.0901659175855],[-86.6429257946651,36.0901214499601],[-86.6429254416637,36.090076876466],[-86.6429209424224,36.0900324521593],[-86.642912323426,36.0899884301575],[-86.6428996344699,36.0899450625518],[-86.6428829475128,36.0899025959075],[-86.6428623578018,36.0898612730599],[-86.6428379816289,36.0898213304232],[-86.6428354582469,36.0897997267369],[-86.6428373584452,36.0897780796389],[-86.6428436281842,36.08975698426],[-86.6428540977847,36.0897370165193],[-86.6428684796209,36.0897187223207],[-86.6428863813352,36.0897026039639],[-86.64290731123,36.0896891002872],[-86.6430355691403,36.089605104069],[-86.6431621465736,36.0895194448052],[-86.6432870103914,36.0894321443084],[-86.6433436951403,36.0895052274989],[-86.6434040949054,36.0895763224484],[-86.6434681065304,36.0896453053257],[-86.6435356157682,36.0897120541611],[-86.6436065062082,36.0897764542067],[-86.6436806525552,36.0898383907622],[-86.6437579251295,36.0898977563607],[-86.643838189838,36.0899544471639],[-86.6438830542799,36.0899931986615],[-86.6439258103309,36.0900334899683],[-86.6439663796353,36.0900752439953],[-86.6440046860649,36.0901183845425],[-86.64404186993,36.0901634471891],[-86.6440763501553,36.0902099059241],[-86.6441080459131,36.0902576530281],[-86.644136886347,36.0903065780246],[-86.6441628028059,36.0903565686228],[-86.6441857377274,36.0904075106698],[-86.6442768728902,36.0904185619004],[-86.6443094987338,36.0905601395722],[-86.6443231580935,36.0905958563064],[-86.6443329099486,36.0906324077728],[-86.644338680941,36.0906695122645],[-86.6443404243247,36.0907068834255],[-86.6443381288934,36.0907442356112],[-86.6443318111788,36.090781280324],[-86.6443215210682,36.0908177342957],[-86.6443073351134,36.0908533159178],[-86.6442893643691,36.0908877533109],[-86.6442677465842,36.0909207798605],[-86.6444139204854,36.0914578782897],[-86.6444708956297,36.0915136170003],[-86.6451457964217,36.0922638117643],[-86.644519593766,36.0931769995433],[-86.6440664170963,36.093390398117],[-86.6421240335852,36.0919393009891]],[[-86.6435010165197,36.0920243457059],[-86.6440896001909,36.0920918506786],[-86.6441050616372,36.0920211205892],[-86.6442226722366,36.0920319385092],[-86.6439018319538,36.0915967870172],[-86.6435401547137,36.0916330565048],[-86.6435010165197,36.0920243457059]]]},"properties":{"id":"162685","parcel":"13500039500","address":"790 NASHBORO BLVD","owner":"NASHBORO GOLF COURSE, LLC","point":[-86.6437577398333,36.09131361793216]}},{"type":"Feature","id":"162691","geometry":{"type":"Polygon","coordinates":[[[-86.6426958623147,36.0916659407884],[-86.6427008154343,36.0916087743261],[-86.6427575704599,36.0916116479038],[-86.6427793708563,36.0916127511215],[-86.6427691812922,36.0916919213385],[-86.642750978263,36.0916910341765],[-86.6427285494084,36.0916899406125],[-86.6427310787511,36.0916679503916],[-86.6426958623147,36.0916659407884]]]},"properties":{"id":"162691","parcel":"135110B00400CO","address":"210 LONGHUNTER CIR","owner":"SHARMA, RAMESH CHANDER & RANI","point":[-86.64273705503085,36.091639344288176]}},{"type":"Feature","id":"162692","geometry":{"type":"Polygon","coordinates":[[[-86.6428313848957,36.0916827995822],[-86.6428498759422,36.0916255609398],[-86.6429230704275,36.091636159064],[-86.6429124708002,36.0916647860618],[-86.6429396002222,36.0916712342506],[-86.6429290372758,36.0917042556808],[-86.6428313848957,36.0916827995822]]]},"properties":{"id":"162692","parcel":"135110B00500CO","address":"212 LONGHUNTER CIR","owner":"EARPS, ALLEN & BETTY","point":[-86.64288114229926,36.0916678763799]}},{"type":"Feature","id":"162693","geometry":{"type":"Polygon","coordinates":[[[-86.6428498759422,36.0916255609398],[-86.6428710385548,36.0915639134233],[-86.6429686907995,36.0915853694904],[-86.6429554196059,36.0916184053649],[-86.6429282902005,36.0916119571797],[-86.6429230704275,36.091636159064],[-86.6428498759422,36.0916255609398]]]},"properties":{"id":"162693","parcel":"135110B00600CO","address":"214 LONGHUNTER CIR","owner":"EARPS, ALLEN & BETTY","point":[-86.64291126671398,36.091598552422056]}},{"type":"Feature","id":"162694","geometry":{"type":"Polygon","coordinates":[[[-86.6428663749592,36.0913221932439],[-86.6428631687038,36.0912606756434],[-86.6429389666111,36.0912580741928],[-86.6429391800573,36.0912844444231],[-86.6429689609159,36.0912842856254],[-86.6429692455364,36.0913194474342],[-86.6428663749592,36.0913221932439]]]},"properties":{"id":"162694","parcel":"135110B00700CO","address":"211 LONGHUNTER CIR","owner":"EILIA, NAGY & GAWHARA","point":[-86.64291720505109,36.09130183566078]}},{"type":"Feature","id":"162695","geometry":{"type":"Polygon","coordinates":[[[-86.6415940814447,36.0918663020488],[-86.6415708796937,36.091843350108],[-86.6416005021229,36.091823139081],[-86.6416274126403,36.091844422846],[-86.6416714815035,36.0918109483461],[-86.6417400142478,36.0918729429772],[-86.6416969713862,36.0919077855874],[-86.6417044821259,36.0919157120035],[-86.6416708266735,36.0919397911672],[-86.641662977276,36.0919313185748],[-86.6415940814447,36.0918663020488]]]},"properties":{"id":"162695","parcel":"135110C00200CO","address":"103 NASHBORO GRNS","owner":"WALKER, SANDRA BERENICE","point":[-86.64166887888811,36.091890215938655]}},{"type":"Feature","id":"162696","geometry":{"type":"Polygon","coordinates":[[[-86.6416210995131,36.09675268856],[-86.6416269158259,36.0967216834663],[-86.6417553599945,36.0967267897643],[-86.6418839128237,36.0967295367083],[-86.6420125098799,36.0967299228384],[-86.6421410845231,36.0967279485092],[-86.6417719130413,36.098694873112],[-86.6412704259833,36.0986470253486],[-86.6413397236137,36.0982732800445],[-86.6414057517091,36.0979166537566],[-86.6414068515353,36.0979106517205],[-86.6415385050888,36.0971928694578],[-86.6416210995131,36.09675268856]]]},"properties":{"id":"162696","parcel":"13500016700","address":"2236 SMITH SPRINGS RD","owner":"STEWARD, DONALD F. ET UX","point":[-86.64172942812974,36.09755252854723]}},{"type":"Feature","id":"162697","geometry":{"type":"Polygon","coordinates":[[[-86.6404865152412,36.0966711809827],[-86.640622527097,36.0966784474044],[-86.6407586822944,36.0966836561998],[-86.6407894923489,36.0966845911377],[-86.6408023075282,36.0966860768381],[-86.6408147260223,36.096689048145],[-86.6408264841407,36.0966934433708],[-86.6408373368308,36.0966991709862],[-86.6408465508576,36.0967064701214],[-86.6408544510505,36.0967147216764],[-86.6408608906795,36.0967237705107],[-86.6408670057258,36.0967300280159],[-86.6408748676999,36.0967536366107],[-86.6408810864644,36.096777564878],[-86.6408643431039,36.0971600471272],[-86.6408619155494,36.0971703769311],[-86.6404523354036,36.0971734253656],[-86.6404865152412,36.0966711809827]]]},"properties":{"id":"162697","parcel":"13500016900","address":"2250 SMITH SPRINGS RD","owner":"DREAMS HOUSE, LLC","point":[-86.64066952919826,36.09696819688263]}},{"type":"Feature","id":"163150","geometry":{"type":"Polygon","coordinates":[[[-86.6481287811177,36.0901556246318],[-86.6481112089772,36.0896612411681],[-86.6482738225923,36.0896801455367],[-86.6503173074718,36.0899130868314],[-86.6506439338787,36.0904519517696],[-86.6481287811177,36.0901556246318]]]},"properties":{"id":"163150","parcel":"13500024600","address":"2220 MURFREESBORO PIKE","owner":"FOWLER, ANGELA JEAN & ANGEL LYNN","point":[-86.64925862205638,36.090034464867976]}},{"type":"Feature","id":"163919","geometry":{"type":"Polygon","coordinates":[[[-86.6446542600472,36.1014285509032],[-86.6429658567007,36.1012705412744],[-86.6429659054431,36.1012683310885],[-86.6429777839745,36.1007364434312],[-86.6429814950878,36.1005920754356],[-86.6429965757124,36.1000038733607],[-86.6430068167221,36.0995441197191],[-86.6430221961081,36.0988637884205],[-86.6430306152257,36.0988149592903],[-86.6434386128918,36.0964485195627],[-86.6435065620012,36.0964376751358],[-86.6435752296041,36.0964303949877],[-86.6436443316703,36.0964267103752],[-86.6437135818178,36.0964266363456],[-86.6437826946581,36.0964301735211],[-86.6438513857815,36.0964373062961],[-86.6439193706687,36.0964480055475],[-86.6439863668966,36.0964622268194],[-86.6440520997125,36.0964799129983],[-86.6441162964376,36.096500988934],[-86.6441786931812,36.0965253677137],[-86.6442390303981,36.0965529506853],[-86.6442970595081,36.0965836220139],[-86.6443525418434,36.0966172558983],[-86.6444380255997,36.0966595943798],[-86.6445254575522,36.0966992266712],[-86.6446147083753,36.0967360912719],[-86.6447056443736,36.0967701357172],[-86.6447981307479,36.0968013084502],[-86.644891640159,36.096829493319],[-86.644986419489,36.0968547340646],[-86.6450823251769,36.0968769944996],[-86.6451792158897,36.0968962393266],[-86.645276948146,36.0969124422725],[-86.6453753773536,36.0969255770709],[-86.6454743567647,36.0969356255788],[-86.6455737396606,36.0969425732585],[-86.6441442828935,36.0989852646364],[-86.6451745939355,36.1014763144823],[-86.6446542600472,36.1014285509032]]]},"properties":{"id":"163919","parcel":"13500016400","address":"2152 SMITH SPRINGS RD","owner":"WHITSON, MITCHELL D.","point":[-86.64360319770216,36.09892458720439]}},{"type":"Feature","id":"163922","geometry":{"type":"Polygon","coordinates":[[[-86.6422434416271,36.0987398617804],[-86.6426441808158,36.0966571400786],[-86.6427646648108,36.0966323392258],[-86.6428841892088,36.0966046529759],[-86.6430026520386,36.0965741071114],[-86.6431199479911,36.0965407265311],[-86.6432359751399,36.0965045424255],[-86.6433022727948,36.0964829799367],[-86.6433698829784,36.0964642881826],[-86.6434386128918,36.0964485195627],[-86.6430306152257,36.0988149592903],[-86.6422434416271,36.0987398617804]]]},"properties":{"id":"163922","parcel":"13500016500","address":"2220 SMITH SPRINGS RD","owner":"TURNER, JAMES D., JR.","point":[-86.64283326023491,36.09769966265077]}},{"type":"Feature","id":"163925","geometry":{"type":"Polygon","coordinates":[[[-86.6417719130413,36.098694873112],[-86.6421410845231,36.0967279485092],[-86.6422676675198,36.0967142419275],[-86.6423937691174,36.0966978645928],[-86.642519301649,36.0966788259865],[-86.6426441808158,36.0966571400786],[-86.6422434416271,36.0987398617804],[-86.6417719130413,36.098694873112]]]},"properties":{"id":"163925","parcel":"13500016600","address":"2230 SMITH SPRINGS RD","owner":"RUIZ, FRANCISCO JOSE BUSTAMANTE","point":[-86.64219877632787,36.0977121347196]}}]}