{"type":"FeatureCollection","features":[{"type":"Feature","id":"225000","geometry":{"type":"Polygon","coordinates":[[[-86.6460803763786,36.2278009895099],[-86.6460396007116,36.2276893126825],[-86.649162576079,36.2277090878144],[-86.650840463472,36.2277196797638],[-86.6507861040938,36.2282145487483],[-86.6494883019311,36.2282760745179],[-86.6480187520873,36.2283454996915],[-86.6463106126297,36.2284277215349],[-86.646287045656,36.2284013348224],[-86.6462669876658,36.2283731070151],[-86.6462506558459,36.2283433451784],[-86.6462382263365,36.2283123701155],[-86.6462298331264,36.2282805172752],[-86.646225569107,36.2282481295352],[-86.6462254771883,36.228215559053],[-86.6462247600981,36.2281758883063],[-86.6462204457318,36.2281363665833],[-86.6462125592163,36.2280972100481],[-86.6462011423037,36.2280586275652],[-86.6461862567897,36.2280208305956],[-86.646167983298,36.2279840205855],[-86.6461460957356,36.227969320309],[-86.6461266858447,36.2279524897519],[-86.6461100672901,36.2279337994134],[-86.6460965084026,36.2279135533813],[-86.6460862287393,36.2278920767326],[-86.6460793935369,36.227869717366],[-86.6460761147437,36.2278468360824],[-86.6460764443164,36.2278238030157],[-86.6460803763786,36.2278009895099]]]},"properties":{"id":"225000","parcel":"06300032100","address":"355 PRESERVE MNR","owner":"HUDSON PRESERVE, LLC","point":[-86.64849875928631,36.228046522657166]}}]}