{"type":"FeatureCollection","features":[{"type":"Feature","id":"14349","geometry":{"type":"Polygon","coordinates":[[[-86.6338719138792,36.059391042894],[-86.6339327587722,36.0593418246587],[-86.6340315161987,36.0594223450058],[-86.6339723584956,36.0594710055341],[-86.6338719138792,36.059391042894]]]},"properties":{"id":"14349","parcel":"163040A11000CO","address":"3001 HAMILTON CHURCH RD 110","owner":"SAMUELS, ATHA SHEREE","point":[-86.63395194521581,36.05940669467929]}},{"type":"Feature","id":"14351","geometry":{"type":"Polygon","coordinates":[[[-86.6339327587722,36.0593418246587],[-86.6339919207824,36.059293713007],[-86.6340906760228,36.0593739593279],[-86.6340315161987,36.0594223450058],[-86.6339327587722,36.0593418246587]]]},"properties":{"id":"14351","parcel":"163040A11200CO","address":"3001 HAMILTON CHURCH RD 112","owner":"WEBB, MICHELLE","point":[-86.63401168421225,36.05935789191797]}},{"type":"Feature","id":"14353","geometry":{"type":"Polygon","coordinates":[[[-86.634094428813,36.0592057672909],[-86.634151567115,36.0591584917805],[-86.6342465984841,36.059238481776],[-86.6341864265806,36.0592868728583],[-86.634094428813,36.0592057672909]]]},"properties":{"id":"14353","parcel":"163040A11600CO","address":"3001 HAMILTON CHURCH RD 116","owner":"RANDOLPH, TOYA L.","point":[-86.6341700772376,36.05922212322579]}},{"type":"Feature","id":"14354","geometry":{"type":"Polygon","coordinates":[[[-86.634151567115,36.0591584917805],[-86.6342097110594,36.0591101104833],[-86.6343077815629,36.0591892615681],[-86.6342465984841,36.059238481776],[-86.634151567115,36.0591584917805]]]},"properties":{"id":"14354","parcel":"163040A11800CO","address":"3001 HAMILTON CHURCH RD 118","owner":"PEARSON, LINDA & IVAN","point":[-86.6342292853031,36.059173875512705]}},{"type":"Feature","id":"14355","geometry":{"type":"Polygon","coordinates":[[[-86.6340068100434,36.0588149566793],[-86.6340332863389,36.0586986140067],[-86.6341162535316,36.0587083422126],[-86.6340930486731,36.0588106572393],[-86.6340897817339,36.0588252337619],[-86.6340068100434,36.0588149566793]]]},"properties":{"id":"14355","parcel":"163040A12300CO","address":"3001 HAMILTON CHURCH RD 123","owner":"BERHANU, SABA K.","point":[-86.63406207037693,36.05875936975411]}},{"type":"Feature","id":"14356","geometry":{"type":"Polygon","coordinates":[[[-86.6341162535316,36.0587083422126],[-86.6341205009842,36.0586893649699],[-86.6342024525731,36.0586990975585],[-86.6341773679286,36.058820103399],[-86.6340930486731,36.0588106572393],[-86.6341162535316,36.0587083422126]]]},"properties":{"id":"14356","parcel":"163040A12500CO","address":"3001 HAMILTON CHURCH RD 125","owner":"MCCREARY, PATRICK KEITH","point":[-86.63414726416906,36.05875962978297]}},{"type":"Feature","id":"14357","geometry":{"type":"Polygon","coordinates":[[[-86.6344328170255,36.0589294060407],[-86.6344929907282,36.0588810148197],[-86.6345907380418,36.0589620889165],[-86.6345356137824,36.0590074324997],[-86.6344328170255,36.0589294060407]]]},"properties":{"id":"14357","parcel":"163040A12600CO","address":"3001 HAMILTON CHURCH RD 126","owner":"CARTER, MAURICE T.","point":[-86.63451268456619,36.05894575026994]}},{"type":"Feature","id":"14358","geometry":{"type":"Polygon","coordinates":[[[-86.6341773679286,36.058820103399],[-86.6342024525731,36.0586990975585],[-86.6342837293441,36.058708834544],[-86.6342566048457,36.05882875157],[-86.6341773679286,36.058820103399]]]},"properties":{"id":"14358","parcel":"163040A12700CO","address":"3001 HAMILTON CHURCH RD 127","owner":"HOLCOMB, CARL & LAURENE & KARLA","point":[-86.6342300222645,36.058764467377614]}},{"type":"Feature","id":"14359","geometry":{"type":"Polygon","coordinates":[[[-86.6344929907282,36.0588810148197],[-86.6345545086001,36.058831516925],[-86.6346512414324,36.0589125972159],[-86.6345907380418,36.0589620889165],[-86.6344929907282,36.0588810148197]]]},"properties":{"id":"14359","parcel":"163040A12800CO","address":"3001 HAMILTON CHURCH RD 128","owner":"MOORE, SHERISA","point":[-86.63457221478805,36.05889680634479]}},{"type":"Feature","id":"16621","geometry":{"type":"Polygon","coordinates":[[[-86.6342097110594,36.0591101104833],[-86.6342708830992,36.0590595167943],[-86.6343676147986,36.0591408740085],[-86.6343077815629,36.0591892615681],[-86.6342097110594,36.0591101104833]]]},"properties":{"id":"16621","parcel":"163040A12000CO","address":"3001 HAMILTON CHURCH RD 120","owner":"FOSTER, LANDON ALEXANDER","point":[-86.63428904467386,36.05912549343646]}},{"type":"Feature","id":"17717","geometry":{"type":"Polygon","coordinates":[[[-86.6339919207824,36.059293713007],[-86.6340494043161,36.0592472595038],[-86.6341515185999,36.0593241912103],[-86.6340906760228,36.0593739593279],[-86.6339919207824,36.059293713007]]]},"properties":{"id":"17717","parcel":"163040A11400CO","address":"3001 HAMILTON CHURCH RD 114","owner":"ASSAL, SHERY F. & MORKOS, KIROLOS","point":[-86.63407098906347,36.05930894990494]}},{"type":"Feature","id":"17719","geometry":{"type":"Polygon","coordinates":[[[-86.6339292581437,36.0588054748073],[-86.633953368125,36.0586894194899],[-86.6340332863389,36.0586986140067],[-86.6340068100434,36.0588149566793],[-86.6339292581437,36.0588054748073]]]},"properties":{"id":"17719","parcel":"163040A12100CO","address":"3001 HAMILTON CHURCH RD 121","owner":"LEGACY HOUSING GROUP LLC","point":[-86.63398074172352,36.058752042798815]}},{"type":"Feature","id":"17721","geometry":{"type":"Polygon","coordinates":[[[-86.6342708830992,36.0590595167943],[-86.6343280189897,36.0590119654174],[-86.6344257728797,36.0590938642853],[-86.6343676147986,36.0591408740085],[-86.6342708830992,36.0590595167943]]]},"properties":{"id":"17721","parcel":"163040A12200CO","address":"3001 HAMILTON CHURCH RD 122","owner":"MILLER, ANNA","point":[-86.63434828858712,36.059076690444606]}},{"type":"Feature","id":"17723","geometry":{"type":"Polygon","coordinates":[[[-86.6343733170126,36.0589775187935],[-86.6344328170255,36.0589294060407],[-86.6345356137824,36.0590074324997],[-86.6344737637984,36.0590577550022],[-86.6343733170126,36.0589775187935]]]},"properties":{"id":"17723","parcel":"163040A12400CO","address":"3001 HAMILTON CHURCH RD 124","owner":"SHU, XUMEI","point":[-86.63445397932641,36.058992474191854]}},{"type":"Feature","id":"17725","geometry":{"type":"Polygon","coordinates":[[[-86.6345545086001,36.058831516925],[-86.6346160253172,36.0587817450137],[-86.6347087199139,36.0588655936343],[-86.6346512414324,36.0589125972159],[-86.6345545086001,36.058831516925]]]},"properties":{"id":"17725","parcel":"163040A13000CO","address":"3001 HAMILTON CHURCH RD 130","owner":"SEHUON, MARIAM & ALABD, EKLAS","point":[-86.63463235499759,36.05884855756206]}},{"type":"Feature","id":"17727","geometry":{"type":"Polygon","coordinates":[[[-86.6346160253172,36.0587817450137],[-86.634674518213,36.0587347361054],[-86.6347725821433,36.0588130639816],[-86.6347087199139,36.0588655936343],[-86.6346160253172,36.0587817450137]]]},"properties":{"id":"17727","parcel":"163040A13200CO","address":"3001 HAMILTON CHURCH RD 132","owner":"HAYNES-BUTTS, STEPHANIE D.","point":[-86.63469316622708,36.05879740105687]}},{"type":"Feature","id":"54498","geometry":{"type":"Polygon","coordinates":[[[-86.6364394395334,36.0562379432969],[-86.6364539687756,36.0561525636184],[-86.6368065208589,36.0561982261119],[-86.6368477901451,36.056244771192],[-86.6367085413148,36.0562938878359],[-86.6364394395334,36.0562379432969]]]},"properties":{"id":"54498","parcel":"16300041900","address":"0 HAMILTON CHURCH RD","owner":"HICKORY NASHVILLE, L.P.","point":[-86.63663379116333,36.05621811761381]}},{"type":"Feature","id":"55584","geometry":{"type":"Polygon","coordinates":[[[-86.6337150471539,36.0598753468306],[-86.6333016885363,36.0595682052917],[-86.633188205549,36.0596775873179],[-86.632704857901,36.0593109129965],[-86.632693784534,36.0593216441225],[-86.6328198073282,36.0584498280095],[-86.6328849474376,36.0584557562124],[-86.6351162994713,36.0586876214998],[-86.634344325429,36.0593420098504],[-86.6337982336357,36.0598048418594],[-86.6337150471539,36.0598753468306]],[[-86.6338798873637,36.0595519476558],[-86.6337726830381,36.0594728451587],[-86.6337155311463,36.0595184730089],[-86.6336519930649,36.0595693546385],[-86.6335918150272,36.0596174705577],[-86.6335313016813,36.0596658630999],[-86.633636155994,36.0597471736887],[-86.6336946523866,36.059700441949],[-86.6337558361628,36.0596512220266],[-86.6338187026654,36.0596008936578],[-86.6338798873637,36.0595519476558]],[[-86.6338124109958,36.059438881386],[-86.6339128600056,36.0595193947358],[-86.6339723584956,36.0594710055341],[-86.6340315161987,36.0594223450058],[-86.6340906760228,36.0593739593279],[-86.6341515185999,36.0593241912103],[-86.6340494043161,36.0592472595038],[-86.6339919207824,36.059293713007],[-86.6339327587722,36.0593418246587],[-86.6338719138792,36.059391042894],[-86.6338124109958,36.059438881386]],[[-86.6337065646503,36.0592605656118],[-86.6337175325426,36.05919347859],[-86.6337281596898,36.0591261184661],[-86.633753555026,36.0591287320505],[-86.6337669068208,36.0590635549248],[-86.6337802651706,36.0589992024364],[-86.6338009221318,36.059001566035],[-86.6338179593478,36.0589319739616],[-86.6338343534507,36.0588665068363],[-86.6336893923773,36.0588466657219],[-86.6336757085906,36.0589126683608],[-86.6336607046135,36.0589827986061],[-86.6336380087807,36.058979621929],[-86.6336229927521,36.0590478288925],[-86.6336089571981,36.059112184922],[-86.633587626447,36.0591100997239],[-86.6335722684578,36.0591785833677],[-86.6335579042093,36.059243765791],[-86.6337065646503,36.0592605656118]],[[-86.6333222279166,36.0591634634591],[-86.63333014715,36.0590958427088],[-86.6333555402726,36.0590981814971],[-86.6333645057241,36.0590344010225],[-86.633374436378,36.0589645723679],[-86.6333961067642,36.0589663818285],[-86.633408772965,36.0589003836699],[-86.6334227615495,36.0588302587919],[-86.6332771684133,36.0588164645117],[-86.6332662560685,36.058890144095],[-86.6332566211614,36.0589547518547],[-86.6332315688332,36.0589526888506],[-86.6332212809105,36.0590200444454],[-86.633211307373,36.059084927067],[-86.6331906548027,36.05908311493],[-86.6331773309838,36.0591518627272],[-86.6331643281621,36.0592184106052],[-86.6333143086696,36.0592310842079],[-86.6333222279166,36.0591634634591]],[[-86.6329467713254,36.059139706768],[-86.632957758454,36.0590748170448],[-86.6329364244234,36.059072455956],[-86.6329504758341,36.0590100232629],[-86.6329668247095,36.0589387864811],[-86.6328175262922,36.0589263846599],[-86.6328032062305,36.0589978847595],[-86.6327905274877,36.0590622335674],[-86.6328115130803,36.0590637718369],[-86.6327991596797,36.059127020272],[-86.6327854959083,36.0591954958181],[-86.6329354730056,36.0592078941169],[-86.6329467713254,36.059139706768]],[[-86.6340068100434,36.0588149566793],[-86.6340897817339,36.0588252337619],[-86.6340930486731,36.0588106572393],[-86.6341773679286,36.058820103399],[-86.6342566048457,36.05882875157],[-86.6342837293441,36.058708834544],[-86.6342024525731,36.0586990975585],[-86.6341205009842,36.0586893649699],[-86.6341162535316,36.0587083422126],[-86.6340332863389,36.0586986140067],[-86.633953368125,36.0586894194899],[-86.6339292581437,36.0588054748073],[-86.6340068100434,36.0588149566793]],[[-86.6331954672643,36.0587476156903],[-86.633218192468,36.0586274498339],[-86.6331271303227,36.0586207855368],[-86.6330465593008,36.0586146158525],[-86.6330501299396,36.0585956422032],[-86.6329665209416,36.0585903121951],[-86.6328849420372,36.0585849714691],[-86.6328652631259,36.0587053988614],[-86.6329471740648,36.0587101853706],[-86.6330297676415,36.0587152485383],[-86.6330268543648,36.058731746513],[-86.6331104832114,36.0587395485966],[-86.6331954672643,36.0587476156903]],[[-86.6346160253172,36.0587817450137],[-86.6345545086001,36.058831516925],[-86.6344929907282,36.0588810148197],[-86.6344328170255,36.0589294060407],[-86.6343733170126,36.0589775187935],[-86.6344737637984,36.0590577550022],[-86.6345356137824,36.0590074324997],[-86.6345907380418,36.0589620889165],[-86.6346512414324,36.0589125972159],[-86.6347087199139,36.0588655936343],[-86.6347725821433,36.0588130639816],[-86.634674518213,36.0587347361054],[-86.6346160253172,36.0587817450137]],[[-86.6344257728797,36.0590938642853],[-86.6343280189897,36.0590119654174],[-86.6342708830992,36.0590595167943],[-86.6342097110594,36.0591101104833],[-86.634151567115,36.0591584917805],[-86.634094428813,36.0592057672909],[-86.6341864265806,36.0592868728583],[-86.6342465984841,36.059238481776],[-86.6343077815629,36.0591892615681],[-86.6343676147986,36.0591408740085],[-86.6344257728797,36.0590938642853]]]},"properties":{"id":"55584","parcel":"163040A00300CO","address":"3001 HAMILTON CHURCH RD","owner":"O.I.C. HAMILTON CROSSING TOWNHOMES PHASE 2","point":[-86.6339348574669,36.05916158299784]}},{"type":"Feature","id":"149115","geometry":{"type":"Polygon","coordinates":[[[-86.6367321410606,36.0530273669725],[-86.6368739559721,36.0521684734673],[-86.6370241024264,36.0519843792514],[-86.6376951153263,36.0523355557571],[-86.6383403474562,36.0515261249937],[-86.6382154694867,36.0514607699106],[-86.6382195777915,36.0514555937033],[-86.63821835956,36.0514549557355],[-86.6385985054023,36.0509759619108],[-86.6387413240162,36.0510508247152],[-86.6392593870024,36.0503906765179],[-86.639044013046,36.0504046620647],[-86.6387024255396,36.0502258939721],[-86.6386762034668,36.0499595921472],[-86.6386892498557,36.0499558502672],[-86.6387103080168,36.0499499920665],[-86.6387751125262,36.0499341690137],[-86.6388409258414,36.0499213788126],[-86.6389075307635,36.0499116622697],[-86.6389747100288,36.0499050520807],[-86.6390422451701,36.0499015692315],[-86.6391099143184,36.0499012257133],[-86.6391774988473,36.0499040226857],[-86.639244774487,36.0499099496217],[-86.6393115235611,36.0499189878483],[-86.6393775283207,36.0499311096804],[-86.6394425720028,36.0499462721065],[-86.6395064422615,36.0499644293879],[-86.6395689321618,36.0499855186335],[-86.6395690813201,36.0499855728205],[-86.639618916256,36.0500053862829],[-86.6396675521026,36.0500270735534],[-86.6397148852715,36.0500505883165],[-86.640705094995,36.0505687939636],[-86.6407717562625,36.0506055328683],[-86.6408361883224,36.0506448080911],[-86.6408982439457,36.0506865293888],[-86.6409577825399,36.0507306037789],[-86.641014668995,36.0507769301383],[-86.6410687759397,36.0508254036979],[-86.6411199770681,36.0508759142752],[-86.6411681593543,36.0509283471105],[-86.6412132130727,36.0509825838214],[-86.6413065233126,36.0511008975101],[-86.6413503671936,36.0511533146016],[-86.6413976499964,36.0512037233362],[-86.6414482295598,36.0512519739516],[-86.6415019593475,36.0512979248209],[-86.6415586795617,36.0513414415975],[-86.6416182248982,36.0513823953723],[-86.6416804179013,36.0514206645113],[-86.6417459387846,36.0514548565069],[-86.6417545355806,36.0514593423936],[-86.6417991419534,36.0514828366093],[-86.6417994155971,36.0514835994423],[-86.6417901428079,36.0514791054419],[-86.6417755434611,36.0515133446156],[-86.6416909608584,36.0516000633553],[-86.6416223797475,36.0517442907947],[-86.6415944348448,36.0517469000758],[-86.6414270732956,36.0516583770941],[-86.641399599114,36.0516926288624],[-86.641391033146,36.0517015899671],[-86.641380768796,36.0517092829881],[-86.6413690840718,36.0517154991497],[-86.6413562983661,36.0517200691129],[-86.6413427613939,36.05172286754],[-86.6413288421309,36.0517238176607],[-86.6413149188531,36.0517228949298],[-86.641301373552,36.0517201225507],[-86.641288574234,36.0517155787796],[-86.6412811538961,36.0517119148814],[-86.6412742348482,36.0517076534668],[-86.6410971124103,36.0515864049136],[-86.6410879333757,36.0515790830279],[-86.6410802276222,36.0515707168261],[-86.6410741742657,36.0515614964285],[-86.641069914898,36.0515516382916],[-86.6410675445772,36.0515413690342],[-86.6410671196043,36.0515309262963],[-86.6410686519227,36.0515205524601],[-86.6410696658762,36.0515169148856],[-86.6410725997579,36.051509402386],[-86.6410787546966,36.0514990201835],[-86.6410869586367,36.0514896193965],[-86.6410944366696,36.0514824152982],[-86.6406680593748,36.0512568872328],[-86.6393116712282,36.0529478443761],[-86.6394463146735,36.0530190634424],[-86.6392223803474,36.053298225724],[-86.6367835644988,36.0530348697657],[-86.6367318245415,36.0530292820728],[-86.6367321410606,36.0530273669725]]]},"properties":{"id":"149115","parcel":"16300043900","address":"1445 EAGLE VIEW BLVD","owner":"RIDGEVIEW PARTNERS, LLC","point":[-86.63931915137293,36.05162250266243]}},{"type":"Feature","id":"269391","geometry":{"type":"Polygon","coordinates":[[[-86.6377636082051,36.0614673585696],[-86.6374808663368,36.0609743733013],[-86.6362848666643,36.0613564982282],[-86.63621280581,36.0613994588339],[-86.63617115735,36.0613527037804],[-86.6361390948119,36.0613630367722],[-86.6358986368159,36.0611640413737],[-86.6355341781665,36.0599847389727],[-86.6356006435071,36.0596138329965],[-86.6356173885566,36.0595203843348],[-86.635716235598,36.0589687587313],[-86.6357459154654,36.058948472014],[-86.6374956186154,36.0577524755166],[-86.6387653102028,36.0584643992058],[-86.6384104503883,36.0591014131845],[-86.6400207589327,36.0603875879618],[-86.6396306222783,36.060677284679],[-86.6396144806906,36.0606891798552],[-86.6395140401661,36.0607366913136],[-86.6395252772061,36.0607456968019],[-86.6394310111617,36.0608037763254],[-86.639106127876,36.0610039512195],[-86.639031937667,36.0610763192724],[-86.6389725078425,36.0611749814843],[-86.6389476556506,36.0611976390051],[-86.6387511286029,36.0613783343555],[-86.6385573938574,36.0615610082188],[-86.6383664822525,36.0617456298012],[-86.6381784235533,36.0619321728211],[-86.6381323396356,36.0619804488931],[-86.6380886193079,36.0620301544872],[-86.6380473296593,36.0620812117405],[-86.6377140379482,36.0616983790981],[-86.6375719551745,36.0615321058328],[-86.6377636082051,36.0614673585696]]]},"properties":{"id":"269391","parcel":"16300029600","address":"630 BELL RD","owner":"WE PREAKNESS OWNER, LLC","point":[-86.63743286254395,36.0598049425204]}},{"type":"Feature","id":"269922","geometry":{"type":"Polygon","coordinates":[[[-86.6328198073282,36.0584498280095],[-86.6317278925669,36.0583504645534],[-86.6317409387921,36.0582756995925],[-86.6321012956709,36.0562106994731],[-86.6334947196841,36.0563208938484],[-86.6339410517004,36.0525582861267],[-86.633452660929,36.0524026200202],[-86.6336218828707,36.0512237662031],[-86.6340777248487,36.0483182081998],[-86.6341789522351,36.0476501246255],[-86.6365063169585,36.0477779578062],[-86.6364125037472,36.0482289818149],[-86.6362813495387,36.0488603401569],[-86.6361848546155,36.0497101203354],[-86.635795971804,36.051841633318],[-86.6368889880142,36.0520774300192],[-86.6368739559721,36.0521684734673],[-86.6367321410606,36.0530273669725],[-86.6367318245415,36.0530292820728],[-86.6367835644988,36.0530348697657],[-86.6364758979914,36.05479317204],[-86.6364241902686,36.0550948580907],[-86.6364061497914,36.0552001143301],[-86.6360389095836,36.057342611185],[-86.6360238170741,36.0574212143],[-86.6360050274402,36.0574992907426],[-86.6359825708334,36.057576725889],[-86.6359564796326,36.0576534060044],[-86.6359267906641,36.0577292182318],[-86.6358935485386,36.057804051475],[-86.6358568023216,36.057877796417],[-86.6358166044235,36.0579503455254],[-86.6357704569165,36.058025525305],[-86.6357205993479,36.0580991266576],[-86.635667116231,36.0581710310645],[-86.6356100920659,36.0582411182047],[-86.6355496236131,36.0583092740013],[-86.6354858065537,36.058375387988],[-86.6354187476836,36.0584393514425],[-86.6353485560412,36.0585010583344],[-86.6352753462666,36.0585604089131],[-86.6351992385651,36.0586173052008],[-86.6351162994713,36.0586876214998],[-86.6328849474376,36.0584557562124],[-86.6328198073282,36.0584498280095]]]},"properties":{"id":"269922","parcel":"16300012900","address":"2941 HAMILTON CHURCH RD","owner":"HOOVER, THOMAS S. ET AL","point":[-86.63520549812918,36.053909695793585]}},{"type":"Feature","id":"271199","geometry":{"type":"Polygon","coordinates":[[[-86.6368739559721,36.0521684734673],[-86.6368889880142,36.0520774300192],[-86.635795971804,36.051841633318],[-86.6361848546155,36.0497101203354],[-86.6376478614036,36.0497346922995],[-86.6376633547212,36.049082987889],[-86.6376636257705,36.0491270061584],[-86.6376665266778,36.0491709618429],[-86.6376741635444,36.0492275293966],[-86.637686155934,36.0492835971224],[-86.6377188348938,36.0494122666163],[-86.6377329197525,36.0494609056806],[-86.6377502819477,36.0495088406197],[-86.6377708703717,36.0495559256945],[-86.6377946228396,36.049602017928],[-86.6378214660971,36.0496469780069],[-86.6380021647593,36.0499295191619],[-86.638029546312,36.0499762491715],[-86.6380528484555,36.0500244157911],[-86.6380539328675,36.0500269129202],[-86.6380675558254,36.0500627705491],[-86.638077590123,36.0500993997502],[-86.6380839694974,36.0501365656398],[-86.6382859579879,36.0501203859652],[-86.6382857443433,36.0501089858326],[-86.6382878569057,36.0500977139802],[-86.6382922360213,36.0500868816675],[-86.6382987619903,36.0500767860511],[-86.638307253928,36.0500677065861],[-86.6383174796596,36.0500598932567],[-86.6383291556838,36.05005356207],[-86.6383419615279,36.0500488859673],[-86.6386762034668,36.0499595921472],[-86.6387024255396,36.0502258939721],[-86.639044013046,36.0504046620647],[-86.6392593870024,36.0503906765179],[-86.6387413240162,36.0510508247152],[-86.6385985054023,36.0509759619108],[-86.63821835956,36.0514549557355],[-86.6382195777915,36.0514555937033],[-86.6382154694867,36.0514607699106],[-86.6383403474562,36.0515261249937],[-86.6376951153263,36.0523355557571],[-86.6370241024264,36.0519843792514],[-86.6368739559721,36.0521684734673]]]},"properties":{"id":"271199","parcel":"16300012200","address":"0 EAGLE VIEW BLVD","owner":"MISSIO RIDGEVIEW LAND, LLC","point":[-86.63751567207699,36.0506863718994]}},{"type":"Feature","id":"271200","geometry":{"type":"Polygon","coordinates":[[[-86.6358492834982,36.0582097762346],[-86.6358532115222,36.0582043405987],[-86.635755801888,36.0587479554425],[-86.6357361850576,36.0588574287919],[-86.6352975149603,36.0587990799766],[-86.6353530924349,36.0587494083901],[-86.6354075935713,36.0586989565319],[-86.635488453175,36.058620698969],[-86.6355667237251,36.0585407254386],[-86.6356423523942,36.0584590921037],[-86.6357152830403,36.0583758569477],[-86.6357621103707,36.0583216591033],[-86.6358067925792,36.0582662801571],[-86.6358492834982,36.0582097762346]]]},"properties":{"id":"271200","parcel":"16300034900","address":"0 HAMILTON CHURCH RD","owner":"COMMERCE UNION BANK ET AL, TRS.","point":[-86.63570234039216,36.05850020602555]}},{"type":"Feature","id":"271201","geometry":{"type":"Polygon","coordinates":[[[-86.6396386656698,36.0551830003736],[-86.6393854262607,36.0551384668975],[-86.6383527977451,36.0549568636852],[-86.6382410993272,36.0549353205951],[-86.6381286763645,36.0549164265085],[-86.6380156244268,36.0549001971405],[-86.6379020368499,36.0548866464159],[-86.6377880136063,36.0548757855208],[-86.6376736479949,36.0548676238744],[-86.6375590399594,36.0548621690585],[-86.6364758979914,36.05479317204],[-86.6367835644988,36.0530348697657],[-86.6392223803474,36.053298225724],[-86.6396425256979,36.0533414637369],[-86.6400013911405,36.0533801885203],[-86.6409094729278,36.0534781734118],[-86.6419024897785,36.0535853149433],[-86.6431870673315,36.0537254713913],[-86.6426936856094,36.0542503098382],[-86.6425646774631,36.0544454941327],[-86.6423197237358,36.0548198597397],[-86.642311817638,36.0548278214654],[-86.6423025311505,36.0548347306359],[-86.6422920727821,36.0548404302176],[-86.6422806812418,36.0548447918567],[-86.6422677895256,36.0548476996051],[-86.6422544875862,36.0548488781696],[-86.6422411270262,36.0548482968356],[-86.6421638064104,36.0548392011808],[-86.6420859897106,36.054833544719],[-86.6420079079191,36.0548313442442],[-86.641929795285,36.054832607521],[-86.6418518848382,36.054837328802],[-86.6417744062281,36.0548454960492],[-86.6416975923176,36.0548570827876],[-86.6416216725894,36.0548720562517],[-86.6415468708753,36.0548903710885],[-86.641473410935,36.0549119729336],[-86.6414015131123,36.0549367966252],[-86.6413313888141,36.0549647698397],[-86.641263250464,36.0549958085317],[-86.6412342732633,36.0550102462684],[-86.6412059753088,36.0550252310694],[-86.6411124424671,36.0550605227462],[-86.6410175847686,36.0550933987424],[-86.6409214952112,36.0551238288181],[-86.6408242712113,36.0551517800064],[-86.6407260091342,36.0551772265561],[-86.640635500399,36.0551980496812],[-86.6405443238003,36.0552168529032],[-86.6404525469392,36.0552336223422],[-86.640386990008,36.0552444463212],[-86.6403207838179,36.0552522490022],[-86.6402541412799,36.0552570049184],[-86.6401872742897,36.0552587003259],[-86.6401203970138,36.0552573277775],[-86.6400537203979,36.0552528933635],[-86.639987458768,36.0552454094654],[-86.6399218221195,36.0552349020074],[-86.6398570216006,36.0552214023159],[-86.6396386656698,36.0551830003736]]]},"properties":{"id":"271201","parcel":"16300012600","address":"1 HICKORY CLUB DR","owner":"CLPF THE CLUB, LLC","point":[-86.63978025302488,36.05397843730882]}},{"type":"Feature","id":"271204","geometry":{"type":"Polygon","coordinates":[[[-86.6362449151067,36.057381080342],[-86.6364394395334,36.0562379432969],[-86.6367085413148,36.0562938878359],[-86.6368477901451,36.056244771192],[-86.63790482194,36.0574368636752],[-86.6378183125479,36.0574914400129],[-86.6374956186154,36.0577524755166],[-86.6357459154654,36.058948472014],[-86.635716235598,36.0589687587313],[-86.6357361850576,36.0588574287919],[-86.635755801888,36.0587479554425],[-86.6358532115222,36.0582043405987],[-86.6358670188824,36.0581852335428],[-86.6359235073737,36.0581083002487],[-86.6359761632534,36.0580295962983],[-86.6360249053896,36.0579492465019],[-86.636067646069,36.0578712906208],[-86.6361067025305,36.0577920716399],[-86.6361420168588,36.0577117025287],[-86.6361735378353,36.057630300728],[-86.636201220894,36.0575479827415],[-86.6362250248357,36.0574648695614],[-86.6362449151067,36.057381080342]]]},"properties":{"id":"271204","parcel":"16300012800","address":"2920 HAMILTON CHURCH RD","owner":"MDHA","point":[-86.63693963996292,36.05759142232887]}},{"type":"Feature","id":"271370","geometry":{"type":"Polygon","coordinates":[[[-86.6366162482278,36.0551990047545],[-86.6366274760697,36.0551330146807],[-86.6408989267989,36.0555455202721],[-86.63790482194,36.0574368636752],[-86.6368477901451,36.056244771192],[-86.6368065208589,36.0561982261119],[-86.6364539687756,36.0561525636184],[-86.6366162482278,36.0551990047545]]]},"properties":{"id":"271370","parcel":"16300036500","address":"2900 HAMILTON CHURCH RD #816","owner":"HICKORY NASHVILLE, L.P.","point":[-86.63810886207989,36.05684303224958]}},{"type":"Feature","id":"271940","geometry":{"type":"Polygon","coordinates":[[[-86.6400207589327,36.0603875879618],[-86.6384104503883,36.0591014131845],[-86.6387653102028,36.0584643992058],[-86.6374956186154,36.0577524755166],[-86.6378183125479,36.0574914400129],[-86.63790482194,36.0574368636752],[-86.6408989267989,36.0555455202721],[-86.6410695700781,36.055562195001],[-86.640769917041,36.057671379163],[-86.6415853403604,36.0577637400926],[-86.6415538937482,36.0579199432243],[-86.6415437075169,36.0579705450697],[-86.6415252666244,36.058083053197],[-86.6415028258753,36.0581950823946],[-86.6414764044606,36.0583065370218],[-86.6414460238209,36.058417325031],[-86.6414117098225,36.0585273525479],[-86.6413734905737,36.0586365283898],[-86.641350594998,36.0586083553097],[-86.6412311242232,36.0588966141478],[-86.6412616498203,36.0589060666419],[-86.6412526457572,36.0589223223372],[-86.6412009532136,36.0590265739761],[-86.6411455930237,36.0591295769927],[-86.6410866099932,36.0592312455218],[-86.6410240533901,36.0593314963778],[-86.6409579746959,36.0594302454621],[-86.6408884276494,36.0595274131703],[-86.6408154726281,36.0596229171586],[-86.6407391656072,36.0597166796128],[-86.6406595725523,36.0598086226657],[-86.6405767583422,36.0598986711595],[-86.6405797312632,36.0599316207147],[-86.6402168280011,36.0602412264041],[-86.6400340394072,36.0603982337044],[-86.6400207589327,36.0603875879618]]]},"properties":{"id":"271940","parcel":"16300030100","address":"660 BELL RD","owner":"BELL TN PARTNERS, LLC","point":[-86.63975010997301,36.05802145020858]}}]}