{"type":"FeatureCollection","features":[{"type":"Feature","id":"185655","geometry":{"type":"Polygon","coordinates":[[[-86.6373820972551,36.2032386996309],[-86.6375386572378,36.2030646303015],[-86.637749160564,36.2032574074112],[-86.6380632331151,36.2032198298198],[-86.6382644136811,36.2031957594884],[-86.6384662534268,36.2032158808511],[-86.6387477049924,36.2032439389763],[-86.6390356266461,36.20317982107],[-86.6393240407058,36.2031026272288],[-86.6395311911936,36.2029225978294],[-86.6397383429649,36.2027425680537],[-86.63981325264,36.2025040057812],[-86.6398881629837,36.2022654443415],[-86.6398123989127,36.2020270585305],[-86.6397366364164,36.2017886735514],[-86.6397363489159,36.2017877711201],[-86.6395273683496,36.2016078564836],[-86.63932075142,36.2014299757077],[-86.6390821576856,36.2017338526086],[-86.6390329249058,36.2017104670502],[-86.6389817145936,36.2016900633601],[-86.6389287989443,36.2016727500483],[-86.6388744633798,36.2016586211348],[-86.6388189976162,36.2016477516914],[-86.6387626990076,36.201640198725],[-86.6389761842785,36.2002334502692],[-86.6389912178599,36.2001503222223],[-86.639010516027,36.2000677736387],[-86.6390340454664,36.1999859497941],[-86.6390617650599,36.1999049933014],[-86.6392620178609,36.1999537012861],[-86.6396433228796,36.2000464449479],[-86.6395218387381,36.2009238164976],[-86.6404610593272,36.2020250059192],[-86.6387360073116,36.2038509244305],[-86.6373820972551,36.2032386996309]]]},"properties":{"id":"185655","parcel":"074160A90900CO","address":"0 BONNAFAIR DR","owner":"PARKHAVEN COMMUNITIES HOMEOWNERS ASSOCIA","point":[-86.64006741270804,36.20190674575484]}}]}