{"type":"FeatureCollection","features":[{"type":"Feature","id":"30985","geometry":{"type":"Polygon","coordinates":[[[-86.6209464811694,36.050232570849],[-86.6209739770302,36.0499423669236],[-86.6209988052801,36.0499425787741],[-86.6210345629593,36.0499461312412],[-86.6210696282701,36.0499528318482],[-86.6211035854952,36.0499625998199],[-86.6211360253079,36.0499753201],[-86.621166563597,36.0499908378459],[-86.6211828048169,36.0499954507283],[-86.6212029556017,36.0502597026742],[-86.6209464811694,36.050232570849]]]},"properties":{"id":"30985","parcel":"164100A32600CO","address":"2136 PINEGLEN CT","owner":"MCH SFR PROPERTY OWNER 1B LLC","point":[-86.6210748113769,36.05011404298712]}},{"type":"Feature","id":"30986","geometry":{"type":"Polygon","coordinates":[[[-86.6213202915381,36.0499724198727],[-86.6213331397141,36.0499628126329],[-86.6213331816267,36.0499627790693],[-86.6213474837479,36.0499499097926],[-86.6213591169277,36.0499353742802],[-86.6213677921097,36.0499195354382],[-86.6213732926017,36.0499027846408],[-86.6213754818377,36.0498855407888],[-86.6217698354995,36.0498998228213],[-86.6217700956263,36.049900301864],[-86.6215595090007,36.0502109911702],[-86.6213202915381,36.0499724198727]]]},"properties":{"id":"30986","parcel":"164100A32800CO","address":"2137 PINEGLEN CT","owner":"DEBOER, PAMELA","point":[-86.62153991681637,36.05009202134711]}},{"type":"Feature","id":"31984","geometry":{"type":"Polygon","coordinates":[[[-86.6206871932757,36.0502051393217],[-86.6207731065734,36.049920455062],[-86.6208226943921,36.0499292800694],[-86.620872802055,36.0499358852178],[-86.6209232806941,36.0499402523467],[-86.6209739770302,36.0499423669236],[-86.6209464811694,36.050232570849],[-86.6206871932757,36.0502051393217]]]},"properties":{"id":"31984","parcel":"164100A32500CO","address":"2132 PINEGLEN CT","owner":"NSHINGA, DENIS & NYIRAMUBYEYI, ESPERENCE","point":[-86.62084421600134,36.05007379631907]}},{"type":"Feature","id":"31998","geometry":{"type":"Polygon","coordinates":[[[-86.6217698354995,36.0498998228213],[-86.6216222317908,36.049625477889],[-86.6216235595487,36.0496258081209],[-86.6220479971567,36.0497311449854],[-86.6224640801022,36.0496588325],[-86.6225585616408,36.0496424070426],[-86.6224554065554,36.0503921644019],[-86.6220203430812,36.0503460612631],[-86.621504863464,36.0502916053964],[-86.6215595090007,36.0502109911702],[-86.6217700956263,36.049900301864],[-86.6217698354995,36.0498998228213]]]},"properties":{"id":"31998","parcel":"164100A36500CO","address":"0 PINEGLEN CT","owner":"SUMMERFIELD HOMEOWNERS ASSOCIATION, INC","point":[-86.62208307309082,36.0500569657612]}},{"type":"Feature","id":"34051","geometry":{"type":"Polygon","coordinates":[[[-86.6212839554463,36.0502682700379],[-86.6212029556017,36.0502597026742],[-86.6211828048169,36.0499954507283],[-86.6212066308575,36.0499993521538],[-86.6212309183948,36.0500001030082],[-86.6212550401863,36.0499976821899],[-86.6212783729882,36.0499921541993],[-86.6213003119131,36.0499836600518],[-86.6213202915381,36.0499724198727],[-86.6215595090007,36.0502109911702],[-86.621504863464,36.0502916053964],[-86.6212839554463,36.0502682700379]]]},"properties":{"id":"34051","parcel":"164100A32700CO","address":"2140 PINEGLEN CT","owner":"PROGRESS RESIDENTIAL BORROWER 6, LLC","point":[-86.62132255819044,36.050105317739686]}},{"type":"Feature","id":"266369","geometry":{"type":"Polygon","coordinates":[[[-86.6248249023111,36.0510521234228],[-86.6249112566241,36.0510049738153],[-86.6249950336293,36.0509548524556],[-86.6250760809023,36.0509018538732],[-86.625154247137,36.0508460734933],[-86.6252293877656,36.0507876166202],[-86.6253013637851,36.0507265903324],[-86.6263745084728,36.0515957017976],[-86.6259360726808,36.0519386247338],[-86.6248249023111,36.0510521234228]]]},"properties":{"id":"266369","parcel":"16400000700","address":"0 MT VIEW RD","owner":"HOOVER, THOMAS S. ET AL","point":[-86.62560223817002,36.05132392302222]}},{"type":"Feature","id":"269481","geometry":{"type":"Polygon","coordinates":[[[-86.6263745084728,36.0515957017976],[-86.6269581748463,36.0511377433793],[-86.6273394591718,36.0514412389195],[-86.6280331726991,36.0508684221299],[-86.6276682467754,36.0505802275817],[-86.6277865913133,36.0504873078674],[-86.6292005912915,36.05065135376],[-86.6336218828707,36.0512237662031],[-86.633452660929,36.0524026200202],[-86.6339410517004,36.0525582861267],[-86.6334947196841,36.0563208938484],[-86.6321012956709,36.0562106994731],[-86.6321828743483,36.055743194633],[-86.6292386794077,36.0554619134845],[-86.6261754560756,36.0551855754345],[-86.6245775081085,36.0550422241058],[-86.6247256480234,36.052885517185],[-86.6259360726808,36.0519386247338],[-86.6263745084728,36.0515957017976]]]},"properties":{"id":"269481","parcel":"16400000900","address":"0 SANTI LN","owner":"HOOVER, THOMAS S. ET AL","point":[-86.62921127621046,36.053978059987614]}},{"type":"Feature","id":"270930","geometry":{"type":"Polygon","coordinates":[[[-86.6211716671131,36.0512976976144],[-86.6212839554463,36.0502682700379],[-86.621504863464,36.0502916053964],[-86.6220203430812,36.0503460612631],[-86.6218923433232,36.0513728820987],[-86.6211716671131,36.0512976976144]]]},"properties":{"id":"270930","parcel":"16400002500","address":"3410 MT VIEW CIR","owner":"DOUANGKESONE, LIT","point":[-86.62159229164224,36.05082186849507]}},{"type":"Feature","id":"270932","geometry":{"type":"Polygon","coordinates":[[[-86.6188931454783,36.0518167637466],[-86.6189811361423,36.0512998507431],[-86.6189855955008,36.0512830152821],[-86.6189930382019,36.0512668891306],[-86.6190033060339,36.0512518218978],[-86.6190161761972,36.0512381355845],[-86.6190283483366,36.0512290214654],[-86.6190417698726,36.0512211474037],[-86.6190562496808,36.0512146270413],[-86.6190561569567,36.051202723354],[-86.6190850294097,36.0511849062647],[-86.6191045294628,36.0511808404423],[-86.6191533557124,36.0511805896094],[-86.6225252778318,36.0515399003725],[-86.6224948608515,36.0515595342422],[-86.6225068464514,36.0515607981236],[-86.62247547934,36.0515727732742],[-86.6224063206463,36.051600781866],[-86.6223111441801,36.0516417284132],[-86.62221766312,36.0516851744059],[-86.6221259758555,36.0517310706706],[-86.6220361785781,36.0517793707491],[-86.6219483696573,36.0518300227649],[-86.6218626396738,36.0518829721778],[-86.6217790825313,36.0519381635291],[-86.6211601980117,36.0523962781156],[-86.6203668076072,36.0519959890825],[-86.619644819266,36.0524216602448],[-86.6188931454783,36.0518167637466]]]},"properties":{"id":"270932","parcel":"16400002600","address":"0 MT VIEW CIR","owner":"ADAMS, STEVEN R. & KATHY L.","point":[-86.62044626889427,36.05179801931988]}},{"type":"Feature","id":"271462","geometry":{"type":"Polygon","coordinates":[[[-86.6233176903784,36.0496998281887],[-86.6249424401858,36.0508130637873],[-86.6248699752321,36.0508589562167],[-86.624795191789,36.050902324406],[-86.6247182202325,36.0509430928687],[-86.6246391998324,36.0509811878747],[-86.6245582710187,36.0510165419972],[-86.6244755775943,36.0510490932001],[-86.62439126559,36.0510787803372],[-86.6243054877955,36.0511055548455],[-86.6242183947601,36.0511293654705],[-86.6241301426682,36.0511501717437],[-86.6240514453963,36.0511660155741],[-86.6231090128387,36.0513884637962],[-86.6233176903784,36.0496998281887]]]},"properties":{"id":"271462","parcel":"16400002300","address":"5830 MT VIEW RD","owner":"VARELA, ELVIN OMAR & ROSALES, KENIA YOLIVETH GUZMAN","point":[-86.62368965337737,36.05025506719939]}},{"type":"Feature","id":"271466","geometry":{"type":"Polygon","coordinates":[[[-86.6218923433232,36.0513728820987],[-86.6220203430812,36.0503460612631],[-86.6224554065554,36.0503921644019],[-86.6225585616408,36.0496424070426],[-86.6225815150497,36.0494755561705],[-86.6226170570401,36.0492196816235],[-86.6233176903784,36.0496998281887],[-86.6231090128387,36.0513884637962],[-86.6230127006521,36.0514096137512],[-86.6229170946021,36.051432784264],[-86.6228222611593,36.0514579605723],[-86.6227913324197,36.051466662779],[-86.6218923433232,36.0513728820987]]]},"properties":{"id":"271466","parcel":"16400002400","address":"3406 MT VIEW CIR","owner":"REESE, SCOTT & ENTRUST TENNESSEE","point":[-86.6228919002101,36.0500236477695]}},{"type":"Feature","id":"271956","geometry":{"type":"Polygon","coordinates":[[[-86.6235881080391,36.0527771282081],[-86.6222633380693,36.0526321559636],[-86.6230344788559,36.0515470831497],[-86.6231560507858,36.0515200830208],[-86.6240880195874,36.0512998859628],[-86.6241312525595,36.0512914982415],[-86.6242227155867,36.0512718073514],[-86.6243131149526,36.0512491053018],[-86.624402300007,36.0512234307297],[-86.6244901212386,36.0511948258714],[-86.6245764347215,36.0511633374413],[-86.6246610954774,36.0511290193696],[-86.6247439640919,36.0510919273609],[-86.6248249023111,36.0510521234228],[-86.6259360726808,36.0519386247338],[-86.6247256480234,36.052885517185],[-86.6235881080391,36.0527771282081]]]},"properties":{"id":"271956","parcel":"16400000500","address":"5831 MT VIEW RD","owner":"WALKER, HAROLD WAYNE & RONALD DOUGLAS","point":[-86.62400027330695,36.0522850926417]}},{"type":"Feature","id":"271958","geometry":{"type":"Polygon","coordinates":[[[-86.6269581748463,36.0511377433793],[-86.6276682467754,36.0505802275817],[-86.6280331726991,36.0508684221299],[-86.6273394591718,36.0514412389195],[-86.6269581748463,36.0511377433793]]]},"properties":{"id":"271958","parcel":"16400000800","address":"5791 SANTI LN","owner":"HOOVER, THOMAS S. ET AL","point":[-86.62749990733239,36.05100309711747]}},{"type":"Feature","id":"276233","geometry":{"type":"Polygon","coordinates":[[[-86.6213688389157,36.0524281679651],[-86.6217240190676,36.0521648105634],[-86.6222633380693,36.0526321559636],[-86.6235881080391,36.0527771282081],[-86.6225926179465,36.0535272935021],[-86.6213688389157,36.0524281679651]]]},"properties":{"id":"276233","parcel":"16400023000","address":"5853 MT VIEW RD","owner":"WALKER, HAROLD W. & ANGELA M.","point":[-86.62263106915235,36.05315076705826]}},{"type":"Feature","id":"276495","geometry":{"type":"Polygon","coordinates":[[[-86.6217240190676,36.0521648105634],[-86.6218931980764,36.0520386690912],[-86.621985316021,36.0519783925976],[-86.6220801956984,36.0519210102215],[-86.622177699031,36.0518666055875],[-86.622277684578,36.0518152578313],[-86.6223800064179,36.0517670407047],[-86.6224845163827,36.0517220243659],[-86.6225910640579,36.0516802753803],[-86.6226994912044,36.0516418531436],[-86.6228096439957,36.0516068134242],[-86.6229213608089,36.0515752084261],[-86.6230344788559,36.0515470831497],[-86.6222633380693,36.0526321559636],[-86.6217240190676,36.0521648105634]]]},"properties":{"id":"276495","parcel":"16400016900","address":"0 MT VIEW RD","owner":"HOOVER, THOMAS S. ET AL","point":[-86.62222352409718,36.05210304800869]}},{"type":"Feature","id":"276911","geometry":{"type":"Polygon","coordinates":[[[-86.6219250619155,36.0585744477939],[-86.621655524138,36.0582857432523],[-86.6215771746153,36.0583037286614],[-86.6214546736901,36.0581268941211],[-86.6213853293073,36.0580256103556],[-86.6212363272429,36.0578074333616],[-86.6210682645657,36.0575583124028],[-86.6209255120227,36.0573442234726],[-86.6207368612272,36.0570578463046],[-86.6205735205526,36.0568065020791],[-86.6203659708189,36.0564825867278],[-86.6201611202346,36.0561572835591],[-86.6201287289541,36.0561684386705],[-86.6200547128294,36.0560479465628],[-86.6200897757262,36.0560323821665],[-86.6199663796458,36.0558264337978],[-86.6200931824212,36.055775234792],[-86.6219682423441,36.0550139611482],[-86.6201202933063,36.0533532351645],[-86.6209813491914,36.0527136676844],[-86.6222267087692,36.05380389454],[-86.6225926179465,36.0535272935021],[-86.6235881080391,36.0527771282081],[-86.6247256480234,36.052885517185],[-86.6245775081085,36.0550422241058],[-86.6245652889367,36.0552093124464],[-86.623640249121,36.0566623823835],[-86.622223189459,36.0588849819178],[-86.6221888267188,36.0588514296964],[-86.6221523038047,36.0588194162902],[-86.6219250619155,36.0585744477939]]]},"properties":{"id":"276911","parcel":"16400018800","address":"0 MURFREESBORO PIKE","owner":"HOOVER, THOMAS S. ET AL","point":[-86.62210508790145,36.05580739405873]}},{"type":"Feature","id":"281458","geometry":{"type":"Polygon","coordinates":[[[-86.620395117372,36.0512166785441],[-86.6205262379833,36.050188111923],[-86.6206871932757,36.0502051393217],[-86.6209464811694,36.050232570849],[-86.6212029556017,36.0502597026742],[-86.6212839554463,36.0502682700379],[-86.6211716671131,36.0512976976144],[-86.620395117372,36.0512166785441]]]},"properties":{"id":"281458","parcel":"16400021100","address":"3422 MT VIEW CIR","owner":"RODRIGUEZ, VIRGINIA LUCAS ETAL","point":[-86.6208439092528,36.05074248897039]}}]}