{"type":"FeatureCollection","features":[{"type":"Feature","id":"88172","geometry":{"type":"Polygon","coordinates":[[[-86.6752009542902,36.3059738458297],[-86.6764932533614,36.305806750517],[-86.6765201546603,36.3059265891522],[-86.676534884968,36.3059922105687],[-86.6765348293902,36.3059922216943],[-86.6753140944315,36.3063467979734],[-86.6752855214193,36.3062734725528],[-86.6752598952935,36.306199435822],[-86.6752372434443,36.3061247669379],[-86.6752175899139,36.3060495441743],[-86.6752009542902,36.3059738458297]]]},"properties":{"id":"88172","parcel":"02616001500","address":"206 CUMBERLAND HILLS DR","owner":"VERTREES, ANGELA","point":[-86.67571317039635,36.306088474135066]}},{"type":"Feature","id":"88173","geometry":{"type":"Polygon","coordinates":[[[-86.6764276421961,36.3055274880617],[-86.6764277434383,36.305527478483],[-86.6764600170605,36.3056650619555],[-86.6764932533614,36.305806750517],[-86.6752009542902,36.3059738458297],[-86.6751966297088,36.3059442034453],[-86.6751889150414,36.3059151288373],[-86.6751646914308,36.3057806633988],[-86.6751391376591,36.305649502961],[-86.6764276421961,36.3055274880617]]]},"properties":{"id":"88173","parcel":"02616001600","address":"208 CUMBERLAND HILLS DR","owner":"SASAKI, MASATAKA ET UX","point":[-86.67581353910104,36.30572286764578]}},{"type":"Feature","id":"88174","geometry":{"type":"Polygon","coordinates":[[[-86.6762035382056,36.3045535776257],[-86.6762035837774,36.3045535683586],[-86.6762867214587,36.304910205944],[-86.6762866224824,36.3049102200161],[-86.6750311514077,36.3050842363408],[-86.675014160803,36.3050187093607],[-86.6749940830804,36.3049537556671],[-86.6749709446999,36.3048894742457],[-86.6749447820722,36.3048259559155],[-86.6762034893013,36.3045535878127],[-86.6762035382056,36.3045535776257]]]},"properties":{"id":"88174","parcel":"02616001900","address":"214 CUMBERLAND HILLS DR","owner":"NALL, ROBERT & RACCA, JORDAN","point":[-86.67590494502497,36.30469067074808]}},{"type":"Feature","id":"88175","geometry":{"type":"Polygon","coordinates":[[[-86.6759612707949,36.304247846814],[-86.6759613751834,36.3042478146875],[-86.6761598621711,36.3043615273397],[-86.6762035837774,36.3045535683586],[-86.6762035382056,36.3045535776257],[-86.6762034893013,36.3045535878127],[-86.6749447820722,36.3048259559155],[-86.6749093965522,36.30474867958],[-86.6748700369186,36.3046726727107],[-86.6748267733548,36.3045980691947],[-86.6759612707949,36.304247846814]]]},"properties":{"id":"88175","parcel":"02616002000","address":"216 CUMBERLAND HILLS DR","owner":"GORDON, PERRION LIVING TRUST","point":[-86.6757357687993,36.304456339152615]}},{"type":"Feature","id":"88176","geometry":{"type":"Polygon","coordinates":[[[-86.6746728783995,36.3043802717439],[-86.675481900169,36.3039774508049],[-86.6754819684154,36.3039774891763],[-86.6759613751834,36.3042478146875],[-86.6759612707949,36.304247846814],[-86.6748267733548,36.3045980691947],[-86.6747778170079,36.3045243968555],[-86.6747265081557,36.3044517812425],[-86.6746728783995,36.3043802717439]]]},"properties":{"id":"88176","parcel":"02616002100","address":"218 CUMBERLAND HILLS DR","owner":"GROSS, RODNEY & OPRA","point":[-86.67527583484744,36.304313949013064]}},{"type":"Feature","id":"88177","geometry":{"type":"Polygon","coordinates":[[[-86.6743942494616,36.3041010889378],[-86.6749921520371,36.303693949322],[-86.6754450004243,36.303956084302],[-86.675481900169,36.3039774508049],[-86.6746728783995,36.3043802717439],[-86.6746220293699,36.3043213584578],[-86.674568675457,36.3042639146041],[-86.6745128818378,36.3042080101116],[-86.6744547159001,36.3041537130943],[-86.6743942494616,36.3041010889378]]]},"properties":{"id":"88177","parcel":"02616002200","address":"220 CUMBERLAND HILLS DR","owner":"JONES, GLENDA E SPECIAL NEEDS TRUST","point":[-86.67492114986176,36.30403922509126]}},{"type":"Feature","id":"88214","geometry":{"type":"Polygon","coordinates":[[[-86.6744437718719,36.3033805647273],[-86.6745853046913,36.3033298742777],[-86.6749921520371,36.303693949322],[-86.6744437718719,36.3033805647273]]]},"properties":{"id":"88214","parcel":"02616006100","address":"224 CUMBERLAND HILLS DR","owner":"CHITWOOD, BILLY J. ET UX","point":[-86.67476765722036,36.303537392536306]}},{"type":"Feature","id":"89292","geometry":{"type":"Polygon","coordinates":[[[-86.6765946811718,36.3062468218093],[-86.6765947544026,36.3062467916591],[-86.6766300428345,36.3064114976857],[-86.6764505480851,36.3066876586666],[-86.6757049909365,36.3069747624626],[-86.6756314850662,36.3068718874155],[-86.6755627303384,36.3067689866775],[-86.6755305248122,36.3067280410054],[-86.6755009318182,36.3066858253227],[-86.6765946811718,36.3062468218093]]]},"properties":{"id":"89292","parcel":"02616001300","address":"202 CUMBERLAND HILLS DR","owner":"CULVER, EMILY K. & JORDAN M.","point":[-86.67619268689118,36.30654863722943]}},{"type":"Feature","id":"89295","geometry":{"type":"Polygon","coordinates":[[[-86.6765348293902,36.3059922216943],[-86.676534884968,36.3059922105687],[-86.6765947544026,36.3062467916591],[-86.6765946811718,36.3062468218093],[-86.6755009318182,36.3066858253227],[-86.6754577122233,36.3066202331739],[-86.6754173697739,36.3065534515421],[-86.6753799563804,36.3064855621517],[-86.6753455172957,36.3064166494677],[-86.6753140944315,36.3063467979734],[-86.6765348293902,36.3059922216943]]]},"properties":{"id":"89295","parcel":"02616001400","address":"204 CUMBERLAND HILLS DR","owner":"SHANKSTER, JACK","point":[-86.67597860120827,36.30629687723412]}},{"type":"Feature","id":"90130","geometry":{"type":"Polygon","coordinates":[[[-86.676360677023,36.305236689325],[-86.6763607782417,36.3052366770429],[-86.6764277434383,36.305527478483],[-86.6764276421961,36.3055274880617],[-86.6751391376591,36.305649502961],[-86.6751241347697,36.3055616848141],[-86.6751081166032,36.3054741463042],[-86.6750850630765,36.3053575302793],[-86.676360677023,36.305236689325]]]},"properties":{"id":"90130","parcel":"02616001700","address":"210 CUMBERLAND HILLS DR","owner":"KNIGHT, SHARON D & KNIGHT, STANLEY C REVO LIVING TR","point":[-86.67574972034367,36.305417611459966]}},{"type":"Feature","id":"90175","geometry":{"type":"Polygon","coordinates":[[[-86.6780622430242,36.308942101945],[-86.6779530348104,36.3079214148589],[-86.6772936290949,36.3080825046287],[-86.6772603429405,36.3076507123612],[-86.677195525928,36.3068098475998],[-86.6771995621966,36.3068086687223],[-86.6781254744632,36.3065381641565],[-86.6800243358028,36.3061273448814],[-86.6800428505426,36.3061233393466],[-86.68004285103,36.306123396121],[-86.6800441691362,36.3061402299093],[-86.6800486397126,36.3061567053039],[-86.6800561603485,36.3061724362549],[-86.680066553092,36.3061870569636],[-86.6800795767271,36.3062002254193],[-86.680094926867,36.3062116342127],[-86.6801122449158,36.3062210167948],[-86.6801236078638,36.3062269910912],[-86.6801339095346,36.3062341150112],[-86.6801429718521,36.3062422678915],[-86.6807859911324,36.3071377233772],[-86.6808256745682,36.3071943744673],[-86.6808625481973,36.3072522553162],[-86.6808965544483,36.3073112752264],[-86.6809276412933,36.307371340766],[-86.6809557578168,36.3074323584965],[-86.6809524589626,36.3074331800662],[-86.6809642217109,36.3074592096996],[-86.680708267733,36.3075317972164],[-86.680752253554,36.3076342847487],[-86.6800246684119,36.3078400045245],[-86.680069392909,36.3083056340381],[-86.6800770713052,36.3083664316454],[-86.6800877780553,36.3084269283327],[-86.6801014956211,36.3084870259641],[-86.680174852128,36.3087692735058],[-86.680047616751,36.3087887959114],[-86.679919908662,36.3088061813331],[-86.6797917834736,36.3088214213458],[-86.6797849583302,36.3087775069842],[-86.679638943054,36.3087908529996],[-86.6794926076796,36.3088016772078],[-86.6787914849293,36.3088459593381],[-86.678796583396,36.3088941372253],[-86.6784876172756,36.3089155495162],[-86.6780622430242,36.308942101945]]]},"properties":{"id":"90175","parcel":"02612000400","address":"2353 GALLATIN PIKE","owner":"CARMAX AUTO SUPERSTORES, INC.","point":[-86.67899233366579,36.30757838713904]}},{"type":"Feature","id":"90407","geometry":{"type":"Polygon","coordinates":[[[-86.6762866224824,36.3049102200161],[-86.6762867214587,36.304910205944],[-86.6763607782417,36.3052366770429],[-86.676360677023,36.305236689325],[-86.6750850630765,36.3053575302793],[-86.6750673552086,36.3052708258144],[-86.6750579760268,36.3052083006876],[-86.6750459037936,36.3051460789864],[-86.6750311514077,36.3050842363408],[-86.6762866224824,36.3049102200161]]]},"properties":{"id":"90407","parcel":"02616001800","address":"212 CUMBERLAND HILLS DR","owner":"MAYO, EARNESTINE C.","point":[-86.67568626869524,36.30511691652318]}},{"type":"Feature","id":"90808","geometry":{"type":"Polygon","coordinates":[[[-86.6739597259244,36.303687624919],[-86.6739223758509,36.3036403520223],[-86.6738862874638,36.3035924403224],[-86.6744437718719,36.3033805647273],[-86.6749921520371,36.303693949322],[-86.6743942494616,36.3041010889378],[-86.6743282145437,36.3040473836942],[-86.6742596391793,36.3039958077579],[-86.6741944613369,36.3039376023468],[-86.6741318081054,36.3038776092117],[-86.674071753572,36.3038158991404],[-86.674014369619,36.3037525456363],[-86.6739597259244,36.303687624919]]]},"properties":{"id":"90808","parcel":"02616002300","address":"222 CUMBERLAND HILLS DR","owner":"CHITWOOD, JANE K LIVING TRUST","point":[-86.6744679403514,36.303723152313374]}},{"type":"Feature","id":"91069","geometry":{"type":"Polygon","coordinates":[[[-86.6749921520371,36.303693949322],[-86.6745853046913,36.3033298742777],[-86.6744437718719,36.3033805647273],[-86.6738862874638,36.3035924403224],[-86.6738862671318,36.3035924061891],[-86.6738862423387,36.3035923711794],[-86.6738789059197,36.3035817613814],[-86.673827960015,36.3035049157004],[-86.6738209721252,36.3034939146268],[-86.6738110548949,36.3034774242886],[-86.673789849533,36.303441529475],[-86.6737661480806,36.303399896042],[-86.6737438619277,36.3033577527345],[-86.6737272666769,36.3033251883852],[-86.6737161002333,36.3033024144425],[-86.6736894271154,36.3032444123626],[-86.6736826975646,36.303228827107],[-86.6736687276866,36.3031954631526],[-86.6736477051339,36.3031416392051],[-86.6736337126518,36.3031035187012],[-86.6736102684722,36.3030311024272],[-86.6736075653203,36.3030223557679],[-86.6735922214525,36.3029677674743],[-86.6735783584653,36.3029129194859],[-86.6734081948343,36.3029232022435],[-86.6731974138455,36.3029349311788],[-86.6727609846287,36.3029592186889],[-86.6725974954371,36.3029694676723],[-86.6725116810426,36.3030548260787],[-86.6724258664554,36.3031401835207],[-86.6721567038913,36.3034152760914],[-86.6719293676446,36.3030201553257],[-86.6714673488032,36.3022434148171],[-86.6713982235576,36.3021286562414],[-86.6713648202155,36.3020732000256],[-86.67136477504,36.3020731245735],[-86.6719197847794,36.3018903910516],[-86.6720973497454,36.3018365850663],[-86.6725310940974,36.3017051482247],[-86.672555388899,36.3017673653267],[-86.6733341267287,36.3015197278289],[-86.6736527558144,36.3014183962623],[-86.6736579443475,36.3014165775175],[-86.673664163759,36.3014146133385],[-86.6736695884138,36.3014126734145],[-86.6736761499002,36.3014104784174],[-86.6736788970848,36.3014096141549],[-86.6736877220902,36.3014065017137],[-86.6736932417554,36.3014044747415],[-86.6736938239807,36.3014043345108],[-86.6736995607045,36.3014025631783],[-86.673700049049,36.3014023811132],[-86.6737101931468,36.3013987124732],[-86.6737173367182,36.3013963610219],[-86.6737233083826,36.3013943297271],[-86.6737262412353,36.3013933031095],[-86.6737299684035,36.3013919386119],[-86.673733849843,36.3013905164771],[-86.6737344431556,36.3013903707772],[-86.673738076521,36.3013893663914],[-86.6737470869688,36.3013860654573],[-86.6737566456331,36.301382683962],[-86.6737639186175,36.3013803633296],[-86.6737744545533,36.3013765555143],[-86.6737745711014,36.3013765134083],[-86.6737797585156,36.3013746946645],[-86.6737851140822,36.3013728794895],[-86.6737911768531,36.3013708260541],[-86.6737984535164,36.3013682836975],[-86.6738072535361,36.3013651146094],[-86.6738247899466,36.3013591498936],[-86.6738351733875,36.3013553474288],[-86.6738399837354,36.3013537038194],[-86.6738404687852,36.3013535271793],[-86.6738508445598,36.3013498707546],[-86.6738566860698,36.3013479843749],[-86.6738633756063,36.3013455300018],[-86.6738742706507,36.3013416624977],[-86.6738743827453,36.3013416204165],[-86.6738792209344,36.3013398468736],[-86.6738878166989,36.3013367501149],[-86.6738944002806,36.3013344053791],[-86.6739001528993,36.301332409543],[-86.6739079448553,36.3013298435794],[-86.6739084454686,36.3013296641486],[-86.673913493418,36.3013278119297],[-86.6739217034706,36.3013249209957],[-86.6739336851961,36.3013205319275],[-86.6739381632648,36.3013189622642],[-86.6739403769146,36.3013182037096],[-86.673945397121,36.3013163624587],[-86.6739487047277,36.301315151699],[-86.673948822389,36.3013151095867],[-86.6739584376401,36.3013117070317],[-86.6739688343671,36.3013078972715],[-86.6739736258362,36.3013062600704],[-86.6739741331063,36.3013060778987],[-86.6739840370428,36.3013024511294],[-86.6739888519236,36.3013006867243],[-86.6739893881327,36.3013005034899],[-86.6740007447341,36.3012964477486],[-86.6740065663147,36.3012943136353],[-86.6740156343794,36.3012911132972],[-86.6740251242868,36.3012876357325],[-86.6740311973271,36.3012854821917],[-86.6740417443325,36.3012816697849],[-86.674041859767,36.301281627685],[-86.6740466979487,36.3012798541354],[-86.6740542620529,36.3012772047172],[-86.6740618917069,36.3012744080331],[-86.6740694869697,36.3012716259599],[-86.6740770799424,36.3012689673671],[-86.6740818892678,36.3012672047916],[-86.6740820013085,36.3012671564019],[-86.6740880925391,36.3012646548833],[-86.6740956821859,36.3012619981103],[-86.6741004948351,36.3012602337131],[-86.6741009820721,36.3012600525537],[-86.6741109004168,36.301256419385],[-86.6741181947961,36.3012538678979],[-86.6741266835388,36.3012507572991],[-86.6741325752618,36.301248493012],[-86.6741452890983,36.3012437862137],[-86.6741520274889,36.3012413180337],[-86.6741605295507,36.3012382028521],[-86.6741706529844,36.3012343351173],[-86.674179141769,36.3012312299218],[-86.674185871266,36.301228763592],[-86.6741956962731,36.3012252841453],[-86.6742050517294,36.3012215784046],[-86.6742129711025,36.3012186800592],[-86.6742235444894,36.3012146989599],[-86.6742315710955,36.3012117107938],[-86.6742383061407,36.3012092426276],[-86.6742501766367,36.3012047396922],[-86.6742569139073,36.3012022715126],[-86.6742653970724,36.301199160935],[-86.6742730232663,36.3011960902839],[-86.6742737593378,36.3011958428477],[-86.6742840059476,36.3011921898095],[-86.6742916288001,36.3011891191759],[-86.6742922747756,36.3011888821556],[-86.6743020177399,36.3011853139362],[-86.6743075552125,36.3011830281843],[-86.6743216976649,36.3011779475016],[-86.6743316613695,36.3011740211631],[-86.6743426739392,36.3011697086561],[-86.674350266893,36.3011670500459],[-86.6743563536081,36.3011645431315],[-86.6743564701402,36.3011644992227],[-86.6743612705694,36.3011627393893],[-86.6743725906018,36.3011583161162],[-86.6743792890053,36.3011558607636],[-86.67439122389,36.3011513376281],[-86.6744007336371,36.3011475787403],[-86.674410629741,36.3011439519794],[-86.6744187409713,36.3011407046767],[-86.6744235558326,36.3011389402542],[-86.6744244298502,36.3011385487526],[-86.674427204016,36.3011373247332],[-86.6744441945822,36.3011309457034],[-86.6744483612489,36.3011294192146],[-86.6744544479272,36.3011269086905],[-86.674454564513,36.3011268710898],[-86.6744593904446,36.3011250993943],[-86.6744656103697,36.3011225466699],[-86.6744667891112,36.3011221147154],[-86.6744719058769,36.3011202404596],[-86.6744801946913,36.301116928175],[-86.6744878242856,36.3011138665035],[-86.6744884413055,36.3011136287424],[-86.6745015993378,36.3011085291971],[-86.6745064241225,36.3011068845791],[-86.6745069221918,36.3011066682097],[-86.6745098248345,36.3011053650649],[-86.6745236754985,36.3011000165194],[-86.6745349333349,36.3010956134049],[-86.6745444597072,36.3010918472032],[-86.6745520915003,36.3010887828116],[-86.6745528084361,36.3010885111474],[-86.6745617487612,36.3010849591009],[-86.6745720132353,36.3010809229169],[-86.6745756815209,36.301079576746],[-86.6745806349829,36.3010774843986],[-86.6745858193496,36.3010755737116],[-86.6745861798023,36.3010754094797],[-86.6745901480753,36.3010737281807],[-86.6745977487836,36.3010706747744],[-86.6745982303979,36.3010704873357],[-86.6746045199238,36.3010681333868],[-86.6746095282294,36.3010660749788],[-86.6746115604841,36.3010653282386],[-86.6746262556589,36.301059393678],[-86.6746357786825,36.3010556274876],[-86.6746434082573,36.301052564905],[-86.6746440252839,36.3010523280443],[-86.674660659502,36.3010456842092],[-86.6746719173001,36.3010412783783],[-86.6746800462842,36.3010380264527],[-86.6746890620666,36.3010344460376],[-86.674689550161,36.3010342351305],[-86.6746952653156,36.3010318979003],[-86.6747013520171,36.3010293918696],[-86.6747014652087,36.3010293479791],[-86.6747091080464,36.3010262745035],[-86.6747185922105,36.3010225220418],[-86.6747333295379,36.3010165710107],[-86.6747475729259,36.3010107984737],[-86.674760344613,36.3010055721805],[-86.6747651572318,36.3010038077568],[-86.6747659547332,36.3010034527288],[-86.6747713571128,36.3010012569307],[-86.6747774448768,36.3009987454828],[-86.67477766673,36.3009986487146],[-86.6747855919651,36.3009953979189],[-86.6747984143923,36.3009901163637],[-86.6748045011026,36.3009876121301],[-86.6748046165362,36.3009875700294],[-86.6748122404622,36.3009844993565],[-86.6748226558254,36.3009801423735],[-86.6748233716459,36.3009798707139],[-86.6748288467577,36.3009775870883],[-86.6748349367677,36.3009750783285],[-86.674835052209,36.300975037129],[-86.6748434209303,36.3009716982377],[-86.6748526421812,36.3009679292081],[-86.6748559040363,36.3009664483107],[-86.6748619907276,36.3009639422718],[-86.6748621061612,36.3009639001711],[-86.6748697023261,36.3009608386617],[-86.6748725481621,36.3009596647006],[-86.6748759810398,36.3009582630571],[-86.6748801454549,36.3009564743088],[-86.6748806248335,36.3009562859803],[-86.6748863397082,36.3009539171996],[-86.6748924263975,36.3009514111592],[-86.6748925429444,36.3009513690523],[-86.6749005745204,36.3009480554707],[-86.6749133936153,36.3009427766255],[-86.6749194803183,36.300940272386],[-86.6749197010348,36.3009401729202],[-86.6749330810706,36.3009346088576],[-86.6749376271646,36.300932795446],[-86.6749381339079,36.3009325519896],[-86.674947538604,36.3009284917338],[-86.6749598540437,36.3009234274834],[-86.674994566063,36.3009089204148],[-86.6750578349821,36.3008835311008],[-86.6751176709696,36.3008600634119],[-86.6752456764489,36.3008090700423],[-86.6753691152834,36.3007589329756],[-86.6754764820551,36.30071438486],[-86.6755475198706,36.3006846890801],[-86.6755683739216,36.3006757261157],[-86.6755684182934,36.300675706942],[-86.6755684582119,36.3006756877932],[-86.6757888535091,36.3008601088244],[-86.6766335157462,36.3015668842572],[-86.6767120039277,36.301632108354],[-86.6767504070464,36.3016640212323],[-86.6776046203734,36.3009978004916],[-86.6776046568745,36.300997772349],[-86.6776046882483,36.300997795605],[-86.6776047263252,36.3009978215272],[-86.6781835864036,36.3013917348991],[-86.6782498346408,36.3014364958166],[-86.6783212478226,36.3014847479122],[-86.6788227863582,36.3018275012557],[-86.6791953774462,36.3020821313149],[-86.6793326017417,36.3021753060439],[-86.6793474565638,36.3021851477877],[-86.6793687802842,36.3021992754644],[-86.6800828161503,36.3026878843021],[-86.6802016114115,36.3027691645702],[-86.6802017312683,36.3027692486112],[-86.6802781907285,36.3028210147777],[-86.6812251628952,36.3034678077769],[-86.6812826881329,36.3035068059636],[-86.6813658044282,36.3035631581216],[-86.6813657792548,36.3035632087322],[-86.6813240711821,36.3036455031249],[-86.6813196864983,36.3036536568938],[-86.681315263835,36.303661796457],[-86.6813108087977,36.3036699262888],[-86.6813063169021,36.3036780428098],[-86.6813017836712,36.3036861433415],[-86.6812972191642,36.3036942323332],[-86.6812969712857,36.3036946690222],[-86.681267765566,36.3037445767711],[-86.6812653733888,36.3037485277075],[-86.6812512468047,36.3037713803896],[-86.6812511919266,36.303771472624],[-86.6812260990415,36.3038101035756],[-86.6812033523339,36.3038439682359],[-86.6812012741969,36.3038470197802],[-86.6811972542991,36.3038521496773],[-86.6811703151566,36.3038861028389],[-86.6811522774679,36.303908227722],[-86.6811240347057,36.3039419502928],[-86.6810915409249,36.3039789195876],[-86.6810476445279,36.3040265145707],[-86.6810326962939,36.3040421350066],[-86.6810166246859,36.3040585422297],[-86.6809850694435,36.3040899438399],[-86.6809570530886,36.3041168617376],[-86.6809459434746,36.3041272478512],[-86.6809056906827,36.3041640345825],[-86.6809056342878,36.3041640799614],[-86.6808335960598,36.3042259717754],[-86.6808334810352,36.3042260616445],[-86.6807713437695,36.3042756941654],[-86.6807451977434,36.3042957332369],[-86.6806945804864,36.3043329874047],[-86.6806427994217,36.304369179248],[-86.680608402222,36.3043922640174],[-86.6805541187151,36.3044272343269],[-86.6805400790353,36.3044360047734],[-86.6805168493773,36.3044502568289],[-86.6805171041436,36.3044504915162],[-86.681562299142,36.3054167865628],[-86.6817116004292,36.3054546822742],[-86.6810893533817,36.3057040018729],[-86.6802701392182,36.3060322338579],[-86.6801250472057,36.3060903941545],[-86.6800428505426,36.3061233393466],[-86.6800243358028,36.3061273448814],[-86.6781254744632,36.3065381641565],[-86.6771995621966,36.3068086687223],[-86.677195525928,36.3068098475998],[-86.6772603429405,36.3076507123612],[-86.6772936290949,36.3080825046287],[-86.6771002502597,36.3079925495282],[-86.6770445435032,36.3079666051749],[-86.6769341751208,36.3079177801119],[-86.6769198816283,36.3078866759494],[-86.6768380241688,36.3077084501299],[-86.676680256884,36.3073566261519],[-86.6766275537577,36.3072256180098],[-86.6763995968817,36.3067621091219],[-86.6764505480851,36.3066876586666],[-86.6766300428345,36.3064114976857],[-86.6765947544026,36.3062467916591],[-86.676534884968,36.3059922105687],[-86.6765201546603,36.3059265891522],[-86.6764932533614,36.305806750517],[-86.6764600170605,36.3056650619555],[-86.6764277434383,36.305527478483],[-86.6763607782417,36.3052366770429],[-86.6762867214587,36.304910205944],[-86.6762035837774,36.3045535683586],[-86.6761598621711,36.3043615273397],[-86.6759613751834,36.3042478146875],[-86.6754819684154,36.3039774891763],[-86.675481900169,36.3039774508049],[-86.6754450004243,36.303956084302],[-86.6749921520371,36.303693949322]]]},"properties":{"id":"91069","parcel":"02616006200","address":"100 RIVERCHASE BLVD","owner":"GRAY PROPERTY 6801, LLC ET AL","point":[-86.67839216504166,36.30437693797745]}},{"type":"Feature","id":"106374","geometry":{"type":"Polygon","coordinates":[[[-86.6772202912511,36.2998356884626],[-86.677294163895,36.2997699798485],[-86.6772941896939,36.2997700022347],[-86.6772942244533,36.2997700308792],[-86.6780837666419,36.3004347096727],[-86.6777520577173,36.30069423307],[-86.676996437241,36.3000348047363],[-86.6772202912511,36.2998356884626]]]},"properties":{"id":"106374","parcel":"03404002800","address":"355 CUMBERLAND HILLS DR","owner":"SWANN, WILLIAM ARTHUR & CONNIE F.","point":[-86.67753590802063,36.30023474712957]}},{"type":"Feature","id":"106375","geometry":{"type":"Polygon","coordinates":[[[-86.6766543279963,36.300341310266],[-86.6765976112576,36.3003034904537],[-86.6763546176747,36.3004118554115],[-86.6762512734688,36.3003614709089],[-86.6762511716869,36.3003614165034],[-86.6761587022094,36.300318625216],[-86.676444381209,36.3001631553304],[-86.676698772671,36.3002463921329],[-86.6767431801723,36.3002609128843],[-86.6767510186658,36.3002539124383],[-86.6768109422864,36.3002004172314],[-86.6769944162956,36.3000366085931],[-86.676996437241,36.3000348047363],[-86.6777520577173,36.30069423307],[-86.6774898659352,36.3008983605283],[-86.6774897818922,36.3008984276899],[-86.6766543279963,36.300341310266]]]},"properties":{"id":"106375","parcel":"03404002900","address":"351 CUMBERLAND HILLS DR","owner":"CULVER, KERMIT L. & SUSAN K. & JORDAN","point":[-86.67728172674332,36.30055366296397]}},{"type":"Feature","id":"107103","geometry":{"type":"Polygon","coordinates":[[[-86.6781836560888,36.3013916813359],[-86.6784620372727,36.3011742630909],[-86.6794913478894,36.3016123883142],[-86.679312576071,36.3018979768407],[-86.6791954203414,36.3020820697905],[-86.6791953972701,36.3020821059692],[-86.6791953774462,36.3020821313149],[-86.6788227863582,36.3018275012557],[-86.6783212478226,36.3014847479122],[-86.6782498346408,36.3014364958166],[-86.6781835864036,36.3013917348991],[-86.6781836195877,36.3013917094786],[-86.6781836560888,36.3013916813359]]]},"properties":{"id":"107103","parcel":"03404001300","address":"2313 E HILL DR","owner":"FLOYD, DONALD L. & DOROTHY A.","point":[-86.67904351770298,36.30171964048656]}},{"type":"Feature","id":"107279","geometry":{"type":"Polygon","coordinates":[[[-86.6793377664606,36.3021685124183],[-86.679558368045,36.301829570482],[-86.6803888657347,36.3021935393765],[-86.6804392006203,36.3022124747718],[-86.6804392552597,36.3022124843778],[-86.6803902240608,36.3023243339649],[-86.680326750877,36.3024691325245],[-86.6802990965735,36.3025335005204],[-86.6802841658816,36.3025682619238],[-86.6802017312683,36.3027692486112],[-86.6802016114115,36.3027691645702],[-86.6800828161503,36.3026878843021],[-86.6793687802842,36.3021992754644],[-86.6793474565638,36.3021851477877],[-86.6793326017417,36.3021753060439],[-86.679332629274,36.3021752707414],[-86.6793377664606,36.3021685124183]]]},"properties":{"id":"107279","parcel":"03404001400","address":"2314 E HILL DR","owner":"LAMBERTH, BILLY H. & RACHEL B. TRUSTEES","point":[-86.6799404187357,36.30226714035862]}},{"type":"Feature","id":"107315","geometry":{"type":"Polygon","coordinates":[[[-86.6761062922584,36.3004308245526],[-86.6762106220555,36.3003810665439],[-86.6762512734688,36.3003614709089],[-86.6763546176747,36.3004118554115],[-86.6765976112576,36.3003034904537],[-86.6766543279963,36.300341310266],[-86.6774897818922,36.3008984276899],[-86.6770050134524,36.3012768753554],[-86.6766336307948,36.3015667970957],[-86.6766335157462,36.3015668842572],[-86.6757888535091,36.3008601088244],[-86.6755684582119,36.3006756877932],[-86.6755685025837,36.3006756686195],[-86.6755925371627,36.3006652224846],[-86.675608395641,36.3006582394846],[-86.6756384626641,36.3006449387916],[-86.6756734348324,36.3006295018081],[-86.6757344597273,36.3006022708524],[-86.6757546117233,36.3005932396811],[-86.6757931157089,36.3005757398414],[-86.6758612822456,36.3005446522069],[-86.6759448089577,36.300506391412],[-86.6759858534141,36.3004874353439],[-86.6759887233927,36.3004860935929],[-86.6760450016602,36.3004596370352],[-86.6760485813742,36.3004579641688],[-86.676104152076,36.3004318368824],[-86.6761062922584,36.3004308245526]]]},"properties":{"id":"107315","parcel":"03404003500","address":"343 CUMBERLAND HILLS DR","owner":"PERKINS, TIMOTHY D. & BERDIE D.","point":[-86.6766521682825,36.30108604347571]}},{"type":"Feature","id":"109254","geometry":{"type":"Polygon","coordinates":[[[-86.6798082586244,36.3003992019269],[-86.6800321615176,36.3001737940671],[-86.6800322298248,36.3001738396455],[-86.6801250448626,36.3002361637435],[-86.6804151293379,36.3004309513368],[-86.6804226825991,36.3004410728689],[-86.6804288823183,36.3004517508653],[-86.6804330516001,36.3004629900368],[-86.6804347557992,36.3004711113172],[-86.6804356393407,36.3004764992879],[-86.6804362922688,36.3004864073094],[-86.6804350526632,36.3004984141251],[-86.6804302169119,36.3005136702761],[-86.680422469405,36.3005281181906],[-86.6804120052175,36.3005413962797],[-86.68029142139,36.3006527455139],[-86.680173793069,36.3007661472127],[-86.6800591743857,36.3008815515126],[-86.6799476160862,36.3009989031617],[-86.6794817250302,36.3007279269567],[-86.6798082586244,36.3003992019269]]]},"properties":{"id":"109254","parcel":"03404001000","address":"2301 E HILL DR","owner":"WALKER, CARL & DORTHEA Y.","point":[-86.67998269238362,36.300596083761725]}},{"type":"Feature","id":"109317","geometry":{"type":"Polygon","coordinates":[[[-86.6776047243331,36.3009977187985],[-86.6781164149957,36.300601538342],[-86.6786264742267,36.3010447279597],[-86.6786265089949,36.3010447575051],[-86.6786265370444,36.301044782582],[-86.6784620372727,36.3011742630909],[-86.6781836560888,36.3013916813359],[-86.6781836195877,36.3013917094786],[-86.6781835864036,36.3013917348991],[-86.6776047263252,36.3009978215272],[-86.6776046882483,36.300997795605],[-86.6776046568745,36.300997772349],[-86.677604687832,36.3009977469411],[-86.6776047243331,36.3009977187985]]]},"properties":{"id":"109317","parcel":"03404003000","address":"352 CUMBERLAND HILLS DR","owner":"STURDIVANT, JOHN EDWARD ETUX","point":[-86.67810323350302,36.30080028242433]}},{"type":"Feature","id":"109320","geometry":{"type":"Polygon","coordinates":[[[-86.6789895739172,36.3005603806527],[-86.6796539137241,36.2999127635079],[-86.6800321615176,36.3001737940671],[-86.6798082586244,36.3003992019269],[-86.6794817250302,36.3007279269567],[-86.679147047558,36.3006408039935],[-86.6789895739172,36.3005603806527]]]},"properties":{"id":"109320","parcel":"03404003300","address":"419 NORTHSIDE DR","owner":"JACKSON, MICHAEL DAVID & CHERYL ANN","point":[-86.67959626089772,36.30028563036435]}},{"type":"Feature","id":"109684","geometry":{"type":"Polygon","coordinates":[[[-86.6787957680205,36.3009130753839],[-86.679147047558,36.3006408039935],[-86.6794817250302,36.3007279269567],[-86.6799476160862,36.3009989031617],[-86.6798765748473,36.3010785078942],[-86.6798078618335,36.3011594414184],[-86.6797415145001,36.3012416566638],[-86.6796775692201,36.3013251101708],[-86.6787957680205,36.3009130753839]]]},"properties":{"id":"109684","parcel":"03404001100","address":"2305 E HILL DR","owner":"WALKER, WILLIAM T.","point":[-86.67938048707788,36.300956014244825]}},{"type":"Feature","id":"109687","geometry":{"type":"Polygon","coordinates":[[[-86.6786265370444,36.301044782582],[-86.6787957680205,36.3009130753839],[-86.6796775692201,36.3013251101708],[-86.6794913478894,36.3016123883142],[-86.6784620372727,36.3011742630909],[-86.6786265370444,36.301044782582]]]},"properties":{"id":"109687","parcel":"03404001200","address":"2309 E HILL DR","owner":"ADAMS, BRANDON W. & VICKI M.","point":[-86.6790776168617,36.30124970914821]}},{"type":"Feature","id":"109750","geometry":{"type":"Polygon","coordinates":[[[-86.6781164149957,36.300601538342],[-86.6785991879713,36.3002290931522],[-86.6789895739172,36.3005603806527],[-86.679147047558,36.3006408039935],[-86.6787957680205,36.3009130753839],[-86.6786265370444,36.301044782582],[-86.6786265089949,36.3010447575051],[-86.6786264742267,36.3010447279597],[-86.6781164149957,36.300601538342]]]},"properties":{"id":"109750","parcel":"03404003100","address":"358 CUMBERLAND HILLS DR","owner":"PEC, AMY","point":[-86.6786243048469,36.30062115231634]}},{"type":"Feature","id":"109753","geometry":{"type":"Polygon","coordinates":[[[-86.6785991879713,36.3002290931522],[-86.6787291920104,36.3001285822455],[-86.678856514595,36.300025848503],[-86.6789810993319,36.299920937311],[-86.6791028876253,36.2998138967719],[-86.6792218253415,36.2997047758644],[-86.6792315480652,36.2996975952387],[-86.6792424310883,36.2996916031209],[-86.6792542539042,36.2996869224153],[-86.6792667790521,36.2996836463809],[-86.6792798173748,36.2996823078043],[-86.6792929563912,36.2996825845611],[-86.6793058920973,36.2996844702483],[-86.6793183246257,36.2996879214895],[-86.6793299682572,36.2996928569772],[-86.6793405525962,36.2996991646764],[-86.6796539137241,36.2999127635079],[-86.6789895739172,36.3005603806527],[-86.6785991879713,36.3002290931522]]]},"properties":{"id":"109753","parcel":"03404003200","address":"423 NORTHSIDE DR","owner":"JACKSON, RETHA B. & WILLIAM F. III","point":[-86.6791380846694,36.30007814236867]}}]}