{"type":"FeatureCollection","features":[{"type":"Feature","id":"48227","geometry":{"type":"Polygon","coordinates":[[[-86.6351007700997,36.1899457546129],[-86.6353173153177,36.1896998033037],[-86.6354966081664,36.189803529479],[-86.6352800632212,36.1900494811028],[-86.6351007700997,36.1899457546129]]]},"properties":{"id":"48227","parcel":"085040A02000CO","address":"4140 STONE HALL BLVD","owner":"CRABTREE, TROY R. & TERI","point":[-86.63529868931043,36.18987464221102]}},{"type":"Feature","id":"48229","geometry":{"type":"Polygon","coordinates":[[[-86.6349152212274,36.1891285355895],[-86.6352132307673,36.1890466050241],[-86.6352699850805,36.189031003116],[-86.6353093121676,36.1891556810991],[-86.6353780360235,36.1891939021126],[-86.6351085895775,36.189393160336],[-86.6350771749312,36.1893686880185],[-86.6350475798908,36.1893427695235],[-86.6350199030062,36.1893154935578],[-86.6349945829551,36.1892813817985],[-86.634971732158,36.1892461449],[-86.6349514238008,36.1892098978392],[-86.6349337266795,36.189172762826],[-86.6349152212274,36.1891285355895]]]},"properties":{"id":"48229","parcel":"085040A09500CO","address":"4125 STONE HALL BLVD","owner":"PEDIGO, KIMBERLY NICOLE & WORRELL, MARCUS JUDAH","point":[-86.63514597822473,36.18922858354816]}},{"type":"Feature","id":"48421","geometry":{"type":"Polygon","coordinates":[[[-86.6344221198039,36.1892057497605],[-86.6347328691033,36.1891203205656],[-86.6347953426811,36.1892696416635],[-86.6348031872238,36.1892895956303],[-86.6348059411203,36.1893004241326],[-86.6348065920737,36.1893114682768],[-86.6348051234813,36.1893224595765],[-86.6348015710366,36.189333134678],[-86.6347960204991,36.1893432344702],[-86.6347886077806,36.1893525148999],[-86.6347795089758,36.18936075153],[-86.6347689448593,36.1893677458248],[-86.6347419025087,36.1893828019467],[-86.6346140354724,36.1894490727786],[-86.6344221198039,36.1892057497605]]]},"properties":{"id":"48421","parcel":"085040A00700CO","address":"4128 STONE HALL BLVD","owner":"REIER, COREY & JENNIFER","point":[-86.6346394387775,36.18927913094065]}},{"type":"Feature","id":"48422","geometry":{"type":"Polygon","coordinates":[[[-86.6344294238665,36.1895472675594],[-86.6341428015843,36.1891851400982],[-86.6342109809155,36.1891490571736],[-86.6343111938592,36.1890960209645],[-86.6343571257649,36.1892058073806],[-86.6343839805533,36.1892162352759],[-86.6344221198039,36.1892057497605],[-86.6346140354724,36.1894490727786],[-86.6344723112384,36.1895225253843],[-86.6344422584945,36.1895391762543],[-86.6344294238665,36.1895472675594]]]},"properties":{"id":"48422","parcel":"085040A00800CO","address":"4404 BIRDSEYE CT","owner":"HARGRAVES, STEPHEN D. & STEPHANIE","point":[-86.63439062311187,36.18933232310009]}},{"type":"Feature","id":"48423","geometry":{"type":"Polygon","coordinates":[[[-86.6337814608543,36.1895376864198],[-86.6339060625264,36.1893938158636],[-86.6343173499304,36.1896392886105],[-86.6342949176125,36.1896654049261],[-86.6342744157969,36.1896925439317],[-86.6342673082295,36.189701065672],[-86.6342587400474,36.1897086541765],[-86.634248895613,36.1897151453494],[-86.6342379861732,36.189720400189],[-86.6342262454269,36.189724306613],[-86.6342139284128,36.1897267794651],[-86.6341871693727,36.1897318246506],[-86.6341614148093,36.1897395755245],[-86.6341370784331,36.1897499073439],[-86.6341145513884,36.1897626540271],[-86.6340941967013,36.189777609084],[-86.6337814608543,36.1895376864198]]]},"properties":{"id":"48423","parcel":"085040A01000CO","address":"4412 BIRDSEYE CT","owner":"GRAIG, FIONA & GARY THOMAS","point":[-86.63404002325954,36.18958845913242]}},{"type":"Feature","id":"48426","geometry":{"type":"Polygon","coordinates":[[[-86.6352800632212,36.1900494811028],[-86.6354966081664,36.189803529479],[-86.6356758992171,36.1899072499895],[-86.63545935344,36.1901532028349],[-86.6352800632212,36.1900494811028]]]},"properties":{"id":"48426","parcel":"085040A02100CO","address":"4144 STONE HALL BLVD","owner":"HOWELL, HAROLD & NICOLE","point":[-86.63547798135215,36.18997836571107]}},{"type":"Feature","id":"48428","geometry":{"type":"Polygon","coordinates":[[[-86.6351085895775,36.189393160336],[-86.6353780360235,36.1891939021126],[-86.635605099844,36.1893201847465],[-86.6353849779446,36.1895702047635],[-86.6352287583896,36.189479827158],[-86.6351941473945,36.1894585738428],[-86.6351610826464,36.1894357541154],[-86.6351085895775,36.189393160336]]]},"properties":{"id":"48428","parcel":"085040A09600CO","address":"4129 STONE HALL BLVD","owner":"LONG, ANDREW W. & LESLIE A.","point":[-86.63536557173752,36.18935669938267]}},{"type":"Feature","id":"48429","geometry":{"type":"Polygon","coordinates":[[[-86.6355642694554,36.1896739281443],[-86.6357867621589,36.1894212185978],[-86.6359665699228,36.1895212191939],[-86.6357398306602,36.1897754943736],[-86.6355642694554,36.1896739281443]]]},"properties":{"id":"48429","parcel":"085040A09800CO","address":"4137 STONE HALL BLVD","owner":"KIRCHNER, JOHN & CHRISTINE","point":[-86.6357649880509,36.189597572525756]}},{"type":"Feature","id":"50024","geometry":{"type":"Polygon","coordinates":[[[-86.6339060625264,36.1893938158636],[-86.6340394031954,36.1892398620156],[-86.6341428015843,36.1891851400982],[-86.6344294238665,36.1895472675594],[-86.6343985780152,36.1895679052254],[-86.6343695286861,36.1895901908488],[-86.6343424118056,36.1896140209741],[-86.6343173499304,36.1896392886105],[-86.6339060625264,36.1893938158636]]]},"properties":{"id":"50024","parcel":"085040A00900CO","address":"4408 BIRDSEYE CT","owner":"BURKES, TERESA A. & CASEY O.","point":[-86.63420155671324,36.18947064532986]}},{"type":"Feature","id":"50025","geometry":{"type":"Polygon","coordinates":[[[-86.633624366724,36.1898577728087],[-86.6336548106989,36.1896839162572],[-86.6337814608543,36.1895376864198],[-86.6340941967013,36.189777609084],[-86.634075467396,36.1897957514457],[-86.6340599362984,36.1898157786528],[-86.6340478873314,36.189837324208],[-86.634039543033,36.1898599921945],[-86.6340350546229,36.189883366341],[-86.633624366724,36.1898577728087]]]},"properties":{"id":"50025","parcel":"085040A01100CO","address":"4416 BIRDSEYE CT","owner":"LESURE, TOSHA R","point":[-86.63384024866869,36.18973065809631]}},{"type":"Feature","id":"50027","geometry":{"type":"Polygon","coordinates":[[[-86.6344363429975,36.1899785575994],[-86.6344485797066,36.1899558907613],[-86.6344567310344,36.1899320458224],[-86.63446063185,36.189907505822],[-86.6344602038427,36.1898827659601],[-86.6344554543374,36.1898583245915],[-86.6344464806772,36.1898346750909],[-86.6344334623534,36.1898122950799],[-86.6344279780591,36.1898026047816],[-86.6344243804661,36.189792350298],[-86.6344227537623,36.1897817709201],[-86.634423134394,36.1897711143013],[-86.6344255165672,36.189760629218],[-86.6344298410937,36.1897505611219],[-86.6344360097941,36.1897411457561],[-86.6348600458105,36.1899633144402],[-86.6347781122598,36.1901264719674],[-86.6344363429975,36.1899785575994]]]},"properties":{"id":"50027","parcel":"085040A01600CO","address":"4409 BIRDSEYE CT","owner":"WILKINS, TONYA & BOYCE EDWARD JR","point":[-86.63463897363494,36.1899445371126]}},{"type":"Feature","id":"50028","geometry":{"type":"Polygon","coordinates":[[[-86.6344360097941,36.1897411457561],[-86.6344570877925,36.189717241899],[-86.6344805560542,36.1896948494963],[-86.6345062501638,36.1896741244262],[-86.6345339900552,36.1896552118343],[-86.6345635822208,36.1896382443191],[-86.6346983720122,36.1895683871148],[-86.6349102119449,36.1898369643729],[-86.6348600458105,36.1899633144402],[-86.6344360097941,36.1897411457561]]]},"properties":{"id":"50028","parcel":"085040A01700CO","address":"4405 BIRDSEYE CT","owner":"COX JOINT REV LIVING TRUST","point":[-86.63469975068092,36.18978913659775]}},{"type":"Feature","id":"50029","geometry":{"type":"Polygon","coordinates":[[[-86.6346983720122,36.1895683871148],[-86.6348766146966,36.189476009659],[-86.6348897913702,36.1894705157225],[-86.6349039418605,36.1894669498522],[-86.634918640099,36.1894654206367],[-86.6349334428288,36.1894659727656],[-86.6349479051979,36.1894685905535],[-86.6349615907433,36.189473195183],[-86.6349740892085,36.1894796482167],[-86.6349850243469,36.1894877542591],[-86.6350301208023,36.189525111058],[-86.6350781393427,36.1895599902442],[-86.6351288753225,36.1895922441841],[-86.6349102119449,36.1898369643729],[-86.6346983720122,36.1895683871148]]]},"properties":{"id":"50029","parcel":"085040A01800CO","address":"4132 STONE HALL BLVD","owner":"ZIMMERMAN, DAVID L. & CHARLENE F.","point":[-86.63491637392885,36.189714289722644]}},{"type":"Feature","id":"50030","geometry":{"type":"Polygon","coordinates":[[[-86.6349102119449,36.1898369643729],[-86.6351288753225,36.1895922441841],[-86.6353173153177,36.1896998033037],[-86.6351007700997,36.1899457546129],[-86.6349102119449,36.1898369643729]]]},"properties":{"id":"50030","parcel":"085040A01900CO","address":"4136 STONE HALL BLVD","owner":"SILVA, VIRGINIA & DELL, JEFFERY LIVING TRUST","point":[-86.63511421402333,36.18976838538512]}},{"type":"Feature","id":"50033","geometry":{"type":"Polygon","coordinates":[[[-86.6353849779446,36.1895702047635],[-86.635605099844,36.1893201847465],[-86.6357867621589,36.1894212185978],[-86.6355642694554,36.1896739281443],[-86.6353849779446,36.1895702047635]]]},"properties":{"id":"50033","parcel":"085040A09700CO","address":"4133 STONE HALL BLVD","owner":"TEDESCO, JENNIFER & JAMES","point":[-86.63558586972741,36.18949571184921]}},{"type":"Feature","id":"51642","geometry":{"type":"Polygon","coordinates":[[[-86.6357398306602,36.1897754943736],[-86.6359665699228,36.1895212191939],[-86.6361454601351,36.1896207097407],[-86.6359163696786,36.1898776238879],[-86.6357398306602,36.1897754943736]]]},"properties":{"id":"51642","parcel":"085040A09900CO","address":"4141 STONE HALL BLVD","owner":"PHILP, P. ROBERT JR.","point":[-86.63594264580944,36.18969810223124]}},{"type":"Feature","id":"51645","geometry":{"type":"Polygon","coordinates":[[[-86.6359163696786,36.1898776238879],[-86.6361454601351,36.1896207097407],[-86.6363243519006,36.1897201991127],[-86.636092906928,36.1899797531529],[-86.6359163696786,36.1898776238879]]]},"properties":{"id":"51645","parcel":"085040A10000CO","address":"4145 STONE HALL BLVD","owner":"GORKA, ANDRZEJ A. & ZENOBIA Z.","point":[-86.63612036082381,36.189798911675275]}},{"type":"Feature","id":"51648","geometry":{"type":"Polygon","coordinates":[[[-86.636092906928,36.1899797531529],[-86.6363243519006,36.1897201991127],[-86.6363929661771,36.18975835884],[-86.6365019670042,36.189821120733],[-86.6362694457436,36.190081882151],[-86.636092906928,36.1899797531529]]]},"properties":{"id":"51648","parcel":"085040A10100CO","address":"4149 STONE HALL BLVD","owner":"HARDY, PAUL R.","point":[-86.63629743713284,36.18990043711928]}},{"type":"Feature","id":"52028","geometry":{"type":"Polygon","coordinates":[[[-86.6344292337698,36.190509473746],[-86.6337651928072,36.1904381437813],[-86.6334272048895,36.1904018350527],[-86.6334301447042,36.1903848634499],[-86.6334320293492,36.1903850139852],[-86.6334397584766,36.1903344275449],[-86.6334388905723,36.1903343428743],[-86.6336531232209,36.188932425655],[-86.6342109809155,36.1891490571736],[-86.6341428015843,36.1891851400982],[-86.6340394031954,36.1892398620156],[-86.6339060625264,36.1893938158636],[-86.6337814608543,36.1895376864198],[-86.6336548106989,36.1896839162572],[-86.633624366724,36.1898577728087],[-86.6335984491468,36.1900057720627],[-86.6337373610418,36.1901835398131],[-86.6338810813686,36.1903674611454],[-86.634071261126,36.1903878916009],[-86.6345281629598,36.1904369707502],[-86.6345301128993,36.1904354148526],[-86.6346850789709,36.1903117261296],[-86.6347781122598,36.1901264719674],[-86.6348600458105,36.1899633144402],[-86.6349102119449,36.1898369643729],[-86.6351007700997,36.1899457546129],[-86.6352800632212,36.1900494811028],[-86.63545935344,36.1901532028349],[-86.6356386474991,36.1902569287863],[-86.6359372500555,36.1904296758616],[-86.6359196897408,36.1904474257125],[-86.6358999111226,36.1904820740293],[-86.6358841323563,36.1905180459459],[-86.6358724888882,36.1905550388307],[-86.6358650749571,36.190592741256],[-86.6358619558452,36.1906308356378],[-86.6358631567747,36.1906690000961],[-86.6358686685309,36.1907069165368],[-86.6351957206267,36.1907985626987],[-86.6351247197804,36.1906183034327],[-86.6344625338386,36.1905135869194],[-86.6344292337698,36.190509473746]]]},"properties":{"id":"52028","parcel":"085040A90000CO","address":"4504 RIVERSONG DR","owner":"RESERVE AT STONE HALL HOMEOWNERS ASSN., INC.","point":[-86.63495556173584,36.189903575804244]}},{"type":"Feature","id":"54805","geometry":{"type":"Polygon","coordinates":[[[-86.6342930650264,36.1890526856985],[-86.6346621247024,36.1889512288464],[-86.6347328691033,36.1891203205656],[-86.6344221198039,36.1892057497605],[-86.6343839805533,36.1892162352759],[-86.6343571257649,36.1892058073806],[-86.6343111938592,36.1890960209645],[-86.6342930650264,36.1890526856985]]]},"properties":{"id":"54805","parcel":"085040A00600CO","address":"4120 STONE HALL BLVD","owner":"BENNETT, REBECCA & CATHERINE","point":[-86.63450814656193,36.1890749825283]}},{"type":"Feature","id":"54811","geometry":{"type":"Polygon","coordinates":[[[-86.6348444741854,36.1889594412856],[-86.6352130179538,36.1888581215431],[-86.6352699850805,36.189031003116],[-86.6352132307673,36.1890466050241],[-86.6349152212274,36.1891285355895],[-86.6348444741854,36.1889594412856]]]},"properties":{"id":"54811","parcel":"085040A09400CO","address":"4121 STONE HALL BLVD","owner":"RINAS, KAREN LYNN & TAD JOSEPH","point":[-86.63505879433283,36.18899522715992]}},{"type":"Feature","id":"54871","geometry":{"type":"Polygon","coordinates":[[[-86.6347737296829,36.1887903487232],[-86.6351560544251,36.18868524172],[-86.6352130179538,36.1888581215431],[-86.6348444741854,36.1889594412856],[-86.6347737296829,36.1887903487232]]]},"properties":{"id":"54871","parcel":"085040A09300CO","address":"4117 STONE HALL BLVD","owner":"SCHAEFER, CODY & GELLERT, CHRISTIE","point":[-86.63499485331415,36.18882423984574]}},{"type":"Feature","id":"55367","geometry":{"type":"Polygon","coordinates":[[[-86.6342223216233,36.1888835937185],[-86.6345913783581,36.188782134386],[-86.6346621247024,36.1889512288464],[-86.6342930650264,36.1890526856985],[-86.6342223216233,36.1888835937185]]]},"properties":{"id":"55367","parcel":"085040A00500CO","address":"4116 STONE HALL BLVD","owner":"PADRON, SUSAN L. & GREGORY A.","point":[-86.63444222295762,36.188917411483644]}},{"type":"Feature","id":"55372","geometry":{"type":"Polygon","coordinates":[[[-86.6347029854604,36.1886212534078],[-86.6350990888995,36.1885123591698],[-86.6351560544251,36.18868524172],[-86.6347737296829,36.1887903487232],[-86.6347029854604,36.1886212534078]]]},"properties":{"id":"55372","parcel":"085040A09200CO","address":"4113 STONE HALL BLVD","owner":"DAVIS, KENNETH J. & JULIE ANN","point":[-86.63493091398261,36.188653252029496]}},{"type":"Feature","id":"268001","geometry":{"type":"Polygon","coordinates":[[[-86.6390144999294,36.1826617328962],[-86.6394993849329,36.1822862924031],[-86.6398610623699,36.1826111667088],[-86.6398714885531,36.1826272114757],[-86.639878759683,36.1826443607806],[-86.6398827024151,36.1826622117802],[-86.6398832232851,36.18268034138],[-86.6398803110638,36.1826983224446],[-86.6398740334581,36.1827157283209],[-86.6398645405852,36.1827321499439],[-86.6398520560854,36.1827471967852],[-86.6393221256075,36.1831315635027],[-86.6388953133107,36.1827481794755],[-86.6390144999294,36.1826617328962]]]},"properties":{"id":"268001","parcel":"08500009900","address":"3169 LEBANON PIKE","owner":"BIRTOWN HERMITAGE, LLC","point":[-86.63941652597605,36.182705638792335]}},{"type":"Feature","id":"268202","geometry":{"type":"Polygon","coordinates":[[[-86.6361959604823,36.1842959775216],[-86.63672660361,36.1838720622225],[-86.6375635499055,36.1842893116423],[-86.6375312251244,36.1843067891512],[-86.6371289840287,36.1845242801745],[-86.6363388683108,36.184538062065],[-86.6363079693231,36.1845725627414],[-86.6362031774057,36.1843137951521],[-86.6361959604823,36.1842959775216]]]},"properties":{"id":"268202","parcel":"08500009700","address":"3191 LEBANON PIKE","owner":"FIRST AMERICAN NATIONAL BANK","point":[-86.63680655057404,36.18407966109874]}},{"type":"Feature","id":"268465","geometry":{"type":"Polygon","coordinates":[[[-86.6302986761142,36.1891048165219],[-86.6302137317022,36.1890068935575],[-86.6301256810999,36.1889107901519],[-86.6300345859747,36.1888165708671],[-86.6299405057626,36.1887242993752],[-86.6298940545878,36.1886783921506],[-86.6302930891189,36.1884016066045],[-86.6304117922232,36.1883284656622],[-86.6305156284598,36.1884312115873],[-86.6311006458408,36.1880193976109],[-86.6313811978763,36.187844318612],[-86.6317261655048,36.1882688521162],[-86.6319339793076,36.1884919216504],[-86.6323531540954,36.1885143518042],[-86.6323016218625,36.189039402752],[-86.6319706593284,36.1890125659036],[-86.6318702809383,36.1890154183326],[-86.6317701326995,36.1890216230382],[-86.6316703857252,36.1890311683105],[-86.6315712077722,36.1890440397538],[-86.6314727698682,36.189060214845],[-86.6313752374323,36.1890796647818],[-86.6312787769743,36.1891023580531],[-86.6311835527166,36.1891282550488],[-86.6310897277492,36.1891573134615],[-86.6309974584129,36.189189481106],[-86.6309069043853,36.1892247057796],[-86.6304793786786,36.1893280300347],[-86.6303905263277,36.189215625538],[-86.6302986761142,36.1891048165219]]]},"properties":{"id":"268465","parcel":"08504003300","address":"1003 HICKORY HILL LN","owner":"EMMANUAL EVANGELICAL LUTHERAN CHURCH","point":[-86.63118097471411,36.18859655506904]}},{"type":"Feature","id":"268467","geometry":{"type":"Polygon","coordinates":[[[-86.6326583482317,36.1902572128054],[-86.6321536852337,36.1902071140188],[-86.6315731170522,36.1901574093206],[-86.6315779957483,36.1900892571666],[-86.6312959847595,36.1900819421734],[-86.6311839488809,36.1900835724955],[-86.6310720170786,36.1900878040876],[-86.6309602804931,36.1900946346712],[-86.6308488313412,36.1901040574559],[-86.6308232006752,36.1900140498356],[-86.6307938170117,36.1899247999427],[-86.6307607145184,36.1898364085365],[-86.6307232140651,36.1897484790055],[-86.6306818836049,36.18966168522],[-86.630636775157,36.1895761359563],[-86.6305879474103,36.1894919399552],[-86.6305354601436,36.1894092032481],[-86.6304793786786,36.1893280300347],[-86.6309069043853,36.1892247057796],[-86.6309974584129,36.189189481106],[-86.6310897277492,36.1891573134615],[-86.6311835527166,36.1891282550488],[-86.6312787769743,36.1891023580531],[-86.6313752374323,36.1890796647818],[-86.6314727698682,36.189060214845],[-86.6315712077722,36.1890440397538],[-86.6316703857252,36.1890311683105],[-86.6317701326995,36.1890216230382],[-86.6318702809383,36.1890154183326],[-86.6319706593284,36.1890125659036],[-86.6323016218625,36.189039402752],[-86.6323531540954,36.1885143518042],[-86.6330505995274,36.1885516713521],[-86.6336989435434,36.188647553925],[-86.6336531232209,36.188932425655],[-86.6334388905723,36.1903343428743],[-86.6326583482317,36.1902572128054]]]},"properties":{"id":"268467","parcel":"08504003800","address":"1005 HICKORY HILL LN","owner":"HERMITAGE PINE BROOK, LLC","point":[-86.63206711671106,36.18945520817188]}},{"type":"Feature","id":"268737","geometry":{"type":"Polygon","coordinates":[[[-86.6431868328917,36.1869499258517],[-86.643148604425,36.1869535209324],[-86.6431101248709,36.1869539836759],[-86.6430717822008,36.1869513084104],[-86.6430339657679,36.1869455228036],[-86.6430119596917,36.1869410679478],[-86.6429893859817,36.1869392793188],[-86.6429667319193,36.1869401966802],[-86.6429444898554,36.1869437993847],[-86.6428998393146,36.1869520096652],[-86.6428544560038,36.1869569153251],[-86.6428248064698,36.1869602879756],[-86.6427958419746,36.1869664274283],[-86.6427679498469,36.1869752496074],[-86.6427415104609,36.1869866353252],[-86.6427033698436,36.187005196032],[-86.642663196443,36.1870206852566],[-86.6426213671146,36.1870329603954],[-86.6425782722819,36.1870419067119],[-86.6425343137274,36.1870474391508],[-86.6424899013012,36.1870495077638],[-86.6424573869044,36.1870476953306],[-86.6424247963118,36.1870478687581],[-86.6423923129579,36.1870500270702],[-86.6423590648261,36.187052339051],[-86.6423256947135,36.1870524931667],[-86.6422924160838,36.187050489183],[-86.6422594413838,36.1870463385871],[-86.6421667928281,36.1870397304468],[-86.6420738579411,36.1870367549131],[-86.6419808546834,36.1870374198389],[-86.6418879998094,36.1870417213677],[-86.6418367454915,36.1870442082492],[-86.6417854064837,36.1870435105254],[-86.6417342841167,36.187039632002],[-86.6416836776437,36.1870325945212],[-86.641633882038,36.1870224406777],[-86.6415851912922,36.1870092292941],[-86.6415378895384,36.1869930372709],[-86.6415013940759,36.1869790112043],[-86.641463500668,36.1869676800957],[-86.6414245124323,36.1869591324586],[-86.6413847378991,36.1869534387534],[-86.6413444965041,36.1869506432462],[-86.6413041075008,36.1869507676733],[-86.6412638921911,36.1869538121305],[-86.6412241738966,36.1869597514679],[-86.6411852657586,36.1869685389603],[-86.6411445417111,36.1869831978434],[-86.6411024451536,36.1869950367657],[-86.6410592722394,36.187003969435],[-86.6410153259893,36.1870099338574],[-86.6409709173739,36.1870128887257],[-86.6409263597483,36.1870128125485],[-86.6408819666491,36.1870097063649],[-86.6408468720546,36.1870053034708],[-86.6408114303637,36.1870034881081],[-86.6407693099253,36.1870043939216],[-86.6407271984028,36.1870032376027],[-86.6406852503745,36.1870000237386],[-86.6406436182536,36.1869947641382],[-86.6405786547006,36.186989012765],[-86.640513367599,36.1869867004582],[-86.6404480327312,36.186987835668],[-86.6403358002703,36.1869798438438],[-86.6402239654698,36.186968773825],[-86.6401126585252,36.186954638441],[-86.6400020063106,36.1869374523422],[-86.6398921357578,36.186917237389],[-86.639783172694,36.1868940163493],[-86.6396752440866,36.1868678155904],[-86.6395684724774,36.1868386642075],[-86.6394843076062,36.1868160938136],[-86.6393989313454,36.1867967463543],[-86.6393125285821,36.1867806641082],[-86.6392252919266,36.1867678821034],[-86.6391374117146,36.1867584290719],[-86.6390490826557,36.1867523247103],[-86.6389604960802,36.1867495833265],[-86.6388794574462,36.1867538894001],[-86.6387982517754,36.1867547111521],[-86.6387171058725,36.1867520473821],[-86.6386362477187,36.1867459049957],[-86.6385559042707,36.1867363017193],[-86.6384763003337,36.186723264304],[-86.6383976596736,36.1867068285194],[-86.6383202028144,36.1866870418693],[-86.6382445086221,36.1866667591735],[-86.6381676825376,36.1866494998136],[-86.638089907225,36.1866353060821],[-86.6380113686104,36.1866242112423],[-86.6379322547924,36.1866162422378],[-86.63785275602,36.1866114169884],[-86.6377730602825,36.1866097489203],[-86.637693359929,36.1866112406222],[-86.6376228545895,36.1866139139205],[-86.6375522809559,36.1866130699422],[-86.6374819036659,36.186608711796],[-86.6374119896893,36.1866008560979],[-86.6373428038808,36.1865895329944],[-86.6372746067419,36.1865747843719],[-86.6372076577774,36.1865566665426],[-86.6371133954081,36.1865368398413],[-86.6370182650973,36.1865199593407],[-86.6369224059964,36.1865060486386],[-86.6368259583541,36.1864951295247],[-86.6367290656959,36.186487216562],[-86.636631869309,36.1864823225231],[-86.6365345137797,36.1864804556574],[-86.6364371414055,36.1864816161156],[-86.6363993560118,36.1864888955578],[-86.6363609435593,36.1864935403217],[-86.6363221828284,36.186495515591],[-86.6362833549898,36.1864948072659],[-86.6362447424848,36.1864914210679],[-86.6362174275597,36.1864886900159],[-86.6361899075194,36.1864889404869],[-86.6361626748284,36.1864921662808],[-86.6361362159882,36.1864983107589],[-86.6361110070613,36.1865072632629],[-86.6360874981509,36.1865188646038],[-86.6360661100513,36.1865329052768],[-86.6360472265528,36.1865491363176],[-86.6360311844068,36.1865672657492],[-86.6360110424466,36.1865909964429],[-86.6359864726593,36.1866120034354],[-86.6359588302656,36.1866300047026],[-86.6359281108398,36.1866447253831],[-86.6358953250171,36.1866553364051],[-86.6358608162864,36.1866623857227],[-86.6358252562075,36.1866650460514],[-86.6357896630983,36.1866635851074],[-86.635754717352,36.1866580002091],[-86.6357214295181,36.1866485609183],[-86.6356898062922,36.1866349923186],[-86.6356612061448,36.186618111005],[-86.6356356290846,36.1865979178807],[-86.635623179346,36.1865837589313],[-86.6356081178465,36.1865713792884],[-86.6355908250947,36.1865610914855],[-86.635571738997,36.1865531563826],[-86.6355513425636,36.1865477751195],[-86.6355301516361,36.1865450837734],[-86.6355087026301,36.1865451498178],[-86.6354875369707,36.1865479722052],[-86.6354671921781,36.1865534787098],[-86.6354209258203,36.1865732262767],[-86.6353922046839,36.1865821790904],[-86.6353623861003,36.1865883410808],[-86.6353318829511,36.1865916244549],[-86.6353011151567,36.1865919873475],[-86.6352704510147,36.1865891889879],[-86.6352404084073,36.186583480805],[-86.6352114048938,36.1865749426163],[-86.6351838460995,36.1865636912541],[-86.6351581135304,36.1865498860366],[-86.6351108843214,36.1865345004465],[-86.6350624776635,36.1865217418792],[-86.6350131163818,36.1865116695453],[-86.6349630276326,36.186504328213],[-86.6349124407159,36.1864997527257],[-86.6348615870468,36.186497964397],[-86.6348107023717,36.1864989700984],[-86.6347582226875,36.1864929381583],[-86.6347064870083,36.1864835982856],[-86.6346558093026,36.1864710056097],[-86.6346065026211,36.1864552395994],[-86.6345588679144,36.1864363960099],[-86.6345131973897,36.1864145895692],[-86.6344697700641,36.1863899540013],[-86.6344288528756,36.1863626420203],[-86.6343906961788,36.1863328181439],[-86.6343555338099,36.1863006668044],[-86.6343235808052,36.1862663851505],[-86.6342689066972,36.1861773364709],[-86.6345207840703,36.1861076527586],[-86.6348962196247,36.1860215423326],[-86.6349509659411,36.1860718913915],[-86.6350602434886,36.1861768048307],[-86.6353579460676,36.1861140324619],[-86.6361184342614,36.1859536691323],[-86.6365440549797,36.1859536230027],[-86.6370640053187,36.1858849518036],[-86.6375399890415,36.1854055546292],[-86.6387105370738,36.1846609656371],[-86.6387433000625,36.1843531254527],[-86.6388159307789,36.1842999978946],[-86.6389952798201,36.1841682901256],[-86.6392960876336,36.1839455610802],[-86.639545678082,36.1837585399624],[-86.6398437492281,36.1835333518653],[-86.6401896221373,36.1832689022897],[-86.6404165927772,36.1830930783992],[-86.6405822708533,36.1829643707047],[-86.6408263924806,36.1827727064702],[-86.6411661201915,36.1825033414376],[-86.6414559924134,36.182270776345],[-86.6416960199779,36.1820761092352],[-86.6417445993425,36.1821137190645],[-86.6417902781215,36.1821536452006],[-86.6418328894875,36.182195741629],[-86.6418722776626,36.1822398541654],[-86.6419082956886,36.1822858195656],[-86.6419408132447,36.1823334699907],[-86.641969708844,36.1823826303446],[-86.6419948776228,36.1824331191339],[-86.6420162269156,36.1824847511948],[-86.6420336784789,36.1825373376817],[-86.6420471684764,36.1825906842646],[-86.6420920155125,36.182772849078],[-86.6412879086082,36.1828979924752],[-86.6414618296624,36.1832860485549],[-86.6417213726268,36.1838692396928],[-86.6414219296355,36.1840510316546],[-86.6412958204483,36.1842121304764],[-86.6410221619856,36.184565204083],[-86.6408587931758,36.1848122078107],[-86.6410709509261,36.1852352201381],[-86.6416421749654,36.1854739246135],[-86.6421131445035,36.1853835157348],[-86.6425118350834,36.1850715295026],[-86.6427596449099,36.18487462178],[-86.6430101805377,36.1846798962733],[-86.6431071458323,36.1846024630405],[-86.6433070793159,36.1848541242092],[-86.6433384333549,36.1850429530501],[-86.6430164677486,36.1854556244769],[-86.6431222248588,36.1857934950217],[-86.6436438227048,36.1862632045015],[-86.643692439202,36.1862409690973],[-86.6441920530728,36.1860053559383],[-86.6448544871829,36.1860028549321],[-86.6449798655498,36.1860023807358],[-86.6454786192227,36.1856698890855],[-86.6451425939816,36.1872155665061],[-86.6450283759874,36.1872057772274],[-86.6449146701013,36.1871926495613],[-86.6448016221217,36.1871762007557],[-86.6446893812113,36.187156451646],[-86.6445999051889,36.1871362771636],[-86.6445094515805,36.1871192045451],[-86.6444181840503,36.1871052635575],[-86.6443262684714,36.1870944821538],[-86.6442338706283,36.1870868774728],[-86.6441411573951,36.1870824639445],[-86.6440067794063,36.1870718160184],[-86.6438728235914,36.1870581122403],[-86.6437393945644,36.1870413637701],[-86.6436065991766,36.1870215835589],[-86.6435008732032,36.187003399243],[-86.6433958518414,36.1869827091964],[-86.643291623074,36.1869595309774],[-86.6432661043285,36.1869535032691],[-86.6432399067728,36.1869498665958],[-86.64321336767,36.1869486696305],[-86.6431868328917,36.1869499258517]]]},"properties":{"id":"268737","parcel":"08500001200","address":"0 LEBANON PIKE","owner":"METRO GOV'T","point":[-86.63984618606437,36.1846285422474]}},{"type":"Feature","id":"269123","geometry":{"type":"Polygon","coordinates":[[[-86.6398610623699,36.1826111667088],[-86.6394993849329,36.1822862924031],[-86.6390144999294,36.1826617328962],[-86.6381820226861,36.1822735686132],[-86.6380832890171,36.1823132744105],[-86.6379855104599,36.1823525956498],[-86.6376811927079,36.1821944866275],[-86.6372205597106,36.1819550724304],[-86.6373746484038,36.181739140975],[-86.6369181957697,36.1815253586856],[-86.6369331834072,36.1815055051588],[-86.6369500476186,36.181483161473],[-86.6369501301926,36.1814831997913],[-86.6369512918009,36.1814837380208],[-86.637173968327,36.1815841533486],[-86.6373759460364,36.18167496382],[-86.6377876135415,36.1810952531877],[-86.6379321415749,36.1808916051116],[-86.6380246890266,36.1807611936641],[-86.6383881933541,36.180920829243],[-86.6383787482573,36.1809325612696],[-86.6389111180524,36.1811794170563],[-86.6389991828678,36.1810590694819],[-86.640088387709,36.1815340208797],[-86.6399764196567,36.1815990561098],[-86.6401995913859,36.1817993115792],[-86.6396270766705,36.1821967629144],[-86.6399878632992,36.182520067075],[-86.64000367374,36.1825303449924],[-86.6400212658482,36.1825385027214],[-86.6400402088805,36.1825443397623],[-86.6400600425654,36.1825477161565],[-86.6400802826244,36.1825485479507],[-86.6401004364091,36.1825468161268],[-86.6401200106465,36.1825425620543],[-86.6401385303527,36.1825358891928],[-86.6401555421455,36.1825269603705],[-86.6398520560854,36.1827471967852],[-86.6398645405852,36.1827321499439],[-86.6398740334581,36.1827157283209],[-86.6398803110638,36.1826983224446],[-86.6398832232851,36.18268034138],[-86.6398827024151,36.1826622117802],[-86.639878759683,36.1826443607806],[-86.6398714885531,36.1826272114757],[-86.6398610623699,36.1826111667088]]]},"properties":{"id":"269123","parcel":"08500009400","address":"3137 LEBANON PIKE","owner":"COBALT PROPERTIES OF NASHVILLE, TN, LLC","point":[-86.63876348808746,36.18176916330324]}},{"type":"Feature","id":"269125","geometry":{"type":"Polygon","coordinates":[[[-86.6372787653134,36.1832170013474],[-86.636575843533,36.1828624970305],[-86.6365506112545,36.1828851551543],[-86.6360723189769,36.1826533552144],[-86.636889863705,36.1815631427969],[-86.6369181011798,36.1815254853604],[-86.6369181957697,36.1815253586856],[-86.6373746484038,36.181739140975],[-86.6372205597106,36.1819550724304],[-86.6376811927079,36.1821944866275],[-86.6379855104599,36.1823525956498],[-86.6380832890171,36.1823132744105],[-86.6381820226861,36.1822735686132],[-86.6390144999294,36.1826617328962],[-86.6388953133107,36.1827481794755],[-86.6393221256075,36.1831315635027],[-86.638200550714,36.1839450397899],[-86.6381644507839,36.1839647346888],[-86.6371020571588,36.1834497837542],[-86.6372787653134,36.1832170013474]]]},"properties":{"id":"269125","parcel":"08500009500","address":"3171 LEBANON PIKE","owner":"DAYTON HUDSON CORP.","point":[-86.63767025689015,36.182805146188045]}},{"type":"Feature","id":"269486","geometry":{"type":"Polygon","coordinates":[[[-86.6430134473208,36.1877587502973],[-86.6427778672212,36.1877310943468],[-86.642541744195,36.1877066664167],[-86.6423051471862,36.1876854715444],[-86.6420681418248,36.1876675174892],[-86.6418307959277,36.1876528074931],[-86.641593179557,36.1876413474905],[-86.6413553571796,36.1876331389397],[-86.6411173977308,36.1876281859795],[-86.6404531274653,36.1876189310001],[-86.6402036874311,36.1876154539141],[-86.6400143097856,36.1876083872695],[-86.6398251562962,36.1875980926495],[-86.6396363115293,36.187584575916],[-86.6394478600368,36.1875678411289],[-86.639259884183,36.1875478968667],[-86.6390724685557,36.1875247516963],[-86.638160727778,36.1874196935971],[-86.6379905405913,36.187396071746],[-86.6378197754561,36.18737536376],[-86.6376485113602,36.187357578232],[-86.6374768206279,36.1873427246918],[-86.6373047833222,36.1873308072211],[-86.6371324739757,36.1873218335363],[-86.6362621061142,36.1873044502048],[-86.6361778619804,36.1873050735082],[-86.6360937406801,36.1873088144452],[-86.6360099178008,36.1873156648808],[-86.635926567768,36.1873256103781],[-86.6358438649638,36.1873386310932],[-86.6357619825871,36.1873546981764],[-86.6356810893681,36.1873737800982],[-86.635601356182,36.1873958354045],[-86.6355322051938,36.1874100075598],[-86.6354624124531,36.1874219308191],[-86.6354150463222,36.187424086277],[-86.6353676051637,36.1874242314133],[-86.6352588399223,36.1874188293583],[-86.6346550176,36.1873621131497],[-86.6341649334349,36.1872848346548],[-86.6339194413885,36.1872116127517],[-86.6339474597621,36.1870331335774],[-86.6339701444334,36.1870592661875],[-86.6339959374992,36.1870834294519],[-86.6340245802184,36.1871053831915],[-86.6340557839903,36.1871249072116],[-86.6340892392919,36.1871418066624],[-86.6341246089998,36.1871559111733],[-86.6341615417823,36.1871670810913],[-86.6341996653926,36.1871752030097],[-86.6342385989558,36.1871801969144],[-86.6342779540521,36.1871820125724],[-86.6343173358435,36.1871806313289],[-86.6344089351308,36.1871780239641],[-86.6345005902959,36.1871782335565],[-86.6345921701558,36.1871812598944],[-86.6346835434846,36.187187097359],[-86.634774576818,36.1871957385412],[-86.6348651410957,36.1872071706019],[-86.6349551061162,36.1872213771029],[-86.635044341649,36.1872383380018],[-86.6350882933968,36.1872452122903],[-86.6351328150278,36.1872489724354],[-86.635177571686,36.1872495931606],[-86.635222225325,36.1872470672317],[-86.6352664414567,36.1872414153353],[-86.6353098879904,36.1872326797757],[-86.6353522363439,36.1872209244696],[-86.6353931703816,36.1872062403059],[-86.6354323796712,36.1871887361693],[-86.6354695717644,36.1871685451838],[-86.6355044665727,36.1871458166312],[-86.6355260113802,36.1871275726881],[-86.6355502852682,36.1871120613971],[-86.6355773846491,36.1870997986678],[-86.635606148681,36.1870903507977],[-86.6356361338264,36.1870838643217],[-86.6356669492057,36.1870812299336],[-86.6356979776921,36.1870821588759],[-86.6357285781551,36.1870864192973],[-86.6357582107768,36.1870939356317],[-86.6357860822988,36.1871047769475],[-86.6358394362874,36.1871178777821],[-86.6358937379,36.1871281112183],[-86.6359487510739,36.1871354325347],[-86.6360042376236,36.1871398096383],[-86.6360599594718,36.1871412239555],[-86.636115675307,36.1871396695471],[-86.6361711461423,36.1871351530801],[-86.6362261297569,36.1871276938564],[-86.6362803918208,36.1871173246553],[-86.6363336958678,36.1871040890833],[-86.6363833187769,36.1870894678362],[-86.6364341171496,36.1870777973873],[-86.636485824651,36.187069138622],[-86.6365381692652,36.1870635371347],[-86.6365908766301,36.1870610232117],[-86.6366436711201,36.1870616082198],[-86.6366962747852,36.1870652909208],[-86.6367484106279,36.1870720502448],[-86.6367998071077,36.1870818524756],[-86.6368641857709,36.187099529857],[-86.6369297304121,36.1871141214668],[-86.6369962182714,36.1871255780082],[-86.6370634177592,36.1871338583429],[-86.6371311007296,36.1871389348334],[-86.6371990346762,36.187140790681],[-86.6372669860602,36.1871394190067],[-86.6373347214298,36.1871348237466],[-86.6374020085537,36.1871270223496],[-86.6374556845858,36.1871155498745],[-86.6375102052828,36.1871070867096],[-86.6375653119196,36.1871016720728],[-86.6376207478792,36.1870993307513],[-86.6376762508845,36.187100074945],[-86.6377315607444,36.1871038997196],[-86.6377864171734,36.1871107884253],[-86.6378405619718,36.187120707278],[-86.6378937424111,36.1871336116499],[-86.6379457056174,36.1871494388896],[-86.637996208635,36.1871681154784],[-86.638045015069,36.1871895543444],[-86.6381116456494,36.1872161001209],[-86.6381800968789,36.1872394043386],[-86.6382501290593,36.1872593853461],[-86.6383214970272,36.1872759732378],[-86.6383939501464,36.1872891089528],[-86.6384672345539,36.1872987469663],[-86.6385410942641,36.187304854383],[-86.6386152711544,36.1873074091348],[-86.6387210682845,36.1873218201905],[-86.6388261187503,36.1873394588913],[-86.6389302722612,36.187360298997],[-86.6390333829439,36.1873843106394],[-86.6392088312621,36.1874186758599],[-86.6393852040236,36.1874497787968],[-86.6395624076905,36.1874776037189],[-86.6397403498434,36.187502135791],[-86.6399189380841,36.1875233628819],[-86.6400980789099,36.1875412737681],[-86.6402776777203,36.1875558590351],[-86.6404576410336,36.187567110164],[-86.6406378742852,36.1875750222475],[-86.6408182840296,36.187579591274],[-86.640998775709,36.1875808132382],[-86.6411792548097,36.187578689543],[-86.6413596268105,36.1875732206904],[-86.641539796093,36.1875644089914],[-86.6416696506947,36.1875663992184],[-86.6417993600454,36.1875717355345],[-86.6419287962599,36.1875804123115],[-86.6420578258795,36.1875924221488],[-86.642275304714,36.1876219278403],[-86.642493478416,36.1876478433511],[-86.6427122579217,36.1876701574353],[-86.6429315508612,36.1876888624699],[-86.6429984287351,36.1876887361187],[-86.6430651991324,36.1876918097565],[-86.6431316296036,36.1876980720043],[-86.6431974887235,36.1877075006628],[-86.6432625460976,36.1877200636142],[-86.6434682464731,36.1877450704703],[-86.6436745203698,36.1877667518944],[-86.6438812853979,36.1877850966066],[-86.6440884614273,36.1878000978219],[-86.6442959638951,36.1878117505817],[-86.6445037126856,36.1878200499045],[-86.6447116243692,36.1878249935305],[-86.6449196155018,36.1878265773982],[-86.6451276037878,36.1878248019471],[-86.6453355080575,36.1878196694131],[-86.645543244889,36.1878111784403],[-86.6456939927399,36.1878005801594],[-86.6458450611018,36.1877935759816],[-86.6459963166075,36.1877901693231],[-86.6461476303442,36.1877903644783],[-86.6463300145312,36.187783349805],[-86.64651221101,36.1877736329983],[-86.6466941575337,36.1877612179973],[-86.6468757929598,36.1877461078346],[-86.6470570572796,36.1877283082405],[-86.6472378904848,36.1877078249457],[-86.6474182314628,36.1876846645885],[-86.6475554029696,36.1876644266648],[-86.6476931401746,36.187646895623],[-86.6478313620002,36.1876320800077],[-86.6479699873768,36.1876199892651],[-86.6481089330038,36.1876106319522],[-86.648220910193,36.1875999601506],[-86.6483324938174,36.1875868443527],[-86.6484435983362,36.1875712940316],[-86.6485541448866,36.1875533195259],[-86.6486640535164,36.1875329338843],[-86.6486847728133,36.1877459918682],[-86.6469936610601,36.1878144023895],[-86.646751908751,36.187836236405],[-86.6465097751721,36.1878550942317],[-86.6462673181392,36.1878709728545],[-86.6460245898876,36.1878838665844],[-86.6457816493528,36.1878937733022],[-86.6455385510229,36.187900690913],[-86.6453643938689,36.1879038859566],[-86.645194290645,36.1879053439967],[-86.6449207355469,36.187898299564],[-86.6446473354884,36.1878880262913],[-86.6443741483286,36.1878745256734],[-86.6441012341717,36.1878578018976],[-86.6438286486675,36.1878378582742],[-86.6435564508008,36.187814698096],[-86.6432846973473,36.1877883264707],[-86.6430134473208,36.1877587502973]]]},"properties":{"id":"269486","parcel":"08500001600","address":"0 STONES RIVER RD","owner":"METRO GOV'T","point":[-86.63899566513172,36.18746225031886]}},{"type":"Feature","id":"269588","geometry":{"type":"Polygon","coordinates":[[[-86.6361959604823,36.1842959775216],[-86.6360317560157,36.183891105861],[-86.6360057685622,36.1838074170421],[-86.6359839139738,36.1837229556981],[-86.6359662277695,36.1836378550298],[-86.6359527365886,36.1835522500867],[-86.6359434637569,36.1834662786393],[-86.6359384214613,36.1833800758128],[-86.6359376196795,36.1832937785455],[-86.6359410583839,36.1832075238285],[-86.6359487342049,36.1831214477688],[-86.6359606315587,36.1830356883395],[-86.6359767337357,36.1829503817169],[-86.6359970162305,36.1828656623155],[-86.6360214445401,36.1827816655031],[-86.6360499808054,36.1826985239613],[-86.6360723189769,36.1826533552144],[-86.6365506112545,36.1828851551543],[-86.636575843533,36.1828624970305],[-86.6372787653134,36.1832170013474],[-86.6371020571588,36.1834497837542],[-86.6381644507839,36.1839647346888],[-86.6375635499055,36.1842893116423],[-86.63672660361,36.1838720622225],[-86.6361959604823,36.1842959775216]]]},"properties":{"id":"269588","parcel":"08500009600","address":"3177 LEBANON PIKE","owner":"COBALT PROPERTIES OF NASHVILLE, TN, LLC","point":[-86.6365904578528,36.18351121606369]}},{"type":"Feature","id":"271433","geometry":{"type":"Polygon","coordinates":[[[-86.6299972018971,36.190060157537],[-86.629893016336,36.189913459811],[-86.6303038965491,36.1897618777428],[-86.6304957976453,36.1896883536889],[-86.6305235567067,36.1897367808637],[-86.630547480559,36.1897865357804],[-86.6305674708741,36.1898374179751],[-86.6303131782256,36.1899068724731],[-86.6303050838135,36.1899113092423],[-86.6300541677613,36.1900642547793],[-86.6299972018971,36.190060157537]]]},"properties":{"id":"271433","parcel":"08601008300","address":"1032 HICKORY HILL LN","owner":"HORTON, ALDEN E, III & JULI G","point":[-86.6302244719438,36.18987147870699]}},{"type":"Feature","id":"271437","geometry":{"type":"Polygon","coordinates":[[[-86.629726111961,36.1897209404715],[-86.6303012252115,36.1894256557198],[-86.630312179632,36.1894396085127],[-86.6303602034138,36.1894941666012],[-86.6304052362544,36.1895503769635],[-86.630302552149,36.189592668153],[-86.629816254771,36.1898061776401],[-86.629726111961,36.1897209404715]]]},"properties":{"id":"271437","parcel":"08601008800","address":"1024 HICKORY HILL LN","owner":"HORTON, ALDEN E, III & JULI G","point":[-86.63000374220297,36.189656771928654]}},{"type":"Feature","id":"273977","geometry":{"type":"Polygon","coordinates":[[[-86.629816254771,36.1898061776401],[-86.630302552149,36.189592668153],[-86.6304052362544,36.1895503769635],[-86.6304376943006,36.1895953737872],[-86.630467897936,36.1896413908769],[-86.6304957976453,36.1896883536889],[-86.6303038965491,36.1897618777428],[-86.629893016336,36.189913459811],[-86.629816254771,36.1898061776401]]]},"properties":{"id":"273977","parcel":"08601009200","address":"1028 HICKORY HILL LN","owner":"HORTON, ALDEN E, III & JULI G","point":[-86.63020175997752,36.189724503980806]}}]}