{"type":"FeatureCollection","features":[{"type":"Feature","id":"230129","geometry":{"type":"Polygon","coordinates":[[[-86.6074001770162,36.2125875804046],[-86.607477453755,36.2125230635457],[-86.6080379271958,36.2119290876066],[-86.6093442778126,36.2105446053772],[-86.6094017640118,36.2104809198014],[-86.6094565581031,36.2104156949344],[-86.6095085961511,36.2103490041037],[-86.6095578209282,36.2102809251087],[-86.6096041740813,36.2102115339521],[-86.6096476028671,36.210140912917],[-86.6096622697353,36.210112898417],[-86.6098991309382,36.2098442366516],[-86.610037961909,36.2096842463209],[-86.6101233377766,36.2095886766683],[-86.6103623661987,36.209321109721],[-86.6104930930118,36.2091696955066],[-86.610564181388,36.2090873568609],[-86.6108465803543,36.208772121648],[-86.6119587769036,36.2076046150125],[-86.6137884212851,36.2077915147344],[-86.6139037061536,36.2078048061339],[-86.6143189241126,36.2078526759945],[-86.6146712207099,36.2078932915306],[-86.615004339444,36.2079316947133],[-86.6152941666643,36.2079651065484],[-86.6155653267725,36.2079963651321],[-86.6158258839523,36.2080264010115],[-86.6161047959383,36.2080585525468],[-86.6163805180686,36.2080903348876],[-86.6166517057499,36.2081215944994],[-86.616967075037,36.2081579460509],[-86.6169675500154,36.2081632510727],[-86.6189296952606,36.208366379094],[-86.6188427560138,36.2091271966021],[-86.6185281370552,36.2118758157392],[-86.6183889452475,36.2130918040218],[-86.618389491348,36.2131618407086],[-86.6074001770162,36.2125875804046]]]},"properties":{"id":"230129","parcel":"07500002500","address":"4587 RACHELS LN","owner":"LADIES HERMITAGE ASSOCIATION, TRUSTEES, THE","point":[-86.61408913091172,36.21039729234282]}},{"type":"Feature","id":"230130","geometry":{"type":"Polygon","coordinates":[[[-86.6047653968588,36.2168522142629],[-86.6051021423674,36.2146908357971],[-86.6051116434718,36.2146637021608],[-86.6051172844631,36.2146358704731],[-86.6051189935629,36.2146076988886],[-86.6051167457637,36.2145795534384],[-86.6051105738548,36.2145517953576],[-86.6052094462257,36.2145007184218],[-86.6053060091893,36.2144468176599],[-86.6054001409291,36.2143901621827],[-86.6054917185385,36.2143308238102],[-86.6055806291418,36.2142688770163],[-86.6056667588005,36.2142044025889],[-86.6057499969069,36.2141374803984],[-86.6058302384703,36.2140681974967],[-86.6059073807184,36.2139966400236],[-86.6066217275302,36.2133028438851],[-86.606679136506,36.2132527968164],[-86.6067345803923,36.2132013157957],[-86.6067880050757,36.2131484506662],[-86.607140773274,36.2128236305684],[-86.6071898656717,36.2127744019308],[-86.6072400244447,36.2127258853022],[-86.6072834356232,36.2126844638458],[-86.6074001770162,36.2125875804046],[-86.618389491348,36.2131618407086],[-86.6183900076054,36.2132280499523],[-86.6183827635474,36.2133423624128],[-86.6183780594468,36.213434685867],[-86.6182361458488,36.2146243159808],[-86.6178224582968,36.2177420831302],[-86.6101820663193,36.2172221859921],[-86.6047653968588,36.2168522142629]]]},"properties":{"id":"230130","parcel":"07500002600","address":"4580 RACHELS LN","owner":"LADIES HERMITAGE ASSOCIATION, TRUSTEES, THE","point":[-86.61150601656,36.21579304152781]}}]}