{"type":"FeatureCollection","features":[{"type":"Feature","id":"24284","geometry":{"type":"Polygon","coordinates":[[[-86.5915108744866,36.1509058006784],[-86.5917696239055,36.1507199304806],[-86.5919282007241,36.1508639221958],[-86.5916687642251,36.1510484225741],[-86.5915108744866,36.1509058006784]]]},"properties":{"id":"24284","parcel":"097160A04500CO","address":"5152 BAY OVERLOOK DR","owner":"BECK, ALYSON LYNN & HOOPER, DAVID MICHAEL","point":[-86.59171938687992,36.15088486110525]}},{"type":"Feature","id":"24285","geometry":{"type":"Polygon","coordinates":[[[-86.5913540102789,36.1507642721846],[-86.5916130912714,36.1505775760367],[-86.5917696239055,36.1507199304806],[-86.5915108744866,36.1509058006784],[-86.5913540102789,36.1507642721846]]]},"properties":{"id":"24285","parcel":"097160A04600CO","address":"5156 BAY OVERLOOK DR","owner":"KING, MATTHEW C. & GRIFFITH, MARGARET E.","point":[-86.59156176746201,36.15074210134385]}},{"type":"Feature","id":"24286","geometry":{"type":"Polygon","coordinates":[[[-86.59119475685,36.150620283032],[-86.5914531446361,36.1504313933429],[-86.5916130912714,36.1505775760367],[-86.5913540102789,36.1507642721846],[-86.59119475685,36.150620283032]]]},"properties":{"id":"24286","parcel":"097160A04700CO","address":"5160 BAY OVERLOOK DR","owner":"TWIBELL, BRIAN E. & CREVISTON-TWIBELL, SHEILA","point":[-86.59140370783122,36.150598928979484]}},{"type":"Feature","id":"24313","geometry":{"type":"Polygon","coordinates":[[[-86.5908638399327,36.1509400117935],[-86.5911158128073,36.1507536264192],[-86.5912743782619,36.150896243719],[-86.5910220745734,36.1510837314762],[-86.5908638399327,36.1509400117935]]]},"properties":{"id":"24313","parcel":"097160A06300CO","address":"5149 BAY OVERLOOK DR","owner":"LAKO, VANGJO","point":[-86.59106917832916,36.15091812816879]}},{"type":"Feature","id":"24486","geometry":{"type":"Polygon","coordinates":[[[-86.5924698109244,36.1517716354849],[-86.5927261833661,36.1515849502983],[-86.5928844217295,36.151728393536],[-86.5926256539399,36.1519123428722],[-86.5924698109244,36.1517716354849]]]},"properties":{"id":"24486","parcel":"097160A03900CO","address":"5128 BAY OVERLOOK DR","owner":"VANDERVEKEN, KRISTIN & MARTIN","point":[-86.59267674650174,36.151750013432206]}},{"type":"Feature","id":"24490","geometry":{"type":"Polygon","coordinates":[[[-86.592153002386,36.1514853000202],[-86.5924093737077,36.1512983406128],[-86.5925693136037,36.1514431494365],[-86.5923136220952,36.1516303798225],[-86.5922501017941,36.1515730010149],[-86.592153002386,36.1514853000202]]]},"properties":{"id":"24490","parcel":"097160A04100CO","address":"5136 BAY OVERLOOK DR","owner":"TAYLOR, BRIAN","point":[-86.59236121862577,36.15146422511586]}},{"type":"Feature","id":"24494","geometry":{"type":"Polygon","coordinates":[[[-86.5916687642251,36.1510484225741],[-86.5919282007241,36.1508639221958],[-86.5920901836081,36.1510103691452],[-86.591833131614,36.1511967805579],[-86.5916687642251,36.1510484225741]]]},"properties":{"id":"24494","parcel":"097160A04400CO","address":"5148 BAY OVERLOOK DR","owner":"SHUTZE, JOHN M. & RAQUEL J.","point":[-86.59187974001412,36.15102939695205]}},{"type":"Feature","id":"24608","geometry":{"type":"Polygon","coordinates":[[[-86.5901435166529,36.1502284802289],[-86.5904470381907,36.1501874382423],[-86.5904529608998,36.1502051695027],[-86.5904624141648,36.1502218632603],[-86.5904751389862,36.1502370611387],[-86.5904907844272,36.1502503448668],[-86.5905089221526,36.1502613488252],[-86.5905290520729,36.1502697717354],[-86.5905506201641,36.1502753819799],[-86.5905730362936,36.1502780238241],[-86.5903733010276,36.150428989855],[-86.5903726222448,36.1504287182914],[-86.5902826844696,36.1504503108537],[-86.5901646679939,36.1503399068745],[-86.5901435166529,36.1502284802289]]]},"properties":{"id":"24608","parcel":"097160A05400CO","address":"5161 BAY OVERLOOK DR","owner":"JENNINGS, NEAL L. JR. & PATRICIA B.","point":[-86.59034501091767,36.15030888397192]}},{"type":"Feature","id":"24617","geometry":{"type":"Polygon","coordinates":[[[-86.5904889273876,36.151128645777],[-86.5905059805506,36.1510532935709],[-86.5905160102462,36.1510157087988],[-86.5905281622181,36.1509785381334],[-86.590542410377,36.1509418601114],[-86.5905440793586,36.1509385533307],[-86.5908593845748,36.1509784921927],[-86.5908245597471,36.1511690332288],[-86.5904889273876,36.151128645777]]]},"properties":{"id":"24617","parcel":"097160A06100CO","address":"5528 PENINSULA PARK LNDG","owner":"DURSTELER, WHITNEY A.","point":[-86.59067996611014,36.151035078837516]}},{"type":"Feature","id":"24622","geometry":{"type":"Polygon","coordinates":[[[-86.5906627996047,36.1507571704276],[-86.5906619526267,36.1507563985881],[-86.5906873155941,36.1507271808509],[-86.5907146856738,36.1506991807995],[-86.5907439746238,36.1506724871881],[-86.5907715390583,36.1506502993018],[-86.5908005417918,36.1506293499091],[-86.5908308966246,36.1506097034207],[-86.5908411408376,36.1506018600632],[-86.5908528407049,36.1505954948547],[-86.590865675258,36.1505907824084],[-86.5908792931899,36.1505878524231],[-86.590893319476,36.1505867833421],[-86.5909073709639,36.1505876067832],[-86.5909210640854,36.1505902984879],[-86.5909340193481,36.1505947846091],[-86.5909458869138,36.1506009442885],[-86.590956337688,36.1506086069977],[-86.5909650867302,36.1506175623361],[-86.5911110425364,36.1507498041081],[-86.5911158128073,36.1507536264192],[-86.5908638399327,36.1509400117935],[-86.5906627996047,36.1507571704276]]]},"properties":{"id":"24622","parcel":"097160A06200CO","address":"5536 PENINSULA PARK LNDG","owner":"MARTIN, BRIAN & VANESSA","point":[-86.59087486017422,36.15084897226216]}},{"type":"Feature","id":"24626","geometry":{"type":"Polygon","coordinates":[[[-86.591661584334,36.151630281722],[-86.5918960826928,36.1514623859693],[-86.5920187473799,36.1515741389592],[-86.5920403407977,36.1515938093758],[-86.5918048257509,36.1517614373067],[-86.591661584334,36.151630281722]]]},"properties":{"id":"24626","parcel":"097160A06800CO","address":"5129 BAY OVERLOOK DR","owner":"GOARD, JAMES T. & KIMBERLEE L.","point":[-86.59185088500708,36.151612045434455]}},{"type":"Feature","id":"24632","geometry":{"type":"Polygon","coordinates":[[[-86.5919940890833,36.1513418591342],[-86.5922473906071,36.1511521716864],[-86.5924093737077,36.1512983406128],[-86.592153002386,36.1514853000202],[-86.5919940890833,36.1513418591342]]]},"properties":{"id":"24632","parcel":"097160A04200CO","address":"5140 BAY OVERLOOK DR","owner":"DRUDGE, SEAN","point":[-86.59220133179795,36.151320098693006]}},{"type":"Feature","id":"24635","geometry":{"type":"Polygon","coordinates":[[[-86.5908630977828,36.1503397858629],[-86.5911366594857,36.1501417567566],[-86.5912959241287,36.1502873943495],[-86.5910348261492,36.1504762969838],[-86.5909234011833,36.1503870140424],[-86.5908630977828,36.1503397858629]]]},"properties":{"id":"24635","parcel":"097160A04900CO","address":"5168 BAY OVERLOOK DR","owner":"GREER, KENNETH H. & JOANN","point":[-86.59107950084199,36.15031359026748]}},{"type":"Feature","id":"25028","geometry":{"type":"Polygon","coordinates":[[[-86.5931122286037,36.1602296491498],[-86.5933424086746,36.1594813231148],[-86.5944084011035,36.1596079352464],[-86.5941186432092,36.1603609520794],[-86.5931122286037,36.1602296491498]]]},"properties":{"id":"25028","parcel":"09700010500","address":"0 LAKE CHATEAU DR","owner":"HOCKETT, ZELANDER M. ET UX","point":[-86.59374825923496,36.15991875306767]}},{"type":"Feature","id":"25081","geometry":{"type":"Polygon","coordinates":[[[-86.5906245919789,36.1500599305056],[-86.5907251055451,36.1498209946757],[-86.590806889872,36.1498417459705],[-86.5909804701032,36.1499996755858],[-86.5907210342261,36.1501841739686],[-86.590721453956,36.150177410657],[-86.590722627559,36.1501707058419],[-86.5907214214985,36.1501524440952],[-86.590716586801,36.1501345822461],[-86.5907082503092,36.15011758923],[-86.5906966331852,36.1501019154952],[-86.5906820407617,36.1500879732249],[-86.5906648580566,36.1500761309513],[-86.5906455385604,36.1500667000925],[-86.5906245919789,36.1500599305056]]]},"properties":{"id":"25081","parcel":"097160A05100CO","address":"5176 BAY OVERLOOK DR","owner":"SLAYTON, WILLIAM S. & MARIE S.","point":[-86.59078748028509,36.15002975175049]}},{"type":"Feature","id":"25123","geometry":{"type":"Polygon","coordinates":[[[-86.5903733010276,36.150428989855],[-86.5905730362936,36.1502780238241],[-86.5905892187639,36.1502795443623],[-86.5906048987666,36.1502831321455],[-86.5906196744663,36.150288697212],[-86.5906331714118,36.1502960962921],[-86.5906450459376,36.1503051418036],[-86.5906477796544,36.1503084270365],[-86.5907511082595,36.1504021426124],[-86.5907528181246,36.1504043315148],[-86.5907599582932,36.1504143708497],[-86.5907648466991,36.1504252611828],[-86.5907673364266,36.1504366733723],[-86.5907673515645,36.1504482626072],[-86.5907648917316,36.1504596792003],[-86.5907600299213,36.1504705776113],[-86.5907529159296,36.1504806290477],[-86.5907437619558,36.1504895278444],[-86.5907328460576,36.150497007669],[-86.5906791245185,36.1505353137515],[-86.5906281153664,36.1505759858614],[-86.5905799765749,36.1506188979536],[-86.5903733010276,36.150428989855]]]},"properties":{"id":"25123","parcel":"097160A05500CO","address":"5557 PENINSULA PARK LNDG","owner":"CROCKETT, JUSTIN & TRYPHENA","point":[-86.59058262191333,36.150453343706424]}},{"type":"Feature","id":"25126","geometry":{"type":"Polygon","coordinates":[[[-86.5901371978485,36.1506545784201],[-86.5902805153505,36.1504775169995],[-86.5903657442353,36.1504603429242],[-86.5905587908898,36.150639604451],[-86.5905150864614,36.1506858646275],[-86.5904747538133,36.1507340973703],[-86.5904379284372,36.1507841415954],[-86.5901371978485,36.1506545784201]]]},"properties":{"id":"25126","parcel":"097160A05600CO","address":"5553 PENINSULA PARK LNDG","owner":"RAINES, DONNA S.","point":[-86.59034359434791,36.15055830065305]}},{"type":"Feature","id":"25135","geometry":{"type":"Polygon","coordinates":[[[-86.5910220745734,36.1510837314762],[-86.5912743782619,36.150896243719],[-86.5914353423068,36.1510424243521],[-86.5911769013392,36.1512244466194],[-86.5910220745734,36.1510837314762]]]},"properties":{"id":"25135","parcel":"097160A06400CO","address":"5145 BAY OVERLOOK DR","owner":"HAYNES, VICTOR & JENNIFER LUCRESHA","point":[-86.59122792428863,36.15106307541602]}},{"type":"Feature","id":"25137","geometry":{"type":"Polygon","coordinates":[[[-86.5911769013392,36.1512244466194],[-86.5914353423068,36.1510424243521],[-86.5915942662795,36.1511875134291],[-86.5913399148554,36.1513725370136],[-86.5911769013392,36.1512244466194]]]},"properties":{"id":"25137","parcel":"097160A06500CO","address":"5141 BAY OVERLOOK DR","owner":"LCTS, LLC","point":[-86.59138601254708,36.151205981669136]}},{"type":"Feature","id":"25141","geometry":{"type":"Polygon","coordinates":[[[-86.5913399148554,36.1513725370136],[-86.5915942662795,36.1511875134291],[-86.5917535256632,36.1513320508804],[-86.591519366317,36.1514999447005],[-86.5914978080268,36.1515159837548],[-86.5913399148554,36.1513725370136]]]},"properties":{"id":"25141","parcel":"097160A06600CO","address":"5137 BAY OVERLOOK DR","owner":"CHANTRE, YAIR ALFONSO CARDENAS & HURTADO, LUISA F. A.","point":[-86.59154651287218,36.151352293418434]}},{"type":"Feature","id":"25143","geometry":{"type":"Polygon","coordinates":[[[-86.591519366317,36.1514999447005],[-86.5917535256632,36.1513320508804],[-86.5918960826928,36.1514623859693],[-86.591661584334,36.151630281722],[-86.591519366317,36.1514999447005]]]},"properties":{"id":"25143","parcel":"097160A06700CO","address":"5133 BAY OVERLOOK DR","owner":"LABRADA, RUDY & WASINGER, MICHAEL","point":[-86.59170770526342,36.15148116541761]}},{"type":"Feature","id":"25147","geometry":{"type":"Polygon","coordinates":[[[-86.5918048257509,36.1517614373067],[-86.5920403407977,36.1515938093758],[-86.5921801659059,36.1517211374046],[-86.59194636275,36.1518912284606],[-86.5919024761562,36.1518509059475],[-86.5918048257509,36.1517614373067]]]},"properties":{"id":"25147","parcel":"097160A06900CO","address":"5125 BAY OVERLOOK DR","owner":"HOWARD, LANE & GALVIS, JUAN","point":[-86.59199280899179,36.15174128856983]}},{"type":"Feature","id":"25282","geometry":{"type":"Polygon","coordinates":[[[-86.592789337131,36.1520587805093],[-86.5930413357217,36.1518759627329],[-86.5932057372492,36.1520281652469],[-86.5929424630679,36.1521978533258],[-86.5929250614061,36.1521809068134],[-86.592789337131,36.1520587805093]]]},"properties":{"id":"25282","parcel":"097160A10200CO","address":"5120 BAY OVERLOOK DR","owner":"VALENTINE, JOHN & KAREN JOINT REVOC TRUST","point":[-86.59299616475982,36.15204346839483]}},{"type":"Feature","id":"25287","geometry":{"type":"Polygon","coordinates":[[[-86.5926256539399,36.1519123428722],[-86.5928844217295,36.151728393536],[-86.5930096166623,36.1518467249062],[-86.5930413357217,36.1518759627329],[-86.592789337131,36.1520587805093],[-86.5926256539399,36.1519123428722]]]},"properties":{"id":"25287","parcel":"097160A10300CO","address":"5124 BAY OVERLOOK DR","owner":"HERNANDEZ FAMILY LIVING TRUST","point":[-86.59283375992028,36.15189415388439]}},{"type":"Feature","id":"25342","geometry":{"type":"Polygon","coordinates":[[[-86.5923136220952,36.1516303798225],[-86.5925693136037,36.1514431494365],[-86.5927261833661,36.1515849502983],[-86.5924698109244,36.1517716354849],[-86.5923136220952,36.1516303798225]]]},"properties":{"id":"25342","parcel":"097160A04000CO","address":"5132 BAY OVERLOOK DR","owner":"KGDD TRUST","point":[-86.5925198141916,36.151607664937025]}},{"type":"Feature","id":"25346","geometry":{"type":"Polygon","coordinates":[[[-86.591833131614,36.1511967805579],[-86.5920901836081,36.1510103691452],[-86.5922473906071,36.1511521716864],[-86.5919940890833,36.1513418591342],[-86.591833131614,36.1511967805579]]]},"properties":{"id":"25346","parcel":"097160A04300CO","address":"5144 BAY OVERLOOK DR","owner":"ZARAS REVOCABLE LIVING TRUST","point":[-86.59204075801313,36.151174477994246]}},{"type":"Feature","id":"25349","geometry":{"type":"Polygon","coordinates":[[[-86.5910348261492,36.1504762969838],[-86.5912959241287,36.1502873943495],[-86.5914531446361,36.1504313933429],[-86.59119475685,36.150620283032],[-86.5910378906122,36.1504784792475],[-86.5910348261492,36.1504762969838]]]},"properties":{"id":"25349","parcel":"097160A04800CO","address":"5164 BAY OVERLOOK DR","owner":"AH4R TN PROPERTIES THREE, LLC","point":[-86.5912441489835,36.1504538459046]}},{"type":"Feature","id":"25352","geometry":{"type":"Polygon","coordinates":[[[-86.5907210342261,36.1501841739686],[-86.5909804701032,36.1499996755858],[-86.5911366594857,36.1501417567566],[-86.5908630977828,36.1503397858629],[-86.5907539718891,36.1502408768587],[-86.5907443241407,36.1502334472319],[-86.5907361363749,36.1502249424634],[-86.590729588894,36.1502155491329],[-86.5907248276997,36.1502054738159],[-86.5907219544583,36.1501949386264],[-86.5907210342261,36.1501841739686]]]},"properties":{"id":"25352","parcel":"097160A05000CO","address":"5172 BAY OVERLOOK DR","owner":"WARD, ALLAN J. & GENTES-WARD, DIANE M.","point":[-86.59092911553829,36.1501629664609]}},{"type":"Feature","id":"25673","geometry":{"type":"Polygon","coordinates":[[[-86.5930413357217,36.1518759627329],[-86.5930096166623,36.1518467249062],[-86.5935418995423,36.1520935399071],[-86.593529339445,36.152678723246],[-86.5934751116708,36.1524479627205],[-86.5933674362431,36.1522265307547],[-86.5932057372492,36.1520281652469],[-86.5930413357217,36.1518759627329]]]},"properties":{"id":"25673","parcel":"097160A11700CO","address":"0 BAY OVERLOOK DR","owner":"PENINSULA, THE","point":[-86.59347896711827,36.15233744261103]}},{"type":"Feature","id":"26003","geometry":{"type":"Polygon","coordinates":[[[-86.5938001943292,36.1580044591089],[-86.5956720969316,36.1579117244543],[-86.5955306278019,36.1585607243234],[-86.5944483093773,36.1595088453828],[-86.5944084011035,36.1596079352464],[-86.5933424086746,36.1594813231148],[-86.5938001943292,36.1580044591089]]]},"properties":{"id":"26003","parcel":"09700009100","address":"0 BELL RD","owner":"TALLEY, TOM","point":[-86.59424453771891,36.159020378385996]}},{"type":"Feature","id":"26007","geometry":{"type":"Polygon","coordinates":[[[-86.590939342172,36.1599436284258],[-86.5911493408703,36.1585297962635],[-86.5915955028443,36.158533928714],[-86.5931310830741,36.1580385166765],[-86.5924123377893,36.1601363907242],[-86.590939342172,36.1599436284258]]]},"properties":{"id":"26007","parcel":"09700010900","address":"219 LAKE CHATEAU DR","owner":"HOCKETT, ZELANDER M.","point":[-86.59188116271575,36.15924087240823]}},{"type":"Feature","id":"27715","geometry":{"type":"Polygon","coordinates":[[[-86.5931310830741,36.1580385166765],[-86.5938001943292,36.1580044591089],[-86.5933424086746,36.1594813231148],[-86.5931122286037,36.1602296491498],[-86.5924123377893,36.1601363907242],[-86.5931310830741,36.1580385166765]]]},"properties":{"id":"27715","parcel":"09700011000","address":"0 LAKE CHATEAU DR","owner":"HOCKETT, ZELANDER M.& CHARLENE W.","point":[-86.5932250097856,36.158759880115944]}},{"type":"Feature","id":"120408","geometry":{"type":"Polygon","coordinates":[[[-86.5900174225541,36.1504895169506],[-86.5900920179023,36.1500900064447],[-86.5901150931432,36.1499745953362],[-86.5902454553458,36.1493300791019],[-86.590806889872,36.1498417459705],[-86.5907251055451,36.1498209946757],[-86.5905981910076,36.1497889262763],[-86.5902463566589,36.1498466872365],[-86.5902456931096,36.1498486128711],[-86.5901226961267,36.1501159533221],[-86.5901435166529,36.1502284802289],[-86.5901646679939,36.1503399068745],[-86.5902826844696,36.1504503108537],[-86.5903726222448,36.1504287182914],[-86.5903733010276,36.150428989855],[-86.5905799765749,36.1506188979536],[-86.5905587908898,36.150639604451],[-86.5903657442353,36.1504603429242],[-86.5902805153505,36.1504775169995],[-86.5901371978485,36.1506545784201],[-86.5900196810228,36.1508389299823],[-86.589977025695,36.1510698909283],[-86.5899398774334,36.1512670357723],[-86.5898683216067,36.1512584504764],[-86.5898683428805,36.1512583223935],[-86.5899460315846,36.1508628913709],[-86.5900174225541,36.1504895169506]]]},"properties":{"id":"120408","parcel":"097160A90400CO","address":"5555 PENINSULA PARK  LNDG","owner":"PENINSULA HOMEOWNERS ASSOCIATION, INC","point":[-86.59010495755568,36.15028402538779]}},{"type":"Feature","id":"121834","geometry":{"type":"Polygon","coordinates":[[[-86.591820481667,36.1530294596428],[-86.5918166482932,36.1530283518675],[-86.5918176613385,36.1530285875357],[-86.5919008677138,36.1527853376428],[-86.5916186785774,36.1527359038822],[-86.591624279464,36.1527147238505],[-86.5919288165352,36.152763226932],[-86.591969643199,36.1527418740909],[-86.5919876981647,36.152528614984],[-86.5919574875288,36.1522933414228],[-86.5918660139858,36.1520633126441],[-86.5917215258514,36.1518557949672],[-86.5915237053153,36.1516729879384],[-86.5912878730697,36.1515255286106],[-86.5910273404478,36.1514273616607],[-86.5907488818992,36.1513773551306],[-86.5907330206023,36.1513851241333],[-86.5907294315891,36.1514035472403],[-86.5904419608905,36.1513687874796],[-86.5904480298608,36.1513225132179],[-86.5907680577626,36.1513596803697],[-86.5907916690649,36.1513463784358],[-86.5908245597471,36.1511690332288],[-86.5908593845748,36.1509784921927],[-86.5905440793586,36.1509385533307],[-86.590542410377,36.1509418601114],[-86.5905541077841,36.1509079713536],[-86.5905693226398,36.1508750153085],[-86.5905879478161,36.150843231333],[-86.5906098450046,36.1508128499239],[-86.5906348569459,36.1507840935591],[-86.5906627996047,36.1507571704276],[-86.5908638399327,36.1509400117935],[-86.5910220745734,36.1510837314762],[-86.5911769013392,36.1512244466194],[-86.5913399148554,36.1513725370136],[-86.5914978080268,36.1515159837548],[-86.591519366317,36.1514999447005],[-86.591661584334,36.151630281722],[-86.5918048257509,36.1517614373067],[-86.5919024761562,36.1518509059475],[-86.59194636275,36.1518912284606],[-86.5920823699824,36.1520062118349],[-86.592098398363,36.1520206921486],[-86.592098735264,36.152020418315],[-86.5921563327041,36.1521132584044],[-86.5920100884558,36.1523515949926],[-86.5920151819927,36.1524894718151],[-86.5920184873096,36.1525696695503],[-86.5921763335385,36.1527510244066],[-86.5922761638878,36.1527837738492],[-86.5923160351642,36.1527706667017],[-86.5924274725852,36.1528159956143],[-86.5922072091248,36.1528033415459],[-86.5919720301396,36.1527893867246],[-86.5919458933296,36.1530546043412],[-86.5919492648143,36.1530554692353],[-86.591945792097,36.1530550374426],[-86.591903402226,36.1530486003794],[-86.5918615790262,36.1530400632902],[-86.591820481667,36.1530294596428]]]},"properties":{"id":"121834","parcel":"097160A90000CO","address":"5530 PENINSULA PARK  LNDG","owner":"PENINSULA HOMEOWNERS ASSOCIATION, INC","point":[-86.59190002519651,36.15194833057047]}}]}