{"type":"FeatureCollection","features":[{"type":"Feature","id":"18030","geometry":{"type":"Polygon","coordinates":[[[-86.6616085443865,36.1699715210583],[-86.6617980436639,36.1699441104238],[-86.6618601260308,36.1702382531102],[-86.6617690682798,36.1702549804721],[-86.661678830004,36.1702744097563],[-86.661670004575,36.1702752449363],[-86.6616611292951,36.1702749006396],[-86.6616524432199,36.1702733854698],[-86.6616441789995,36.1702707396095],[-86.6616365584389,36.1702670357462],[-86.6616297857697,36.1702623718992],[-86.6616240443302,36.1702568732399],[-86.6616194876509,36.1702506894375],[-86.6616162371411,36.1702439838558],[-86.6616089326657,36.1702236635312],[-86.6616045425981,36.1702027999942],[-86.6616031258994,36.1701816660037],[-86.6616046993311,36.1701605390559],[-86.6616085443865,36.1699715210583]]]},"properties":{"id":"18030","parcel":"096010A02000CO","address":"89 RIVERPOINT PASS","owner":"PRICE, SHERRIE LYNN (LE) PUGH, CHARLES E. & DAVID R.","point":[-86.66171526382544,36.17006633705975]}},{"type":"Feature","id":"18031","geometry":{"type":"Polygon","coordinates":[[[-86.6624648963034,36.1699699054438],[-86.6624805385287,36.1698810301528],[-86.6626866666203,36.1698974795018],[-86.6626214868591,36.1702679596042],[-86.6624179950466,36.1702461259652],[-86.6624648963034,36.1699699054438]]]},"properties":{"id":"18031","parcel":"096010A02400CO","address":"97 BENSON RD","owner":"CONNOLE, ALEXIS RAE & DANIEL R.","point":[-86.66254548446146,36.170108308979344]}},{"type":"Feature","id":"18032","geometry":{"type":"Polygon","coordinates":[[[-86.6626214868591,36.1702679596042],[-86.6626866666203,36.1698974795018],[-86.662819598871,36.1699121331978],[-86.6627521528176,36.1702817615093],[-86.6626214868591,36.1702679596042]]]},"properties":{"id":"18032","parcel":"096010A02500CO","address":"99 BENSON RD","owner":"LONGANBACH, SHARRAL A.","point":[-86.66271996113377,36.17009004480646]}},{"type":"Feature","id":"18033","geometry":{"type":"Polygon","coordinates":[[[-86.6629319324721,36.1700435310501],[-86.6629525128142,36.169924589576],[-86.6630962855773,36.1699391825243],[-86.6630773320552,36.1700488618494],[-86.6630336764467,36.170310854619],[-86.6628896071084,36.1702959667082],[-86.6629319324721,36.1700435310501]]]},"properties":{"id":"18033","parcel":"096010A02700CO","address":"103 BENSON RD","owner":"YEAKEY, BARBARA","point":[-86.6629835338694,36.17017241449819]}},{"type":"Feature","id":"18034","geometry":{"type":"Polygon","coordinates":[[[-86.6630773320552,36.1700488618494],[-86.6630962855773,36.1699391825243],[-86.6632371638976,36.1699537722797],[-86.6631697928052,36.1703240285973],[-86.6630336764467,36.170310854619],[-86.6630773320552,36.1700488618494]]]},"properties":{"id":"18034","parcel":"096010A02800CO","address":"105 BENSON RD","owner":"SHACKLETT, JOHN J. & THOMAS P.","point":[-86.66312572910746,36.17018005584173]}},{"type":"Feature","id":"18036","geometry":{"type":"Polygon","coordinates":[[[-86.6614486937693,36.1704437038266],[-86.6614558662357,36.1704560577457],[-86.661659360038,36.1708065644357],[-86.6614862482601,36.1708492677292],[-86.661313117992,36.1708897745042],[-86.6611397861702,36.1705808565053],[-86.6611308440882,36.1705648937026],[-86.6611337633238,36.1705637277053],[-86.6612107430159,36.170530776861],[-86.6612889415445,36.1704997696157],[-86.6613682824683,36.1704707361274],[-86.6614486937693,36.1704437038266]]]},"properties":{"id":"18036","parcel":"096010A03000CO","address":"82 RIVERPOINT PASS","owner":"MADDEN, PAUL T & FLOURAS, ANNA","point":[-86.6613984775633,36.17069370765428]}},{"type":"Feature","id":"19988","geometry":{"type":"Polygon","coordinates":[[[-86.6609655000164,36.1706389445855],[-86.6610471093189,36.1706003698692],[-86.6611308440882,36.1705648937026],[-86.6611397861702,36.1705808565053],[-86.661313117992,36.1708897745042],[-86.6611318934604,36.1709347199073],[-86.6609655000164,36.1706389445855]]]},"properties":{"id":"19988","parcel":"096010A00600CO","address":"80 RIVERPOINT PASS","owner":"WEBB, PETER & AMY LEE JONES","point":[-86.66113940121927,36.17076435993261]}},{"type":"Feature","id":"19992","geometry":{"type":"Polygon","coordinates":[[[-86.6613053115248,36.1700915146388],[-86.6613053470777,36.1700915126415],[-86.6613053971026,36.1700915132687],[-86.6615085518063,36.1700925955122],[-86.6615086007197,36.1700925961453],[-86.6615090953956,36.1701519350938],[-86.6615090087601,36.1701858103251],[-86.6615123470255,36.170219577561],[-86.6615190871842,36.1702530098098],[-86.6615291851176,36.1702858810967],[-86.6615295038597,36.1702870482839],[-86.6615302726218,36.1702917964141],[-86.6615302836057,36.1702973805603],[-86.6615293415592,36.1703029131505],[-86.6615274655953,36.1703082868298],[-86.6615244565903,36.1703137496348],[-86.6615204825746,36.1703187905314],[-86.6615156315515,36.1703232990835],[-86.6615038035758,36.1703299728459],[-86.6614011249652,36.1703609088903],[-86.6612997414322,36.1703945361231],[-86.6612997059617,36.1703945480338],[-86.6613053115248,36.1700915146388]]]},"properties":{"id":"19992","parcel":"096010A01100CO","address":"87 RIVERPOINT PASS","owner":"WILLIAMS, MICHAEL D. & PAMELA J.","point":[-86.66140918081636,36.17023599245665]}},{"type":"Feature","id":"19994","geometry":{"type":"Polygon","coordinates":[[[-86.6613053971026,36.1700915132687],[-86.6613053470777,36.1700915126415],[-86.6613053115248,36.1700915146388],[-86.6613052614998,36.1700915140116],[-86.6611302208263,36.1700903837861],[-86.6611210756248,36.1700903257265],[-86.6611210267113,36.1700903250932],[-86.6611209934039,36.1700903297819],[-86.6612058278473,36.1699036918138],[-86.6612221698391,36.1698678123548],[-86.6614634027132,36.1698686878686],[-86.6614705009666,36.1698693447415],[-86.6614774190848,36.1698707939074],[-86.6614840212102,36.1698730054681],[-86.6614901825099,36.1698759386498],[-86.6614963328184,36.1698799534035],[-86.6615016520914,36.1698846829043],[-86.6615060160435,36.169890018781],[-86.6615093202239,36.1698958318246],[-86.6615112481605,36.1699010936294],[-86.6615123059766,36.1699065152198],[-86.6615125010108,36.1699101768716],[-86.6615086007197,36.1700925961453],[-86.6615085518063,36.1700925955122],[-86.6613053971026,36.1700915132687]]]},"properties":{"id":"19994","parcel":"096010A01200CO","address":"205 RIVERPOINT CT","owner":"THOMAS, ELIZABETH & MYLES","point":[-86.66133635004583,36.170000306545184]}},{"type":"Feature","id":"20487","geometry":{"type":"Polygon","coordinates":[[[-86.6643081253977,36.1704221591577],[-86.6644117663647,36.1699622569749],[-86.665116593109,36.1700933784999],[-86.6651134709562,36.1700960535205],[-86.6650851678286,36.1701279140097],[-86.6650542487829,36.1701581332904],[-86.6650208560231,36.1701865699805],[-86.6649831241203,36.1702185004184],[-86.6649428927157,36.1702483572954],[-86.6649003352581,36.170276013477],[-86.6648556341495,36.1703013489898],[-86.6648089830061,36.1703242555152],[-86.6647605810931,36.1703446355186],[-86.6647106355323,36.170362400435],[-86.6646593624366,36.1703774733669],[-86.6646069813672,36.1703897909167],[-86.6645390209015,36.1704063751644],[-86.6645134435812,36.1704101696891],[-86.6644875862229,36.1704123804335],[-86.6644398737172,36.1704175396367],[-86.6643918784672,36.1704205265381],[-86.6643069872245,36.1704272115769],[-86.6643081253977,36.1704221591577]]]},"properties":{"id":"20487","parcel":"09601001800","address":"115 BENSON RD","owner":"HARWELL PROPERTIES, LLC","point":[-86.66468000762953,36.170201633889455]}},{"type":"Feature","id":"21147","geometry":{"type":"Polygon","coordinates":[[[-86.6620979167085,36.1702215734703],[-86.6620943165808,36.1702215959222],[-86.662038547232,36.1702229905474],[-86.6620199185779,36.1702236370836],[-86.6620173381443,36.169914338803],[-86.6622596244811,36.1698714760076],[-86.6622609141888,36.1698712472213],[-86.6622379940551,36.1700134881679],[-86.6622058203595,36.1702246127027],[-86.6621501076386,36.1702221370584],[-86.6621499953545,36.1702221349707],[-86.6620979167085,36.1702215734703]]]},"properties":{"id":"21147","parcel":"096010A02200CO","address":"93 RIVERPOINT PASS","owner":"SIMMONS, SUMMER & ATESHKARI, PASHA","point":[-86.66212057267819,36.170117397137254]}},{"type":"Feature","id":"21152","geometry":{"type":"Polygon","coordinates":[[[-86.6627521528176,36.1702817615093],[-86.662819598871,36.1699121331978],[-86.6629525128142,36.169924589576],[-86.6629319324721,36.1700435310501],[-86.6628896071084,36.1702959667082],[-86.6627521528176,36.1702817615093]]]},"properties":{"id":"21152","parcel":"096010A02600CO","address":"101 BENSON RD","owner":"DOBBS, PATRICIA L.","point":[-86.66284292527052,36.17016264880039]}},{"type":"Feature","id":"21384","geometry":{"type":"Polygon","coordinates":[[[-86.6614558662357,36.1704560577457],[-86.6614486937693,36.1704437038266],[-86.6615259541173,36.1704199143501],[-86.6615261426296,36.1704198601426],[-86.6616040423616,36.1703979714737],[-86.6616041821104,36.1703979346573],[-86.661682889744,36.1703778935979],[-86.6616974205395,36.1703736960833],[-86.6618216666298,36.1707683146815],[-86.661659360038,36.1708065644357],[-86.6614558662357,36.1704560577457]]]},"properties":{"id":"21384","parcel":"096010A00400CO","address":"84 RIVERPOINT PASS","owner":"BAKER, MARY ALICE","point":[-86.66165949319249,36.17061224492679]}},{"type":"Feature","id":"21449","geometry":{"type":"Polygon","coordinates":[[[-86.6641320063926,36.1704143374462],[-86.6640024811332,36.1704026135695],[-86.6641267894178,36.1699469230892],[-86.6641341586283,36.1699104914586],[-86.6644117663647,36.1699622569749],[-86.6643081253977,36.1704221591577],[-86.6642348344726,36.1704206284032],[-86.6641616549771,36.1704170051665],[-86.6641519640732,36.1704149684682],[-86.6641420126164,36.1704140732967],[-86.6641320063926,36.1704143374462]]]},"properties":{"id":"21449","parcel":"09601001900","address":"113 BENSON RD","owner":"WITT, ALAN C","point":[-86.6642123524674,36.17018245011663]}},{"type":"Feature","id":"21518","geometry":{"type":"Polygon","coordinates":[[[-86.6616974205395,36.1703736960833],[-86.6617584484221,36.1703579995327],[-86.6618201621959,36.1703441792185],[-86.6618838455316,36.1703324804533],[-86.661948317871,36.1703240912601],[-86.662013318297,36.1703190464154],[-86.6620785824232,36.1703173644927],[-86.6621438468847,36.1703190532449],[-86.6620840527009,36.1707053412944],[-86.6619325696836,36.170741334776],[-86.6618216666298,36.1707683146815],[-86.6616974205395,36.1703736960833]]]},"properties":{"id":"21518","parcel":"096010A00100CO","address":"90 RIVERPOINT PASS","owner":"COSTANZO, JENA RENE & TIMOTHY RYAN","point":[-86.66192956466134,36.17053962848674]}},{"type":"Feature","id":"21575","geometry":{"type":"Polygon","coordinates":[[[-86.6634918293216,36.170359078885],[-86.6635612069003,36.1699490053964],[-86.6638322473873,36.1699760606451],[-86.6637680639875,36.1703795779037],[-86.6634918293216,36.170359078885]]]},"properties":{"id":"21575","parcel":"09601002100","address":"109 BENSON RD","owner":"CALDWELL, KELBY RAY & GREGORY, LINDSEY","point":[-86.66366300932354,36.17016757261767]}},{"type":"Feature","id":"21580","geometry":{"type":"Polygon","coordinates":[[[-86.6618601260308,36.1702382531102],[-86.6617980436639,36.1699441104238],[-86.6619550754235,36.1699234702725],[-86.6620097011088,36.1699154531895],[-86.6620173381443,36.169914338803],[-86.6620199185779,36.1702236370836],[-86.6620122760979,36.1702239692063],[-86.6619554874147,36.1702276243363],[-86.6618989641214,36.1702333797225],[-86.6618601919948,36.1702385654857],[-86.6618601260308,36.1702382531102]]]},"properties":{"id":"21580","parcel":"096010A02100CO","address":"91 RIVERPOINT PASS","owner":"PUGH, TERRY R & DEBORAH M","point":[-86.66192312445993,36.170083913742545]}},{"type":"Feature","id":"21584","geometry":{"type":"Polygon","coordinates":[[[-86.6622379940551,36.1700134881679],[-86.6622609141888,36.1698712472213],[-86.6624805385287,36.1698810301528],[-86.6624648963034,36.1699699054438],[-86.6624179950466,36.1702461259652],[-86.662228234629,36.1702279226284],[-86.6622056464908,36.170225755553],[-86.6622058203595,36.1702246127027],[-86.6622379940551,36.1700134881679]]]},"properties":{"id":"21584","parcel":"096010A02300CO","address":"95 BENSON RD","owner":"CASE, JOSHUA S.","point":[-86.66233068755264,36.170119357271375]}},{"type":"Feature","id":"92055","geometry":{"type":"Polygon","coordinates":[[[-86.6633426247075,36.1714654068662],[-86.6635184749211,36.1704535268613],[-86.6635201420613,36.1704439327967],[-86.6635204924185,36.1704439588097],[-86.6637548563987,36.1704612893718],[-86.663870369456,36.1704734123331],[-86.6636897310121,36.1714854751158],[-86.6635878047471,36.1716134979769],[-86.6635087080685,36.1715613136493],[-86.6634269325924,36.171511918972],[-86.6633426247075,36.1714654068662]],[[-86.6636073657073,36.1708959695973],[-86.6636357368592,36.1707327180121],[-86.6635881544793,36.1707272818508],[-86.6635909341304,36.1707112890327],[-86.6635570303295,36.1707074152464],[-86.6635452022462,36.1707754749249],[-86.6635394911548,36.1707748222644],[-86.663530495712,36.1708265806016],[-86.6635615089608,36.1708301233013],[-86.6635511815353,36.1708895505723],[-86.6636073657073,36.1708959695973]],[[-86.6637597124415,36.1707223657971],[-86.6637584189466,36.1707299831493],[-86.6637168066797,36.1707253370584],[-86.6636947068488,36.1708554644229],[-86.6637284580475,36.1708594246296],[-86.6637235228351,36.1708870798903],[-86.6637790597931,36.1708935961255],[-86.6638086467098,36.170727828704],[-86.6637597124415,36.1707223657971]]]},"properties":{"id":"92055","parcel":"085130A90000CO","address":"108 C BENSON RD","owner":"O.I.C. TOWNHOMES AT 108 BENSON ROAD","point":[-86.66356807113547,36.17118094988483]}},{"type":"Feature","id":"93961","geometry":{"type":"Polygon","coordinates":[[[-86.663530495712,36.1708265806016],[-86.6635394911548,36.1707748222644],[-86.6635452022462,36.1707754749249],[-86.6635570303295,36.1707074152464],[-86.6635909341304,36.1707112890327],[-86.6635881544793,36.1707272818508],[-86.6636357368592,36.1707327180121],[-86.6636073657073,36.1708959695973],[-86.6635511815353,36.1708895505723],[-86.6635615089608,36.1708301233013],[-86.663530495712,36.1708265806016]]]},"properties":{"id":"93961","parcel":"085130A00100CO","address":"108 A BENSON RD","owner":"BANKS, SETH & AMBER","point":[-86.66357938081202,36.170801144467404]}},{"type":"Feature","id":"93962","geometry":{"type":"Polygon","coordinates":[[[-86.6636947068488,36.1708554644229],[-86.6637168066797,36.1707253370584],[-86.6637584189466,36.1707299831493],[-86.6637597124415,36.1707223657971],[-86.6638086467098,36.170727828704],[-86.6637790597931,36.1708935961255],[-86.6637235228351,36.1708870798903],[-86.6637284580475,36.1708594246296],[-86.6636947068488,36.1708554644229]]]},"properties":{"id":"93962","parcel":"085130A00200CO","address":"108 B BENSON RD","owner":"BRENNAN, JOSEPH & JENNY","point":[-86.66375120049504,36.170792792984926]}},{"type":"Feature","id":"100711","geometry":{"type":"Polygon","coordinates":[[[-86.6648789119934,36.1719108818199],[-86.6650678295467,36.1716848658828],[-86.6653056625004,36.1716841869928],[-86.6653230131729,36.1717117789595],[-86.6653446760023,36.171752272121],[-86.6653446707538,36.1717524415867],[-86.6653383238904,36.1719653730575],[-86.6653321918062,36.1721597779386],[-86.6653154967771,36.1721572319744],[-86.664865080575,36.1719478844209],[-86.6648789119934,36.1719108818199]]]},"properties":{"id":"100711","parcel":"08513006700","address":"0 BENSON RD","owner":"ANDREW PRICE CEMETERY","point":[-86.66510567698025,36.17193003697677]}},{"type":"Feature","id":"100712","geometry":{"type":"Polygon","coordinates":[[[-86.6688310781043,36.171309747048],[-86.6688942988066,36.1709007428193],[-86.6693858297799,36.1709776478642],[-86.6693573525443,36.1713408000499],[-86.6688310781043,36.171309747048]]]},"properties":{"id":"100712","parcel":"08513006600","address":"2706 B OLD LEBANON PIKE","owner":"DONELSON CHURCH OF CHRIST CEMETERY","point":[-86.6691148018809,36.17114371532438]}},{"type":"Feature","id":"113816","geometry":{"type":"Polygon","coordinates":[[[-86.6601172335938,36.170819402655],[-86.6602467954698,36.1707549632385],[-86.6605362649131,36.1710148953107],[-86.6608153717684,36.1710067775883],[-86.6607976818549,36.1706590016925],[-86.6608212339815,36.1706662630818],[-86.6608459750369,36.1706701346279],[-86.6608480444834,36.1706989311653],[-86.6608695058677,36.1709976903195],[-86.6611318934604,36.1709347199073],[-86.661313117992,36.1708897745042],[-86.6614862482601,36.1708492677292],[-86.661659360038,36.1708065644357],[-86.6618216666298,36.1707683146815],[-86.6619325696836,36.170741334776],[-86.6620840527009,36.1707053412944],[-86.6621438468847,36.1703190532449],[-86.6621892748727,36.1703223757214],[-86.6621967288046,36.1703220923888],[-86.6622041397977,36.1703227907634],[-86.6622113142852,36.1703244520794],[-86.6620822084668,36.1711338932364],[-86.6619946283306,36.1711167062057],[-86.661906250205,36.1711024597919],[-86.6618172221223,36.1710911784167],[-86.661727696508,36.1710828801696],[-86.661637826876,36.1710775804305],[-86.661547762234,36.1710752873945],[-86.6614288676177,36.1710856058844],[-86.661309627258,36.171092854658],[-86.6611901644865,36.1710970258291],[-86.6611317209658,36.1710979921616],[-86.661073453424,36.1711018027789],[-86.6610155740489,36.1711084439016],[-86.660958290492,36.1711178909602],[-86.6609018114493,36.1711301112687],[-86.6608463388355,36.1711450586599],[-86.6607661987378,36.1711767368608],[-86.660684631695,36.1712059227241],[-86.6606017540548,36.1712325714487],[-86.6605176877826,36.1712566454128],[-86.6604325515405,36.1712781106182],[-86.6603464717861,36.1712969348267],[-86.6602595705841,36.1713130921335],[-86.6601172335938,36.170819402655]]]},"properties":{"id":"113816","parcel":"096010A90000CO","address":"0 BENSON RD","owner":"RIVERPOINT HOA INC","point":[-86.66187885620403,36.17081578748182]}},{"type":"Feature","id":"120781","geometry":{"type":"Polygon","coordinates":[[[-86.6660931958765,36.1705197047964],[-86.6661972206066,36.1698476260226],[-86.6664022749722,36.1698684911322],[-86.6664243116584,36.1697261118267],[-86.6668277035466,36.1697671218758],[-86.6668056623183,36.1699095373329],[-86.6669065081028,36.1699197980026],[-86.6668824638141,36.1700751576212],[-86.6669564184438,36.1700826827892],[-86.6668466327107,36.1707920196852],[-86.6664793306828,36.1707546461739],[-86.6662463741261,36.1706992574183],[-86.6662677418163,36.1705612052136],[-86.6660931958765,36.1705197047964]]]},"properties":{"id":"120781","parcel":"09601016200","address":"2714 OLD LEBANON PIKE","owner":"METRO GOV'T","point":[-86.66652480824376,36.170301194580695]}},{"type":"Feature","id":"122221","geometry":{"type":"Polygon","coordinates":[[[-86.6665531991027,36.1714318668573],[-86.6665441420505,36.1712775724964],[-86.6665437085092,36.1712709524321],[-86.6665431871961,36.1712643373587],[-86.6665382074171,36.1712247752096],[-86.6665370707271,36.1712182113011],[-86.6665358463035,36.1712116568897],[-86.6665345341613,36.1712051137777],[-86.6665331343081,36.1711985828664],[-86.6665316478555,36.1711920641497],[-86.666530074811,36.1711855585288],[-86.66652841519,36.1711790678061],[-86.6665248362177,36.1711661310553],[-86.6665229168893,36.1711596877308],[-86.6665188230019,36.1711468520605],[-86.6665166473465,36.1711404615231],[-86.66651438516,36.1711340912913],[-86.6665120386653,36.1711277413527],[-86.6665070916555,36.1711151041636],[-86.6665044933862,36.1711088196046],[-86.6664990439915,36.171096319477],[-86.6664961939929,36.1710901057047],[-86.6664932619624,36.1710839185219],[-86.6664739527351,36.1710473618829],[-86.6664704510183,36.171041371616],[-86.6664668706421,36.1710354124261],[-86.6664632105025,36.1710294852206],[-86.6664556542753,36.1710177276457],[-86.6664517593145,36.1710118990724],[-86.6664370624293,36.1709908790177],[-86.6664041209543,36.1709480897147],[-86.6663958934669,36.1709381978452],[-86.6663586355242,36.1708966941246],[-86.6663184695171,36.170857012571],[-86.666275532194,36.1708192885169],[-86.6662628659304,36.1708069724164],[-86.6662527395715,36.1707931984761],[-86.6662454038505,36.1707783068902],[-86.6662444674913,36.1707757407637],[-86.6662428477505,36.1707705539397],[-86.6662399280913,36.1707531270674],[-86.6662407564961,36.1707355542316],[-86.6662463741261,36.1706992574183],[-86.6664793306828,36.1707546461739],[-86.6668466327107,36.1707920196852],[-86.6669564184438,36.1700826827892],[-86.6668824638141,36.1700751576212],[-86.6669065081028,36.1699197980026],[-86.6668056623183,36.1699095373329],[-86.6668277035466,36.1697671218758],[-86.6684962582182,36.1699368500786],[-86.6686376516468,36.1699496561016],[-86.6687113590692,36.1699554069825],[-86.6688047217408,36.1699617852402],[-86.6689036805809,36.1699674456524],[-86.6687363345614,36.1711100309174],[-86.6682520543285,36.1711087781246],[-86.6682349091835,36.1711087333494],[-86.6674920381151,36.171107096405],[-86.667487008869,36.1711421832343],[-86.6674543996391,36.1713696991979],[-86.6673642757067,36.1713658390298],[-86.6665531991027,36.1714318668573]]]},"properties":{"id":"122221","parcel":"09601016100","address":"2710 OLD LEBANON PIKE","owner":"PLAZA 2750, LLC","point":[-86.66787465609951,36.17039450933865]}},{"type":"Feature","id":"267736","geometry":{"type":"Polygon","coordinates":[[[-86.6694685419606,36.1793702657292],[-86.6699858392703,36.1793168505152],[-86.6703781516786,36.1795498188863],[-86.6696106950563,36.179833178214],[-86.6695788069329,36.1797705473163],[-86.6695507019785,36.1797067373096],[-86.6695264448182,36.179641898348],[-86.6695060923027,36.1795761815297],[-86.6694896935386,36.1795097425021],[-86.669477285404,36.1794427369796],[-86.6694685419606,36.1793702657292]]]},"properties":{"id":"267736","parcel":"08509000400","address":"3129 HUNTERS HILL RD","owner":"ALLEY, FRANK B. DR. ETUX","point":[-86.66992101189123,36.17956294280121]}},{"type":"Feature","id":"267778","geometry":{"type":"Polygon","coordinates":[[[-86.6677657504832,36.1786720598215],[-86.669216186915,36.1786969920559],[-86.6692179611812,36.1787381183544],[-86.6692219234838,36.178779144199],[-86.6692280665181,36.1788199939244],[-86.66924321348,36.1790089065195],[-86.6675989231915,36.179141078038],[-86.6677657504832,36.1786720598215]]]},"properties":{"id":"267778","parcel":"08509001600","address":"3140 HUNTERS HILL RD","owner":"TOMPKINS, KEVIN L. & JILL M.","point":[-86.66845835248765,36.178912300196934]}},{"type":"Feature","id":"267780","geometry":{"type":"Polygon","coordinates":[[[-86.6677657504832,36.1786720598215],[-86.6679351945267,36.1781920386824],[-86.6692461026502,36.1783869600527],[-86.6692330222907,36.1784500323362],[-86.669223528351,36.1785135236474],[-86.6692176386275,36.1785773023047],[-86.6692153664318,36.1786412321449],[-86.6692152678738,36.1786684281624],[-86.669216186915,36.1786969920559],[-86.6677657504832,36.1786720598215]]]},"properties":{"id":"267780","parcel":"08509001700","address":"3144 HUNTERS HILL RD","owner":"TOMLINSON, MARY C. & ROSSI, SILVANO","point":[-86.66854808542315,36.17841658380675]}},{"type":"Feature","id":"267786","geometry":{"type":"Polygon","coordinates":[[[-86.6693920993732,36.1767357278782],[-86.6694794916818,36.1761704512982],[-86.6703933912397,36.1765411744815],[-86.6703806253544,36.1765600122937],[-86.670371712041,36.1765802535996],[-86.6703668759721,36.1766013861384],[-86.6703662426839,36.1766228738658],[-86.6703698264627,36.1766441705395],[-86.670377536024,36.1766647341083],[-86.6703891768877,36.1766840447239],[-86.6698525507879,36.1770144709256],[-86.6693920993732,36.1767357278782]]]},"properties":{"id":"267786","parcel":"08509002500","address":"2809 LEALTO CT","owner":"SULLIVAN, J. MICHAEL & NANCY B.","point":[-86.66989210161248,36.17658950507536]}},{"type":"Feature","id":"268135","geometry":{"type":"Polygon","coordinates":[[[-86.6675989231915,36.179141078038],[-86.66924321348,36.1790089065195],[-86.6692837016381,36.1793097572761],[-86.6676287657587,36.1794661626229],[-86.6675248007603,36.1793524607451],[-86.6675989231915,36.179141078038]]]},"properties":{"id":"268135","parcel":"08509001500","address":"3136 HUNTERS HILL RD","owner":"SLUTSKY, MARTIN B. & SHARON F.","point":[-86.66842142809934,36.17922536554873]}},{"type":"Feature","id":"268136","geometry":{"type":"Polygon","coordinates":[[[-86.6679351945267,36.1781920386824],[-86.6681919742932,36.1774610028751],[-86.6693399760671,36.1780677825203],[-86.6693437218381,36.17806995992],[-86.6693465139028,36.1780875667459],[-86.6693457520041,36.1781053077379],[-86.6693414555379,36.1781227150353],[-86.6693159689196,36.1781739018307],[-86.6692936397064,36.178226048078],[-86.6692745213006,36.1782790264053],[-86.6692586637553,36.1783327076568],[-86.6692461026502,36.1783869600527],[-86.6679351945267,36.1781920386824]]]},"properties":{"id":"268136","parcel":"08509001800","address":"3148 HUNTERS HILL RD","owner":"HIXON, DANIEL A. ET UX","point":[-86.66842602084373,36.1777634530402]}},{"type":"Feature","id":"268337","geometry":{"type":"Polygon","coordinates":[[[-86.6672293068023,36.1790271963525],[-86.6672494594127,36.1790059333339],[-86.6672635940069,36.1789820980396],[-86.6672739384196,36.1789570165255],[-86.6672803292151,36.1789310826444],[-86.6672826653306,36.1789047043244],[-86.6672809135731,36.1788782963278],[-86.6672775518363,36.1788599184285],[-86.6672780692993,36.1788413442419],[-86.6672824493406,36.178823109207],[-86.6672905696215,36.1788057358285],[-86.6673021931171,36.1787897247126],[-86.6673189689113,36.1787701098222],[-86.6673328188247,36.1787490465594],[-86.6673435551674,36.1787268207606],[-86.6673510315165,36.1787037342562],[-86.6673551471166,36.1786800994393],[-86.6673647673801,36.1786545757954],[-86.6673781847969,36.1786302054974],[-86.6673951956886,36.1786073564821],[-86.6674292782568,36.17855593692],[-86.6674596094441,36.1785029960368],[-86.6674860884962,36.1784487137429],[-86.6675086258142,36.1783932743926],[-86.6675271429309,36.1783368640815],[-86.6675415792265,36.1782796760159],[-86.667551884094,36.1782219042477],[-86.6675551042503,36.1781994027477],[-86.6675612681812,36.1781773085595],[-86.667570305745,36.1781558735217],[-86.6675831250883,36.1781255753228],[-86.667591799915,36.1780943248814],[-86.6675962277583,36.1780624949848],[-86.6675963551083,36.1780304635567],[-86.6675989031781,36.1780061704644],[-86.6676041705738,36.1779821660568],[-86.6676121134005,36.1779586506556],[-86.6676226654932,36.1779358201996],[-86.6676327504762,36.1779116440432],[-86.6676393772384,36.177886693905],[-86.6676424595843,36.1778612947154],[-86.6676419558362,36.177835777467],[-86.6676378743233,36.1778104710731],[-86.6676374009271,36.1777851257968],[-86.6676407628395,36.1777599233372],[-86.6676479065728,36.177735245222],[-86.6676587263029,36.1777114624532],[-86.6676700827864,36.1776854136543],[-86.6676783213448,36.1776586052149],[-86.6676833684548,36.1776312826846],[-86.667685177287,36.1776036932677],[-86.6676837310784,36.1775760903108],[-86.6676790430646,36.1775487251916],[-86.6676701454265,36.1774888866764],[-86.6676648138649,36.1774287697746],[-86.667663059559,36.1773685150209],[-86.6676648858918,36.1773082611905],[-86.6676702907034,36.1772481488916],[-86.6676792607104,36.1771883178923],[-86.6676917737215,36.1771289062069],[-86.6676968473156,36.1770998477013],[-86.6676979244312,36.1770705129845],[-86.667694991417,36.177041260833],[-86.6676880835548,36.1770124524562],[-86.6676819395528,36.1769880217735],[-86.6676792848932,36.1769631806439],[-86.6676801556889,36.1769382578274],[-86.6676845402234,36.176913578743],[-86.6676936289825,36.1768858309885],[-86.6676988626763,36.1768574376254],[-86.6677001753252,36.1768287478063],[-86.667697553255,36.1768001176042],[-86.6676910261287,36.1767719010493],[-86.6676806769046,36.1767444446669],[-86.6676666318548,36.1767180902359],[-86.6676535736783,36.1766967233182],[-86.6676437610322,36.1766742434189],[-86.6676373344738,36.1766509733134],[-86.6676343846291,36.1766272468679],[-86.6676349554979,36.1766034054164],[-86.6676390388276,36.1765797896801],[-86.6676496763344,36.1765400502236],[-86.6676562058857,36.1764997305449],[-86.6676585798321,36.1764591121008],[-86.6676567849536,36.1764184725524],[-86.6676508314189,36.1763780948387],[-86.6676407604905,36.1763382581211],[-86.6676266422938,36.1762992368947],[-86.6676085758248,36.1762613018895],[-86.667596077239,36.1762390513386],[-86.667587699108,36.1762155658052],[-86.6675836190138,36.1761913409017],[-86.6675839224504,36.1761668934781],[-86.6675886037544,36.1761427399871],[-86.6675903014274,36.1761151511753],[-86.6675879963519,36.1760875917105],[-86.6675817206257,36.1760604408449],[-86.6675715630063,36.1760340739122],[-86.6675576599578,36.1760088551665],[-86.6675471181771,36.1759945654228],[-86.667539207473,36.1759791994451],[-86.6675340905883,36.1759630744783],[-86.6675318736885,36.175946521599],[-86.6675326007663,36.1759298812398],[-86.6675378895069,36.1758928363874],[-86.6675390154261,36.175855555894],[-86.6675359688804,36.1758183462409],[-86.6675287757966,36.1757815137126],[-86.6675174954182,36.1757453608039],[-86.6675061082142,36.1757234645989],[-86.667498486162,36.1757005183347],[-86.667494771784,36.175676946618],[-86.6674950343218,36.1756531843744],[-86.6674854126206,36.1755874429692],[-86.6674723370852,36.1755220946828],[-86.667455833187,36.1754572592409],[-86.6674359286048,36.1753930545539],[-86.66741266211,36.1753295957672],[-86.6673860736158,36.1752670016243],[-86.6673764627808,36.1752505112492],[-86.6673699164091,36.1752330621151],[-86.6673665743601,36.1752150265704],[-86.6673665087707,36.1751967872516],[-86.6673675738419,36.1751743355055],[-86.667364956822,36.1751519681058],[-86.6673587021621,36.175130079558],[-86.6673489209465,36.175109056789],[-86.6673357875047,36.1750892728566],[-86.6673199382039,36.1750586293444],[-86.6673069362506,36.1750271174981],[-86.6672968531257,36.1749949099651],[-86.6672897459051,36.1749621848799],[-86.6672856505669,36.1749291231972],[-86.6677555666077,36.1747243423788],[-86.6689024798102,36.1754080494799],[-86.6686128946399,36.1762653578186],[-86.6683613761485,36.1769765857459],[-86.6681919742932,36.1774610028751],[-86.6679351945267,36.1781920386824],[-86.6677657504832,36.1786720598215],[-86.6675989231915,36.179141078038],[-86.6675248007603,36.1793524607451],[-86.6672293068023,36.1790271963525]]]},"properties":{"id":"268337","parcel":"08500000200","address":"0 KNOBVIEW DR","owner":"DONELSON CHURCH OF CHRIST, TRUSTEES","point":[-86.66801735099236,36.17702776054776]}},{"type":"Feature","id":"268724","geometry":{"type":"Polygon","coordinates":[[[-86.6686128946399,36.1762653578186],[-86.6689024798102,36.1754080494799],[-86.6677555666077,36.1747243423788],[-86.6683497174694,36.1744661283962],[-86.6681948516881,36.1744230322579],[-86.6682361245455,36.1741744716758],[-86.6689267458543,36.1741464836656],[-86.6703496258713,36.1740880330377],[-86.6703129793936,36.173600361291],[-86.6701669703285,36.1733220726278],[-86.6702236292616,36.1732909908371],[-86.6703806279189,36.1735868001751],[-86.6704173676423,36.174085459544],[-86.6707912940897,36.1740701958253],[-86.6708126823724,36.1743557699329],[-86.670841848877,36.1745995454378],[-86.6708487202621,36.1746909832806],[-86.6708717146941,36.1749661100197],[-86.6709020405134,36.1753068491216],[-86.6705995454339,36.1754359933004],[-86.6707561038781,36.1756790600643],[-86.6708480770301,36.1759774281231],[-86.6709707763409,36.176383305932],[-86.670922098111,36.1763967646225],[-86.6708497306224,36.1761730083795],[-86.670707538591,36.1757057016647],[-86.6705318396588,36.1754429621305],[-86.6702310333861,36.1748329336117],[-86.6698386903618,36.1745699537291],[-86.6695491145952,36.174553283666],[-86.6692122408498,36.1746386147039],[-86.6693207948933,36.1748675761942],[-86.6689383615739,36.1749794767383],[-86.6690755722849,36.1752877256124],[-86.6694580068965,36.175175824643],[-86.6695362448491,36.175453110124],[-86.6695832146907,36.1754526233728],[-86.6694794916818,36.1761704512982],[-86.6693920993732,36.1767357278782],[-86.6686128946399,36.1762653578186]]]},"properties":{"id":"268724","parcel":"08500000300","address":"2821 LEALTO CT","owner":"CROTZER, TERRY P & FINCH, TERESA & MARK","point":[-86.66866303334983,36.17507617114787]}},{"type":"Feature","id":"268813","geometry":{"type":"Polygon","coordinates":[[[-86.6694911049023,36.1788317207964],[-86.6699627083778,36.178824708902],[-86.6699858392703,36.1793168505152],[-86.6694685419606,36.1793702657292],[-86.6694077067436,36.1789069003163],[-86.6694074150811,36.1788955208437],[-86.6694094667225,36.1788842608616],[-86.6694138031814,36.1788734352333],[-86.6694203036141,36.1788633465503],[-86.6694287869673,36.1788542761076],[-86.6694390141632,36.1788464793854],[-86.6694507024368,36.178840172451],[-86.6694635220081,36.1788355328782],[-86.6694771160005,36.1788326888219],[-86.6694911049023,36.1788317207964]]]},"properties":{"id":"268813","parcel":"08509000500","address":"2828 LUMAR LN","owner":"HOPPER, MICHAEL E.","point":[-86.66970538219016,36.179111899518595]}},{"type":"Feature","id":"268858","geometry":{"type":"Polygon","coordinates":[[[-86.6681919742932,36.1774610028751],[-86.6683613761485,36.1769765857459],[-86.6692848988969,36.1772022208126],[-86.6694371448536,36.1778980242927],[-86.6694158105568,36.1779053508697],[-86.6693960366809,36.1779151400408],[-86.6693782516454,36.1779271794378],[-86.6693628423154,36.1779412064528],[-86.6693501440729,36.1779569173053],[-86.6693404308507,36.1779739716039],[-86.6693339151776,36.1779919977538],[-86.66933143615,36.1780093895664],[-86.6693316194089,36.1780268963984],[-86.6693344615939,36.1780442514957],[-86.6693399204537,36.1780611901226],[-86.6693399760671,36.1780677825203],[-86.6681919742932,36.1774610028751]]]},"properties":{"id":"268858","parcel":"08509001900","address":"3152 HUNTERS HILL RD","owner":"LADD, ANTHONY M. & CYNTHIA S.","point":[-86.66899698322929,36.17768001970141]}},{"type":"Feature","id":"268861","geometry":{"type":"Polygon","coordinates":[[[-86.6694371448536,36.1778980242927],[-86.6692848988969,36.1772022208126],[-86.6683613761485,36.1769765857459],[-86.6686128946399,36.1762653578186],[-86.6693920993732,36.1767357278782],[-86.6698525507879,36.1770144709256],[-86.6703647668562,36.1773236910253],[-86.6695864658582,36.1779257669133],[-86.6695687526212,36.1779139054645],[-86.669548993849,36.1779044049399],[-86.6695276616745,36.1778974907384],[-86.6695052688727,36.177893330353],[-86.6694823521031,36.1778920235502],[-86.6694594607786,36.1778936006293],[-86.6694371448536,36.1778980242927]]]},"properties":{"id":"268861","parcel":"08509002000","address":"3145 HUNTERS HILL RD","owner":"PURCELL, PHILLIP A.","point":[-86.66945154715275,36.17710802274175]}},{"type":"Feature","id":"269002","geometry":{"type":"Polygon","coordinates":[[[-86.6696106950563,36.179833178214],[-86.6703781516786,36.1795498188863],[-86.670416304781,36.1795737814519],[-86.6705089299517,36.1796282104119],[-86.6705341047014,36.1797203684295],[-86.6699092691288,36.1802007238345],[-86.6698580367629,36.1801531837774],[-86.669809507099,36.1801038144696],[-86.6697637821464,36.1800527162894],[-86.6697209539471,36.1799999941762],[-86.6696811101183,36.1799457557982],[-86.6696443316372,36.1798901124648],[-86.6696106950563,36.179833178214]]]},"properties":{"id":"269002","parcel":"08509000300","address":"3125 HUNTERS HILL RD","owner":"BARQUERO, CARLOS A. & LAURA A.","point":[-86.66998763344048,36.179862638576246]}},{"type":"Feature","id":"269041","geometry":{"type":"Polygon","coordinates":[[[-86.6676287657587,36.1794661626229],[-86.6692837016381,36.1793097572761],[-86.6693093579854,36.1794590544495],[-86.6693173147713,36.1795083974776],[-86.6693276725333,36.1795574450983],[-86.6693404162009,36.1796061234913],[-86.6679898765994,36.1798575415331],[-86.6676287657587,36.1794661626229]]]},"properties":{"id":"269041","parcel":"08509001400","address":"3132 HUNTERS HILL RD","owner":"MCCOURT, JOHN F.","point":[-86.66853269759591,36.17957956828151]}},{"type":"Feature","id":"269043","geometry":{"type":"Polygon","coordinates":[[[-86.6693879673466,36.1786402751603],[-86.669386377939,36.1786279223141],[-86.6693902241799,36.1785622866716],[-86.6693980777412,36.1784968865659],[-86.6694099199496,36.1784318816226],[-86.6694257199198,36.178367433337],[-86.6694454411631,36.1783036978274],[-86.6694690338748,36.1782408339898],[-86.6694964393046,36.1781789944603],[-86.6695017217569,36.1781672488025],[-86.6695091195803,36.178156279112],[-86.6695184647967,36.1781463350674],[-86.6695295458546,36.1781376404526],[-86.6695421109648,36.1781303931378],[-86.6701121445336,36.1782239261163],[-86.6701404376912,36.1786852719681],[-86.6694736911628,36.1786955642341],[-86.6694604379093,36.1786951789942],[-86.6694474271292,36.17869309624],[-86.6694349872147,36.1786893691272],[-86.6694234324565,36.1786840923475],[-86.6694130541279,36.1786773994749],[-86.6694041148814,36.1786694575885],[-86.6693968387515,36.1786604682293],[-86.6693914110784,36.1786506583883],[-86.6693879673466,36.1786402751603]]]},"properties":{"id":"269043","parcel":"08509002200","address":"3141 HUNTERS HILL RD","owner":"KNOWLTON, TODD H. & KARI K.","point":[-86.66977043043381,36.17840063061685]}},{"type":"Feature","id":"269045","geometry":{"type":"Polygon","coordinates":[[[-86.6694794916818,36.1761704512982],[-86.6695832146907,36.1754526233728],[-86.6700385543138,36.1754478985496],[-86.6705202462775,36.176476738275],[-86.6704948672048,36.1764805131227],[-86.6704704811031,36.1764873467303],[-86.6704476424615,36.1764970819033],[-86.6704268752013,36.1765094958257],[-86.6704086527204,36.1765243064788],[-86.6703933912397,36.1765411744815],[-86.6694794916818,36.1761704512982]]]},"properties":{"id":"269045","parcel":"08509002600","address":"2807 LEALTO CT","owner":"PALMERI, RENATA","point":[-86.6698705168883,36.175812473054975]}},{"type":"Feature","id":"269379","geometry":{"type":"Polygon","coordinates":[[[-86.6689383615739,36.1749794767383],[-86.6693207948933,36.1748675761942],[-86.6694580068965,36.175175824643],[-86.6690755722849,36.1752877256124],[-86.6689383615739,36.1749794767383]]]},"properties":{"id":"269379","parcel":"08500000302","address":"2815 LEALTO CT","owner":"TENNESSEE VALLEY AUTHORITY","point":[-86.66919818391216,36.17507765097171]}},{"type":"Feature","id":"269824","geometry":{"type":"Polygon","coordinates":[[[-86.6692122408498,36.1746386147039],[-86.6695491145952,36.174553283666],[-86.6698386903618,36.1745699537291],[-86.6702310333861,36.1748329336117],[-86.6705318396588,36.1754429621305],[-86.6700385543138,36.1754478985496],[-86.6695832146907,36.1754526233728],[-86.6695362448491,36.175453110124],[-86.6694580068965,36.175175824643],[-86.6693207948933,36.1748675761942],[-86.6692122408498,36.1746386147039]]]},"properties":{"id":"269824","parcel":"08500000301","address":"2811 LEALTO CT","owner":"PATTON, GARY T.& WYATT, SARAH E.","point":[-86.66985739378191,36.17502299184727]}},{"type":"Feature","id":"270527","geometry":{"type":"Polygon","coordinates":[[[-86.6690902635321,36.1718006879045],[-86.6692979542852,36.1714795062042],[-86.6698075937762,36.1718494529878],[-86.6697626286525,36.1718955811414],[-86.6697211671747,36.1719438177127],[-86.6696833579414,36.1719939888386],[-86.6696493383761,36.1720459135084],[-86.6690902635321,36.1718006879045]]]},"properties":{"id":"270527","parcel":"08513000900","address":"3218 TODDWAY CT","owner":"KLEROS, LLC","point":[-86.66935726711945,36.171640547787604]}},{"type":"Feature","id":"270528","geometry":{"type":"Polygon","coordinates":[[[-86.6686451945159,36.1725393627802],[-86.6695448108563,36.1725080042464],[-86.6695514813107,36.1725577807803],[-86.6695615644737,36.1726071778787],[-86.6695750279434,36.1726560434077],[-86.6695918315215,36.1727042234738],[-86.6696119206052,36.1727515696706],[-86.6686894981853,36.1729720519026],[-86.6686143398076,36.1727373187622],[-86.6686451945159,36.1725393627802]]]},"properties":{"id":"270528","parcel":"08513001200","address":"3212 TODDWAY CT","owner":"HRUSKA, AMANDA J & GLEN M","point":[-86.66911283039872,36.172744444426755]}},{"type":"Feature","id":"270529","geometry":{"type":"Polygon","coordinates":[[[-86.6680783116835,36.1721711006271],[-86.6681220564173,36.1718939563066],[-86.6686022310065,36.171944041024],[-86.6685557595046,36.1722190033552],[-86.6680783116835,36.1721711006271]]]},"properties":{"id":"270529","parcel":"08513002200","address":"2606 CRESTWOOD RD","owner":"SIRMANS, DAVID & TERASA","point":[-86.66833963386668,36.17205756934824]}},{"type":"Feature","id":"270530","geometry":{"type":"Polygon","coordinates":[[[-86.6670824169361,36.1746137864773],[-86.667564157652,36.173881508732],[-86.6680249922431,36.1735646972604],[-86.6680923635881,36.1735181744938],[-86.6683392322558,36.1735431796187],[-86.6683160609514,36.1736883512154],[-86.6682361245455,36.1741744716758],[-86.6681948516881,36.1744230322579],[-86.6683497174694,36.1744661283962],[-86.6677555666077,36.1747243423788],[-86.6672856505669,36.1749291231972],[-86.6672784247956,36.174896311344],[-86.6672679546544,36.1748640798105],[-86.667254307503,36.1748326391182],[-86.6672375740051,36.1748021951532],[-86.6672178614296,36.1747729455983],[-86.6671953003494,36.1747450835012],[-86.6671700379043,36.1747187892001],[-86.6671461287284,36.1747017992243],[-86.667125093434,36.1746824708156],[-86.6671072770642,36.1746611211142],[-86.6670929738096,36.1746381008882],[-86.6670824169361,36.1746137864773]]]},"properties":{"id":"270530","parcel":"08513002800","address":"201 CLIFFDALE RD","owner":"PATTON, T. W. ETUX","point":[-86.66775342198414,36.174297470602006]}},{"type":"Feature","id":"270547","geometry":{"type":"Polygon","coordinates":[[[-86.6672001439406,36.1724968136234],[-86.6675365551577,36.1722114578598],[-86.6678945620331,36.172238049173],[-86.667824896386,36.1726559837876],[-86.6675574756958,36.1727651464572],[-86.6674721340844,36.1726946424017],[-86.6673840713632,36.1726263731334],[-86.6672933781572,36.1725604084434],[-86.6672001439406,36.1724968136234]]]},"properties":{"id":"270547","parcel":"08513004100","address":"210 CLIFFDALE RD","owner":"WILLIAMSON, ISAAC CHARLES & SHIPP, JANET KAY  ET AL","point":[-86.66761307748412,36.172367614384854]}},{"type":"Feature","id":"270548","geometry":{"type":"Polygon","coordinates":[[[-86.6674643847709,36.1720096746385],[-86.6674422031702,36.1719504610483],[-86.6679383444205,36.1719652974603],[-86.6678945620331,36.172238049173],[-86.6675365551577,36.1722114578598],[-86.6674643847709,36.1720096746385]]]},"properties":{"id":"270548","parcel":"08513004200","address":"2609 CRESTWOOD RD","owner":"HOFFMANN, MARY ANN","point":[-86.66770765553514,36.172111141451616]}},{"type":"Feature","id":"270549","geometry":{"type":"Polygon","coordinates":[[[-86.6673422656918,36.1716697159783],[-86.6673309307594,36.1716387599821],[-86.6673444845132,36.1716390671814],[-86.6679908489854,36.171653721631],[-86.6679383444205,36.1719652974603],[-86.6674422031702,36.1719504610483],[-86.6674032979322,36.1718363991198],[-86.6673422656918,36.1716697159783]]]},"properties":{"id":"270549","parcel":"08513004300","address":"2607 CRESTWOOD RD","owner":"BENNETT, DIANE","point":[-86.66767330514051,36.17175389207758]}},{"type":"Feature","id":"270550","geometry":{"type":"Polygon","coordinates":[[[-86.6655306646973,36.1709147135382],[-86.6655503006992,36.1708341696124],[-86.665550334052,36.1708341703298],[-86.6655503840926,36.1708341727577],[-86.6655536299476,36.1708343170869],[-86.6660744759666,36.1708574904353],[-86.6661847787624,36.1709626652968],[-86.6662238146913,36.1710026586584],[-86.6662593346361,36.1710447524243],[-86.6662911668146,36.1710887429596],[-86.6663191593678,36.1711344166057],[-86.6663274227523,36.1711496410373],[-86.6655471508293,36.1710583078142],[-86.6654970868823,36.1710524471736],[-86.6654964137071,36.1710523661667],[-86.6655049690337,36.1710201151747],[-86.6655306646973,36.1709147135382]]]},"properties":{"id":"270550","parcel":"08513004800","address":"235 CLIFFDALE RD","owner":"PAPUCHIS, STEVE & CAROL","point":[-86.66585943282607,36.17098170003852]}},{"type":"Feature","id":"270551","geometry":{"type":"Polygon","coordinates":[[[-86.6653492387429,36.1716103940819],[-86.6654277261615,36.171309827454],[-86.6654786054772,36.1711260738583],[-86.6654830688245,36.1711099536484],[-86.6654970868823,36.1710524471736],[-86.6655471508293,36.1710583078142],[-86.6655275049523,36.1711290668093],[-86.6654527234869,36.1713984168785],[-86.6654324376439,36.1714714848016],[-86.6658118155842,36.1714459752783],[-86.6663990770254,36.1714064848842],[-86.6664060131226,36.1715246684614],[-86.6664128880603,36.1716417879842],[-86.6664046699063,36.1716810615949],[-86.6663929920957,36.1717197540659],[-86.6663929780243,36.1717197992066],[-86.6663768579629,36.1717573860208],[-86.6663768416079,36.171757423964],[-86.6663768274306,36.1717574564876],[-86.6663768077259,36.1717574926468],[-86.6663566988625,36.1717938334064],[-86.6660920556836,36.1717830108305],[-86.6653446707538,36.1717524415867],[-86.6653446760023,36.171752272121],[-86.6653492387429,36.1716103940819]]]},"properties":{"id":"270551","parcel":"08513005000","address":"225 CLIFFDALE RD","owner":"BESSEE, HAROLD KENT & ANN AVRIT","point":[-86.66625286524075,36.17142664146288]}},{"type":"Feature","id":"272943","geometry":{"type":"Polygon","coordinates":[[[-86.6692979542852,36.1714795062042],[-86.6690985307456,36.1713347428868],[-86.6694049645946,36.1713528228887],[-86.670099235131,36.1713995159336],[-86.6701839599482,36.1714825563126],[-86.6701919027391,36.1714918429581],[-86.6701978891524,36.1715020489359],[-86.6702017657378,36.1715129047204],[-86.6702034267102,36.1715241251995],[-86.6702028306841,36.1715354167925],[-86.6701999929234,36.1715464810973],[-86.6701949876786,36.1715570283971],[-86.6701879460019,36.1715667821783],[-86.6701790546894,36.1715754854456],[-86.6701685452341,36.1715829088943],[-86.6699367991695,36.1717432497523],[-86.6698913437103,36.1717767062569],[-86.6698482314572,36.1718121433276],[-86.6698075937762,36.1718494529878],[-86.6692979542852,36.1714795062042]]]},"properties":{"id":"272943","parcel":"08513000800","address":"3220 TODDWAY CT","owner":"DONELSON CHURCH OF CHRIST","point":[-86.66980080129245,36.17166238501646]}},{"type":"Feature","id":"272948","geometry":{"type":"Polygon","coordinates":[[[-86.6687093977691,36.1721170606694],[-86.6687787619088,36.1716639608603],[-86.6690902635321,36.1718006879045],[-86.6696493383761,36.1720459135084],[-86.6696212116588,36.1721005218741],[-86.66959674611,36.1721562761527],[-86.6695760137587,36.1722130173251],[-86.6695590732431,36.1722705801374],[-86.6687093977691,36.1721170606694]]]},"properties":{"id":"272948","parcel":"08513001000","address":"3216 TODDWAY CT","owner":"CRAFT, KENNETH E. & SHIRLEY D.","point":[-86.66905456371742,36.17192243009556]}},{"type":"Feature","id":"272954","geometry":{"type":"Polygon","coordinates":[[[-86.6687286476793,36.1731146783686],[-86.6686894981853,36.1729720519026],[-86.6696119206052,36.1727515696706],[-86.6696373540717,36.1728021902332],[-86.6696663694017,36.172851528253],[-86.6696988651627,36.1728994184586],[-86.6697347332748,36.1729456983189],[-86.66977385461,36.1729902134753],[-86.6690778935311,36.1733874505457],[-86.6689633714459,36.1733067727427],[-86.6687286476793,36.1731146783686]]]},"properties":{"id":"272954","parcel":"08513001300","address":"3208 TODDWAY CT","owner":"WHITTINGTON, ALAN D & MUSCATELLO, CHRISTIN JOANNA","point":[-86.66918699358382,36.17305226953462]}},{"type":"Feature","id":"272960","geometry":{"type":"Polygon","coordinates":[[[-86.668403660086,36.173147248314],[-86.6687286476793,36.1731146783686],[-86.6689633714459,36.1733067727427],[-86.6690778935311,36.1733874505457],[-86.6689785167176,36.1734956847525],[-86.6689099909905,36.1737268167078],[-86.6683160609514,36.1736883512154],[-86.6683392322558,36.1735431796187],[-86.6683444311505,36.173516779077],[-86.6683857086181,36.1732682174508],[-86.668403660086,36.173147248314]]]},"properties":{"id":"272960","parcel":"08513001400","address":"2708 A OLD LEBANON PIKE","owner":"METRO GOV'T  WW  WATER & SEWER","point":[-86.66869271733353,36.173440639773034]}},{"type":"Feature","id":"272964","geometry":{"type":"Polygon","coordinates":[[[-86.6682361245455,36.1741744716758],[-86.6683160609514,36.1736883512154],[-86.6689099909905,36.1737268167078],[-86.6689785167176,36.1734956847525],[-86.6690778935311,36.1733874505457],[-86.66977385461,36.1729902134753],[-86.6697904790649,36.1730084591609],[-86.6698093860829,36.173025178963],[-86.6698885996923,36.1730972610426],[-86.6699017351291,36.1731115830644],[-86.6699129030928,36.1731269632679],[-86.6699219742641,36.1731432257246],[-86.6699304321522,36.1731653182285],[-86.6699350179334,36.1731881496253],[-86.6699356411609,36.1732112769975],[-86.6699419478102,36.1732359653516],[-86.6699536649943,36.1732592528594],[-86.669970446771,36.1732805844608],[-86.6699741803382,36.1732837109369],[-86.6699919436903,36.1732985948826],[-86.6700171432118,36.1733135619231],[-86.6700453558316,36.1733243952781],[-86.6700752230059,36.1733305482126],[-86.6701064069188,36.1733322974849],[-86.670137219146,36.1733296542702],[-86.6701669703285,36.1733220726278],[-86.6703129793936,36.173600361291],[-86.6703496258713,36.1740880330377],[-86.6689267458543,36.1741464836656],[-86.6682361245455,36.1741744716758]]]},"properties":{"id":"272964","parcel":"08513001500","address":"3200 TODDWAY CT","owner":"FINCH, MARK, & TERESA","point":[-86.6696250021561,36.17354796763572]}},{"type":"Feature","id":"272968","geometry":{"type":"Polygon","coordinates":[[[-86.6682146939344,36.1713382375919],[-86.6682187854159,36.1713126065372],[-86.6682188777627,36.1713126168411],[-86.6686976343261,36.1713663167622],[-86.6686977834135,36.1713663330601],[-86.6686512735032,36.1716383729012],[-86.6681745454946,36.171584460581],[-86.6682146939344,36.1713382375919]]]},"properties":{"id":"272968","parcel":"08513002000","address":"2602 CRESTWOOD RD","owner":"2602 CRESTWOOD ROAD LLC","point":[-86.66843573066612,36.171475395906995]}},{"type":"Feature","id":"272974","geometry":{"type":"Polygon","coordinates":[[[-86.6681220564173,36.1718939563066],[-86.6681745454946,36.171584460581],[-86.6686512735032,36.1716383729012],[-86.6686022310065,36.171944041024],[-86.6681220564173,36.1718939563066]]]},"properties":{"id":"272974","parcel":"08513002100","address":"2604 CRESTWOOD RD","owner":"MILLER, MARK EDWARD & PAMELA DANIELLA","point":[-86.6683872525818,36.17176616652624]}},{"type":"Feature","id":"272980","geometry":{"type":"Polygon","coordinates":[[[-86.6677651657948,36.1729661808462],[-86.6677098186993,36.172907805105],[-86.667653060841,36.1728503257834],[-86.6679880188783,36.1727144165082],[-86.6684681983479,36.1727645017477],[-86.668421673702,36.1730328715408],[-86.6677651657948,36.1729661808462]]]},"properties":{"id":"272980","parcel":"08513002500","address":"204 CLIFFDALE RD","owner":"RIO GROUP, LLC","point":[-86.66806470446302,36.17288012862918]}},{"type":"Feature","id":"272986","geometry":{"type":"Polygon","coordinates":[[[-86.6681328344654,36.1734959741743],[-86.6679569487936,36.1732090573564],[-86.6683857086181,36.1732682174508],[-86.6683444311505,36.173516779077],[-86.6681328344654,36.1734959741743]]]},"properties":{"id":"272986","parcel":"08513002700","address":"200 CLIFFDALE RD","owner":"PATTON, GARY","point":[-86.66821471929657,36.17338197242704]}},{"type":"Feature","id":"272991","geometry":{"type":"Polygon","coordinates":[[[-86.6669777767443,36.1744187779427],[-86.667394541105,36.173695648031],[-86.6679040880925,36.173369776773],[-86.6680249922431,36.1735646972604],[-86.667564157652,36.173881508732],[-86.6670824169361,36.1746137864773],[-86.6670751134849,36.174578332547],[-86.6670635688658,36.1745436275675],[-86.6670478926048,36.1745100052994],[-86.6670282374641,36.1744777857455],[-86.66700479058,36.1744472788041],[-86.6669777767443,36.1744187779427]]]},"properties":{"id":"272991","parcel":"08513002900","address":"0 CLIFFDALE RD","owner":"PATTON, THOMAS W. ET UX","point":[-86.66726002130552,36.174150113284796]}},{"type":"Feature","id":"273072","geometry":{"type":"Polygon","coordinates":[[[-86.6663146121434,36.1722687556719],[-86.6664711976596,36.1718723165457],[-86.6664708531545,36.1719117647886],[-86.6664736783156,36.1719511477629],[-86.6664739135651,36.1719536141133],[-86.6664719221132,36.1719585694206],[-86.6664792838562,36.1719879224601],[-86.6664895836099,36.1720289341958],[-86.6665036087947,36.1720692142654],[-86.6665212841627,36.172108537768],[-86.6665425089833,36.1721466898574],[-86.6665671681059,36.1721834593716],[-86.6665951253354,36.172218644277],[-86.6666262267449,36.1722520489472],[-86.6666602996082,36.1722834895754],[-86.6666971568398,36.1723127932493],[-86.6663298795365,36.1727961038751],[-86.666083034707,36.1734193966316],[-86.6660615384311,36.1734074518928],[-86.6660424703714,36.1733930486347],[-86.6660262556309,36.1733765080651],[-86.6660132529896,36.1733581959192],[-86.6660037515623,36.1733385215772],[-86.665988430759,36.1733149850003],[-86.6659708822231,36.1732924953583],[-86.6659512149253,36.1732711890404],[-86.6659271036428,36.1732488419478],[-86.6663146121434,36.1722687556719]]]},"properties":{"id":"273072","parcel":"08513003600","address":"217 CLIFFDALE RD","owner":"ROOF, KAREN S. & STEVEN Y.","point":[-86.66635775864773,36.172554014761644]}},{"type":"Feature","id":"273078","geometry":{"type":"Polygon","coordinates":[[[-86.6665693041866,36.1717062548277],[-86.6665558176553,36.1714551202253],[-86.6665531991027,36.1714318668573],[-86.6673642757067,36.1713658390298],[-86.6673444845132,36.1716390671814],[-86.6673309307594,36.1716387599821],[-86.6673244134831,36.1716386121567],[-86.6665693041866,36.1717062548277]]]},"properties":{"id":"273078","parcel":"08513003700","address":"218 CLIFFDALE RD","owner":"NELMS, WILLIAM KENNTH III","point":[-86.66695588409978,36.17154691067068]}},{"type":"Feature","id":"273084","geometry":{"type":"Polygon","coordinates":[[[-86.6665693041866,36.1717062548277],[-86.6673244134831,36.1716386121567],[-86.6673309307594,36.1716387599821],[-86.6673422656918,36.1716697159783],[-86.6674032979322,36.1718363991198],[-86.6666158249411,36.1719879922112],[-86.6666080502922,36.1719498514729],[-86.666605913239,36.1719364155771],[-86.6665693041866,36.1717062548277]]]},"properties":{"id":"273084","parcel":"08513003800","address":"216 CLIFFDALE RD","owner":"SCOTT FAMILY TRUST","point":[-86.6669796732837,36.171771309264855]}},{"type":"Feature","id":"273089","geometry":{"type":"Polygon","coordinates":[[[-86.6635878047471,36.1716134979769],[-86.6636897310121,36.1714854751158],[-86.663870369456,36.1704734123331],[-86.6641267373385,36.1704967785573],[-86.664135912806,36.1704967280717],[-86.6641447733002,36.1704986215338],[-86.6641803255489,36.1705007772951],[-86.6642235410736,36.170502692598],[-86.6640545778394,36.1713582032519],[-86.6639884379966,36.1715519585295],[-86.6637238910791,36.1716808768685],[-86.66368730327,36.1716676700103],[-86.6636522551617,36.1716519572849],[-86.663619006728,36.1716338553292],[-86.6635878047471,36.1716134979769]]]},"properties":{"id":"273089","parcel":"08513005700","address":"110 BENSON RD","owner":"O'ROURKE, RONNA E.","point":[-86.66396401557611,36.17092995682027]}},{"type":"Feature","id":"273254","geometry":{"type":"Polygon","coordinates":[[[-86.6620822084668,36.1711338932364],[-86.6622113142852,36.1703244520794],[-86.6622139393078,36.1703094785649],[-86.6622413660838,36.1703115154464],[-86.6626573266024,36.1703550066169],[-86.6626547038874,36.1703701135152],[-86.6626432044969,36.1704363570668],[-86.6625084068234,36.1712128645477],[-86.6624006986549,36.1711974529137],[-86.6622936843832,36.1711791398263],[-86.6621874809014,36.171157945375],[-86.6620822084668,36.1711338932364]]]},"properties":{"id":"273254","parcel":"08513006100","address":"100 BENSON RD","owner":"WIRSHING, WILLIAM S & WILLIAMS, PATRICE","point":[-86.66236024561323,36.170785118553795]}},{"type":"Feature","id":"273570","geometry":{"type":"Polygon","coordinates":[[[-86.6687093977691,36.1721170606694],[-86.6695590732431,36.1722705801374],[-86.6695489566212,36.1723175946011],[-86.669542452821,36.1723650270356],[-86.6695395892124,36.1724126952351],[-86.6695403764776,36.1724604152837],[-86.6695448108563,36.1725080042464],[-86.6686451945159,36.1725393627802],[-86.6687093977691,36.1721170606694]]]},"properties":{"id":"273570","parcel":"08513001100","address":"3214 TODDWAY CT","owner":"LOBAN, JACOB THOMAS","point":[-86.66911068750463,36.1723401093689]}},{"type":"Feature","id":"273572","geometry":{"type":"Polygon","coordinates":[[[-86.6687787619088,36.1716639608603],[-86.6688310781043,36.171309747048],[-86.6693573525443,36.1713408000499],[-86.6693858297799,36.1709776478642],[-86.6688942988066,36.1709007428193],[-86.6688890352838,36.1708999184944],[-86.6688807966396,36.1708986293833],[-86.6690181422136,36.1699694159157],[-86.6690415465978,36.1699702937977],[-86.6691430114767,36.169973518436],[-86.6692614607469,36.1699760747128],[-86.6693971654691,36.1699804476522],[-86.6694197630024,36.1699870060742],[-86.669441280827,36.1699956253542],[-86.6694614356432,36.1700061908015],[-86.669479960618,36.1700185633002],[-86.6696037665347,36.1701347988609],[-86.6698823998388,36.1703963974109],[-86.6703383220753,36.1708246038082],[-86.670348573985,36.170834602234],[-86.670377514317,36.1708657539918],[-86.6703865376396,36.1708765036789],[-86.67041005229,36.1709077657752],[-86.6704305949127,36.1709403755362],[-86.6704480494508,36.1709741479482],[-86.6704623142433,36.1710088916089],[-86.6704687825957,36.1710279867318],[-86.6704764777743,36.1710565130373],[-86.6704816272916,36.1710851490164],[-86.6704854363138,36.1711139222227],[-86.6704856996219,36.1711182477107],[-86.6704859218194,36.1711225752296],[-86.6704862472978,36.1711312327304],[-86.67048638922,36.1711485550657],[-86.6704860532433,36.1711615449939],[-86.6704846486332,36.1711831677212],[-86.670483792314,36.1711918011437],[-86.6704833052061,36.171196113676],[-86.67048277583,36.1712004228381],[-86.6704827695417,36.1712004679361],[-86.6704820825667,36.1712048059127],[-86.6704805873474,36.1712134690206],[-86.6704761388002,36.1712350365551],[-86.670474076022,36.1712436217021],[-86.6704729850868,36.1712479051431],[-86.6704723118187,36.1712504450292],[-86.6704718496224,36.1712521807201],[-86.6704648074231,36.1712755471562],[-86.6704565012666,36.171298638518],[-86.6704533474584,36.171308339176],[-86.6704499230809,36.1713190381306],[-86.6704455125113,36.1713327356481],[-86.6704400120317,36.1713520225262],[-86.67043950529,36.1713538801344],[-86.6704389573536,36.1713557298601],[-86.6704383804721,36.171357574339],[-86.6704377389932,36.1713594038553],[-86.6704323239955,36.1713719686594],[-86.6704313927988,36.1713737141652],[-86.6704304270385,36.1713754472452],[-86.6704294200226,36.1713771652328],[-86.6704283828967,36.1713788716715],[-86.6704253723999,36.1713836957147],[-86.6704169336582,36.1713924127091],[-86.6704068896627,36.1713999282264],[-86.6703954977904,36.1714060506705],[-86.6703830490759,36.1714106252107],[-86.6703698604238,36.1714135329227],[-86.6703562691268,36.1714146998322],[-86.6703426217581,36.1714140978778],[-86.670099235131,36.1713995159336],[-86.6694049645946,36.1713528228887],[-86.6690985307456,36.1713347428868],[-86.6692979542852,36.1714795062042],[-86.6690902635321,36.1718006879045],[-86.6687787619088,36.1716639608603]]]},"properties":{"id":"273572","parcel":"08513001700","address":"2706 OLD LEBANON PIKE","owner":"DONELSON CHURCH OF CHRIST, TRS.","point":[-86.66963958997113,36.17088758524089]}},{"type":"Feature","id":"273576","geometry":{"type":"Polygon","coordinates":[[[-86.6679880188783,36.1727144165082],[-86.6680344926453,36.1724394553336],[-86.6685119420471,36.1724873573304],[-86.6684681983479,36.1727645017477],[-86.6679880188783,36.1727144165082]]]},"properties":{"id":"273576","parcel":"08513002400","address":"2612 CRESTWOOD RD","owner":"PIARROT, ANN A.","point":[-86.66825061872598,36.17260088897643]}},{"type":"Feature","id":"273579","geometry":{"type":"Polygon","coordinates":[[[-86.6668245517451,36.1742482067866],[-86.6672332226189,36.1735295193572],[-86.6677777831583,36.1731770842082],[-86.6678081707779,36.1732168391891],[-86.6678353850802,36.1732580771671],[-86.6679040880925,36.173369776773],[-86.667394541105,36.173695648031],[-86.6669777767443,36.1744187779427],[-86.6669343853848,36.17437927757],[-86.6668942724901,36.1743375626996],[-86.6668576084994,36.1742938090401],[-86.6668245517451,36.1742482067866]]]},"properties":{"id":"273579","parcel":"08513003000","address":"205 CLIFFDALE RD","owner":"PARKER, DAVID P. ET UX","point":[-86.66710848407295,36.17397192480302]}},{"type":"Feature","id":"273582","geometry":{"type":"Polygon","coordinates":[[[-86.6665479004508,36.1739047056676],[-86.6668999684422,36.1732236917673],[-86.667378665734,36.1727749261134],[-86.6674654798094,36.1728485548697],[-86.6675506759237,36.172923414619],[-86.6675863554966,36.1729562854097],[-86.6676190084481,36.172991162911],[-86.6670747440758,36.173378758368],[-86.6666714197373,36.1740886248742],[-86.6666390511701,36.1740555814213],[-86.6666103151789,36.1740203999393],[-86.6665854262633,36.1739833406112],[-86.666564569046,36.1739446800078],[-86.6665479004508,36.1739047056676]]]},"properties":{"id":"273582","parcel":"08513003200","address":"209 CLIFFDALE RD","owner":"FORIEST, MATTHEW B & BROOKE J","point":[-86.66680459336814,36.173641713589454]}},{"type":"Feature","id":"273614","geometry":{"type":"Polygon","coordinates":[[[-86.6668567726492,36.1722767497785],[-86.6674643847709,36.1720096746385],[-86.6675365551577,36.1722114578598],[-86.6672001439406,36.1724968136234],[-86.6671102219317,36.1724401716694],[-86.6668567726492,36.1722767497785]]]},"properties":{"id":"273614","parcel":"08513004000","address":"212 CLIFFDALE RD","owner":"HOFFMANN, MARY ANN","point":[-86.6672148986776,36.172244154986835]}},{"type":"Feature","id":"273617","geometry":{"type":"Polygon","coordinates":[[[-86.667487008869,36.1711421832343],[-86.6674920381151,36.171107096405],[-86.6682349091835,36.1711087333494],[-86.6682014799166,36.1711275997357],[-86.6681702018898,36.1711487551212],[-86.6681413160613,36.1711720377494],[-86.6681158022969,36.1711977801708],[-86.6680933561523,36.1712253369677],[-86.6680741701333,36.1712544682425],[-86.6680584132912,36.1712849207083],[-86.6680462212417,36.1713164304477],[-86.6680404121501,36.1713376827672],[-86.668036275887,36.171359189897],[-86.6680329458883,36.1713810062029],[-86.6674543996391,36.1713696991979],[-86.667487008869,36.1711421832343]]]},"properties":{"id":"273617","parcel":"08513004500","address":"2603 CRESTWOOD RD","owner":"ARNETTE, RUSTY JOSEPH","point":[-86.66777850449029,36.17123905597708]}},{"type":"Feature","id":"273620","geometry":{"type":"Polygon","coordinates":[[[-86.6653383238904,36.1719653730575],[-86.6653446707538,36.1717524415867],[-86.6660920556836,36.1717830108305],[-86.6663566988625,36.1717938334064],[-86.6663393330355,36.1718412562319],[-86.6663381507314,36.1718444820588],[-86.6663328047554,36.171853301558],[-86.6662744340641,36.1720030634654],[-86.6653383238904,36.1719653730575]]]},"properties":{"id":"273620","parcel":"08513005100","address":"223 CLIFFDALE RD","owner":"KELLUM, MICHELLE M.","point":[-86.66582524160386,36.171909309530264]}},{"type":"Feature","id":"273622","geometry":{"type":"Polygon","coordinates":[[[-86.6637238910791,36.1716808768685],[-86.6639884379966,36.1715519585295],[-86.664131275881,36.1714544765341],[-86.6644088945808,36.1712683472616],[-86.6644955340235,36.171193692131],[-86.6648552130778,36.1704258135279],[-86.6648585295646,36.1704241747942],[-86.6648559742188,36.1704241888697],[-86.66486794494,36.1703986316908],[-86.6648860064864,36.1703885381268],[-86.6649289161821,36.17036735917],[-86.6649701533221,36.1703441002912],[-86.6650095674504,36.1703188470394],[-86.6650410554744,36.1703423163082],[-86.6650053902316,36.1704240263807],[-86.6647425968688,36.1709156746877],[-86.6654812630036,36.171109479628],[-86.6654830688245,36.1711099536484],[-86.6654786054772,36.1711260738583],[-86.6654277261615,36.171309827454],[-86.6653492387429,36.1716103940819],[-86.6653446760023,36.171752272121],[-86.6653230131729,36.1717117789595],[-86.6653056625004,36.1716841869928],[-86.6650678295467,36.1716848658828],[-86.6648789119934,36.1719108818199],[-86.664865080575,36.1719478844209],[-86.6653154967771,36.1721572319744],[-86.6653321918062,36.1721597779386],[-86.6653321707365,36.1721604467893],[-86.6653137703562,36.1727544593817],[-86.6652858320233,36.1727359338654],[-86.6652540956429,36.1727134583256],[-86.6652244196697,36.1726892004472],[-86.6651969585684,36.1726632873592],[-86.6651718490413,36.1726358489926],[-86.6651492234343,36.1726070261171],[-86.6651202775373,36.1725725204732],[-86.6650885066948,36.1725396869029],[-86.6650540600412,36.1725086795988],[-86.6650170954969,36.1724796400879],[-86.6649777853779,36.1724527035087],[-86.6649363074593,36.1724279932534],[-86.6648961852117,36.1724094599596],[-86.6648578519083,36.1723885852402],[-86.6648215152471,36.1723654815116],[-86.6647873730274,36.1723402738625],[-86.6647556086958,36.1723130991771],[-86.6647263946734,36.1722841052156],[-86.6646765494627,36.1722453903117],[-86.6646242924053,36.1722088264552],[-86.6645697643678,36.1721745102034],[-86.6645131139819,36.1721425362685],[-86.664454492018,36.1721129894374],[-86.6643940569888,36.1720859499478],[-86.6643143692888,36.1720481327779],[-86.6642365550181,36.1720078339917],[-86.6641607313816,36.1719651115302],[-86.6640870134357,36.1719200323581],[-86.6640155129088,36.1718726643607],[-86.6639627693889,36.1718290424248],[-86.6639070500667,36.1717879234089],[-86.6638485361391,36.1717494415016],[-86.6637874176033,36.1717137200277],[-86.6637238910791,36.1716808768685]]]},"properties":{"id":"273622","parcel":"08513005400","address":"114 BENSON RD","owner":"FREEMAN, J. BLAKE","point":[-86.66471806014006,36.17150506254462]}},{"type":"Feature","id":"273835","geometry":{"type":"Polygon","coordinates":[[[-86.668249078136,36.1711258734814],[-86.6682520543285,36.1711087781246],[-86.6687363345614,36.1711100309174],[-86.6687312084574,36.171145034521],[-86.6687074160229,36.1713074769788],[-86.6686977834135,36.1713663330601],[-86.6686976343261,36.1713663167622],[-86.6682188777627,36.1713126168411],[-86.6682187854159,36.1713126065372],[-86.6682432613799,36.1711592748411],[-86.668249078136,36.1711258734814]]]},"properties":{"id":"273835","parcel":"08513001900","address":"2600 CRESTWOOD RD","owner":"SHANNON, DORIS","point":[-86.66847485573997,36.171233374797524]}},{"type":"Feature","id":"273836","geometry":{"type":"Polygon","coordinates":[[[-86.6625084068234,36.1712128645477],[-86.6626432044969,36.1704363570668],[-86.6626547038874,36.1703701135152],[-86.6626573266024,36.1703550066169],[-86.6630892556639,36.1704001660892],[-86.6629482322009,36.1713005531047],[-86.6628625960294,36.1712760729453],[-86.6627755857231,36.1712550178477],[-86.662687409554,36.1712374380372],[-86.6625982790604,36.1712233756105],[-86.6625084068234,36.1712128645477]]]},"properties":{"id":"273836","parcel":"08513006000","address":"104 BENSON RD","owner":"MARSHALL, JOHN S. ET UX","point":[-86.66279919308852,36.17082524018064]}},{"type":"Feature","id":"273837","geometry":{"type":"Polygon","coordinates":[[[-86.6680344926453,36.1724394553336],[-86.6680783116835,36.1721711006271],[-86.6685557595046,36.1722190033552],[-86.6685119420471,36.1724873573304],[-86.6680344926453,36.1724394553336]]]},"properties":{"id":"273837","parcel":"08513002300","address":"2608 CRESTWOOD RD","owner":"WELLS, RACHEL J. & JEFF II","point":[-86.66829512640389,36.172329229630904]}},{"type":"Feature","id":"273839","geometry":{"type":"Polygon","coordinates":[[[-86.6679569487936,36.1732090573564],[-86.6679185093985,36.1731543283764],[-86.6678700090869,36.1730902287769],[-86.6678188758258,36.173027489305],[-86.6677651657948,36.1729661808462],[-86.668421673702,36.1730328715408],[-86.668403660086,36.173147248314],[-86.6683857086181,36.1732682174508],[-86.6679569487936,36.1732090573564]]]},"properties":{"id":"273839","parcel":"08513002600","address":"202 CLIFFDALE RD","owner":"STEPHENS, MARGARET K.","point":[-86.668149548547,36.173118774082724]}},{"type":"Feature","id":"273841","geometry":{"type":"Polygon","coordinates":[[[-86.6666714197373,36.1740886248742],[-86.6670747440758,36.173378758368],[-86.6676190084481,36.172991162911],[-86.6676685919968,36.1730445262227],[-86.6677159069833,36.1730992260131],[-86.6677609006397,36.1731552003899],[-86.6677777831583,36.1731770842082],[-86.6672332226189,36.1735295193572],[-86.6668245517451,36.1742482067866],[-86.6667910153424,36.1742054452389],[-86.6667542148894,36.1741644871059],[-86.6667142962613,36.174125494707],[-86.6666714197373,36.1740886248742]]]},"properties":{"id":"273841","parcel":"08513003100","address":"207 CLIFFDALE RD","owner":"EADS, CHRISTOPHER DARRYL","point":[-86.66695225692062,36.17380907227544]}},{"type":"Feature","id":"273857","geometry":{"type":"Polygon","coordinates":[[[-86.6664271286086,36.1737251666019],[-86.6667787721183,36.1729936100256],[-86.6671005070353,36.1725742814371],[-86.6671726975596,36.1726219790666],[-86.6672431603555,36.1726713463239],[-86.6673118361718,36.1727223429827],[-86.667378665734,36.1727749261134],[-86.6668999684422,36.1732236917673],[-86.6665479004508,36.1739047056676],[-86.6665299808552,36.1738662640646],[-86.6665088345764,36.1738289145767],[-86.6664845653795,36.1737928350786],[-86.6664572869875,36.1737581979823],[-86.6664271286086,36.1737251666019]]]},"properties":{"id":"273857","parcel":"08513003300","address":"211 CLIFFDALE RD","owner":"ZHAMBALA HOLDINGS, LLC","point":[-86.6666589993238,36.17347441675944]}},{"type":"Feature","id":"273859","geometry":{"type":"Polygon","coordinates":[[[-86.6662604844297,36.1735700523957],[-86.6665610547716,36.1728893254713],[-86.6669015611004,36.1724457201553],[-86.6670269206377,36.172526341829],[-86.667064741651,36.1725492735655],[-86.6671005070353,36.1725742814371],[-86.6667787721183,36.1729936100256],[-86.6664271286086,36.1737251666019],[-86.6663683028756,36.1736758166522],[-86.6663127062609,36.1736240659187],[-86.6662604844297,36.1735700523957]]]},"properties":{"id":"273859","parcel":"08513003400","address":"213 CLIFFDALE RD","owner":"HOFFMANN, MARY A.","point":[-86.66651398949949,36.173281815794375]}},{"type":"Feature","id":"273861","geometry":{"type":"Polygon","coordinates":[[[-86.666083034707,36.1734193966316],[-86.6663298795365,36.1727961038751],[-86.6666971568398,36.1723127932493],[-86.6667353238354,36.1723389568983],[-86.6669015611004,36.1724457201553],[-86.6665610547716,36.1728893254713],[-86.6662604844297,36.1735700523957],[-86.6662041535716,36.1735176846966],[-86.6661449626171,36.1734674317882],[-86.666083034707,36.1734193966316]]]},"properties":{"id":"273861","parcel":"08513003500","address":"215 CLIFFDALE RD","owner":"HOFFMANN, MARY ANN","point":[-86.66631601334316,36.173154344488324]}},{"type":"Feature","id":"273863","geometry":{"type":"Polygon","coordinates":[[[-86.6666158249411,36.1719879922112],[-86.6674032979322,36.1718363991198],[-86.6674422031702,36.1719504610483],[-86.6674643847709,36.1720096746385],[-86.6668567726492,36.1722767497785],[-86.6668186252418,36.1722527860344],[-86.6667818352847,36.1722265958778],[-86.6667478907048,36.172197989938],[-86.6667170310954,36.1721671723811],[-86.6666894761474,36.1721343601008],[-86.6666654212328,36.1720997863477],[-86.6666450351372,36.1720636953345],[-86.6666284645052,36.1720263422107],[-86.6666158249411,36.1719879922112]]]},"properties":{"id":"273863","parcel":"08513003900","address":"214 CLIFFDALE RD","owner":"MCNALLY, SHANNON MAUREEN","point":[-86.66700801345482,36.17204605191206]}},{"type":"Feature","id":"273865","geometry":{"type":"Polygon","coordinates":[[[-86.6673444845132,36.1716390671814],[-86.6673642757067,36.1713658390298],[-86.6674543996391,36.1713696991979],[-86.6680329458883,36.1713810062029],[-86.668036275887,36.171359189897],[-86.6680404121501,36.1713376827672],[-86.6680462212417,36.1713164304477],[-86.6680286552184,36.1714241795773],[-86.6679908489854,36.171653721631],[-86.6673444845132,36.1716390671814]]]},"properties":{"id":"273865","parcel":"08513004400","address":"2605 CRESTWOOD RD","owner":"COLLINGWOOD, MARK D.","point":[-86.66768157254087,36.171531609999825]}},{"type":"Feature","id":"273867","geometry":{"type":"Polygon","coordinates":[[[-86.665593405867,36.1706622905501],[-86.6656077846907,36.1706150807644],[-86.6656111404166,36.1706154705302],[-86.6660167299041,36.1706626222839],[-86.6660156039232,36.1706665985478],[-86.6660128552577,36.1706781462387],[-86.6660121022358,36.1706820600601],[-86.6660114348831,36.1706859833226],[-86.666010855415,36.1706899151128],[-86.6660103627352,36.1706938572392],[-86.6660099579021,36.1706978033872],[-86.6660098768865,36.1706988781363],[-86.6660094812535,36.1707045825919],[-86.6660094095913,36.1707057122663],[-86.6660092671949,36.1707096713863],[-86.6660092597728,36.1707106411831],[-86.6660092388004,36.1707162210001],[-86.6660092447555,36.1707175926852],[-86.6660093646822,36.170721551259],[-86.6660095724181,36.1707255093484],[-86.6660098667759,36.1707294579472],[-86.6660102500922,36.1707334105614],[-86.6660107211344,36.1707373527777],[-86.6660119231302,36.1707452141459],[-86.666012655165,36.1707491296868],[-86.6660134727028,36.1707530348421],[-86.6660136385994,36.1707537296995],[-86.6660153675462,36.170760804965],[-86.6660164685188,36.1707647085563],[-86.6660227613926,36.1707828919044],[-86.6660260581743,36.1707905605603],[-86.6660398593326,36.1708158584821],[-86.6660503757485,36.1708308163459],[-86.6660622686673,36.1708450257771],[-86.6660744759666,36.1708574904353],[-86.6655536299476,36.1708343170869],[-86.6655503840926,36.1708341727577],[-86.665550334052,36.1708341703298],[-86.6655503006992,36.1708341696124],[-86.6655819118442,36.1707045031616],[-86.665593405867,36.1706622905501]]]},"properties":{"id":"273867","parcel":"08513004700","address":"239 CLIFFDALE RD","owner":"HERNANDEZ, HILDA ANGELICA RODRIGUEZ","point":[-86.66579258310394,36.17073477363106]}},{"type":"Feature","id":"273869","geometry":{"type":"Polygon","coordinates":[[[-86.6655275049523,36.1711290668093],[-86.6655471508293,36.1710583078142],[-86.6663274227523,36.1711496410373],[-86.6663419155053,36.1711789150693],[-86.6663573376667,36.1712149551349],[-86.666370429492,36.1712515965862],[-86.6663811545698,36.1712887395851],[-86.6663845537319,36.1713027687582],[-86.6663914062115,36.1713371428348],[-86.6663962508617,36.1713717406933],[-86.6663990770254,36.1714064848842],[-86.6658118155842,36.1714459752783],[-86.6654324376439,36.1714714848016],[-86.6654527234869,36.1713984168785],[-86.6655275049523,36.1711290668093]]]},"properties":{"id":"273869","parcel":"08513004900","address":"231 CLIFFDALE RD","owner":"LEE, LAURA E.","point":[-86.66593240453643,36.17126893177862]}},{"type":"Feature","id":"273871","geometry":{"type":"Polygon","coordinates":[[[-86.6653321918062,36.1721597779386],[-86.6653383238904,36.1719653730575],[-86.6662744340641,36.1720030634654],[-86.6661762521509,36.1722541357651],[-86.6653321707365,36.1721604467893],[-86.6653321918062,36.1721597779386]]]},"properties":{"id":"273871","parcel":"08513005200","address":"221 CLIFFDALE RD","owner":"DAMRON, JENNIFER G.","point":[-86.66578900842121,36.17208138170189]}},{"type":"Feature","id":"273873","geometry":{"type":"Polygon","coordinates":[[[-86.6653137703562,36.1727544593817],[-86.6653321707365,36.1721604467893],[-86.6661762521509,36.1722541357651],[-86.6663146121434,36.1722687556719],[-86.6659271036428,36.1732488419478],[-86.6658234453739,36.1731702985169],[-86.6657448025926,36.173114677555],[-86.6656682980126,36.1730571286721],[-86.6655940043459,36.1729977064483],[-86.6655219909767,36.1729364663828],[-86.6654523262,36.1728734666853],[-86.6654206139315,36.1728415512642],[-86.6653868891281,36.1728110240533],[-86.6653512414007,36.1727819665715],[-86.6653137703562,36.1727544593817]]]},"properties":{"id":"273873","parcel":"08513005300","address":"219 CLIFFDALE RD","owner":"WEATHERS, KRISTIN LEE","point":[-86.66576974177843,36.172511484505755]}},{"type":"Feature","id":"273875","geometry":{"type":"Polygon","coordinates":[[[-86.6647425968688,36.1709156746877],[-86.6650053902316,36.1704240263807],[-86.6655819118442,36.1707045031616],[-86.6655503006992,36.1708341696124],[-86.6655306646973,36.1709147135382],[-86.6655049690337,36.1710201151747],[-86.6654964137071,36.1710523661667],[-86.6654970868823,36.1710524471736],[-86.6654830688245,36.1711099536484],[-86.6654812630036,36.171109479628],[-86.6647425968688,36.1709156746877]]]},"properties":{"id":"273875","parcel":"08513005500","address":"116 BENSON RD","owner":"FREEMAN, J. BLAKE","point":[-86.66519401791467,36.17076829648639]}},{"type":"Feature","id":"273877","geometry":{"type":"Polygon","coordinates":[[[-86.6640545778394,36.1713582032519],[-86.6642235410736,36.170502692598],[-86.6643067079565,36.1705045871906],[-86.6643898818004,36.1705029316243],[-86.6644728336546,36.1704977307644],[-86.6645209040428,36.1704925614669],[-86.6645691849528,36.1704889051079],[-86.6646204351255,36.1704819671149],[-86.6646727273551,36.1704713777647],[-86.6647239029813,36.1704576662673],[-86.6647736802808,36.1704409062765],[-86.6648217832546,36.1704211912427],[-86.66486794494,36.1703986316908],[-86.6648559742188,36.1704241888697],[-86.6648585295646,36.1704241747942],[-86.6648552130778,36.1704258135279],[-86.6644955340235,36.171193692131],[-86.6644088945808,36.1712683472616],[-86.664131275881,36.1714544765341],[-86.6639884379966,36.1715519585295],[-86.6640545778394,36.1713582032519]]]},"properties":{"id":"273877","parcel":"08513005600","address":"112 BENSON RD","owner":"MENDEZ, LOIS ELIZABETH","point":[-86.66440592229188,36.170849153164625]}},{"type":"Feature","id":"274097","geometry":{"type":"Polygon","coordinates":[[[-86.6629482322009,36.1713005531047],[-86.6630892556639,36.1704001660892],[-86.6634782661397,36.170440836438],[-86.6635201420613,36.1704439327967],[-86.6635184749211,36.1704535268613],[-86.6633426247075,36.1714654068662],[-86.6632101488777,36.171412057445],[-86.663078673554,36.171357101745],[-86.6629482322009,36.1713005531047]]]},"properties":{"id":"274097","parcel":"08513005900","address":"106 BENSON RD","owner":"106 BENSON RD TRUST","point":[-86.66322971672938,36.17087703011186]}},{"type":"Feature","id":"274098","geometry":{"type":"Polygon","coordinates":[[[-86.6689036805809,36.1699674456524],[-86.6689041251422,36.169964405941],[-86.6690181422136,36.1699694159157],[-86.6688807966396,36.1708986293833],[-86.6688890352838,36.1708999184944],[-86.6688942988066,36.1709007428193],[-86.6688310781043,36.171309747048],[-86.6687787619088,36.1716639608603],[-86.6687093977691,36.1721170606694],[-86.6686451945159,36.1725393627802],[-86.6686143398076,36.1727373187622],[-86.6686894981853,36.1729720519026],[-86.6687286476793,36.1731146783686],[-86.668403660086,36.173147248314],[-86.668421673702,36.1730328715408],[-86.6684681983479,36.1727645017477],[-86.6685119420471,36.1724873573304],[-86.6685557595046,36.1722190033552],[-86.6686022310065,36.171944041024],[-86.6686512735032,36.1716383729012],[-86.6686977834135,36.1713663330601],[-86.6687074160229,36.1713074769788],[-86.6687312084574,36.171145034521],[-86.6687363345614,36.1711100309174],[-86.6689036805809,36.1699674456524]]]},"properties":{"id":"274098","parcel":"08513006400","address":"0 OLD LEBANON PIKE","owner":"FINCH, MARK & TERESA","point":[-86.66873855354251,36.17150253014264]}}]}