{"type":"FeatureCollection","features":[{"type":"Feature","id":"27711","geometry":{"type":"Polygon","coordinates":[[[-86.6008651345319,36.1690220683669],[-86.6005200360162,36.1685584363741],[-86.6007987603413,36.1685572322599],[-86.600748995874,36.1684872864796],[-86.6007265690528,36.1684557675942],[-86.600735028135,36.1684543519773],[-86.6007384192348,36.1684528633471],[-86.6007423110792,36.1684511550215],[-86.6007436946855,36.1684505361817],[-86.6007575701822,36.168444858599],[-86.6007582640038,36.1684445955837],[-86.6007620011483,36.1684431547995],[-86.6007720885102,36.1684396708025],[-86.6007844133876,36.1684357493729],[-86.6008102490937,36.1684290758454],[-86.6008220762363,36.1684265060709],[-86.6008317941002,36.1684247218759],[-86.6008408358247,36.1684233339939],[-86.6008515137768,36.1684219550898],[-86.6008520047029,36.1684219066818],[-86.600861632342,36.1684208313214],[-86.6008659323281,36.1684204728452],[-86.6008772307889,36.1684197181246],[-86.6008912824736,36.1684189614125],[-86.6009029141503,36.1684189089121],[-86.6009222123621,36.1684194923816],[-86.6009308737466,36.168420133313],[-86.6009309304662,36.1684201375369],[-86.6009457008901,36.1684215276387],[-86.6009475428997,36.1684217032252],[-86.6009560741013,36.1684227665911],[-86.6009645005804,36.1684240918422],[-86.6009730433225,36.1684255048371],[-86.6009769817719,36.1684262819381],[-86.6009859195356,36.1684280453565],[-86.6009873444208,36.1684283275651],[-86.6010063380185,36.1684330123551],[-86.6010097785949,36.1684339478516],[-86.6010160452008,36.1684356885182],[-86.6010264076563,36.1684388823441],[-86.6010471884879,36.168446489115],[-86.6010522634615,36.1684485123997],[-86.6010568650392,36.1684504037542],[-86.6010646692747,36.1684538103952],[-86.6010700486098,36.1684565414525],[-86.6010781692671,36.168460340366],[-86.6010800704043,36.1684612781192],[-86.6010884774511,36.1684660534694],[-86.601095161223,36.1684695999756],[-86.6010991291468,36.1684719198774],[-86.6011068524578,36.1684766751988],[-86.6011069128055,36.1684767181586],[-86.6011157046404,36.1684824000574],[-86.6011208144913,36.1684860922929],[-86.6011258045266,36.1684896679617],[-86.6011314023306,36.1684939462873],[-86.6011462751221,36.1685062059127],[-86.6011517845562,36.1685112904011],[-86.601151836053,36.1685113388125],[-86.6011577261619,36.1685166404099],[-86.6011714548112,36.1685310489193],[-86.6011834094918,36.1685453130494],[-86.6011888983246,36.168552519197],[-86.601538916114,36.1690201353733],[-86.6015438883208,36.1690269240933],[-86.6008651345319,36.1690220683669]]]},"properties":{"id":"27711","parcel":"09700009800","address":"5801 OLD HICKORY BLVD","owner":"D & K PETROMART, INC.","point":[-86.60102899481343,36.16878928535398]}}]}