{"type":"FeatureCollection","features":[{"type":"Feature","id":"154155","geometry":{"type":"Polygon","coordinates":[[[-86.6404790958797,36.2381831418385],[-86.640506921643,36.2381857394944],[-86.6410056686614,36.2385561351409],[-86.6409734859842,36.2385821363779],[-86.6409392743176,36.2386063792338],[-86.6409031807741,36.2386287583825],[-86.6408653581096,36.2386491783816],[-86.6408200315269,36.2386719354373],[-86.6407727894452,36.2386919727754],[-86.6407238791095,36.2387091854398],[-86.6406735578868,36.2387234819394],[-86.6406220921906,36.2387347887605],[-86.6405697485365,36.2387430450066],[-86.6404790958797,36.2381831418385]]]},"properties":{"id":"154155","parcel":"05316003800","address":"115 RINER DR","owner":"MCCLANAHAN, ANTHONY, SR.","point":[-86.64063283790178,36.23837056681508]}},{"type":"Feature","id":"154577","geometry":{"type":"Polygon","coordinates":[[[-86.6407448883311,36.238847600217],[-86.6407866489794,36.2388366242064],[-86.6408273051213,36.2388231990588],[-86.6408666370683,36.2388073980398],[-86.6409204552941,36.2387842011741],[-86.6409721737198,36.2387580575507],[-86.6410215463658,36.2387290910465],[-86.6410683407128,36.2386974389853],[-86.641112332132,36.2386632512672],[-86.6411234112515,36.2386556400683],[-86.6411358668911,36.238649585217],[-86.641149371038,36.2386452461708],[-86.641163563054,36.2386427374988],[-86.6411780696777,36.238642126071],[-86.6411925072203,36.2386434274424],[-86.641206492712,36.2386466084972],[-86.6412196572219,36.2386515837736],[-86.6412316514788,36.2386582226429],[-86.6413090338465,36.238708230033],[-86.64138904154,36.2387554503153],[-86.6414715191792,36.2387997923832],[-86.6410099556767,36.2394219628686],[-86.6407448883311,36.238847600217]]]},"properties":{"id":"154577","parcel":"05315000800","address":"114 RINER DR","owner":"WALKER, WILLIAM L. ETUX","point":[-86.64104982956785,36.23913529900859]}},{"type":"Feature","id":"154578","geometry":{"type":"Polygon","coordinates":[[[-86.6425704931103,36.2388379037707],[-86.6430305396698,36.2383651718851],[-86.6438828379753,36.2384265599299],[-86.6434518332089,36.2388002489709],[-86.6426658449448,36.2388879417902],[-86.6426506410852,36.2388737731408],[-86.6426331416252,36.2388614651469],[-86.6426136900561,36.2388512584144],[-86.6425926707007,36.2388433527764],[-86.6425704931103,36.2388379037707]]]},"properties":{"id":"154578","parcel":"05315001400","address":"127 RINER CT","owner":"GAMBRELL, ERIN","point":[-86.6432294233105,36.2386120995976]}},{"type":"Feature","id":"154579","geometry":{"type":"Polygon","coordinates":[[[-86.640506921643,36.2381857394944],[-86.6407471326099,36.2382023210827],[-86.6407722395729,36.2382041102642],[-86.6412010951048,36.2382342497752],[-86.6411901128706,36.2382788681489],[-86.6411750691956,36.2383227014655],[-86.6411560466819,36.238365509555],[-86.6411331513081,36.2384070539252],[-86.6411065080385,36.2384471049956],[-86.6410762652656,36.2384854411719],[-86.6410425892696,36.2385218515801],[-86.6410056686614,36.2385561351409],[-86.640506921643,36.2381857394944]]]},"properties":{"id":"154579","parcel":"05315001900","address":"115 RINER DR","owner":"MCCLANAHAN, ANTHONY, SR.","point":[-86.64096003161981,36.238385728004275]}},{"type":"Feature","id":"154583","geometry":{"type":"Polygon","coordinates":[[[-86.6410024843716,36.2374493895269],[-86.6410389431276,36.2370937355006],[-86.6412777548219,36.2371053765307],[-86.6412369674056,36.2374706707606],[-86.6410706849345,36.2374547964816],[-86.6410024843716,36.2374493895269]]]},"properties":{"id":"154583","parcel":"05315002600","address":"669 KINGS WAY DR","owner":"QUINLAN, SCOTT & MELANIE A","point":[-86.64113933180353,36.2372773807483]}},{"type":"Feature","id":"154584","geometry":{"type":"Polygon","coordinates":[[[-86.6417031638953,36.2375063782123],[-86.6417462230975,36.2371287130198],[-86.6419857147246,36.2371406266219],[-86.64196666558,36.2374681688313],[-86.6419395430235,36.2374699568229],[-86.6419131469508,36.2374753206805],[-86.6418859139222,36.2374891597506],[-86.641856620963,36.2374998896602],[-86.6418258082754,36.237507314672],[-86.6417940376661,36.237511296614],[-86.6417618959557,36.2375117638737],[-86.6417299704758,36.2375087079235],[-86.6417031638953,36.2375063782123]]]},"properties":{"id":"154584","parcel":"05315002900","address":"681 KINGS WAY DR","owner":"ELLIOTT, PHILIP T.","point":[-86.64185123403121,36.23730402374179]}},{"type":"Feature","id":"154585","geometry":{"type":"Polygon","coordinates":[[[-86.6420833031484,36.2375090286143],[-86.6424267049954,36.2371624554194],[-86.6425807647049,36.2373857902286],[-86.6421474044326,36.2376781772272],[-86.6421391853943,36.2376625284942],[-86.6421334770216,36.2376461634468],[-86.6421303715529,36.2376293447578],[-86.6421299167863,36.2376123425457],[-86.6421285095399,36.2376060314198],[-86.6421274906666,36.2375847621227],[-86.6421222743138,36.2375638999666],[-86.6421129939153,36.237543985888],[-86.6420998906214,36.2375255368183],[-86.6420833031484,36.2375090286143]]]},"properties":{"id":"154585","parcel":"05315003100","address":"689 KINGS WAY DR","owner":"BRADY, TIFFANY JANIECE & ELMORE, BRENDA J","point":[-86.64231682744413,36.23744736422072]}},{"type":"Feature","id":"154599","geometry":{"type":"Polygon","coordinates":[[[-86.641385717019,36.2377923778345],[-86.6413721869769,36.2377651672796],[-86.6413623643865,36.2377369312547],[-86.6413563665164,36.237708001696],[-86.6413542617237,36.2376787153057],[-86.6413560761576,36.2376494171207],[-86.6413610584194,36.2376373780194],[-86.6413682194054,36.2376260834928],[-86.6413773976485,36.2376157894491],[-86.6413883825737,36.2376067322299],[-86.6414009244156,36.2375991168413],[-86.6414147375486,36.2375931160355],[-86.6414295082519,36.2375888675651],[-86.6415771356063,36.237598273979],[-86.6417243576192,36.2376112008135],[-86.6417817831628,36.2376260041718],[-86.641702268549,36.2378566244205],[-86.641385717019,36.2377923778345]]]},"properties":{"id":"154599","parcel":"05315003900","address":"668 KINGS WAY DR","owner":"CLAY, GLENN & ELLA","point":[-86.64155374412518,36.237723048986545]}},{"type":"Feature","id":"154600","geometry":{"type":"Polygon","coordinates":[[[-86.6417493819548,36.238273092051],[-86.6413679256589,36.2378985060735],[-86.6414326518207,36.2378517385652],[-86.6414149210842,36.2378330688554],[-86.6413992368163,36.2378132328858],[-86.641385717019,36.2377923778345],[-86.641702268549,36.2378566244205],[-86.6417388461477,36.2380187770874],[-86.6417975601915,36.2382764077312],[-86.6417493819548,36.238273092051]]]},"properties":{"id":"154600","parcel":"05315004000","address":"705 CROWN CT","owner":"BANKS, TARA LAYMAN & WILLIAMS, DAVID","point":[-86.64169367659575,36.23814578353032]}},{"type":"Feature","id":"154601","geometry":{"type":"Polygon","coordinates":[[[-86.6413720971935,36.2382465272032],[-86.6412010951048,36.2382342497752],[-86.6412583837619,36.237896615479],[-86.6412740892292,36.2378991312923],[-86.6412891097738,36.2379036190511],[-86.6413030707019,36.2379099680895],[-86.6413156213924,36.2379180180456],[-86.641326452071,36.2379275695876],[-86.6413679256589,36.2378985060735],[-86.6417493819548,36.238273092051],[-86.6413720971935,36.2382465272032]]]},"properties":{"id":"154601","parcel":"05315004100","address":"709 CROWN CT","owner":"DEMONBREUN, GARY W. & TAMMY J.","point":[-86.64139084686508,36.238081290650186]}},{"type":"Feature","id":"154602","geometry":{"type":"Polygon","coordinates":[[[-86.6408391591898,36.2375475000047],[-86.6408564551203,36.2375477741583],[-86.6409168201251,36.2375487354836],[-86.6410213434867,36.2375557684627],[-86.6411254980697,36.23756575848],[-86.6411396108765,36.237566135104],[-86.6411534680442,36.2375683290851],[-86.6411667164619,36.2375722846181],[-86.6411790171158,36.2375779007609],[-86.6411900551231,36.2375850340851],[-86.641199547541,36.2375935013382],[-86.6412072534369,36.2376030866003],[-86.6412129728051,36.2376135448943],[-86.6412165610797,36.2376246084176],[-86.6412179258485,36.2376359928686],[-86.641217033615,36.2376474082253],[-86.6412135636428,36.2376746315246],[-86.6412064063364,36.2377013778106],[-86.6411956502819,36.2377273212644],[-86.6411814252992,36.2377521448602],[-86.6411639058164,36.2377755448538],[-86.6411433064561,36.2377972353123],[-86.6408093205771,36.2378413107522],[-86.6408391591898,36.2375475000047]]]},"properties":{"id":"154602","parcel":"05315004400","address":"700 CROWN CT","owner":"MANSON, MATTHEW B.","point":[-86.64101749612284,36.23768742726854]}},{"type":"Feature","id":"154604","geometry":{"type":"Polygon","coordinates":[[[-86.6445269101259,36.2406255467014],[-86.6434093139782,36.2402917071686],[-86.6429556467728,36.2401570121231],[-86.6421267450289,36.2399516847775],[-86.6425251681202,36.2396051048364],[-86.6426302319301,36.2395144444141],[-86.6429103882978,36.2392712183796],[-86.6434518332089,36.2388002489709],[-86.6438828379753,36.2384265599299],[-86.6430305396698,36.2383651718851],[-86.6426573256295,36.238338863357],[-86.6428185591516,36.2381501119826],[-86.6428991912088,36.2380576580258],[-86.6428638188144,36.2378353404996],[-86.6428488065987,36.2377403745292],[-86.6427031290369,36.2375477611749],[-86.6425807647049,36.2373857902286],[-86.6424267049954,36.2371624554194],[-86.6444064795439,36.2373486080309],[-86.6446797449619,36.237929218044],[-86.6450944967394,36.2379670642338],[-86.6454256190098,36.2382407890318],[-86.6454381340876,36.2383177891547],[-86.6458906762264,36.2382020799129],[-86.6463373518219,36.2384254664562],[-86.6465524266458,36.2387448980966],[-86.6468084017517,36.2389048149945],[-86.6468095543879,36.2391808239945],[-86.6466903171046,36.2394140574617],[-86.6461718005273,36.2393394189155],[-86.6457683820017,36.2402949397895],[-86.6457586125962,36.2402894448693],[-86.6457968187085,36.2405244357671],[-86.6457971079988,36.2405262150733],[-86.6456592951723,36.2404429253517],[-86.6457114886456,36.2409957299821],[-86.6457172512042,36.2410369309616],[-86.6451261631349,36.2410157967204],[-86.644989711973,36.240977777325],[-86.6445269101259,36.2406255467014]]]},"properties":{"id":"154604","parcel":"05315004700","address":"0 RAY AVE","owner":"STATE OF TENN","point":[-86.64499715227741,36.23903745710431]}},{"type":"Feature","id":"154786","geometry":{"type":"Polygon","coordinates":[[[-86.6415934793603,36.2394562244592],[-86.6418388785126,36.23894068527],[-86.6419111826969,36.23895892526],[-86.6419842593898,36.2389750152459],[-86.6420580127241,36.2389889323036],[-86.6421323446437,36.2390006580268],[-86.6419924364934,36.239478279018],[-86.6415934793603,36.2394562244592]]]},"properties":{"id":"154786","parcel":"05315001000","address":"118 RINER CT","owner":"WOODLIEF, JERRY LYNN ETUX","point":[-86.64188378902351,36.239228504045]}},{"type":"Feature","id":"154787","geometry":{"type":"Polygon","coordinates":[[[-86.6426644509341,36.2390505710111],[-86.6426793276392,36.239032337264],[-86.6426903076347,36.239012373133],[-86.6426970938135,36.2389912191421],[-86.6426995028183,36.2389694494571],[-86.6426974682474,36.2389476556458],[-86.6426910449504,36.2389264277293],[-86.6426804078134,36.2389063415713],[-86.6426658449448,36.2388879417902],[-86.6434518332089,36.2388002489709],[-86.6429103882978,36.2392712183796],[-86.6426644509341,36.2390505710111]]]},"properties":{"id":"154787","parcel":"05315001300","address":"127 RINER CT","owner":"GAMBRELL, ERIN","point":[-86.64292235298112,36.239042201928]}},{"type":"Feature","id":"154788","geometry":{"type":"Polygon","coordinates":[[[-86.6414647246404,36.2386306140757],[-86.6417493819548,36.238273092051],[-86.6417975601915,36.2382764077312],[-86.6418342022606,36.2382789600468],[-86.6420452351676,36.2382934959438],[-86.641824091165,36.2387891299663],[-86.6417488430273,36.2387627285995],[-86.6416751349552,36.2387336152814],[-86.6416031164986,36.2387018478015],[-86.6415329317025,36.2386674911884],[-86.6414647246404,36.2386306140757]]]},"properties":{"id":"154788","parcel":"05315001700","address":"119 RINER CT","owner":"PEARCE, RAY MARTIN & JULIE MARIE","point":[-86.64178452101595,36.23846214381759]}},{"type":"Feature","id":"154790","geometry":{"type":"Polygon","coordinates":[[[-86.6421474044326,36.2376781772272],[-86.6425807647049,36.2373857902286],[-86.6427031290369,36.2375477611749],[-86.6423767825219,36.2377807934164],[-86.642354544834,36.2377684375741],[-86.6423301732867,36.2377590906034],[-86.6423042827574,36.2377529862605],[-86.6422775242055,36.2377502806033],[-86.6422544035637,36.2377470310769],[-86.6422320893053,36.2377411501398],[-86.6422110340866,36.2377327588559],[-86.6421916653639,36.2377220261896],[-86.6421743787332,36.237709170843],[-86.6421595245298,36.2376944550186],[-86.6421474044326,36.2376781772272]]]},"properties":{"id":"154790","parcel":"05315003200","address":"693 KINGS WAY DR","owner":"CRUM, AVERY RUSSELL","point":[-86.64242794181834,36.23761297751963]}},{"type":"Feature","id":"154791","geometry":{"type":"Polygon","coordinates":[[[-86.6423767825219,36.2377807934164],[-86.6427031290369,36.2375477611749],[-86.6428488065987,36.2377403745292],[-86.6428638188144,36.2378353404996],[-86.6424388719509,36.2378689165159],[-86.6424333853814,36.2378486308036],[-86.6424241826015,36.2378292480698],[-86.6424114752491,36.2378112124018],[-86.6423955536969,36.2377949368255],[-86.6423767825219,36.2377807934164]]]},"properties":{"id":"154791","parcel":"05315003300","address":"697 KINGS WAY DR","owner":"DODSON, TIMOTHY & DEANNE LIVING TRUST","point":[-86.64267254550843,36.23764375903645]}},{"type":"Feature","id":"154792","geometry":{"type":"Polygon","coordinates":[[[-86.6424108451783,36.2379671332688],[-86.6424235855612,36.2379492894284],[-86.6424329231351,36.2379301136221],[-86.6424386544113,36.2379100296152],[-86.6424406517012,36.2378894796956],[-86.6424388719509,36.2378689165159],[-86.6428638188144,36.2378353404996],[-86.6428991912088,36.2380576580258],[-86.6428185591516,36.2381501119826],[-86.6424108451783,36.2379671332688]]]},"properties":{"id":"154792","parcel":"05315003400","address":"688 KINGS WAY DR","owner":"RUELLE, EMMA SHARON & JONATHAN ASPEN","point":[-86.64270142048858,36.2380125344806]}},{"type":"Feature","id":"154807","geometry":{"type":"Polygon","coordinates":[[[-86.641702268549,36.2378566244205],[-86.6417817831628,36.2376260041718],[-86.6418347579235,36.2376427670167],[-86.6418864388542,36.2376620007079],[-86.6419366496448,36.2376836385907],[-86.6419852194958,36.2377076076728],[-86.6420121635648,36.2377277307074],[-86.6420360730746,36.2377502284128],[-86.642056633011,36.2377748041541],[-86.6417388461477,36.2380187770874],[-86.641702268549,36.2378566244205]]]},"properties":{"id":"154807","parcel":"05315003800","address":"672 KINGS WAY DR","owner":"COCHRAN, ROBERT J. & SUSANNA J.","point":[-86.64185970321361,36.237815655307784]}},{"type":"Feature","id":"156142","geometry":{"type":"Polygon","coordinates":[[[-86.6408093205771,36.2378413107522],[-86.6411433064561,36.2377972353123],[-86.641123480745,36.2378141694143],[-86.6411018606087,36.2378295953447],[-86.641128318385,36.2378560532791],[-86.6411558582596,36.23788177636],[-86.6407722395729,36.2382041102642],[-86.6408093205771,36.2378413107522]]]},"properties":{"id":"156142","parcel":"05315004300","address":"704 CROWN CT","owner":"HARMS, IAN L.","point":[-86.64087640761694,36.238042680433104]}},{"type":"Feature","id":"156314","geometry":{"type":"Polygon","coordinates":[[[-86.6401464933905,36.2387348476363],[-86.6402069743611,36.2381620567929],[-86.6403023193238,36.2381695175578],[-86.6404790958797,36.2381831418385],[-86.6405697485365,36.2387430450066],[-86.6405208060609,36.2387477512323],[-86.6404716067729,36.2387501390043],[-86.6404223208179,36.2387501993094],[-86.640373113972,36.2387479330711],[-86.6402596605148,36.2387430188074],[-86.6401464933905,36.2387348476363]]]},"properties":{"id":"156314","parcel":"05316003900","address":"113 RINER DR","owner":"REIMER, JEFFREY A. & MARIETTA JO","point":[-86.64034976274782,36.23845910599496]}},{"type":"Feature","id":"156315","geometry":{"type":"Polygon","coordinates":[[[-86.639799719622,36.238707569142],[-86.6398636148583,36.2381375028747],[-86.639908741486,36.2381408372729],[-86.6402069743611,36.2381620567929],[-86.6401464933905,36.2387348476363],[-86.639799719622,36.238707569142]]]},"properties":{"id":"156315","parcel":"05316004000","address":"111 RINER DR","owner":"BLACKBURN, TIMOTHY JOEL ETUX","point":[-86.64000423413596,36.23843481581816]}},{"type":"Feature","id":"156606","geometry":{"type":"Polygon","coordinates":[[[-86.640506921643,36.2381857394944],[-86.6404790958797,36.2381831418385],[-86.6403023193238,36.2381695175578],[-86.6403366272192,36.237841070201],[-86.6403514312146,36.2378429969941],[-86.6403656751198,36.2378467896206],[-86.6403790032851,36.2378523535332],[-86.6403910830582,36.2378595490005],[-86.6404016126147,36.2378681964734],[-86.6404414033317,36.237840789669],[-86.6407471326099,36.2382023210827],[-86.640506921643,36.2381857394944]]]},"properties":{"id":"156606","parcel":"05316017300","address":"509 WILMA CT","owner":"MCCAIN, KIMBERLY","point":[-86.64045533219189,36.238019167705104]}},{"type":"Feature","id":"156607","geometry":{"type":"Polygon","coordinates":[[[-86.6399581079845,36.2374936591702],[-86.640210178775,36.2375090803775],[-86.6402243331122,36.2375103310927],[-86.640238056089,36.2375134082054],[-86.6402509899562,36.2375182325],[-86.6402627977298,36.2375246786878],[-86.6402731732245,36.2375325780571],[-86.6402818466743,36.2375417256537],[-86.6402885925487,36.2375518838443],[-86.6402932351585,36.2375627876941],[-86.6402956531857,36.2375741548565],[-86.6402957852754,36.2375856891483],[-86.6402936267852,36.2375970913817],[-86.6402869372066,36.2376251743783],[-86.6402767743891,36.2376525656042],[-86.6402632417415,36.2376789833229],[-86.6402464794636,36.2377041555167],[-86.6402266579085,36.2377278244275],[-86.6402039831523,36.2377497474291],[-86.6399347183149,36.2377882601625],[-86.6399581079845,36.2374936591702]]]},"properties":{"id":"156607","parcel":"05316017600","address":"638 KINGS WAY DR","owner":"DILLARD, GARY","point":[-86.64011425746362,36.237638365972636]}},{"type":"Feature","id":"156963","geometry":{"type":"Polygon","coordinates":[[[-86.6405091893272,36.2374171197946],[-86.6405399533107,36.2370697370756],[-86.6408008078521,36.2370820886083],[-86.6407653281799,36.2374327922519],[-86.6405091893272,36.2374171197946]]]},"properties":{"id":"156963","parcel":"05316019800","address":"661 KINGS WAY DR","owner":"WAYNICK, JAMES DOUGLAS & THERESA ANN","point":[-86.64065394046872,36.237249601115415]}},{"type":"Feature","id":"157113","geometry":{"type":"Polygon","coordinates":[[[-86.639870067369,36.2393571338907],[-86.639906713118,36.2388558893246],[-86.6403579557343,36.2388864621123],[-86.6404393791173,36.2388915217555],[-86.6404352665927,36.2393898497554],[-86.639870067369,36.2393571338907]]]},"properties":{"id":"157113","parcel":"05316003600","address":"110 RINER DR","owner":"SOCARRAS, YUNIER NAPOLES & ZABALA, GASTON","point":[-86.64016229871874,36.23912435095309]}},{"type":"Feature","id":"157115","geometry":{"type":"Polygon","coordinates":[[[-86.6404352665927,36.2393898497554],[-86.6404393791173,36.2388915217555],[-86.6405015342974,36.2388885191562],[-86.6405633710999,36.2388826008949],[-86.6406246794149,36.2388737870122],[-86.6406852536631,36.2388621074389],[-86.6407448883311,36.238847600217],[-86.6410099556767,36.2394219628686],[-86.6404352665927,36.2393898497554]]]},"properties":{"id":"157115","parcel":"05316003700","address":"112 RINER DR","owner":"WAYNICK PROPERTY INVESTMENTS, LLC","point":[-86.64065904189233,36.23914135189872]}},{"type":"Feature","id":"157304","geometry":{"type":"Polygon","coordinates":[[[-86.641824091165,36.2387891299663],[-86.6420452351676,36.2382934959438],[-86.6423333035659,36.2383155888755],[-86.642419826019,36.2383222711451],[-86.6424837242761,36.2388427606104],[-86.642469437208,36.2388465812492],[-86.6424558457256,36.2388518077288],[-86.6424431594417,36.2388583596256],[-86.6424238941936,36.2388682603709],[-86.6424030250093,36.238875728179],[-86.6423810155786,36.2388805974588],[-86.6423583578639,36.2388827592475],[-86.6423355543364,36.2388821658109],[-86.6423131135187,36.2388788297663],[-86.642229707664,36.2388718649839],[-86.6421468096386,36.2388616664942],[-86.6420646110153,36.2388482603173],[-86.6419833000507,36.2388316751953],[-86.6419030650816,36.2388119497838],[-86.641824091165,36.2387891299663]]]},"properties":{"id":"157304","parcel":"05315001600","address":"123 RINER CT","owner":"RANSOM, JANE G. & ARTHUR R., SR.","point":[-86.64218855254934,36.238555900114044]}},{"type":"Feature","id":"157307","geometry":{"type":"Polygon","coordinates":[[[-86.6413720971935,36.2382465272032],[-86.6417493819548,36.238273092051],[-86.6414647246404,36.2386306140757],[-86.6414118660374,36.2385999533103],[-86.6413609232478,36.2385672338292],[-86.6413120181654,36.2385325333954],[-86.6413028662601,36.2385243671622],[-86.6412953835407,36.2385151529363],[-86.6412897509062,36.238505111463],[-86.6412861038119,36.2384944844575],[-86.641284528889,36.2384835292153],[-86.6412850671938,36.2384725077796],[-86.6412877019714,36.2384616870068],[-86.6412923719102,36.2384513267799],[-86.6413138638523,36.2384119221672],[-86.6413326361875,36.2383716154251],[-86.6413486309578,36.2383305303327],[-86.6413617968879,36.2382887915345],[-86.6413720971935,36.2382465272032]]]},"properties":{"id":"157307","parcel":"05315001800","address":"119 RINER CT","owner":"PEARCE, RAY MARTIN & JULIE MARIE","point":[-86.64146275783587,36.23843210298267]}},{"type":"Feature","id":"157309","geometry":{"type":"Polygon","coordinates":[[[-86.6412369674056,36.2374706707606],[-86.6412777548219,36.2371053765307],[-86.641510462665,36.2371170540084],[-86.6414704093411,36.2374892100829],[-86.6412946565104,36.237476133383],[-86.6412369674056,36.2374706707606]]]},"properties":{"id":"157309","parcel":"05315002700","address":"673 KINGS WAY DR","owner":"LYNN, GARY A.","point":[-86.64137407205385,36.2372938635362]}},{"type":"Feature","id":"157311","geometry":{"type":"Polygon","coordinates":[[[-86.64196666558,36.2374681688313],[-86.6419857147246,36.2371406266219],[-86.6424267049954,36.2371624554194],[-86.6420833031484,36.2375090286143],[-86.6420637901293,36.2374950305939],[-86.6420417967211,36.2374836999098],[-86.6420178747839,36.2374753193214],[-86.6419926200907,36.2374700992558],[-86.64196666558,36.2374681688313]]]},"properties":{"id":"157311","parcel":"05315003000","address":"685 KINGS WAY DR","owner":"THURMAN, EDWARD M. & MISTY","point":[-86.64212530453833,36.237315098858055]}},{"type":"Feature","id":"157338","geometry":{"type":"Polygon","coordinates":[[[-86.6420452351676,36.2382934959438],[-86.6418342022606,36.2382789600468],[-86.642121528738,36.2379582332267],[-86.6421349504036,36.2379742247163],[-86.6421509741354,36.2379885585083],[-86.6421692917614,36.2380009586576],[-86.6421895497972,36.2380111864104],[-86.6422113606148,36.2380190455534],[-86.6422343035771,36.2380243851107],[-86.6423333035659,36.2383155888755],[-86.6420452351676,36.2382934959438]]]},"properties":{"id":"157338","parcel":"05315003600","address":"680 KINGS WAY DR","owner":"ADAIR, JOHNNY","point":[-86.6421131445693,36.23815190876369]}},{"type":"Feature","id":"157339","geometry":{"type":"Polygon","coordinates":[[[-86.6417975601915,36.2382764077312],[-86.6417388461477,36.2380187770874],[-86.642056633011,36.2377748041541],[-86.6420725078955,36.2377993381006],[-86.642084983174,36.2378251302221],[-86.6420939117001,36.2378518694724],[-86.642099187436,36.2378792382774],[-86.6420992014346,36.2378997856119],[-86.642103000509,36.2379201019377],[-86.64211049864,36.2379397307821],[-86.642121528738,36.2379582332267],[-86.6418342022606,36.2382789600468],[-86.6417975601915,36.2382764077312]]]},"properties":{"id":"157339","parcel":"05315003700","address":"676 KINGS WAY DR","owner":"DABNEY, MARION & STEVIE","point":[-86.6418598007691,36.238147866640105]}},{"type":"Feature","id":"157459","geometry":{"type":"Polygon","coordinates":[[[-86.6402069743611,36.2381620567929],[-86.639908741486,36.2381408372729],[-86.640224943184,36.2378254551027],[-86.6402628746231,36.2378620643873],[-86.6402754537276,36.2378539478291],[-86.6402895248436,36.237847641166],[-86.6403046978083,36.2378433222077],[-86.6403205452831,36.2378411112812],[-86.6403366272192,36.237841070201],[-86.6403023193238,36.2381695175578],[-86.6402069743611,36.2381620567929]]]},"properties":{"id":"157459","parcel":"05316017400","address":"508 WILMA CT","owner":"CHRISTIAN, DAVID SR M & JENNIFER L","point":[-86.64018420192458,36.23800174691665]}},{"type":"Feature","id":"157637","geometry":{"type":"Polygon","coordinates":[[[-86.6404822139177,36.237771623822],[-86.6404635893876,36.2377454306409],[-86.6404488547518,36.237717658588],[-86.6404382122074,36.2376886869169],[-86.6404318050928,36.2376589078099],[-86.6404297201201,36.2376287272681],[-86.6404319872954,36.2375985551975],[-86.6404342164055,36.2375859818742],[-86.6404389523702,36.2375738720179],[-86.6404460665552,36.2375625525597],[-86.6404553689528,36.2375523273238],[-86.6404666092429,36.2375434707131],[-86.6404794845229,36.2375362204581],[-86.6404936503951,36.2375307730525],[-86.6405087231114,36.2375272738279],[-86.6408391591898,36.2375475000047],[-86.6408093205771,36.2378413107522],[-86.6404822139177,36.237771623822]]]},"properties":{"id":"157637","parcel":"05316017100","address":"642 KINGS WAY DR","owner":"ELKINS, JEFFREY LEE, JR.","point":[-86.640630611057,36.23767438505181]}},{"type":"Feature","id":"157639","geometry":{"type":"Polygon","coordinates":[[[-86.6407471326099,36.2382023210827],[-86.6404414033317,36.237840789669],[-86.6405054747026,36.2377967731151],[-86.6404822139177,36.237771623822],[-86.6408093205771,36.2378413107522],[-86.6407722395729,36.2382041102642],[-86.6407471326099,36.2382023210827]]]},"properties":{"id":"157639","parcel":"05316017200","address":"505 WILMA CT","owner":"RIVAS, CHRISTOPHER D. & MARGARET MARY","point":[-86.64069255272754,36.238021850682586]}},{"type":"Feature","id":"157887","geometry":{"type":"Polygon","coordinates":[[[-86.6390038313872,36.2393342489994],[-86.6390022616296,36.2393078860863],[-86.6394921404631,36.2393355107663],[-86.639870067369,36.2393571338907],[-86.6404352665927,36.2393898497554],[-86.6410099556767,36.2394219628686],[-86.6415934793603,36.2394562244592],[-86.6419924364934,36.239478279018],[-86.6423615361683,36.2394982928929],[-86.6426302319301,36.2395144444141],[-86.6425251681202,36.2396051048364],[-86.6408720549446,36.2394776350499],[-86.6390038313872,36.2393342489994]]]},"properties":{"id":"157887","parcel":"05315000701","address":"0 RIFLE RANGE RD","owner":"METRO GOV'T","point":[-86.64124338346502,36.23946560519992]}},{"type":"Feature","id":"157889","geometry":{"type":"Polygon","coordinates":[[[-86.6410099556767,36.2394219628686],[-86.6414715191792,36.2387997923832],[-86.6415422454462,36.238832448217],[-86.6416144492156,36.2388629079483],[-86.6416880266589,36.2388911270639],[-86.6417628717516,36.2389170646674],[-86.6418388785126,36.23894068527],[-86.6415934793603,36.2394562244592],[-86.6410099556767,36.2394219628686]]]},"properties":{"id":"157889","parcel":"05315000900","address":"116 RINER CT","owner":"DRASSLER, MICHAEL & STEPHEN JOSEPH","point":[-86.64145645319901,36.239181420806524]}},{"type":"Feature","id":"157891","geometry":{"type":"Polygon","coordinates":[[[-86.6419924364934,36.239478279018],[-86.6421323446437,36.2390006580268],[-86.6422217822211,36.2390100385838],[-86.64231152183,36.239017286033],[-86.6423316729224,36.2390183991736],[-86.642351329276,36.2390221618874],[-86.6423699638491,36.239028472433],[-86.6423870768633,36.2390371613314],[-86.6424022114221,36.2390479966899],[-86.6424149591021,36.2390606877776],[-86.642435848817,36.2390757923507],[-86.6424585923901,36.2390890241954],[-86.6423615361683,36.2394982928929],[-86.6419924364934,36.239478279018]]]},"properties":{"id":"157891","parcel":"05315001100","address":"120 RINER CT","owner":"MCGEE, JAMES DALTON","point":[-86.64223095372247,36.239283668103965]}},{"type":"Feature","id":"157893","geometry":{"type":"Polygon","coordinates":[[[-86.6423615361683,36.2394982928929],[-86.6424585923901,36.2390890241954],[-86.6424824958705,36.2390964341567],[-86.6425074988462,36.2391008641691],[-86.6425330386784,36.2391022135817],[-86.6425585399482,36.2391004521087],[-86.6425834289187,36.2390956197528],[-86.6426071446457,36.2390878249434],[-86.6426291545452,36.2390772435525],[-86.6426489621368,36.239064113446],[-86.6426644509341,36.2390505710111],[-86.6429103882978,36.2392712183796],[-86.6426302319301,36.2395144444141],[-86.6423615361683,36.2394982928929]]]},"properties":{"id":"157893","parcel":"05315001200","address":"122 RINER CT","owner":"WAYNICK, MARK","point":[-86.64258387793423,36.239384600366925]}},{"type":"Feature","id":"157895","geometry":{"type":"Polygon","coordinates":[[[-86.642419826019,36.2383222711451],[-86.6426573256295,36.238338863357],[-86.6430305396698,36.2383651718851],[-86.6425704931103,36.2388379037707],[-86.642548687358,36.2388359180567],[-86.6425267454259,36.2388360726102],[-86.6425049854693,36.2388383648379],[-86.6424837242761,36.2388427606104],[-86.642419826019,36.2383222711451]]]},"properties":{"id":"157895","parcel":"05315001500","address":"127 RINER CT","owner":"FOLEY, MICHAEL D & KIMBERLY M","point":[-86.64262765709717,36.2386000615617]}},{"type":"Feature","id":"157901","geometry":{"type":"Polygon","coordinates":[[[-86.6414704093411,36.2374892100829],[-86.641510462665,36.2371170540084],[-86.6417462230975,36.2371287130198],[-86.6417031638953,36.2375063782123],[-86.6414704093411,36.2374892100829]]]},"properties":{"id":"157901","parcel":"05315002800","address":"677 KINGS WAY DR","owner":"ITALIANO, BRENDA G.","point":[-86.64160773951345,36.23730895990684]}},{"type":"Feature","id":"157931","geometry":{"type":"Polygon","coordinates":[[[-86.642419826019,36.2383222711451],[-86.6423333035659,36.2383155888755],[-86.6422343035771,36.2380243851107],[-86.6422592509792,36.2380270796781],[-86.6422844156339,36.2380267917779],[-86.6423092591405,36.2380235278775],[-86.6423332480595,36.2380173575053],[-86.6423558650443,36.2380084140926],[-86.6423766254774,36.2379968885766],[-86.6423950841455,36.2379830293646],[-86.6424108451783,36.2379671332688],[-86.6428185591516,36.2381501119826],[-86.6426573256295,36.238338863357],[-86.642419826019,36.2383222711451]]]},"properties":{"id":"157931","parcel":"05315003500","address":"684 KINGS WAY DR","owner":"DICKERSON, AMANDA","point":[-86.64252617256793,36.23823270201429]}},{"type":"Feature","id":"157933","geometry":{"type":"Polygon","coordinates":[[[-86.6407722395729,36.2382041102642],[-86.6411558582596,36.23788177636],[-86.6411893281933,36.2379112657929],[-86.6412017626373,36.2379050812665],[-86.6412151841302,36.2379004425366],[-86.641229298653,36.2378974475964],[-86.6412438030323,36.2378961629443],[-86.6412583837619,36.237896615479],[-86.6412010951048,36.2382342497752],[-86.6407722395729,36.2382041102642]]]},"properties":{"id":"157933","parcel":"05315004200","address":"708 CROWN CT","owner":"LANE, MICHAEL C. & ROBYN J.","point":[-86.64108877469826,36.23805801222029]}},{"type":"Feature","id":"158258","geometry":{"type":"Polygon","coordinates":[[[-86.6400359319154,36.2373883117096],[-86.6400660670453,36.2370472510571],[-86.6403031809013,36.237058630833],[-86.6402723903743,36.237402716886],[-86.6400359319154,36.2373883117096]]]},"properties":{"id":"158258","parcel":"05316019600","address":"653 KINGS WAY DR","owner":"WHITTLE, KIMBERLY MICHELLE","point":[-86.64016946330533,36.23722347106891]}},{"type":"Feature","id":"159607","geometry":{"type":"Polygon","coordinates":[[[-86.6402723903743,36.237402716886],[-86.6403031809013,36.237058630833],[-86.6405399533107,36.2370697370756],[-86.6405091893272,36.2374171197946],[-86.6402723903743,36.237402716886]]]},"properties":{"id":"159607","parcel":"05316019700","address":"657 KINGS WAY DR","owner":"TELLER, PAMELA S","point":[-86.6404062490738,36.23723622729077]}},{"type":"Feature","id":"159612","geometry":{"type":"Polygon","coordinates":[[[-86.6407653281799,36.2374327922519],[-86.6408008078521,36.2370820886083],[-86.6410389431276,36.2370937355006],[-86.6410024843716,36.2374493895269],[-86.640855565519,36.2374377183396],[-86.6407653281799,36.2374327922519]]]},"properties":{"id":"159612","parcel":"05316021100","address":"665 KINGS WAY DR","owner":"SFR JV-1 2021-1 BORROWER, LLC","point":[-86.64090202149954,36.23726326361502]}},{"type":"Feature","id":"185728","geometry":{"type":"Polygon","coordinates":[[[-86.6463106126297,36.2284277215349],[-86.6480187520873,36.2283454996915],[-86.6494214448058,36.2300482480131],[-86.6496447710046,36.2304069031176],[-86.6498641050394,36.2309402872083],[-86.6499180590448,36.2310696570961],[-86.6501561991255,36.232065426137],[-86.6482227660801,36.2323154646137],[-86.6482101615152,36.2322712757877],[-86.6482005653595,36.2322265931576],[-86.6481940076351,36.2321815517498],[-86.6481905072472,36.2321362875511],[-86.648190075307,36.2320909356884],[-86.6481904175452,36.2320530599926],[-86.6481864636197,36.2320153191033],[-86.6481782484034,36.2319780318733],[-86.6481658412299,36.2319415142663],[-86.6481493458421,36.2319060730483],[-86.6481289037585,36.2318720093752],[-86.6481046853075,36.231839610729],[-86.6480768974214,36.231809151778],[-86.6478576437639,36.2315334306754],[-86.6478282121426,36.2315111655764],[-86.6477969445542,36.2314906082589],[-86.6477639930961,36.2314718579442],[-86.6477295153466,36.2314550039101],[-86.6477012168294,36.2314339025185],[-86.647675618345,36.2314106470908],[-86.6476529686992,36.2313854643096],[-86.6476334856981,36.2313585990483],[-86.6476173616727,36.2313303098353],[-86.6476047501683,36.2313008734319],[-86.6475957747544,36.2312705739696],[-86.6475422010142,36.2311941283755],[-86.6474920556904,36.2311161701173],[-86.6474454041237,36.2310368006897],[-86.6474023050021,36.2309561243261],[-86.6473628158856,36.2308742434637],[-86.6473269877035,36.2307912659822],[-86.6472948669129,36.2307072970813],[-86.6472664944527,36.2306224473974],[-86.6472419067896,36.2305368248869],[-86.6471520073123,36.2303175192921],[-86.6470593646338,36.23009896463],[-86.6469639900815,36.229881183365],[-86.6468658916378,36.229664197078],[-86.6467852364828,36.2294971985388],[-86.6467086560891,36.2293289452221],[-86.6466361809962,36.2291595018613],[-86.6465678395405,36.2289889359051],[-86.6465036566984,36.2288173121162],[-86.6464654645902,36.2287572872649],[-86.6464296929202,36.2286962905237],[-86.6463963811441,36.228634386573],[-86.6463541731271,36.2285307782685],[-86.6463106126297,36.2284277215349]]]},"properties":{"id":"185728","parcel":"06300007700","address":"0 HUDSON RD","owner":"LAWRENCE, BRENT & DAVETA","point":[-86.64839401133658,36.23036220483062]}},{"type":"Feature","id":"186151","geometry":{"type":"Polygon","coordinates":[[[-86.6513515291654,36.2318753916659],[-86.6522209140788,36.2328113828993],[-86.6535637117074,36.2322984284846],[-86.653488978257,36.232335827955],[-86.6534160994309,36.2323755569753],[-86.6533451837329,36.2324175536775],[-86.6532763418926,36.2324617561815],[-86.6532096756968,36.2325080972482],[-86.6531452869032,36.2325565060339],[-86.6527402867261,36.2328674576243],[-86.6526682914408,36.2329213786991],[-86.6525989666218,36.2329775510294],[-86.6525324205629,36.233035886614],[-86.6524687548622,36.2330962947841],[-86.6524080677745,36.2331586839882],[-86.6523504552865,36.2332229572791],[-86.6522960033519,36.2332890150602],[-86.6522447990232,36.2333567559264],[-86.6521969192977,36.2334260731193],[-86.6521524389714,36.2334968625962],[-86.6521114260999,36.233569012239],[-86.6520739443122,36.2336424126573],[-86.6520625920399,36.233675438715],[-86.6519308897774,36.2340585308717],[-86.6516478141287,36.2339413879175],[-86.6512565003349,36.2338555945223],[-86.6509988606154,36.2338624772048],[-86.6508930787275,36.2338635969788],[-86.6507091445151,36.2341749976955],[-86.6506706643355,36.2345268204639],[-86.6506952371352,36.2348766551938],[-86.6507452657504,36.2350230756172],[-86.6507863388856,36.23515251167],[-86.6508738893848,36.2354086094185],[-86.6510361050793,36.2357555050863],[-86.6511988586642,36.2360853659252],[-86.6513481455814,36.2364262870802],[-86.6513730644691,36.2364876850607],[-86.6515253065689,36.2368582571323],[-86.651324702846,36.2368747221663],[-86.6512623654791,36.2368314732546],[-86.6512140774799,36.2368010597771],[-86.6511642447569,36.2367723300164],[-86.6511129555981,36.2367453330632],[-86.651060302748,36.2367201188854],[-86.6510231901044,36.2366969253402],[-86.6509887917107,36.2366711296898],[-86.6509573862948,36.2366429413255],[-86.6509292237932,36.2366125860156],[-86.6509045320554,36.2365803094755],[-86.6508716113858,36.2365354382405],[-86.6508077957375,36.2364445817085],[-86.6507853199067,36.236413629748],[-86.6507596660715,36.2363843441766],[-86.6507310228749,36.2363569375708],[-86.6506995977739,36.2363316106893],[-86.65066562034,36.2363085479494],[-86.6506400372763,36.2362954681156],[-86.6506165066141,36.2362800682393],[-86.6505953437743,36.2362625557111],[-86.6505768388427,36.2362431687006],[-86.6505612409514,36.2362221708326],[-86.6505487615794,36.2361998466634],[-86.6505202804211,36.2361670884567],[-86.6504892378662,36.2361358959753],[-86.6504557640367,36.2361064000979],[-86.6503805749719,36.236034491013],[-86.650308853772,36.2359602947847],[-86.6502407036706,36.2358839199136],[-86.6501762268391,36.2358054812148],[-86.650115518766,36.235725092638],[-86.6500586683079,36.2356428735758],[-86.6500057598857,36.2355589452471],[-86.6499568712664,36.2354734316098],[-86.6499142078454,36.2353935866233],[-86.6498683524306,36.2353149114816],[-86.6498193535576,36.2352374906368],[-86.6497672619565,36.2351614049242],[-86.6497121361584,36.2350867369396],[-86.6496540335516,36.2350135656795],[-86.6495902606556,36.234926520506],[-86.6495300819775,36.2348378130062],[-86.6494735650287,36.2347475374529],[-86.6494207706965,36.2346557944628],[-86.6493717576426,36.2345626846647],[-86.6493265812054,36.234468310507],[-86.6492852878377,36.2343727762886],[-86.6492479250896,36.2342761844994],[-86.6492145338872,36.2341786439733],[-86.6491819692663,36.2341215855371],[-86.6491529853923,36.2340632722453],[-86.6491276557889,36.2340038533115],[-86.6491259575655,36.233988693614],[-86.649121135919,36.2339739805932],[-86.6491133266793,36.2339601353004],[-86.6491027533333,36.2339475512788],[-86.6490897180746,36.2339365883024],[-86.6490745905683,36.2339275589182],[-86.6490578045406,36.2339207194516],[-86.6490388633375,36.2339082623973],[-86.6490225934372,36.2338935342752],[-86.6490094028124,36.2338769069105],[-86.6489996241683,36.2338587984959],[-86.6489935048645,36.2338396655348],[-86.6489911990109,36.2338199884637],[-86.6489878983201,36.2337917107661],[-86.6489807924297,36.2337638969228],[-86.6489699663973,36.2337368808372],[-86.6489555497165,36.2337109889641],[-86.6489377173779,36.2336865339949],[-86.6489166820374,36.2336638094921],[-86.6488900299878,36.2336385006498],[-86.6488663694717,36.2336113092584],[-86.6488459026354,36.2335824685566],[-86.6488288038956,36.2335522218464],[-86.6488152177517,36.2335208270099],[-86.6488052598539,36.2334885510961],[-86.6487990158913,36.2334556703275],[-86.6487602041486,36.2333694837932],[-86.6487177263557,36.2332844398812],[-86.6486716289783,36.2332006419814],[-86.6486219718077,36.2331181907079],[-86.6485984680187,36.2330913616206],[-86.648577941709,36.2330629736139],[-86.6485605514991,36.2330332430372],[-86.6485464282803,36.2330023963025],[-86.6485356807766,36.2329706698541],[-86.648528391044,36.2329383038844],[-86.6485246145071,36.2329055468394],[-86.6485207306182,36.2328816973586],[-86.6485133792774,36.2328583901151],[-86.6485026622021,36.2328359562198],[-86.6484887332654,36.2328147111822],[-86.6484717873948,36.2327949576738],[-86.6484520671428,36.2327769728756],[-86.6484298493826,36.2327610139568],[-86.6484071957978,36.232748484802],[-86.6483867925751,36.232733632776],[-86.6483689989622,36.2327167218187],[-86.6483541288638,36.2326980485579],[-86.6483424452944,36.2326779441418],[-86.6483341547131,36.2326567616519],[-86.6483294014624,36.2326348761328],[-86.6483282721215,36.2326126728522],[-86.6483153940889,36.2325515141927],[-86.6482983466549,36.232491028605],[-86.6482771803057,36.2324314032751],[-86.648251959951,36.2323728208049],[-86.6482227660801,36.2323154646137],[-86.6501561991255,36.232065426137],[-86.6513515291654,36.2318753916659]]]},"properties":{"id":"186151","parcel":"06300007600","address":"0 PAWNEE TRL","owner":"DANIEL, JACK WAYNE & KATHERINE A.","point":[-86.64997947263358,36.2343265679655]}},{"type":"Feature","id":"189398","geometry":{"type":"Polygon","coordinates":[[[-86.6476759547184,36.2376491720355],[-86.6472290468945,36.2376139475528],[-86.6452941469111,36.2374320616953],[-86.6452324798815,36.2374262635334],[-86.6444064795439,36.2373486080309],[-86.6424267049954,36.2371624554194],[-86.6419857147246,36.2371406266219],[-86.6417462230975,36.2371287130198],[-86.641510462665,36.2371170540084],[-86.6412777548219,36.2371053765307],[-86.6410389431276,36.2370937355006],[-86.6408008078521,36.2370820886083],[-86.6405399533107,36.2370697370756],[-86.6403031809013,36.237058630833],[-86.6400660670453,36.2370472510571],[-86.639828956588,36.2370361456768],[-86.6395921843785,36.2370250380407],[-86.6393550729415,36.2370139317362],[-86.6391179626926,36.2370025500815],[-86.6388126668526,36.2369882318],[-86.6388124543865,36.2369618625909],[-86.6388145762299,36.2366360578816],[-86.6388189960606,36.236343205714],[-86.6388169377345,36.2360877460595],[-86.6388161524972,36.2358212917113],[-86.6388180525249,36.2356366838616],[-86.6382594774611,36.2352860989172],[-86.6381384907234,36.2352098224789],[-86.6376770492463,36.2349202539931],[-86.6372210628282,36.2346339508061],[-86.6370973538943,36.2345563141874],[-86.6365026705037,36.2341831109888],[-86.6364369403528,36.2341471976218],[-86.6360735595578,36.2339491303706],[-86.6359976029829,36.2339489805359],[-86.6359677597355,36.2339480417414],[-86.6355004993221,36.2339458278325],[-86.6354109815627,36.2339454749922],[-86.6347138526323,36.2339451960318],[-86.6347333718598,36.2337160923121],[-86.6347456065337,36.2335847873139],[-86.6347467719344,36.2335727829508],[-86.6347968043167,36.2330575014537],[-86.6348141845587,36.2328784999611],[-86.6348455134226,36.2325558409814],[-86.6348455339889,36.2325556308838],[-86.6348740755629,36.2322616766741],[-86.6349007126131,36.2319873281634],[-86.6349007331286,36.2319871117573],[-86.634912599576,36.2318649021492],[-86.6349379065923,36.2316042513688],[-86.6349666528631,36.2313081618337],[-86.6349666991736,36.2313076938452],[-86.6349968532656,36.2309971256167],[-86.635002915257,36.2309346853725],[-86.6350029388925,36.2309344419126],[-86.6350029440139,36.2309343869098],[-86.6350643385483,36.2303020439662],[-86.6361595854097,36.2304715330532],[-86.6363205133065,36.2304981553269],[-86.6408054481121,36.2312370120526],[-86.6464054704588,36.2321614820586],[-86.6464118579389,36.2321706207338],[-86.6464198745608,36.2321788728798],[-86.6464293385706,36.2321860493062],[-86.6464400317112,36.2321919862533],[-86.6464517081368,36.2321965471462],[-86.646464101116,36.232199626164],[-86.6464848114387,36.2322033609345],[-86.6465031926953,36.232211775706],[-86.6465178744733,36.2322243352658],[-86.6465271547183,36.232239668921],[-86.6465303448261,36.2322566835451],[-86.6465274324648,36.2322737308304],[-86.6465184030703,36.232289161579],[-86.6465039273562,36.2323018753866],[-86.6464856849208,36.2323104888663],[-86.6464650372622,36.2323144431692],[-86.6464503491689,36.232321848882],[-86.646437386175,36.232331132565],[-86.6464265099172,36.2323420336266],[-86.6464180249493,36.2323542485211],[-86.6464121665572,36.2323674371226],[-86.6464090986002,36.2323812308471],[-86.6464089058421,36.2323952471143],[-86.6464115950922,36.2324090929454],[-86.6464170909106,36.2324223839132],[-86.6464608048667,36.2325023624441],[-86.6465462052228,36.2326631540427],[-86.6466016732626,36.2327708134804],[-86.6466572638625,36.2328707035172],[-86.6467102668043,36.2329715131289],[-86.6467606583597,36.2330731982851],[-86.64680841701,36.2331757131407],[-86.646805898466,36.2331838954942],[-86.6468051427743,36.2331923072381],[-86.646806171259,36.233200698614],[-86.6468089530064,36.2332088255504],[-86.6468134081798,36.2332164469415],[-86.6468194048144,36.2332233408866],[-86.646826765485,36.2332293037534],[-86.6468352751725,36.2332341600492],[-86.6468446846385,36.2332377669097],[-86.6468547160314,36.2332400194756],[-86.6468658709177,36.2332404914768],[-86.6468769644186,36.2332394389021],[-86.6468876830687,36.2332368913689],[-86.6468977204301,36.2332329217163],[-86.6469129523511,36.2332359800778],[-86.6469274306452,36.2332408846143],[-86.6469408173119,36.2332475208761],[-86.6469527973649,36.2332557319314],[-86.6469630922689,36.2332653291102],[-86.6469714587684,36.2332760848],[-86.6469777034881,36.2332877494911],[-86.646981679567,36.2333000481901],[-86.6470145194516,36.2333533133172],[-86.6470441200033,36.2334078097601],[-86.6470704123092,36.2334634090127],[-86.6470933352133,36.2335199789219],[-86.6471128330989,36.2335773846009],[-86.6471288581427,36.2336354920224],[-86.6471529391401,36.2337268103505],[-86.6471808400343,36.2338174124474],[-86.6472125266124,36.2339071939496],[-86.6472479624361,36.2339960505052],[-86.6472871077444,36.2340838795825],[-86.6473299172204,36.2341705795803],[-86.6473763410975,36.2342560489212],[-86.64742632409,36.2343401914645],[-86.6474798108896,36.2344229083656],[-86.6475367384223,36.234504103525],[-86.6475435213696,36.2345281168324],[-86.6475540536869,36.2345512259217],[-86.6475681609387,36.2345730486988],[-86.6475856098932,36.2345932232119],[-86.6476061108133,36.2346114157504],[-86.6476276952675,36.2346286543691],[-86.6476470859634,36.2346475260811],[-86.647664096747,36.2346678489331],[-86.6476785624888,36.2346894273405],[-86.6476903435265,36.2347120511622],[-86.6477748788306,36.2348258682708],[-86.6478561065175,36.2349412549965],[-86.6479339826708,36.2350581475931],[-86.6480084633951,36.2351764850177],[-86.6480795091923,36.2352961998952],[-86.6481470805855,36.2354172275538],[-86.6481627217031,36.2354651113736],[-86.6481748939706,36.2355136509819],[-86.6481835593385,36.2355626834586],[-86.6481886841624,36.2356120404526],[-86.6481972407265,36.2356325221444],[-86.6482093994018,36.2356517714346],[-86.6482248998247,36.2356693742465],[-86.6482434085058,36.2356849529453],[-86.6482645289006,36.235698173494],[-86.6482878081353,36.2357087517265],[-86.6483121183579,36.2357365742052],[-86.6483331595816,36.2357660941393],[-86.6483507528656,36.2357970601429],[-86.6483647480807,36.2358292071567],[-86.6483686488328,36.2358572833599],[-86.6483764755005,36.235884815771],[-86.6483881283662,36.2359114453288],[-86.6484034532991,36.2359368249797],[-86.6484222517957,36.2359606232295],[-86.6484442776721,36.2359825277656],[-86.6484692438274,36.2360022562359],[-86.6484962471476,36.2360192907662],[-86.6485202601788,36.236039048676],[-86.6485408662832,36.2360611879291],[-86.6485577107711,36.2360853237985],[-86.6485705021237,36.236111042378],[-86.6485711596988,36.2361317259686],[-86.6485752249059,36.236152152435],[-86.6485826235517,36.2361719553694],[-86.6485932247974,36.2361907794829],[-86.6486068378654,36.2362082860306],[-86.6486232176674,36.2362241608925],[-86.6486420704036,36.23623811905],[-86.6486565500475,36.2362520826608],[-86.6486693682747,36.2362670735952],[-86.6486804150125,36.2362829635668],[-86.6486785344235,36.23629391565],[-86.6486789463498,36.2363049671772],[-86.6486816404618,36.2363158072753],[-86.6486865385933,36.2363261281387],[-86.64869350485,36.236335636692],[-86.6487023401278,36.2363440645325],[-86.6487127944013,36.2363511741731],[-86.6487245712031,36.2363567626235],[-86.6487373388359,36.2363606721445],[-86.6487555476587,36.236373426077],[-86.6487715486101,36.2363879952501],[-86.6487850648774,36.2364041315071],[-86.6487958672602,36.2364215593985],[-86.6488037697431,36.2364399789089],[-86.648821022479,36.2364802682194],[-86.6488416141442,36.2365195139799],[-86.6488654509212,36.2365575346416],[-86.6488924201469,36.2365941568681],[-86.6489223991601,36.2366292091789],[-86.6489552498059,36.2366625300903],[-86.6489908184138,36.236693965412],[-86.6490289413811,36.2367233709205],[-86.649069442927,36.2367506096678],[-86.6490936379434,36.2367655105895],[-86.6491151301452,36.2367829197671],[-86.6491335264408,36.2368025184717],[-86.6491484901551,36.2368239489182],[-86.6491597488521,36.2368468187287],[-86.649169504837,36.2368656428251],[-86.6491827920106,36.2368829915371],[-86.6491992786564,36.2368984331487],[-86.6492185566823,36.2369115832187],[-86.6492401461665,36.2369221162729],[-86.6492635098486,36.2369297693309],[-86.6492949639465,36.2369551324743],[-86.6493236006827,36.2369825998323],[-86.6493492047709,36.2370119652785],[-86.6493715864211,36.2370430117342],[-86.6493905779584,36.2370755057795],[-86.6494060394589,36.2371092066351],[-86.6494346986381,36.2371516254554],[-86.6494666800842,36.2371924564436],[-86.6495018488972,36.2372315281852],[-86.6495400602456,36.2372686792325],[-86.6495811526544,36.2373037536349],[-86.649624955822,36.2373366045014],[-86.6496712850726,36.2373670958335],[-86.6496882940017,36.2373794550237],[-86.6497030800811,36.2373935673661],[-86.6497153675002,36.2374091720836],[-86.6497249314138,36.2374259828896],[-86.6497315946039,36.237443688007],[-86.6497849013054,36.2374991296108],[-86.6498405230184,36.2375530581693],[-86.6498983924879,36.2376054118557],[-86.6500077247928,36.237705913271],[-86.6500897343219,36.2377823876001],[-86.6501021249113,36.2377957692587],[-86.6501168526157,36.2378074926707],[-86.650133584865,36.2378172946599],[-86.6501519415859,36.2378249528616],[-86.650171508625,36.2378302946629],[-86.6501801610533,36.2378323939536],[-86.6501882478353,36.237835653483],[-86.6501955345588,36.2378399771787],[-86.6502018099364,36.2378452400041],[-86.6502122841126,36.2378560922653],[-86.6476759547184,36.2376491720355]]]},"properties":{"id":"189398","parcel":"06300020400","address":"3939 OLD HICKORY BLVD","owner":"DANNER-ELLER GOLF PROPERTIES, INC","point":[-86.64182428682952,36.23411093773154]}}]}