{"type":"FeatureCollection","features":[{"type":"Feature","id":"184592","geometry":{"type":"Polygon","coordinates":[[[-86.6153763875423,36.2313080152322],[-86.6135413670229,36.2311302363454],[-86.6117233275637,36.2309548607915],[-86.6123529583689,36.2256422839487],[-86.6125604330291,36.2238842544497],[-86.612877052207,36.2212482780666],[-86.6173189094196,36.2216014490989],[-86.6178224582968,36.2177420831302],[-86.6182361458488,36.2146243159808],[-86.6183780594468,36.213434685867],[-86.6183827635474,36.2133423624128],[-86.6184071858925,36.2133444345978],[-86.6184723350121,36.2133528917383],[-86.6191482029611,36.2134307400183],[-86.6215242426319,36.2137020261363],[-86.6214740502775,36.2146076974769],[-86.621287607632,36.2173556602736],[-86.6212084380569,36.2185224469431],[-86.621199861906,36.2186452929536],[-86.6211956612966,36.2187682885923],[-86.6211958432224,36.2188913301804],[-86.6212004035838,36.219014317701],[-86.6212093426943,36.2191371466075],[-86.6212226508859,36.2192597160095],[-86.6212403162451,36.2193819223235],[-86.6212623257738,36.2195036655767],[-86.6212886608988,36.2196248440213],[-86.6213192997025,36.2197453550258],[-86.6213542158536,36.2198651004866],[-86.6213933818866,36.2199839796022],[-86.6214367625714,36.2201018943141],[-86.6214488686473,36.2201325987287],[-86.6214956957592,36.2202688864881],[-86.6215467084659,36.2204041847484],[-86.6216018771984,36.2205384080382],[-86.6216611657348,36.2206714736241],[-86.6217245378384,36.2208032969697],[-86.621791953963,36.2209337971605],[-86.6218633712108,36.221062891496],[-86.6219387467114,36.2211905008808],[-86.6220180320178,36.2213165444452],[-86.6221011787034,36.2214409440227],[-86.6221881338987,36.221563622371],[-86.6222788436137,36.221684501352],[-86.622373251675,36.221803508246],[-86.6231861925046,36.2228398800215],[-86.6244738953176,36.2244814257364],[-86.6243069339485,36.2255810899598],[-86.6242837574811,36.2257369176378],[-86.6242760224578,36.2257889233308],[-86.6204177031321,36.2256071730347],[-86.616790717689,36.2254373064085],[-86.6160679486555,36.2311173770948],[-86.6160360191565,36.2313719136458],[-86.6153763875423,36.2313080152322]]]},"properties":{"id":"184592","parcel":"06400002200","address":"4500 RACHELS LN","owner":"ANDREW JACKSON FOUNDATION","point":[-86.61776584238115,36.22230578421988]}}]}