{"type":"FeatureCollection","features":[{"type":"Feature","id":"55720","geometry":{"type":"Polygon","coordinates":[[[-86.6692416788724,36.2771247083934],[-86.6692701565509,36.2771226301831],[-86.6692970177578,36.2771293434315],[-86.6693198414695,36.2771404824558],[-86.6693632180412,36.2771748540941],[-86.6697969775944,36.2775301054263],[-86.670411814208,36.2780336491733],[-86.6688475342809,36.2792858143164],[-86.6676762384015,36.2783609854298],[-86.6687060577886,36.2775361458609],[-86.6691798647476,36.2771566406542],[-86.66919670856,36.2771425377333],[-86.6692183316891,36.2771319790328],[-86.6692416788724,36.2771247083934]]]},"properties":{"id":"55720","parcel":"04400005400","address":"0 OLD HICKORY BLVD","owner":"OMER, SENA","point":[-86.66904396450376,36.27819732496173]}},{"type":"Feature","id":"100611","geometry":{"type":"Polygon","coordinates":[[[-86.6687828222941,36.2732949858395],[-86.6688968368696,36.273205082268],[-86.6689629028425,36.2732600172294],[-86.6688488882629,36.2733499208617],[-86.6687828222941,36.2732949858395]]]},"properties":{"id":"100611","parcel":"044050B00100CO","address":"316 A KEETON AVE","owner":"BARNETT, KEVIN R. & ARIAN L.","point":[-86.66887286258806,36.27327750156847]}},{"type":"Feature","id":"102163","geometry":{"type":"Polygon","coordinates":[[[-86.6688471151374,36.2735793595753],[-86.6686292572737,36.2733944142461],[-86.6690311989356,36.2730774709788],[-86.6692263373396,36.2732426565786],[-86.6692500326321,36.273262771593],[-86.6688471151374,36.2735793595753]],[[-86.6690870426485,36.2733680450044],[-86.6690239799519,36.2733154204732],[-86.6689101606086,36.2734048526369],[-86.6689732233008,36.2734574772262],[-86.6690870426485,36.2733680450044]],[[-86.6688488882629,36.2733499208617],[-86.6689629028425,36.2732600172294],[-86.6688968368696,36.273205082268],[-86.6687828222941,36.2732949858395],[-86.6688488882629,36.2733499208617]]]},"properties":{"id":"102163","parcel":"044050B90000CO","address":"316 C KEETON AVE","owner":"O.I.C. 316 KEETON AVENUE COMMONS","point":[-86.66893639501535,36.27333267059135]}},{"type":"Feature","id":"102335","geometry":{"type":"Polygon","coordinates":[[[-86.6689101606086,36.2734048526369],[-86.6690239799519,36.2733154204732],[-86.6690870426485,36.2733680450044],[-86.6689732233008,36.2734574772262],[-86.6689101606086,36.2734048526369]]]},"properties":{"id":"102335","parcel":"044050B00200CO","address":"316 B KEETON AVE","owner":"BARNETT, KEVIN R. & ARIAN L","point":[-86.66899860164902,36.273386448853486]}},{"type":"Feature","id":"110530","geometry":{"type":"Polygon","coordinates":[[[-86.6671550235755,36.2727555002864],[-86.6672679595841,36.2726669154919],[-86.6673339401195,36.2727220699142],[-86.6672210041061,36.2728106547688],[-86.6671550235755,36.2727555002864]]]},"properties":{"id":"110530","parcel":"044050D00100CO","address":"305 A KEETON AVE","owner":"URIBE, NANCY","point":[-86.66724448186626,36.272738785133875]}},{"type":"Feature","id":"110531","geometry":{"type":"Polygon","coordinates":[[[-86.6672514855307,36.2728374820515],[-86.6673664293676,36.2727471773428],[-86.6674329058255,36.27280265612],[-86.667317960871,36.2728929608966],[-86.6672514855307,36.2728374820515]]]},"properties":{"id":"110531","parcel":"044050D00200CO","address":"305 B KEETON AVE","owner":"HOLMAN, CHRISTINE G","point":[-86.66734219559062,36.27282006911998]}},{"type":"Feature","id":"110869","geometry":{"type":"Polygon","coordinates":[[[-86.6672195975908,36.2729919250024],[-86.6669893631167,36.2728015547224],[-86.6673404247446,36.2725259751643],[-86.6675698874944,36.2727169501773],[-86.6672195975908,36.2729919250024]],[[-86.6674329058255,36.27280265612],[-86.6673664293676,36.2727471773428],[-86.6672514855307,36.2728374820515],[-86.667317960871,36.2728929608966],[-86.6674329058255,36.27280265612]],[[-86.6672210041061,36.2728106547688],[-86.6673339401195,36.2727220699142],[-86.6672679595841,36.2726669154919],[-86.6671550235755,36.2727555002864],[-86.6672210041061,36.2728106547688]]]},"properties":{"id":"110869","parcel":"044050D90000CO","address":"305 C KEETON AVE","owner":"O.I.C. 305 KEETON AVENUE","point":[-86.66710091538987,36.272778541086694]}},{"type":"Feature","id":"117749","geometry":{"type":"Polygon","coordinates":[[[-86.6692177809722,36.2752427081589],[-86.6699227973181,36.2746931164312],[-86.6700262514291,36.2747818705325],[-86.6701587144953,36.2748905080365],[-86.6694562633687,36.2754381023828],[-86.6692177809722,36.2752427081589]],[[-86.6699774523347,36.2749341971678],[-86.6699211116824,36.2748859329759],[-86.6697797797432,36.2749941018357],[-86.6698361203863,36.275042366092],[-86.6699774523347,36.2749341971678]],[[-86.669755912627,36.2749744096615],[-86.6698981531532,36.2748669423601],[-86.6698451541677,36.2748209505466],[-86.6697029136446,36.2749284168859],[-86.669755912627,36.2749744096615]]]},"properties":{"id":"117749","parcel":"044010C90000CO","address":"327 C KEETON AVE","owner":"O.I.C. 327 KEETON AVENUE","point":[-86.66959062229581,36.27514271345284]}},{"type":"Feature","id":"117753","geometry":{"type":"Polygon","coordinates":[[[-86.6697797797432,36.2749941018357],[-86.6699211116824,36.2748859329759],[-86.6699774523347,36.2749341971678],[-86.6698361203863,36.275042366092],[-86.6697797797432,36.2749941018357]]]},"properties":{"id":"117753","parcel":"044010C00100CO","address":"327 B KEETON AVE","owner":"YYS LIVING TRUST","point":[-86.66987861607635,36.27496414954286]}},{"type":"Feature","id":"119982","geometry":{"type":"Polygon","coordinates":[[[-86.6622308416583,36.2772645114345],[-86.6622278657313,36.277266953857],[-86.6619552690198,36.2770423035408],[-86.6615063315095,36.2766803020866],[-86.6602028679424,36.2756285842748],[-86.6626542536086,36.2736751504872],[-86.6626574574156,36.2737200756283],[-86.6626773977401,36.2740039431243],[-86.6626830790433,36.2740571099736],[-86.6626926961718,36.2741099037609],[-86.6627062130491,36.2741621354239],[-86.6627235824537,36.2742136141592],[-86.6627447416269,36.274264154655],[-86.662769613364,36.2743135743825],[-86.6627981060287,36.2743616953979],[-86.662830119095,36.2744083416082],[-86.6628655376431,36.2744533460116],[-86.6629042300956,36.2744965462038],[-86.6629460593615,36.2745377861189],[-86.662990873926,36.2745769151778],[-86.663108629582,36.2746738511033],[-86.6631058388874,36.2746760690279],[-86.662508965061,36.2751501770091],[-86.6638450071138,36.2762529489133],[-86.6625814573468,36.2772661903461],[-86.6625595328015,36.277281809926],[-86.6625354906422,36.2772952303864],[-86.6625096632412,36.2773062669541],[-86.6624814869781,36.2773150029267],[-86.6624522073043,36.2773208988483],[-86.6624222609395,36.2773238694115],[-86.6623920893801,36.2773238680356],[-86.6623621412071,36.2773208967686],[-86.6623328631222,36.2773149991256],[-86.6623046866061,36.2773062619648],[-86.662278033476,36.2772948145556],[-86.6622532947458,36.2772808295957],[-86.6622308416583,36.2772645114345]]]},"properties":{"id":"119982","parcel":"04400007100","address":"370 SWINGING BRIDGE RD","owner":"OLD HICKORY HOLDINGS 615, LLC","point":[-86.66165489981202,36.27539023244702]}},{"type":"Feature","id":"120124","geometry":{"type":"Polygon","coordinates":[[[-86.6697029136446,36.2749284168859],[-86.6698451541677,36.2748209505466],[-86.6698981531532,36.2748669423601],[-86.669755912627,36.2749744096615],[-86.6697029136446,36.2749284168859]]]},"properties":{"id":"120124","parcel":"044010C00200CO","address":"327 A KEETON AVE","owner":"MOSHIER, JAMES","point":[-86.66980053360875,36.27489767966359]}},{"type":"Feature","id":"123541","geometry":{"type":"Polygon","coordinates":[[[-86.6659288035625,36.2717539234718],[-86.6660424231023,36.2716578179339],[-86.6664103728911,36.271942425363],[-86.6662908365816,36.272043536867],[-86.6659288035625,36.2717539234718]]]},"properties":{"id":"123541","parcel":"04405024500","address":"338 RAYON DR","owner":"OLIVERI, NICHOLAS & REBECCA","point":[-86.66616757223485,36.271848169032666]}},{"type":"Feature","id":"124277","geometry":{"type":"Polygon","coordinates":[[[-86.668861028376,36.2714435992932],[-86.6704318497977,36.2701032702235],[-86.6708317495629,36.2705684658158],[-86.6688395792536,36.2721073139325],[-86.668750651567,36.2720419690632],[-86.6687246805111,36.2720228840316],[-86.6686854180854,36.2719928297096],[-86.6691147935879,36.2716585783055],[-86.668861028376,36.2714435992932]]]},"properties":{"id":"124277","parcel":"04400000400","address":"104 C SCENIC VIEW RD","owner":"HOLT, GEORGE JR. ETUX","point":[-86.66981958468205,36.27100596264685]}},{"type":"Feature","id":"124966","geometry":{"type":"Polygon","coordinates":[[[-86.6688395792536,36.2721073139325],[-86.6708317495629,36.2705684658158],[-86.6709906042918,36.2707532572563],[-86.6690401565289,36.2722598777231],[-86.6688782895213,36.2721357580507],[-86.6688395792536,36.2721073139325]]]},"properties":{"id":"124966","parcel":"04400000300","address":"106 SCENIC VIEW RD","owner":"MASON, KOURTNEY LEANNE & RASHAD","point":[-86.66991510063016,36.2714302905153]}},{"type":"Feature","id":"124969","geometry":{"type":"Polygon","coordinates":[[[-86.6682798058117,36.2711283146661],[-86.6690082777206,36.2704939546698],[-86.6690085775772,36.2704941422692],[-86.6700312252358,36.2696372229167],[-86.6704318497977,36.2701032702235],[-86.668861028376,36.2714435992932],[-86.6684385475902,36.2718040763558],[-86.6679394343871,36.2714247088257],[-86.6682798058117,36.2711283146661]]]},"properties":{"id":"124969","parcel":"04400000500","address":"102 SCENIC VIEW RD","owner":"ETCH CITY TRUST","point":[-86.66912149778526,36.27081255047674]}},{"type":"Feature","id":"125739","geometry":{"type":"Polygon","coordinates":[[[-86.6684385475902,36.2718040763558],[-86.668861028376,36.2714435992932],[-86.6691147935879,36.2716585783055],[-86.6686854180854,36.2719928297096],[-86.6684385475902,36.2718040763558]]]},"properties":{"id":"125739","parcel":"04400000401","address":"104 SCENIC VIEW RD","owner":"ESCUE, RICHARD L. & JAMES, ANN","point":[-86.66877255096621,36.27173131640062]}},{"type":"Feature","id":"128151","geometry":{"type":"Polygon","coordinates":[[[-86.6662906819381,36.274648691653],[-86.6664898103779,36.2745138146655],[-86.6665997002623,36.2746038880426],[-86.6668383474827,36.2747995010078],[-86.667498808232,36.275340852701],[-86.6675893155561,36.2754144990867],[-86.6674187117597,36.2755614419606],[-86.666602215318,36.274902873656],[-86.6664765208016,36.2748014967506],[-86.6662906819381,36.274648691653]]]},"properties":{"id":"128151","parcel":"04405023700","address":"0 SWINGING BRIDGE RD","owner":"DP 112, LLC","point":[-86.66705267936636,36.275121870054264]}},{"type":"Feature","id":"128823","geometry":{"type":"Polygon","coordinates":[[[-86.6689803292093,36.2750465119659],[-86.6696877271881,36.2744950635688],[-86.6699227973181,36.2746931164312],[-86.6692177809722,36.2752427081589],[-86.6689803292093,36.2750465119659]]]},"properties":{"id":"128823","parcel":"04401001900","address":"325 KEETON AVE","owner":"HOLLAND, MELVIN LEE ETUX","point":[-86.6694515640422,36.27486981513427]}},{"type":"Feature","id":"128825","geometry":{"type":"Polygon","coordinates":[[[-86.6676538988789,36.2753588724182],[-86.6684967465515,36.2746330061081],[-86.6685415698861,36.2746745564916],[-86.668591815077,36.2747207596751],[-86.6677482311707,36.2754381185481],[-86.6676538988789,36.2753588724182]]]},"properties":{"id":"128825","parcel":"04401002500","address":"0 SWINGING BRIDGE RD","owner":"DP 112, LLC","point":[-86.6681205038582,36.27503981044922]}},{"type":"Feature","id":"128840","geometry":{"type":"Polygon","coordinates":[[[-86.6695406699218,36.2735070419382],[-86.6699452078386,36.2731880462561],[-86.6701498498536,36.273358335454],[-86.6697434378465,36.2736788102993],[-86.6697236835141,36.2736627858753],[-86.6695740243428,36.2735361553723],[-86.6695623980182,36.2735252319378],[-86.6695481835135,36.2735133323841],[-86.6695406699218,36.2735070419382]]]},"properties":{"id":"128840","parcel":"04405001600","address":"117 SCENIC VIEW RD","owner":"GREENBERG, MARK","point":[-86.66984526028162,36.2734326890862]}},{"type":"Feature","id":"128883","geometry":{"type":"Polygon","coordinates":[[[-86.668067734908,36.2723231899169],[-86.6682482804922,36.2721705591574],[-86.6685782009992,36.272393161675],[-86.6686576958561,36.2724468365009],[-86.6684789519265,36.2726118192215],[-86.6684611102662,36.272628125695],[-86.6683125952502,36.2725130329941],[-86.668067734908,36.2723231899169]]]},"properties":{"id":"128883","parcel":"04405002400","address":"205 HILLMAN PL","owner":"CEMETERY","point":[-86.66840451069693,36.27241940750968]}},{"type":"Feature","id":"128886","geometry":{"type":"Polygon","coordinates":[[[-86.6677685746156,36.2725704213487],[-86.668067734908,36.2723231899169],[-86.6683125952502,36.2725130329941],[-86.6679383112317,36.2728081653282],[-86.6677693708478,36.2726649131371],[-86.667760561466,36.2726571111602],[-86.6677534338205,36.2726482535584],[-86.6677481757686,36.2726385763187],[-86.6677449286061,36.2726283373149],[-86.6677437769752,36.2726178073508],[-86.6677447510375,36.2726072638401],[-86.667747825353,36.2725969899105],[-86.6677529198418,36.2725872563747],[-86.6677598975504,36.2725783208408],[-86.6677685746156,36.2725704213487]]]},"properties":{"id":"128886","parcel":"04405002500","address":"308 KEETON AVE","owner":"BROWN, WILLIAM G. & MARY E.","point":[-86.668039734643,36.27254172512094]}},{"type":"Feature","id":"128889","geometry":{"type":"Polygon","coordinates":[[[-86.66899631162,36.2737069479384],[-86.6693990715674,36.2733893581716],[-86.6694346166955,36.2734182585362],[-86.6695406699218,36.2735070419382],[-86.6695481835135,36.2735133323841],[-86.6691427699862,36.2738330146709],[-86.66899631162,36.2737069479384]]]},"properties":{"id":"128889","parcel":"04405003100","address":"320 KEETON AVE","owner":"SWANSON, JERRY & CANADAY, JOSEPH D ET AL","point":[-86.66927224783424,36.2736101404819]}},{"type":"Feature","id":"128892","geometry":{"type":"Polygon","coordinates":[[[-86.6695038321334,36.2741387720585],[-86.6699099025124,36.2738185703455],[-86.6699136926421,36.2738217712487],[-86.6700766222328,36.2739593345227],[-86.6696711377982,36.2742790748075],[-86.6695038321334,36.2741387720585]]]},"properties":{"id":"128892","parcel":"04405003500","address":"326 KEETON AVE","owner":"RICHARDSON, KENNETH WAYNE","point":[-86.66979022752552,36.274049053635935]}},{"type":"Feature","id":"128895","geometry":{"type":"Polygon","coordinates":[[[-86.6688468361247,36.2743354087797],[-86.6691720798703,36.2740589295817],[-86.6691877437695,36.2740723045837],[-86.6692198659452,36.2740979614927],[-86.6685415698861,36.2746745564916],[-86.6684967465515,36.2746330061081],[-86.6688468361247,36.2743354087797]]]},"properties":{"id":"128895","parcel":"04405004300","address":"321 KEETON AVE","owner":"BROWN, FELLER, LIVING TRUST","point":[-86.6687184909443,36.27448433694295]}},{"type":"Feature","id":"128967","geometry":{"type":"Polygon","coordinates":[[[-86.6679103684669,36.2735629859453],[-86.6682582846131,36.2732898734253],[-86.6684877517867,36.2734808466517],[-86.6681401573574,36.2737537083961],[-86.6679103684669,36.2735629859453]]]},"properties":{"id":"128967","parcel":"04405004700","address":"313 KEETON AVE","owner":"WILSON, JOSHUA C.","point":[-86.66819906038766,36.273521916648164]}},{"type":"Feature","id":"128971","geometry":{"type":"Polygon","coordinates":[[[-86.6676805132408,36.2733723165921],[-86.6680288174324,36.2730988997584],[-86.6682582846131,36.2732898734253],[-86.6679103684669,36.2735629859453],[-86.6678856966487,36.2735417342047],[-86.6676805132408,36.2733723165921]]]},"properties":{"id":"128971","parcel":"04405004800","address":"311 KEETON AVE","owner":"WATTERS, SANDRA LEE TRUST","point":[-86.66796939904555,36.273331095358444]}},{"type":"Feature","id":"129228","geometry":{"type":"Polygon","coordinates":[[[-86.6636040469758,36.2750849873],[-86.6635906863567,36.2750755625598],[-86.6635784906168,36.2750651526836],[-86.6631058388874,36.2746760690279],[-86.663108629582,36.2746738511033],[-86.662990873926,36.2745769151778],[-86.6629460593615,36.2745377861189],[-86.6629042300956,36.2744965462038],[-86.6628655376431,36.2744533460116],[-86.662830119095,36.2744083416082],[-86.6627981060287,36.2743616953979],[-86.662769613364,36.2743135743825],[-86.6627447416269,36.274264154655],[-86.6627235824537,36.2742136141592],[-86.6627062130491,36.2741621354239],[-86.6626926961718,36.2741099037609],[-86.6626830790433,36.2740571099736],[-86.6626773977401,36.2740039431243],[-86.6626574574156,36.2737200756283],[-86.6625942842515,36.2728207322843],[-86.6632191068852,36.2723229280558],[-86.6637837506455,36.2727989439698],[-86.6637967820947,36.27280897613],[-86.6639339848999,36.2729145906118],[-86.6649022656141,36.2736932516772],[-86.6651140143861,36.2738643132255],[-86.6651260888518,36.273888252034],[-86.6651340211187,36.273913299623],[-86.6651376681305,36.273938988139],[-86.6651369568709,36.2739648403305],[-86.66513190442,36.2739903721411],[-86.6651226047426,36.2740151099055],[-86.665109227576,36.2740385903559],[-86.6650920263497,36.2740603758994],[-86.6650713204381,36.2740800619256],[-86.6650474963048,36.2740972804054],[-86.6650209964557,36.2741117098658],[-86.6638733856958,36.2750519839743],[-86.6638578507552,36.2750686655093],[-86.66383933287,36.2750832166886],[-86.6638182732244,36.2750952899154],[-86.6637951736249,36.2751045994454],[-86.6637679275277,36.275112389733],[-86.6637395234713,36.2751166760706],[-86.6637106417752,36.2751173564872],[-86.6636819768394,36.2751144154533],[-86.6636542182163,36.2751079230842],[-86.6636280316738,36.2750980334405],[-86.6636040469758,36.2750849873]]]},"properties":{"id":"129228","parcel":"04400005000","address":"400 SWINGING BRIDGE RD","owner":"BHT OF FLORIDA 6532, LLC","point":[-86.66378956906675,36.273706696210695]}},{"type":"Feature","id":"129267","geometry":{"type":"Polygon","coordinates":[[[-86.6674187117597,36.2755614419606],[-86.6675893155561,36.2754144990867],[-86.6689108062703,36.2764897891589],[-86.668950822935,36.2765259820096],[-86.6689876699911,36.2765643202014],[-86.66902117113,36.2766046190591],[-86.6690511689246,36.2766466892967],[-86.6690775203319,36.2766903316348],[-86.6691001011528,36.2767353376772],[-86.6691188038516,36.2767814953302],[-86.6688065137406,36.276534047258],[-86.6687564857192,36.2764959234356],[-86.6687043081264,36.2764597383212],[-86.6686500962684,36.2764255705825],[-86.6685939676463,36.2763934952708],[-86.668536045295,36.2763635838012],[-86.6684585772602,36.2763290984979],[-86.6683831587619,36.2762917530136],[-86.6683099507442,36.2762516257706],[-86.6682391119927,36.2762088033146],[-86.6681707902001,36.2761633767591],[-86.6681051342239,36.2761154435196],[-86.6674187117597,36.2755614419606]]]},"properties":{"id":"129267","parcel":"04401001400","address":"0 SWINGING BRIDGE RD","owner":"DP 129, LLC","point":[-86.66793671752788,36.275838928699166]}},{"type":"Feature","id":"129430","geometry":{"type":"Polygon","coordinates":[[[-86.6685782009992,36.272393161675],[-86.6688108235625,36.2722613930469],[-86.6689699026729,36.2723791817462],[-86.6685783821075,36.2726961510624],[-86.6685727097939,36.2726913401099],[-86.6684789519265,36.2726118192215],[-86.6686576958561,36.2724468365009],[-86.6685782009992,36.272393161675]]]},"properties":{"id":"129430","parcel":"04405002200","address":"105 SCENIC VIEW RD","owner":"MORGAN, JUSTIN","point":[-86.66867601484167,36.27252962628263]}},{"type":"Feature","id":"129434","geometry":{"type":"Polygon","coordinates":[[[-86.6681722144407,36.2730071419443],[-86.6685727097939,36.2726913401099],[-86.6685783821075,36.2726961510624],[-86.6687689088066,36.2728556887508],[-86.668791574398,36.2728746226287],[-86.6688079631314,36.2728892526959],[-86.6684054698206,36.2732066308822],[-86.6681722144407,36.2730071419443]]]},"properties":{"id":"129434","parcel":"04405002700","address":"312 KEETON AVE","owner":"DENSON, BOBBY DARRELL","point":[-86.66849008904502,36.27294819774413]}},{"type":"Feature","id":"129438","geometry":{"type":"Polygon","coordinates":[[[-86.6688471151374,36.2735793595753],[-86.6692500326321,36.273262771593],[-86.6692808698728,36.2732894558022],[-86.6693826757973,36.2733755014832],[-86.6693990715674,36.2733893581716],[-86.66899631162,36.2737069479384],[-86.6688471151374,36.2735793595753]]]},"properties":{"id":"129438","parcel":"04405003000","address":"318 KEETON AVE","owner":"TORTOLINI, OLIVIA","point":[-86.66912330806362,36.27348435978746]}},{"type":"Feature","id":"129441","geometry":{"type":"Polygon","coordinates":[[[-86.6691427699862,36.2738330146709],[-86.6695481835135,36.2735133323841],[-86.6695623980182,36.2735252319378],[-86.6695740243428,36.2735361553723],[-86.6697236835141,36.2736627858753],[-86.6697434378465,36.2736788102993],[-86.6693379865012,36.2739974489042],[-86.6693172280155,36.2739792895462],[-86.6691662168553,36.2738532166915],[-86.6691427699862,36.2738330146709]]]},"properties":{"id":"129441","parcel":"04405003200","address":"322 KEETON AVE","owner":"TOWNSEND, CATHY M. & TIMOTHY E.","point":[-86.669442938796,36.27375591240705]}},{"type":"Feature","id":"129444","geometry":{"type":"Polygon","coordinates":[[[-86.6693379865012,36.2739974489042],[-86.6697434378465,36.2736788102993],[-86.6697674059793,36.2736982540823],[-86.6699099025124,36.2738185703455],[-86.6695038321334,36.2741387720585],[-86.6693602912492,36.2740169596569],[-86.6693379865012,36.2739974489042]]]},"properties":{"id":"129444","parcel":"04405003400","address":"324 KEETON AVE","owner":"WRIGHT, JAMES T. & ASHLEY B.","point":[-86.66962413640941,36.2739080104983]}},{"type":"Feature","id":"129453","geometry":{"type":"Polygon","coordinates":[[[-86.668742698372,36.2748504541809],[-86.6694526947247,36.2742969820969],[-86.6696877271881,36.2744950635688],[-86.6689803292093,36.2750465119659],[-86.668742698372,36.2748504541809]]]},"properties":{"id":"129453","parcel":"04405004100","address":"323 KEETON AVE","owner":"FELLER BROWN REALTY & AUCTION CO.,INC.","point":[-86.66921521396569,36.274672759816795]}},{"type":"Feature","id":"129457","geometry":{"type":"Polygon","coordinates":[[[-86.6685415698861,36.2746745564916],[-86.6692198659452,36.2740979614927],[-86.6692369265948,36.2741115892109],[-86.6694526947247,36.2742969820969],[-86.668742698372,36.2748504541809],[-86.6686666069468,36.2747894002334],[-86.668591815077,36.2747207596751],[-86.6685415698861,36.2746745564916]]]},"properties":{"id":"129457","parcel":"04405004200","address":"321 KEETON AVE","owner":"BROWN, FELLER, LIVING TRUST","point":[-86.66898708898238,36.274485742370246]}},{"type":"Feature","id":"129459","geometry":{"type":"Polygon","coordinates":[[[-86.6683719784896,36.2739428347981],[-86.6687172200739,36.2736718203327],[-86.668944405137,36.2738645870481],[-86.6686010995502,36.2741340827715],[-86.6683719784896,36.2739428347981]]]},"properties":{"id":"129459","parcel":"04405004500","address":"317 KEETON AVE","owner":"GONZALEZ, ILEANA MARIA","point":[-86.66865819199298,36.273903711266556]}},{"type":"Feature","id":"129463","geometry":{"type":"Polygon","coordinates":[[[-86.6681401573574,36.2737537083961],[-86.6684877517867,36.2734808466517],[-86.6687172200739,36.2736718203327],[-86.6683719784896,36.2739428347981],[-86.6681401573574,36.2737537083961]]]},"properties":{"id":"129463","parcel":"04405004600","address":"315 KEETON AVE","owner":"ANDREWS, DANIEL T. & KATHY S.","point":[-86.66842868877475,36.273712764713125]}},{"type":"Feature","id":"129544","geometry":{"type":"Polygon","coordinates":[[[-86.6674499105684,36.2731822340229],[-86.6677993513578,36.2729079256448],[-86.6680288174324,36.2730988997584],[-86.6676805132408,36.2733723165921],[-86.6674499105684,36.2731822340229]]]},"properties":{"id":"129544","parcel":"04405004900","address":"309 KEETON AVE","owner":"LEE, CHRISTOPHER DAVID & COWHERD-LEE, JULIE LOUISE","point":[-86.66773936415724,36.27314056724188]}},{"type":"Feature","id":"129547","geometry":{"type":"Polygon","coordinates":[[[-86.6649708023232,36.2735731069865],[-86.664974347718,36.2735280681594],[-86.6649737976407,36.2734829410128],[-86.6649691563584,36.273437967955],[-86.6649604481786,36.273393392185],[-86.664947720758,36.2733494540692],[-86.6649310428836,36.2733063920547],[-86.6649105033293,36.2732644390712],[-86.6648862152853,36.2732238198024],[-86.6648583074917,36.2731847552415],[-86.6653890073396,36.2736037688711],[-86.6652868021391,36.2736922720705],[-86.6652051171538,36.2737630061765],[-86.6649708023232,36.2735731069865]]]},"properties":{"id":"129547","parcel":"04405005700","address":"419 SWINGING BRIDGE RD","owner":"ELMORE, KENNETH","point":[-86.66508990461651,36.273460786179854]}},{"type":"Feature","id":"129550","geometry":{"type":"Polygon","coordinates":[[[-86.6674743287483,36.2705013825681],[-86.6681045451984,36.2699292780581],[-86.6687490864712,36.2703322647705],[-86.6680295595728,36.2709334344973],[-86.6674743287483,36.2705013825681]]]},"properties":{"id":"129550","parcel":"04405006100","address":"311 RAYON DR","owner":"REFUGE CHURCH NASHVILLE, INC.","point":[-86.6681076204411,36.270416814028096]}},{"type":"Feature","id":"130107","geometry":{"type":"Polygon","coordinates":[[[-86.6670789289815,36.2715342560429],[-86.6671922212862,36.2714318723152],[-86.6675690096579,36.2717297720357],[-86.6674495606146,36.271827289197],[-86.6670789289815,36.2715342560429]]]},"properties":{"id":"130107","parcel":"04405007400","address":"327 RAYON DR","owner":"ORTIZ, JONATHAN H CACERES & SANTOS TOMASA","point":[-86.6673239688445,36.271632014289075]}},{"type":"Feature","id":"130108","geometry":{"type":"Polygon","coordinates":[[[-86.6668452836553,36.2717334402243],[-86.6669625798453,36.2716342222951],[-86.6673301135031,36.271924806225],[-86.6672242744431,36.2720112123944],[-86.6672106649848,36.2720223231384],[-86.6668452836553,36.2717334402243]]]},"properties":{"id":"130108","parcel":"04405007600","address":"331 RAYON DR","owner":"CASH, CLIFTON H. II.","point":[-86.66708769821066,36.27182912346936]}},{"type":"Feature","id":"130109","geometry":{"type":"Polygon","coordinates":[[[-86.6659056989437,36.2725281954722],[-86.6660229996971,36.272428976664],[-86.6663855310178,36.2727169530527],[-86.6662680857682,36.2728160594454],[-86.6659056989437,36.2725281954722]]]},"properties":{"id":"130109","parcel":"04405008300","address":"347 RAYON DR","owner":"HALCHAK, DANA","point":[-86.66614561427141,36.27262257450116]}},{"type":"Feature","id":"130110","geometry":{"type":"Polygon","coordinates":[[[-86.6652735848191,36.2732818951],[-86.6655953257659,36.2730033710261],[-86.6658202801673,36.2731939379483],[-86.6658727205183,36.2732383628566],[-86.6654873525246,36.2735387360328],[-86.6655334544896,36.2734987558017],[-86.6652912877379,36.273298152342],[-86.6652921223386,36.2732973393414],[-86.6652735848191,36.2732818951]]]},"properties":{"id":"130110","parcel":"04405008700","address":"348 HILLMAN PL","owner":"DALTON, JIMMY","point":[-86.66557171813606,36.27326012534236]}},{"type":"Feature","id":"130124","geometry":{"type":"Polygon","coordinates":[[[-86.665694191373,36.2719523717108],[-86.6658114970582,36.2718531476528],[-86.6660821386325,36.2720696523034],[-86.6661753557604,36.2721412165262],[-86.6660562233284,36.2722419857976],[-86.665694191373,36.2719523717108]]]},"properties":{"id":"130124","parcel":"04405010700","address":"342 RAYON DR","owner":"OLTMANNS, TODD & HEATHER","point":[-86.66588816484254,36.27201101216391]}},{"type":"Feature","id":"130125","geometry":{"type":"Polygon","coordinates":[[[-86.6654595757828,36.2721508194947],[-86.665576815749,36.272051651912],[-86.6655768511205,36.2720516228777],[-86.6659378299125,36.2723421281221],[-86.6658226477136,36.2724395543411],[-86.6657050495386,36.2723471911858],[-86.6654595757828,36.2721508194947]]]},"properties":{"id":"130125","parcel":"04405010900","address":"346 RAYON DR","owner":"MILLER, ELIZABETH RENEE","point":[-86.66569905936451,36.27224647504406]}},{"type":"Feature","id":"130127","geometry":{"type":"Polygon","coordinates":[[[-86.6664068345934,36.270793457715],[-86.6665217451396,36.2706962576807],[-86.6668670151664,36.2709603208527],[-86.6668076083325,36.2710105707064],[-86.6667491882955,36.2710599877527],[-86.6664068345934,36.270793457715]]]},"properties":{"id":"130127","parcel":"04405012700","address":"103 ENSLEY AVE","owner":"JACKSON, COLE & PREVOST, SOPHIA L.","point":[-86.66663596387271,36.27087688682653]}},{"type":"Feature","id":"130332","geometry":{"type":"Polygon","coordinates":[[[-86.6662576025335,36.2722305368824],[-86.6663749035187,36.2721313177176],[-86.6667378638987,36.2724196340792],[-86.6666204195304,36.2725187408232],[-86.6662576025335,36.2722305368824]]]},"properties":{"id":"130332","parcel":"04405008000","address":"341 RAYON DR","owner":"ROZKUSZKA, DAVID A.- REV. TRUST","point":[-86.66649773268954,36.272325085720446]}},{"type":"Feature","id":"130333","geometry":{"type":"Polygon","coordinates":[[[-86.6661403012622,36.2723297568316],[-86.6662576025335,36.2722305368824],[-86.6666204195304,36.2725187408232],[-86.666582430274,36.2725507990573],[-86.6665029759812,36.272617847444],[-86.6661403012622,36.2723297568316]]]},"properties":{"id":"130333","parcel":"04405008100","address":"343 RAYON DR","owner":"QUINN, SANDRA L.","point":[-86.6663803602385,36.27242424906794]}},{"type":"Feature","id":"130334","geometry":{"type":"Polygon","coordinates":[[[-86.6660229996971,36.272428976664],[-86.6661403012622,36.2723297568316],[-86.6665029759812,36.272617847444],[-86.6663855310178,36.2727169530527],[-86.6660229996971,36.272428976664]]]},"properties":{"id":"130334","parcel":"04405008200","address":"345 RAYON DR","owner":"TINSLEY, MICKEY MACKAY & TINSLEY, MICHAEL C.","point":[-86.66626298768269,36.272523412294404]}},{"type":"Feature","id":"130335","geometry":{"type":"Polygon","coordinates":[[[-86.6648836185563,36.2730386197509],[-86.6652731072423,36.2727387115367],[-86.6654677773611,36.272898607398],[-86.6655953257659,36.2730033710261],[-86.6652735848191,36.2732818951],[-86.6652921223386,36.2732973393414],[-86.6652912877379,36.273298152342],[-86.6655334544896,36.2734987558017],[-86.6654873525246,36.2735387360328],[-86.6648836185563,36.2730386197509]]]},"properties":{"id":"130335","parcel":"04405008800","address":"350 HILLMAN PL","owner":"ST. CHARLES, JAMES A. & SUSANNA M.","point":[-86.66522165451765,36.27316065810771]}},{"type":"Feature","id":"130365","geometry":{"type":"Polygon","coordinates":[[[-86.6661605611796,36.2715578895786],[-86.6662777839318,36.2714587358033],[-86.666644072652,36.271744746805],[-86.6665296790366,36.2718415087706],[-86.6661605611796,36.2715578895786]]]},"properties":{"id":"130365","parcel":"04405010300","address":"334 RAYON DR","owner":"RUSSELL, HOLLY & RUSSELL, CHRISTOPHER JAMES ALTON","point":[-86.66640328717264,36.27165132114253]}},{"type":"Feature","id":"130366","geometry":{"type":"Polygon","coordinates":[[[-86.6658114970582,36.2718531476528],[-86.6659288035625,36.2717539234718],[-86.6662908365816,36.272043536867],[-86.6662765341007,36.2720556336707],[-86.6661753557604,36.2721412165262],[-86.6660821386325,36.2720696523034],[-86.6658114970582,36.2718531476528]]]},"properties":{"id":"130366","parcel":"04405010600","address":"340 RAYON DR","owner":"JONES, CLAYTON","point":[-86.66605116637123,36.27194834249886]}},{"type":"Feature","id":"130367","geometry":{"type":"Polygon","coordinates":[[[-86.6652319567608,36.2723433495463],[-86.6653439235998,36.2722486434908],[-86.6657042747168,36.272539680093],[-86.6655868429898,36.2726390083561],[-86.6652319567608,36.2723433495463]]]},"properties":{"id":"130367","parcel":"04405011100","address":"350 RAYON DR","owner":"RICE, BUD JAMES & GWENDOLYN","point":[-86.66546625803794,36.272441509856634]}},{"type":"Feature","id":"130370","geometry":{"type":"Polygon","coordinates":[[[-86.665699088962,36.2713921159706],[-86.6658175464456,36.2712919167144],[-86.6661605611796,36.2715578895786],[-86.6660424231023,36.2716578179339],[-86.665699088962,36.2713921159706]]]},"properties":{"id":"130370","parcel":"04405012100","address":"203 ENSLEY AVE","owner":"ELDRIDGE, JOEY P.","point":[-86.66592992914116,36.271475003287854]}},{"type":"Feature","id":"130371","geometry":{"type":"Polygon","coordinates":[[[-86.6660533907789,36.2710924240732],[-86.6661738321521,36.2709905471383],[-86.666512940227,36.2712598237558],[-86.6663970563578,36.2713578465469],[-86.6660533907789,36.2710924240732]]]},"properties":{"id":"130371","parcel":"04405012400","address":"109 ENSLEY AVE","owner":"EICHORN, JAKE & PHELP, HAYDEN J & EICHORN, MARVIN H","point":[-86.66628464838443,36.27117612827287]}},{"type":"Feature","id":"130457","geometry":{"type":"Polygon","coordinates":[[[-86.6694562633687,36.2754381023828],[-86.6701587144953,36.2748905080365],[-86.6703948650622,36.2750877194373],[-86.6696950930415,36.2756332265407],[-86.6694562633687,36.2754381023828]]]},"properties":{"id":"130457","parcel":"04401001700","address":"329 KEETON AVE","owner":"PRINCE, DEAN RICHARD","point":[-86.66992556525236,36.275262911838794]}},{"type":"Feature","id":"130460","geometry":{"type":"Polygon","coordinates":[[[-86.6693826757973,36.2733755014832],[-86.6697882739751,36.2730556704049],[-86.6699452078386,36.2731880462561],[-86.6695406699218,36.2735070419382],[-86.6694346166955,36.2734182585362],[-86.6693990715674,36.2733893581716],[-86.6693826757973,36.2733755014832]]]},"properties":{"id":"130460","parcel":"04405001700","address":"115 SCENIC VIEW RD","owner":"LAHEY, CHARLES W. & JENNIFER J.","point":[-86.66966394218494,36.273281774202964]}},{"type":"Feature","id":"130692","geometry":{"type":"Polygon","coordinates":[[[-86.6666372725118,36.2745048110045],[-86.6678856966487,36.2735417342047],[-86.6679103684669,36.2735629859453],[-86.6681401573574,36.2737537083961],[-86.6683719784896,36.2739428347981],[-86.6686010995502,36.2741340827715],[-86.6688468361247,36.2743354087797],[-86.6684967465515,36.2746330061081],[-86.6676538988789,36.2753588724182],[-86.6669870743691,36.2747986803544],[-86.6666372725118,36.2745048110045]]]},"properties":{"id":"130692","parcel":"04405023600","address":"435 SWINGING BRIDGE RD","owner":"DP 112, LLC","point":[-86.66774728015275,36.274420129516784]}},{"type":"Feature","id":"130991","geometry":{"type":"Polygon","coordinates":[[[-86.6670561617323,36.2707740697603],[-86.6674057426251,36.2704696575593],[-86.6675277119667,36.2705650898041],[-86.6676499348258,36.2706603267586],[-86.6677726217914,36.270755925123],[-86.6678715313841,36.2708329965018],[-86.6679946524453,36.2709289320053],[-86.667647837239,36.2712309351099],[-86.667524100736,36.2711355370927],[-86.6674247104923,36.2710588844609],[-86.6674242489509,36.2710585283185],[-86.6673013362463,36.2709638834601],[-86.6671786604203,36.2708690497112],[-86.6671051466426,36.2708116314065],[-86.6670561617323,36.2707740697603]]]},"properties":{"id":"130991","parcel":"04405006400","address":"309 RAYON DR","owner":"REFUGE CHURCH NASHVILLE, INC.","point":[-86.66752512497348,36.270851023689296]}},{"type":"Feature","id":"131031","geometry":{"type":"Polygon","coordinates":[[[-86.6673133601265,36.2713223975004],[-86.6674303642558,36.2712166584779],[-86.6678249936169,36.2715207846566],[-86.6676967287708,36.2716255002758],[-86.6673133601265,36.2713223975004]]]},"properties":{"id":"131031","parcel":"04405007200","address":"323 RAYON DR","owner":"NEELY, EVA JEWELL","point":[-86.66756755141726,36.2714215868341]}},{"type":"Feature","id":"131034","geometry":{"type":"Polygon","coordinates":[[[-86.6671922212862,36.2714318723152],[-86.6673133601265,36.2713223975004],[-86.6676967287708,36.2716255002758],[-86.6675690096579,36.2717297720357],[-86.6671922212862,36.2714318723152]]]},"properties":{"id":"131034","parcel":"04405007300","address":"325 RAYON DR","owner":"DDS PROPERTIES, LLC","point":[-86.66744447489077,36.27152868656118]}},{"type":"Feature","id":"131036","geometry":{"type":"Polygon","coordinates":[[[-86.666727987164,36.2718326571355],[-86.6668452836553,36.2717334402243],[-86.6672106649848,36.2720223231384],[-86.6670912161725,36.2721198399308],[-86.666727987164,36.2718326571355]]]},"properties":{"id":"131036","parcel":"04405007700","address":"333 RAYON DR","owner":"DIXON, BRADLEY SCOTT","point":[-86.66696932552264,36.271927490378964]}},{"type":"Feature","id":"131038","geometry":{"type":"Polygon","coordinates":[[[-86.6664656117417,36.2720545911781],[-86.6664922042026,36.2720320975347],[-86.666855307981,36.2723205281193],[-86.6667378638987,36.2724196340792],[-86.6663749035187,36.2721313177176],[-86.6664656117417,36.2720545911781]]]},"properties":{"id":"131038","parcel":"04405007900","address":"339 RAYON DR","owner":"ROZKUSZKA, DAVID A.- REV. TRUST","point":[-86.66661510559267,36.272225923159276]}},{"type":"Feature","id":"131041","geometry":{"type":"Polygon","coordinates":[[[-86.665671094345,36.2727266345531],[-86.6657883967912,36.2726274150711],[-86.6661506413302,36.2729151648138],[-86.6660331954931,36.2730142709724],[-86.665671094345,36.2727266345531]]]},"properties":{"id":"131041","parcel":"04405008500","address":"351 RAYON DR","owner":"CAMERON, DONNA K.","point":[-86.66591086749717,36.27282089992291]}},{"type":"Feature","id":"131042","geometry":{"type":"Polygon","coordinates":[[[-86.6655655226682,36.2728159316222],[-86.665671094345,36.2727266345531],[-86.6660331954931,36.2730142709724],[-86.6659274949894,36.2731034663194],[-86.6658202801673,36.2731939379483],[-86.6655953257659,36.2730033710261],[-86.6654677773611,36.272898607398],[-86.6655655226682,36.2728159316222]]]},"properties":{"id":"131042","parcel":"04405008600","address":"355 RAYON DR","owner":"MATTHEWS, CLARENCE LEONARD","point":[-86.6657432860851,36.2729515811846]}},{"type":"Feature","id":"131108","geometry":{"type":"Polygon","coordinates":[[[-86.6668670151664,36.2709603208527],[-86.6669826238126,36.2708625298277],[-86.667335440625,36.2711377929109],[-86.6672183105538,36.2712436442924],[-86.6671663186726,36.2712906296675],[-86.6668076083325,36.2710105707064],[-86.6668670151664,36.2709603208527]]]},"properties":{"id":"131108","parcel":"04405009700","address":"324 RAYON DR","owner":"KELLER, JOE W. ETUX","point":[-86.66707149566128,36.271074182019454]}},{"type":"Feature","id":"131111","geometry":{"type":"Polygon","coordinates":[[[-86.6667491882955,36.2710599877527],[-86.6668076083325,36.2710105707064],[-86.6671663186726,36.2712906296675],[-86.6671084879954,36.2713428924317],[-86.6669953426131,36.2714451427915],[-86.6666281198626,36.2711623968444],[-86.6667491882955,36.2710599877527]]]},"properties":{"id":"131111","parcel":"04405009900","address":"326 RAYON DR","owner":"HEAD, CAMELIA CHRISTINE","point":[-86.6668977914353,36.271226515152094]}},{"type":"Feature","id":"131113","geometry":{"type":"Polygon","coordinates":[[[-86.6663970563578,36.2713578465469],[-86.666512940227,36.2712598237558],[-86.6665439633146,36.2712844591395],[-86.6668804809662,36.2715447754128],[-86.6667647275423,36.2716426887792],[-86.6663970563578,36.2713578465469]]]},"properties":{"id":"131113","parcel":"04405010100","address":"0 RAYON DR","owner":"ALLEN, KATHY HICKERSON LEE","point":[-86.66663867793945,36.271451310971266]}},{"type":"Feature","id":"131115","geometry":{"type":"Polygon","coordinates":[[[-86.6662777839318,36.2714587358033],[-86.6663970563578,36.2713578465469],[-86.6667647275423,36.2716426887792],[-86.666644072652,36.271744746805],[-86.6662777839318,36.2714587358033]]]},"properties":{"id":"131115","parcel":"04405010200","address":"332 RAYON DR","owner":"WHARMBY, JESSICA & FLAHERTY, JAMES","point":[-86.66652079075959,36.2715507112426]}},{"type":"Feature","id":"131117","geometry":{"type":"Polygon","coordinates":[[[-86.6660424231023,36.2716578179339],[-86.6661605611796,36.2715578895786],[-86.6665296790366,36.2718415087706],[-86.6664103728911,36.271942425363],[-86.6660424231023,36.2716578179339]]]},"properties":{"id":"131117","parcel":"04405010400","address":"336 RAYON DR","owner":"LLOYD, NOAH SAMUEL  & ALEXANDRIA RENE","point":[-86.66628565492375,36.271749662495054]}},{"type":"Feature","id":"131119","geometry":{"type":"Polygon","coordinates":[[[-86.6653439235998,36.2722486434908],[-86.6654595757828,36.2721508194947],[-86.6657050495386,36.2723471911858],[-86.6658226477136,36.2724395543411],[-86.6657042747168,36.272539680093],[-86.6653439235998,36.2722486434908]]]},"properties":{"id":"131119","parcel":"04405011000","address":"348 RAYON DR","owner":"MEECE, SUSAN TRUSTEE","point":[-86.66552419466518,36.27229791665818]}},{"type":"Feature","id":"131128","geometry":{"type":"Polygon","coordinates":[[[-86.6655912126954,36.271483362554],[-86.665699088962,36.2713921159706],[-86.6660424231023,36.2716578179339],[-86.6659288035625,36.2717539234718],[-86.6655912126954,36.271483362554]]]},"properties":{"id":"131128","parcel":"04405012000","address":"205 ENSLEY AVE","owner":"ELDRIDGE, JOEY P.","point":[-86.6658148800795,36.2715705850421]}},{"type":"Feature","id":"131130","geometry":{"type":"Polygon","coordinates":[[[-86.6658175464456,36.2712919167144],[-86.6659357251435,36.2711919531946],[-86.6662777839318,36.2714587358033],[-86.6661605611796,36.2715578895786],[-86.6658175464456,36.2712919167144]]]},"properties":{"id":"131130","parcel":"04405012200","address":"201 ENSLEY AVE","owner":"HARPER, AARON & DELANEY","point":[-86.66604797752386,36.27137532735234]}},{"type":"Feature","id":"131133","geometry":{"type":"Polygon","coordinates":[[[-86.6659357251435,36.2711919531946],[-86.6660533907789,36.2710924240732],[-86.6663970563578,36.2713578465469],[-86.6662777839318,36.2714587358033],[-86.6659357251435,36.2711919531946]]]},"properties":{"id":"131133","parcel":"04405012300","address":"111 ENSLEY AVE","owner":"CHAMBLEE, CLINTON CURTIS","point":[-86.6661658673135,36.271274898632136]}},{"type":"Feature","id":"131134","geometry":{"type":"Polygon","coordinates":[[[-86.6661738321521,36.2709905471383],[-86.6662860932288,36.270895588891],[-86.6666281198626,36.2711623968444],[-86.666512940227,36.2712598237558],[-86.6661738321521,36.2709905471383]]]},"properties":{"id":"131134","parcel":"04405012500","address":"107 ENSLEY AVE","owner":"JAYNES, HARVEY","point":[-86.66640000555131,36.271076469500166]}},{"type":"Feature","id":"131505","geometry":{"type":"Polygon","coordinates":[[[-86.6670974230852,36.2702294026315],[-86.667097507074,36.2702293318716],[-86.6671595975093,36.2702761101858],[-86.6672812834473,36.2703717929867],[-86.6674057426251,36.2704696575593],[-86.6670561617323,36.2707740697603],[-86.6669300176462,36.2706776786402],[-86.666806728253,36.2705833616001],[-86.6667749207767,36.270556616311],[-86.6667457328923,36.2705279792903],[-86.6670974230852,36.2702294026315]]]},"properties":{"id":"131505","parcel":"04405006500","address":"305 RAYON DR","owner":"TAYLOR, STANLEY R. ET UX","point":[-86.66707617877069,36.27049882010809]}},{"type":"Feature","id":"131553","geometry":{"type":"Polygon","coordinates":[[[-86.6670521387293,36.2715584668621],[-86.6670789289815,36.2715342560429],[-86.6674495606146,36.271827289197],[-86.6673301135031,36.271924806225],[-86.6669625798453,36.2716342222951],[-86.6670521387293,36.2715584668621]]]},"properties":{"id":"131553","parcel":"04405007500","address":"329 RAYON DR","owner":"LENARD, ROBERT J TRUST FBO MICHELLE L DENNIS","point":[-86.66720606997245,36.27173075599325]}},{"type":"Feature","id":"131554","geometry":{"type":"Polygon","coordinates":[[[-86.6664922042026,36.2720320975347],[-86.6666095046003,36.2719328781363],[-86.6669727506489,36.2722214211473],[-86.666855307981,36.2723205281193],[-86.6664922042026,36.2720320975347]]]},"properties":{"id":"131554","parcel":"04405007800","address":"337 RAYON DR","owner":"FOWLER, JOELLEN B.","point":[-86.66673247708242,36.27212675958146]}},{"type":"Feature","id":"131557","geometry":{"type":"Polygon","coordinates":[[[-86.6657883967912,36.2726274150711],[-86.6659056989437,36.2725281954722],[-86.6662680857682,36.2728160594454],[-86.6661506413302,36.2729151648138],[-86.6657883967912,36.2726274150711]]]},"properties":{"id":"131557","parcel":"04405008400","address":"349 RAYON DR","owner":"HALLMAN, CHRISTOPHER","point":[-86.66602824130725,36.27272173749888]}},{"type":"Feature","id":"131578","geometry":{"type":"Polygon","coordinates":[[[-86.666512940227,36.2712598237558],[-86.6666281198626,36.2711623968444],[-86.6669953426131,36.2714451427915],[-86.6669525736448,36.2714837939269],[-86.6668804809662,36.2715447754128],[-86.6665439633146,36.2712844591395],[-86.666512940227,36.2712598237558]]]},"properties":{"id":"131578","parcel":"04405010000","address":"328 RAYON DR","owner":"ALLEN, KATHY HICKERSON","point":[-86.66676941001572,36.27136480050152]}},{"type":"Feature","id":"131580","geometry":{"type":"Polygon","coordinates":[[[-86.6655768511205,36.2720516228777],[-86.6655768842813,36.2720515956581],[-86.6655769196528,36.2720515666238],[-86.665694191373,36.2719523717108],[-86.6660562233284,36.2722419857976],[-86.6659378299125,36.2723421281221],[-86.6655768511205,36.2720516228777]]]},"properties":{"id":"131580","parcel":"04405010800","address":"344 RAYON DR","owner":"REAGAN, BRENDA J.","point":[-86.66581618200645,36.27214680358533]}},{"type":"Feature","id":"131582","geometry":{"type":"Polygon","coordinates":[[[-86.665114585513,36.2724426256515],[-86.6652319567608,36.2723433495463],[-86.6655868429898,36.2726390083561],[-86.665469472854,36.2727382838898],[-86.665114585513,36.2724426256515]]]},"properties":{"id":"131582","parcel":"04405011200","address":"352 RAYON DR","owner":"HALL, DONA FRANCES","point":[-86.6653507143212,36.27254081723721]}},{"type":"Feature","id":"131584","geometry":{"type":"Polygon","coordinates":[[[-86.6662860932288,36.270895588891],[-86.6664068345934,36.270793457715],[-86.6667491882955,36.2710599877527],[-86.6666281198626,36.2711623968444],[-86.6662860932288,36.270895588891]]]},"properties":{"id":"131584","parcel":"04405012600","address":"105 ENSLEY AVE","owner":"M & S PROPERTIES","point":[-86.6665175352843,36.270977788251855]}},{"type":"Feature","id":"131587","geometry":{"type":"Polygon","coordinates":[[[-86.6665217451396,36.2706962576807],[-86.6665247244797,36.2706937367194],[-86.6665444131438,36.2706794913725],[-86.6665665926013,36.2706678918277],[-86.6665911739965,36.2706590917837],[-86.6666171628424,36.2706535473416],[-86.6666439069864,36.2706513954804],[-86.6666707357875,36.2706526921705],[-86.6666969745158,36.2706574041835],[-86.6667219655346,36.2706654134809],[-86.666745079445,36.2706765189556],[-86.6667657362681,36.2706904408206],[-86.6668031440297,36.2707209998794],[-86.6669826238126,36.2708625298277],[-86.6668670151664,36.2709603208527],[-86.6665217451396,36.2706962576807]]]},"properties":{"id":"131587","parcel":"04405012800","address":"101 ENSLEY AVE","owner":"PRICE, BILLY & DEBRA","point":[-86.66676930324924,36.27079142062912]}},{"type":"Feature","id":"131841","geometry":{"type":"Polygon","coordinates":[[[-86.6692263373396,36.2732426565786],[-86.6696322339671,36.272922588235],[-86.6697882739751,36.2730556704049],[-86.6693826757973,36.2733755014832],[-86.6692808698728,36.2732894558022],[-86.6692500326321,36.273262771593],[-86.6692263373396,36.2732426565786]]]},"properties":{"id":"131841","parcel":"04405001800","address":"113 SCENIC VIEW RD","owner":"APEX REALTY AND AUCTION, LLC","point":[-86.66950730554484,36.27314916382303]}},{"type":"Feature","id":"131843","geometry":{"type":"Polygon","coordinates":[[[-86.6689916026575,36.2730443336865],[-86.6693975876814,36.2727241980296],[-86.6696322339671,36.272922588235],[-86.6692263373396,36.2732426565786],[-86.6690311989356,36.2730774709788],[-86.6689916026575,36.2730443336865]]]},"properties":{"id":"131843","parcel":"04405001900","address":"111 SCENIC VIEW RD","owner":"HORNE, CHRISTOPHER & SHELBY","point":[-86.66931191876061,36.272983461391846]}},{"type":"Feature","id":"131845","geometry":{"type":"Polygon","coordinates":[[[-86.6679383112317,36.2728081653282],[-86.6683125952502,36.2725130329941],[-86.6684611102662,36.272628125695],[-86.6684789519265,36.2726118192215],[-86.6685727097939,36.2726913401099],[-86.6681722144407,36.2730071419443],[-86.6679383112317,36.2728081653282]]]},"properties":{"id":"131845","parcel":"04405002600","address":"310 KEETON AVE","owner":"ASHTON, KAREN J. & GREEN, LAURIE E.","point":[-86.66825551079009,36.272749753141326]}},{"type":"Feature","id":"132022","geometry":{"type":"Polygon","coordinates":[[[-86.6696711377982,36.2742790748075],[-86.6700766222328,36.2739593345227],[-86.6700834538377,36.2739651222226],[-86.6701008904476,36.2739798923026],[-86.6701091013977,36.2739880876601],[-86.6702421252441,36.2741010587197],[-86.6698359320362,36.2744213586338],[-86.6696944534043,36.2742985952178],[-86.6696711377982,36.2742790748075]]]},"properties":{"id":"132022","parcel":"04405003600","address":"328 KEETON AVE","owner":"WEIDNER, HALLIE & HAUGHT, ZACHARY","point":[-86.66995663188462,36.27419006710681]}},{"type":"Feature","id":"132040","geometry":{"type":"Polygon","coordinates":[[[-86.6665846938857,36.2728199076356],[-86.6667948799267,36.2726417269516],[-86.6669893631167,36.2728015547224],[-86.6672195975908,36.2729919250024],[-86.6674499105684,36.2731822340229],[-86.6676805132408,36.2733723165921],[-86.6678856966487,36.2735417342047],[-86.6666372725118,36.2745048110045],[-86.6665985934807,36.2744723149706],[-86.6656111705581,36.2736427604298],[-86.6656226732123,36.2736354457568],[-86.6665846938857,36.2728199076356]]]},"properties":{"id":"132040","parcel":"04405005400","address":"351 HILLMAN PL","owner":"DP 112, LLC","point":[-86.6667512878569,36.273588587262886]}},{"type":"Feature","id":"132041","geometry":{"type":"Polygon","coordinates":[[[-86.6653280279258,36.2738562760229],[-86.6654080864565,36.2737908031792],[-86.6655119918947,36.2737058278595],[-86.6657108442734,36.2738739456551],[-86.6657371155874,36.2739188500096],[-86.6657597570388,36.273965034277],[-86.6657786723857,36.2740123043232],[-86.6657937820571,36.2740604632179],[-86.6658050264994,36.2741093121179],[-86.6658123550094,36.2741586458224],[-86.6658157402552,36.2742082590013],[-86.6658151660348,36.274257946263],[-86.6653280279258,36.2738562760229]]]},"properties":{"id":"132041","parcel":"04405005600","address":"0 SWINGING BRIDGE RD","owner":"DP 112, LLC","point":[-86.66562842556532,36.27398827575801]}},{"type":"Feature","id":"132042","geometry":{"type":"Polygon","coordinates":[[[-86.6680295595728,36.2709334344973],[-86.6687490864712,36.2703322647705],[-86.6689785957497,36.27047543908],[-86.6682529113149,36.2711073708835],[-86.6680295595728,36.2709334344973]]]},"properties":{"id":"132042","parcel":"04405006000","address":"98 SCENIC VIEW RD","owner":"EDDE, GLADYS D. & LINDA M.","point":[-86.6685096298653,36.270704453126655]}},{"type":"Feature","id":"132043","geometry":{"type":"Polygon","coordinates":[[[-86.667647837239,36.2712309351099],[-86.6679946524453,36.2709289320053],[-86.6681166456927,36.271024258975],[-86.6681167028388,36.2710243046221],[-86.6682386487491,36.2711197903465],[-86.6678935859602,36.2714202694753],[-86.6677706964512,36.271325605143],[-86.667647837239,36.2712309351099]]]},"properties":{"id":"132043","parcel":"04405006300","address":"96 SCENIC VIEW RD","owner":"PLOTNICK, BENJAMIN EUGENE & RAITZ, KAITLYN MARIE","point":[-86.66794324333289,36.27117536309472]}},{"type":"Feature","id":"132381","geometry":{"type":"Polygon","coordinates":[[[-86.6686010995502,36.2741340827715],[-86.668944405137,36.2738645870481],[-86.6691720798703,36.2740589295817],[-86.6688468361247,36.2743354087797],[-86.6686010995502,36.2741340827715]]]},"properties":{"id":"132381","parcel":"04405004400","address":"319 KEETON AVE","owner":"DRUMMOND, DAVID L.","point":[-86.66888844764354,36.27409651166169]}},{"type":"Feature","id":"132397","geometry":{"type":"Polygon","coordinates":[[[-86.6672195975908,36.2729919250024],[-86.6675698874944,36.2727169501773],[-86.6677993513578,36.2729079256448],[-86.6674499105684,36.2731822340229],[-86.6672195975908,36.2729919250024]]]},"properties":{"id":"132397","parcel":"04405005000","address":"307 KEETON AVE","owner":"HINTON, SHAWN","point":[-86.66750947457577,36.27294992567572]}},{"type":"Feature","id":"132398","geometry":{"type":"Polygon","coordinates":[[[-86.6658151660348,36.274257946263],[-86.6658157402552,36.2742082590013],[-86.6658123550094,36.2741586458224],[-86.6658050264994,36.2741093121179],[-86.6657937820571,36.2740604632179],[-86.6657786723857,36.2740123043232],[-86.6657597570388,36.273965034277],[-86.6657371155874,36.2739188500096],[-86.6657108442734,36.2738739456551],[-86.6657735972514,36.2739267448369],[-86.6664898103779,36.2745138146655],[-86.6662906819381,36.274648691653],[-86.6658151660348,36.274257946263]]]},"properties":{"id":"132398","parcel":"04405005500","address":"0 SWINGING BRIDGE RD","owner":"DP 112, LLC","point":[-86.66615229359583,36.274385880396764]}},{"type":"Feature","id":"132399","geometry":{"type":"Polygon","coordinates":[[[-86.6673846194124,36.2719388177574],[-86.6678604184805,36.2715503737989],[-86.6682591948486,36.2718556959028],[-86.668268612513,36.2718637053705],[-86.6682763045745,36.2718728446131],[-86.6682820675411,36.2718828714228],[-86.668285750046,36.2718935216741],[-86.6682872539981,36.2719045138231],[-86.6682865402151,36.2719155569879],[-86.66828362741,36.2719263626702],[-86.6682785932881,36.2719366429463],[-86.6682715691356,36.2719461285222],[-86.6682627420289,36.2719545669189],[-86.6681559573068,36.2720452581975],[-86.667853835409,36.2723018466311],[-86.6673846194124,36.2719388177574]]]},"properties":{"id":"132399","parcel":"04405005800","address":"101 SCENIC VIEW RD","owner":"SEIDL, VLADAN & SHEILA RAE","point":[-86.66783884941363,36.27193027533238]}},{"type":"Feature","id":"132400","geometry":{"type":"Polygon","coordinates":[[[-86.6671276259286,36.2721486253529],[-86.6672625821425,36.2720384488924],[-86.6673846194124,36.2719388177574],[-86.667853835409,36.2723018466311],[-86.6676435470211,36.2724791168084],[-86.6676355475133,36.2724848730193],[-86.6676265304612,36.2724895398511],[-86.6676167185853,36.2724929998141],[-86.6676063582439,36.2724951668315],[-86.6675957049872,36.2724959890222],[-86.6675850246325,36.2724954441897],[-86.6675745833007,36.272493546185],[-86.6675646407161,36.2724903422402],[-86.6675554424079,36.2724859121103],[-86.667547220808,36.2724803662648],[-86.6675423513453,36.2724765169526],[-86.6671276259286,36.2721486253529]]]},"properties":{"id":"132400","parcel":"04405005900","address":"306 KEETON AVE","owner":"GAMBLE, VICKY & PAUL A.,III COTRS","point":[-86.6674896767355,36.27222523361267]}},{"type":"Feature","id":"133389","geometry":{"type":"Polygon","coordinates":[[[-86.6687689088066,36.2728556887508],[-86.6691744470906,36.2725359059758],[-86.6692014174365,36.2725581009426],[-86.6693975876814,36.2727241980296],[-86.6689916026575,36.2730443336865],[-86.6688380614786,36.2729161195526],[-86.6688079631314,36.2728892526959],[-86.668791574398,36.2728746226287],[-86.6687689088066,36.2728556887508]]]},"properties":{"id":"133389","parcel":"04405002000","address":"109 SCENIC VIEW RD","owner":"HARTSFIELD, TERRY E. & LAURA L.","point":[-86.66908324849469,36.272789943804995]}},{"type":"Feature","id":"133392","geometry":{"type":"Polygon","coordinates":[[[-86.6685783821075,36.2726961510624],[-86.6689699026729,36.2723791817462],[-86.6691112320367,36.272483883447],[-86.6691744470906,36.2725359059758],[-86.6687689088066,36.2728556887508],[-86.6685783821075,36.2726961510624]]]},"properties":{"id":"133392","parcel":"04405002100","address":"107 SCENIC VIEW RD","owner":"OUELLET, ROBERT","point":[-86.66887508966667,36.27261602522343]}},{"type":"Feature","id":"133395","geometry":{"type":"Polygon","coordinates":[[[-86.6682482804922,36.2721705591574],[-86.6684000691951,36.2720439084178],[-86.6684097149907,36.2720371309643],[-86.6684205526916,36.2720316618189],[-86.668432314079,36.2720276340449],[-86.6684447106284,36.2720251483734],[-86.6684574334408,36.2720242650931],[-86.6684701710794,36.2720250075559],[-86.668482608404,36.2720273558753],[-86.6684944366401,36.272031253179],[-86.6685053655909,36.2720366019367],[-86.6685151248182,36.2720432720642],[-86.6688108235625,36.2722613930469],[-86.6685782009992,36.272393161675],[-86.6682482804922,36.2721705591574]]]},"properties":{"id":"133395","parcel":"04405002300","address":"103 SCENIC VIEW RD","owner":"LOCKHART, JEREMY","point":[-86.66853239632226,36.27221598431573]}},{"type":"Feature","id":"133398","geometry":{"type":"Polygon","coordinates":[[[-86.6684054698206,36.2732066308822],[-86.6688079631314,36.2728892526959],[-86.6688380614786,36.2729161195526],[-86.6689916026575,36.2730443336865],[-86.6690311989356,36.2730774709788],[-86.6686292572737,36.2733944142461],[-86.6684054698206,36.2732066308822]]]},"properties":{"id":"133398","parcel":"04405002800","address":"314 KEETON AVE","owner":"DENSON, BOBBY DARRELL","point":[-86.66871833455329,36.273142051341175]}},{"type":"Feature","id":"136062","geometry":{"type":"Polygon","coordinates":[[[-86.6699285178916,36.2729849645729],[-86.6696304803721,36.2727394293376],[-86.6698690112236,36.2725870066117],[-86.6701720990393,36.2729105114724],[-86.6700402601235,36.2729915369887],[-86.6700288163363,36.2729974620571],[-86.670016349905,36.2730018309551],[-86.6700031826612,36.2730045328488],[-86.6699896523608,36.273005497372],[-86.6699761038337,36.2730047009834],[-86.6699628878327,36.2730021624671],[-86.6699503399328,36.2729979484569],[-86.6699387849304,36.2729921671031],[-86.6699285178916,36.2729849645729]]]},"properties":{"id":"136062","parcel":"044050G00100CO","address":"114 SCENIC VIEW RD","owner":"COBALT PROPERTIES III, LLC","point":[-86.6699131009571,36.27282500331102]}},{"type":"Feature","id":"140762","geometry":{"type":"Polygon","coordinates":[[[-86.6651331354967,36.2760368865875],[-86.6654657675511,36.2757731528355],[-86.6664381984058,36.2765753239597],[-86.6656731900767,36.2771818803289],[-86.6649112459212,36.2765617453513],[-86.6652712210425,36.2762763331199],[-86.6652015267596,36.276216243083],[-86.6652742671378,36.2761585693782],[-86.6651331354967,36.2760368865875]]]},"properties":{"id":"140762","parcel":"04400008000","address":"0 INDUSTRIAL DR","owner":"SONTARA OLD HICKORY, INC","point":[-86.66567195507281,36.27642066422559]}},{"type":"Feature","id":"147588","geometry":{"type":"Polygon","coordinates":[[[-86.6692477371557,36.2768836572323],[-86.6692400311175,36.2768330010414],[-86.6692278999903,36.276782916399],[-86.6692114037965,36.2767336562178],[-86.669190625908,36.2766854705774],[-86.6691656730002,36.2766386013166],[-86.6691366695249,36.2765932865709],[-86.6691037621091,36.2765497544389],[-86.6690671184644,36.2765082256923],[-86.6690269262665,36.2764689128813],[-86.6689833864011,36.2764320113594],[-86.6677482311707,36.2754381185481],[-86.668591815077,36.2747207596751],[-86.6686666069468,36.2747894002334],[-86.668742698372,36.2748504541809],[-86.6689803292093,36.2750465119659],[-86.6692177809722,36.2752427081589],[-86.6694562633687,36.2754381023828],[-86.6696950930415,36.2756332265407],[-86.6699295764192,36.275826643043],[-86.6702573343421,36.2760950507974],[-86.6702588127205,36.2760962664738],[-86.6702584888112,36.2760965278253],[-86.6704385608681,36.27624813493],[-86.6704081740781,36.2762725088001],[-86.670181500721,36.2764543162128],[-86.6699404796053,36.2766476276433],[-86.6696994573137,36.2768409385819],[-86.6694481665315,36.2770424854861],[-86.6692477371557,36.2768836572323]]]},"properties":{"id":"147588","parcel":"04401002700","address":"0 SWINGING BRIDGE RD","owner":"DP 129, LLC","point":[-86.66924272522819,36.27595849720527]}},{"type":"Feature","id":"155076","geometry":{"type":"Polygon","coordinates":[[[-86.6694481665315,36.2770424854861],[-86.6696994573137,36.2768409385819],[-86.6702485714578,36.2772897955532],[-86.6700559437949,36.2774442912572],[-86.670044671548,36.2774518871516],[-86.6700319514239,36.2774577967534],[-86.670018165939,36.277461844004],[-86.6700037236736,36.2774639076752],[-86.6699890593107,36.2774639258761],[-86.6699746091719,36.2774618988917],[-86.6699608067424,36.2774578865044],[-86.6699517868691,36.2774539764832],[-86.6699434142811,36.2774492157147],[-86.6699358108902,36.2774436738195],[-86.6694481665315,36.2770424854861]]]},"properties":{"id":"155076","parcel":"04401003800","address":"83 HICKERSON ST","owner":"MEADOR, ANITRA","point":[-86.6698478836697,36.27716613984926]}},{"type":"Feature","id":"171861","geometry":{"type":"Polygon","coordinates":[[[-86.6670325392417,36.2725397287837],[-86.6670841824387,36.2724981519159],[-86.6671649457894,36.2725639287941],[-86.6671133025843,36.2726055047944],[-86.6670325392417,36.2725397287837]]]},"properties":{"id":"171861","parcel":"044050J00200CO","address":"303 KEETON AVE","owner":"NOZZA, GREGORY & BECHTEL, RACHEL","point":[-86.66709874260555,36.27255182880746]}},{"type":"Feature","id":"171863","geometry":{"type":"Polygon","coordinates":[[[-86.6667948799267,36.2726417269516],[-86.6666868810214,36.2725467279516],[-86.6666882239277,36.2725456138286],[-86.6668118614632,36.2724424731741],[-86.6670259006328,36.272264205011],[-86.6673404247446,36.2725259751643],[-86.6669893631167,36.2728015547224],[-86.6667948799267,36.2726417269516]],[[-86.6671649457894,36.2725639287941],[-86.6670841824387,36.2724981519159],[-86.6670325392417,36.2725397287837],[-86.6671133025843,36.2726055047944],[-86.6671649457894,36.2725639287941]],[[-86.6669137671574,36.2724998259968],[-86.6670024510807,36.2724249884041],[-86.6669390986026,36.2723757638359],[-86.666850415795,36.2724506022782],[-86.6669137671574,36.2724998259968]]]},"properties":{"id":"171863","parcel":"044050J90000CO","address":"301 B KEETON AVE","owner":"O.I.C. KEETON AVENUE TOWNHOMES","point":[-86.66687335526977,36.27253198030096]}},{"type":"Feature","id":"173075","geometry":{"type":"Polygon","coordinates":[[[-86.666850415795,36.2724506022782],[-86.6669390986026,36.2723757638359],[-86.6670024510807,36.2724249884041],[-86.6669137671574,36.2724998259968],[-86.666850415795,36.2724506022782]]]},"properties":{"id":"173075","parcel":"044050J00100CO","address":"301 KEETON AVE","owner":"POLSTON JOINT REV TRUST","point":[-86.66692643326158,36.27243779536488]}},{"type":"Feature","id":"199012","geometry":{"type":"Polygon","coordinates":[[[-86.6622278657313,36.277266953857],[-86.6622308416583,36.2772645114345],[-86.6622532947458,36.2772808295957],[-86.662278033476,36.2772948145556],[-86.6623046866061,36.2773062619648],[-86.6623328631222,36.2773149991256],[-86.6623621412071,36.2773208967686],[-86.6623920893801,36.2773238680356],[-86.6624222609395,36.2773238694115],[-86.6624522073043,36.2773208988483],[-86.6624814869781,36.2773150029267],[-86.6625096632412,36.2773062669541],[-86.6625354906422,36.2772952303864],[-86.6625595328015,36.277281809926],[-86.6625814573468,36.2772661903461],[-86.6638450071138,36.2762529489133],[-86.662508965061,36.2751501770091],[-86.6631058388874,36.2746760690279],[-86.6635784906168,36.2750651526836],[-86.6635906863567,36.2750755625598],[-86.6636040469758,36.2750849873],[-86.6651316217483,36.276270535936],[-86.6630476306907,36.2779416851296],[-86.6622277792669,36.2772672625522],[-86.6622354051709,36.2772731680028],[-86.6622278657313,36.277266953857]]]},"properties":{"id":"199012","parcel":"04401004200","address":"374 SWINGING BRIDGE RD","owner":"OLD HICKORY HOLDINGS 615, LLC","point":[-86.66385697072229,36.276768026610675]}},{"type":"Feature","id":"207584","geometry":{"type":"Polygon","coordinates":[[[-86.6658114970582,36.2718531476528],[-86.6654736044677,36.2715828413234],[-86.6655912126954,36.271483362554],[-86.6659288035625,36.2717539234718],[-86.6658114970582,36.2718531476528]],[[-86.6658448529455,36.2717278320427],[-86.6657720267757,36.2716695728094],[-86.6656918503108,36.2717352899322],[-86.6657646775951,36.2717935492065],[-86.6658448529455,36.2717278320427]],[[-86.6656322429902,36.2716947797103],[-86.6657183276232,36.2716242192953],[-86.6656326618128,36.2715556890379],[-86.6655465771779,36.2716262493934],[-86.6656322429902,36.2716947797103]]]},"properties":{"id":"207584","parcel":"044050L90000CO","address":"207 C ENSLEY AVE","owner":"O.I.C. HOMES AT 207 ENSLEY AVENUE","point":[-86.66574316399587,36.27164814556311]}}]}