{"type":"FeatureCollection","features":[{"type":"Feature","id":"54590","geometry":{"type":"Polygon","coordinates":[[[-86.6688475342809,36.2792858143164],[-86.670411814208,36.2780336491733],[-86.6717266200889,36.2791104357781],[-86.6725436467426,36.2797847233012],[-86.6710149238596,36.2809990284606],[-86.6701008635957,36.280275382935],[-86.6688475342809,36.2792858143164]]]},"properties":{"id":"54590","parcel":"03500043400","address":"518 SWINGING BRIDGE RD","owner":"SUPERIOR OIL COMPANY INC.","point":[-86.67070234020758,36.27953530166597]}},{"type":"Feature","id":"101699","geometry":{"type":"Polygon","coordinates":[[[-86.6712113818604,36.2762666594978],[-86.6711278059097,36.2761976592388],[-86.6711567992189,36.2761746339588],[-86.6711516566452,36.2761703888667],[-86.6711794271504,36.2761483355917],[-86.6712425224109,36.276200426164],[-86.6712469691312,36.276196893869],[-86.6712949528002,36.2762365096514],[-86.6712628295361,36.2762620190226],[-86.6712404702615,36.2762435597689],[-86.6712113818604,36.2762666594978]]]},"properties":{"id":"101699","parcel":"044010A00200CO","address":"109 HICKERSON ST","owner":"HORNEMAN, TAYLOR CARL & KARAN SHARMA","point":[-86.67121286914178,36.27621831432886]}},{"type":"Feature","id":"102145","geometry":{"type":"Polygon","coordinates":[[[-86.6711977952711,36.2760296339957],[-86.6710933609593,36.2759424563052],[-86.6711353613325,36.2759094695741],[-86.6711611086683,36.2759309634133],[-86.671183487621,36.2759133867594],[-86.6712297945194,36.2759520430554],[-86.6712335151264,36.2759491204217],[-86.6712658941025,36.2759761488337],[-86.6711977952711,36.2760296339957]]]},"properties":{"id":"102145","parcel":"044010B00100CO","address":"337 KEETON AVE","owner":"POLSTON JOINT REVOCABLE TRUST","point":[-86.67118516319383,36.27596392362402]}},{"type":"Feature","id":"102146","geometry":{"type":"Polygon","coordinates":[[[-86.6711510641921,36.2760926842198],[-86.6707208564795,36.2757335615149],[-86.6707218317356,36.2757328008694],[-86.6709542010227,36.2755515799134],[-86.671383614035,36.2759100375071],[-86.6711510641921,36.2760926842198]],[[-86.6712658941025,36.2759761488337],[-86.6712335151264,36.2759491204217],[-86.6712297945194,36.2759520430554],[-86.671183487621,36.2759133867594],[-86.6711611086683,36.2759309634133],[-86.6711353613325,36.2759094695741],[-86.6710933609593,36.2759424563052],[-86.6711977952711,36.2760296339957],[-86.6712658941025,36.2759761488337]],[[-86.6710162950281,36.275766657915],[-86.6709836090838,36.2757393733867],[-86.6709157502026,36.2757926705062],[-86.6710240951537,36.2758831143402],[-86.6710652607258,36.2758507820568],[-86.6710382221149,36.2758282120835],[-86.6710598359353,36.2758112363163],[-86.6710112144377,36.2757706488441],[-86.6710162950281,36.275766657915]]]},"properties":{"id":"102146","parcel":"044010B90000CO","address":"335 B KEETON AVE","owner":"O.I.C. HOMES AT 335 AND 337 KEETON AVENU","point":[-86.67116260009787,36.27582003653273]}},{"type":"Feature","id":"102282","geometry":{"type":"Polygon","coordinates":[[[-86.6709964739508,36.2762974177139],[-86.6710259102631,36.2762741223407],[-86.6710310966859,36.2762784194661],[-86.6710592626222,36.2762561306052],[-86.6711416995387,36.2763244270633],[-86.6711133589091,36.2763468539005],[-86.6711371456499,36.2763665606687],[-86.6711032248944,36.2763934047896],[-86.6710559742479,36.2763542589118],[-86.6710606333815,36.2763505722349],[-86.6709964739508,36.2762974177139]]]},"properties":{"id":"102282","parcel":"044010A00100CO","address":"107 HICKERSON ST","owner":"GLASSANOS, SCOUT CRAMPTON","point":[-86.67108492829186,36.27633552332522]}},{"type":"Feature","id":"102323","geometry":{"type":"Polygon","coordinates":[[[-86.6709157502026,36.2757926705062],[-86.6709836090838,36.2757393733867],[-86.6710162950281,36.275766657915],[-86.6710112144377,36.2757706488441],[-86.6710598359353,36.2758112363163],[-86.6710382221149,36.2758282120835],[-86.6710652607258,36.2758507820568],[-86.6710240951537,36.2758831143402],[-86.6709157502026,36.2757926705062]]]},"properties":{"id":"102323","parcel":"044010B00200CO","address":"335 KEETON AVE","owner":"POLSTON JOINT REV TRUST","point":[-86.67099842698782,36.275819585004754]}},{"type":"Feature","id":"102836","geometry":{"type":"Polygon","coordinates":[[[-86.6704867589624,36.2759161290238],[-86.6704864603929,36.2759158332731],[-86.6704862227552,36.2759155038387],[-86.6704860516677,36.2759151469982],[-86.6704859539074,36.2759147744299],[-86.6704859295277,36.2759143924423],[-86.6704859873181,36.2759139874679],[-86.6704861275835,36.2759135955546],[-86.6704863493178,36.2759132293251],[-86.6704866425879,36.275912898748],[-86.6704870019053,36.2759126128663],[-86.6704874150956,36.2759123798585],[-86.6704878699772,36.275912207002],[-86.6704883565714,36.2759120988584],[-86.6704888571008,36.2759120591312],[-86.6704893593303,36.2759120887896],[-86.6704898487759,36.2759121861113],[-86.670490309833,36.2759123484793],[-86.6704909386539,36.2759128695088],[-86.6707208564795,36.2757335615149],[-86.6711510641921,36.2760926842198],[-86.6714439546169,36.2763371752841],[-86.6712134684347,36.2765193059325],[-86.6704909633907,36.2759161877125],[-86.6704906036997,36.2759164294359],[-86.6704902024014,36.2759166209211],[-86.6704897672713,36.2759167603223],[-86.6704893127325,36.2759168421524],[-86.6704888465683,36.2759168654667],[-86.6704883821268,36.2759168292901],[-86.6704879294324,36.2759167344681],[-86.6704875018563,36.2759165827292],[-86.670487108348,36.275916379431],[-86.6704867589624,36.2759161290238]],[[-86.6711278059097,36.2761976592388],[-86.6712113818604,36.2762666594978],[-86.6712404702615,36.2762435597689],[-86.6712628295361,36.2762620190226],[-86.6712949528002,36.2762365096514],[-86.6712469691312,36.276196893869],[-86.6712425224109,36.276200426164],[-86.6711794271504,36.2761483355917],[-86.6711516566452,36.2761703888667],[-86.6711567992189,36.2761746339588],[-86.6711278059097,36.2761976592388]],[[-86.6709964739508,36.2762974177139],[-86.6710606333815,36.2763505722349],[-86.6710559742479,36.2763542589118],[-86.6711032248944,36.2763934047896],[-86.6711371456499,36.2763665606687],[-86.6711133589091,36.2763468539005],[-86.6711416995387,36.2763244270633],[-86.6710592626222,36.2762561306052],[-86.6710310966859,36.2762784194661],[-86.6710259102631,36.2762741223407],[-86.6709964739508,36.2762974177139]]]},"properties":{"id":"102836","parcel":"044010A90000CO","address":"109 B HICKERSON ST","owner":"O.I.C. HOMES AT 107 AND 109 HICKERSON ST","point":[-86.67095938509571,36.27611994369179]}},{"type":"Feature","id":"118388","geometry":{"type":"Polygon","coordinates":[[[-86.6716853239476,36.2742386520526],[-86.6718901592244,36.2740704977758],[-86.672067808104,36.2742167473583],[-86.671821484331,36.2744055355812],[-86.6717328609731,36.2744734593724],[-86.6717327736068,36.274473525648],[-86.6716869816566,36.2744342267932],[-86.6715640055253,36.2743343712213],[-86.6716853239476,36.2742386520526]]]},"properties":{"id":"118388","parcel":"04308000900","address":"132 SCENIC VIEW RD","owner":"PRIOR, BOBBY N.","point":[-86.67180009548503,36.27428699320774]}},{"type":"Feature","id":"118389","geometry":{"type":"Polygon","coordinates":[[[-86.671914528692,36.2725572632895],[-86.6723265982685,36.2723163203677],[-86.6726146807791,36.2726569873488],[-86.6723597556828,36.2728004357992],[-86.6726606378133,36.2730773042563],[-86.6723773518915,36.2732750134451],[-86.6719888321631,36.2735447289861],[-86.6716439335054,36.2732057119775],[-86.6713507306511,36.2728869198128],[-86.6713905997507,36.2728636078244],[-86.671583172535,36.2727510092883],[-86.671914528692,36.2725572632895]]]},"properties":{"id":"118389","parcel":"04308001400","address":"108 SHELBY ST","owner":"RUNION, JONATHAN","point":[-86.67199784258293,36.272982092320895]}},{"type":"Feature","id":"118423","geometry":{"type":"Polygon","coordinates":[[[-86.6725509566194,36.273264708037],[-86.672690556396,36.2731650405163],[-86.6730269840822,36.2734730226797],[-86.6728955509677,36.2735753929745],[-86.6725509566194,36.273264708037]]]},"properties":{"id":"118423","parcel":"04308000200","address":"111 SHELBY ST","owner":"WILLIAMS, KEVIN GENE & ALVES WILLIAMS, JEANNEL C.","point":[-86.67278984395325,36.27336886798548]}},{"type":"Feature","id":"118425","geometry":{"type":"Polygon","coordinates":[[[-86.672413358329,36.2733605186904],[-86.6725509566194,36.273264708037],[-86.6728955509677,36.2735753929745],[-86.6727600534554,36.273678886152],[-86.6727600018312,36.2736788359702],[-86.672413358329,36.2733605186904]]]},"properties":{"id":"118425","parcel":"04308000300","address":"109 SHELBY ST","owner":"RUNION, JONATHAN","point":[-86.67265337176921,36.27346795311171]}},{"type":"Feature","id":"118428","geometry":{"type":"Polygon","coordinates":[[[-86.6716839502853,36.274076588103],[-86.6717917770776,36.2739902832813],[-86.6718901592244,36.2740704977758],[-86.6716853239476,36.2742386520526],[-86.6715640055253,36.2743343712213],[-86.6714547024144,36.2742465260101],[-86.6716839502853,36.274076588103]]]},"properties":{"id":"118428","parcel":"04308001000","address":"130 SCENIC VIEW RD","owner":"MOCERI, SHERRY","point":[-86.67167937229472,36.27415760562516]}},{"type":"Feature","id":"119293","geometry":{"type":"Polygon","coordinates":[[[-86.6733338203994,36.2762378299892],[-86.6730169350449,36.276084662974],[-86.6729272516891,36.2761854101146],[-86.6729399037364,36.2760479367314],[-86.6744634075464,36.2748450092083],[-86.6747194377636,36.2751441038242],[-86.6748298928847,36.2752643155749],[-86.6747273250187,36.2753451944338],[-86.6734853451842,36.2763245333797],[-86.6733338203994,36.2762378299892]]]},"properties":{"id":"119293","parcel":"04300003400","address":"0 SCENIC VIEW RD","owner":"BROWN, MYERS E","point":[-86.67383332158956,36.275696568143246]}},{"type":"Feature","id":"119301","geometry":{"type":"Polygon","coordinates":[[[-86.6730270460628,36.2734729817789],[-86.6731948162204,36.2733429888977],[-86.6737675609648,36.2736732738468],[-86.6736826473375,36.2737410477372],[-86.673594546272,36.2738113510692],[-86.6731182092074,36.2741892786805],[-86.6723927078748,36.2747648830698],[-86.6722415389987,36.2748843010762],[-86.6722309519037,36.274892692767],[-86.6721352808549,36.2748119578936],[-86.6720860738183,36.2747704341112],[-86.6719137112174,36.2746255827395],[-86.6717327736068,36.274473525648],[-86.6717328609731,36.2744734593724],[-86.671821484331,36.2744055355812],[-86.672067808104,36.2742167473583],[-86.6721363008995,36.2741627223388],[-86.6722053000029,36.2741083015251],[-86.6724884075096,36.2738891669637],[-86.6727600534554,36.273678886152],[-86.6728955509677,36.2735753929745],[-86.6730269840822,36.2734730226797],[-86.6730270460628,36.2734729817789]]]},"properties":{"id":"119301","parcel":"04300003700","address":"136 SCENIC VIEW RD","owner":"BOONE, BOBBY H. ET UX","point":[-86.67267664366622,36.274136897459]}},{"type":"Feature","id":"119474","geometry":{"type":"Polygon","coordinates":[[[-86.6721300439383,36.2735549316192],[-86.672413358329,36.2733605186904],[-86.6727600018312,36.2736788359702],[-86.6727600534554,36.273678886152],[-86.6724884075096,36.2738891669637],[-86.6724883816976,36.2738891418728],[-86.6724883480413,36.2738891105169],[-86.6721300439383,36.2735549316192]]]},"properties":{"id":"119474","parcel":"04308000400","address":"107 SHELBY ST","owner":"RUNION, JONATHAN","point":[-86.67244450669315,36.27361688279546]}},{"type":"Feature","id":"119478","geometry":{"type":"Polygon","coordinates":[[[-86.6723597556828,36.2728004357992],[-86.6726146807791,36.2726569873488],[-86.6728558652118,36.2729421923092],[-86.6726606378133,36.2730773042563],[-86.6723597556828,36.2728004357992]]]},"properties":{"id":"119478","parcel":"04308001100","address":"116 SHELBY ST","owner":"CHAPMAN, RANDY & TERRI","point":[-86.67261631708232,36.27287133759759]}},{"type":"Feature","id":"120466","geometry":{"type":"Polygon","coordinates":[[[-86.6745294628905,36.2790091232055],[-86.6746912959546,36.2788895519605],[-86.6748634543779,36.2790270373334],[-86.675090307637,36.2792125645176],[-86.6749204296239,36.2793431690345],[-86.6745294628905,36.2790091232055]]]},"properties":{"id":"120466","parcel":"04304001700","address":"113 HILLER DR","owner":"WELLS, ABIGAIL & MILLEN, MATTHEW","point":[-86.6748174327184,36.27911936751961]}},{"type":"Feature","id":"120467","geometry":{"type":"Polygon","coordinates":[[[-86.6743676700892,36.2791330902149],[-86.6745294628905,36.2790091232055],[-86.6749204296239,36.2793431690345],[-86.6747505312134,36.2794715744107],[-86.6743676700892,36.2791330902149]]]},"properties":{"id":"120467","parcel":"04304001800","address":"111 HILLER DR","owner":"FUQUA, PATRICIA A. & CARTER, THERESA R.","point":[-86.67464198778855,36.279238124334]}},{"type":"Feature","id":"120490","geometry":{"type":"Polygon","coordinates":[[[-86.6717249994571,36.2789192582209],[-86.6716248216178,36.2788270915951],[-86.6715991655239,36.2788034875752],[-86.6715979014677,36.2788022211571],[-86.6715966695288,36.2788009356347],[-86.6715954730157,36.2787996273846],[-86.6715876377624,36.2787892148192],[-86.6715819000419,36.278777941638],[-86.671581304733,36.2787763876158],[-86.6715807505219,36.2787748234516],[-86.6715802374087,36.2787732491456],[-86.6715778120489,36.2787636653957],[-86.6715769212701,36.2787539090951],[-86.6715775797952,36.2787441414825],[-86.6715779378624,36.2787404237111],[-86.6715801301011,36.2787335333235],[-86.6715819688271,36.2787286654637],[-86.6715849063433,36.2787219809223],[-86.6715872576178,36.2787182268416],[-86.6715902623794,36.2787134354161],[-86.6716192034167,36.2786876958249],[-86.6717222611337,36.278596230225],[-86.6717522514416,36.2785721655682],[-86.6720634804298,36.2788520472333],[-86.6720667734822,36.2788550020896],[-86.6719579370197,36.2789429582584],[-86.6719275110989,36.278915660537],[-86.6718235050583,36.2789999289227],[-86.6718233923091,36.2790000214751],[-86.6717249994571,36.2789192582209]]]},"properties":{"id":"120490","parcel":"04304002800","address":"601 SWINGING BRIDGE RD","owner":"DUEL, JAKE & ROSENSHEIN, CRAIG A","point":[-86.67178667186882,36.278784132521714]}},{"type":"Feature","id":"120491","geometry":{"type":"Polygon","coordinates":[[[-86.672490481312,36.2759821696871],[-86.6723155279135,36.2758357895247],[-86.6722580529603,36.2757863124632],[-86.6726691539081,36.2754595622317],[-86.6726967331437,36.2754893981852],[-86.672720953439,36.2755210886404],[-86.6727416223686,36.2755543868312],[-86.6727585818937,36.2755890322811],[-86.6727716972629,36.2756247544704],[-86.6727808659316,36.2756612745889],[-86.6727860186981,36.2756983082326],[-86.6727549312763,36.2759889118605],[-86.672490481312,36.2759821696871]]]},"properties":{"id":"120491","parcel":"04304004900","address":"149 SCENIC VIEW RD","owner":"WILLIAMS, WANDA","point":[-86.6725476831555,36.27574238086606]}},{"type":"Feature","id":"120492","geometry":{"type":"Polygon","coordinates":[[[-86.6720941576239,36.2756506032601],[-86.6725066018127,36.2753227862478],[-86.6726426579678,36.2754353998167],[-86.6726691539081,36.2754595622317],[-86.6722580529603,36.2757863124632],[-86.6722411230195,36.2757716651514],[-86.6721457584325,36.2756935944457],[-86.6720941576239,36.2756506032601]]]},"properties":{"id":"120492","parcel":"04304005000","address":"147 SCENIC VIEW RD","owner":"MORTON, LIZZIE G.","point":[-86.67238165617451,36.27555508309419]}},{"type":"Feature","id":"120513","geometry":{"type":"Polygon","coordinates":[[[-86.6719326531106,36.2755129942592],[-86.6723448728243,36.2751853565758],[-86.6725066018127,36.2753227862478],[-86.6720941576239,36.2756506032601],[-86.6719769791719,36.2755506266705],[-86.6719326531106,36.2755129942592]]]},"properties":{"id":"120513","parcel":"04304005100","address":"145 SCENIC VIEW RD","owner":"VICKERS, ZELLIE T.","point":[-86.67221962788214,36.27541789060055]}},{"type":"Feature","id":"120514","geometry":{"type":"Polygon","coordinates":[[[-86.6728141997121,36.2786978380618],[-86.6729733156142,36.2785782833402],[-86.6733095104535,36.2788555029689],[-86.672435597204,36.2794998608945],[-86.6721158420937,36.2792401287208],[-86.6721454149903,36.2792161798481],[-86.672315314861,36.279078596379],[-86.6723153845535,36.2790785455224],[-86.6725661163315,36.2788882099245],[-86.6728141997121,36.2786978380618]]]},"properties":{"id":"120514","parcel":"04304005800","address":"605 SWINGING BRIDGE RD","owner":"BENNETT, DAMIEN","point":[-86.67278713067425,36.27898432603664]}},{"type":"Feature","id":"120515","geometry":{"type":"Polygon","coordinates":[[[-86.6732243175005,36.2793702090989],[-86.6735938026195,36.2790934540064],[-86.6737359586831,36.2792135278185],[-86.6739847097536,36.27942091065],[-86.6738525821523,36.2795227349729],[-86.6736718822684,36.2796577942502],[-86.67361862167,36.279698196828],[-86.6732243175005,36.2793702090989]]]},"properties":{"id":"120515","parcel":"04304006000","address":"609 B SWINGING BRIDGE RD","owner":"STEELE, SHAUN & HANNAH","point":[-86.67360454680448,36.279395560569135]}},{"type":"Feature","id":"120797","geometry":{"type":"Polygon","coordinates":[[[-86.6722399541045,36.2781933967395],[-86.6724907507361,36.2780030113038],[-86.6730650152226,36.2785096485652],[-86.6729733156142,36.2785782833402],[-86.6728141997121,36.2786978380618],[-86.6722399541045,36.2781933967395]]]},"properties":{"id":"120797","parcel":"04304003100","address":"106 HICKMAN ST","owner":"MCKAY, DANIEL M. & PATRICIA A.","point":[-86.67265287087422,36.27835152442117]}},{"type":"Feature","id":"120798","geometry":{"type":"Polygon","coordinates":[[[-86.6717393826374,36.2766690134657],[-86.6721390199618,36.2763579580595],[-86.6723715951698,36.2764793980387],[-86.6724482915061,36.2765176865379],[-86.671989263735,36.276877598257],[-86.6717393826374,36.2766690134657]]]},"properties":{"id":"120798","parcel":"04304003700","address":"401 KEETON AVE","owner":"MORENO, JUAN M DIAZ & ORTEGA, MARIA LEMUS","point":[-86.67209419448614,36.27659335150837]}},{"type":"Feature","id":"120799","geometry":{"type":"Polygon","coordinates":[[[-86.6721824925115,36.2770388926659],[-86.672300655458,36.2770305425434],[-86.6728586097786,36.2775350762049],[-86.6726105103827,36.2777232511298],[-86.6720008057541,36.2771970275173],[-86.6721824925115,36.2770388926659]]]},"properties":{"id":"120799","parcel":"04304004100","address":"111 HICKMAN ST","owner":"STEELE, SEBASTIAN C.","point":[-86.6724341626653,36.27736606483267]}},{"type":"Feature","id":"120800","geometry":{"type":"Polygon","coordinates":[[[-86.6721884481033,36.2762203406352],[-86.672490481312,36.2759821696871],[-86.6727549312763,36.2759889118605],[-86.6727157384462,36.2763711592163],[-86.6727132442182,36.2763831018224],[-86.6727082400536,36.2763945167568],[-86.672700875516,36.2764050598167],[-86.672691372751,36.276414414334],[-86.6726800176511,36.2764222993344],[-86.6726671510202,36.2764284776991],[-86.6726531597395,36.2764327643241],[-86.6726394102851,36.2764345946422],[-86.6726254779135,36.2764346757817],[-86.6726116976429,36.2764330067793],[-86.6725984037306,36.276429628133],[-86.6725859174222,36.276424620969],[-86.6721846668091,36.2762233231171],[-86.6721884481033,36.2762203406352]]]},"properties":{"id":"120800","parcel":"04304004400","address":"354 KEETON AVE","owner":"GOAD, HOWARD WAYNE","point":[-86.67253932639383,36.27610481180234]}},{"type":"Feature","id":"120801","geometry":{"type":"Polygon","coordinates":[[[-86.6717573185362,36.2759965388073],[-86.6721457584325,36.2756935944457],[-86.6722411230195,36.2757716651514],[-86.6722580529603,36.2757863124632],[-86.6723155279135,36.2758357895247],[-86.6719671682895,36.2761074749229],[-86.6719317476059,36.276090877359],[-86.6718722239076,36.276061126888],[-86.6718140559124,36.2760296673237],[-86.6717573185362,36.2759965388073]]]},"properties":{"id":"120801","parcel":"04304004600","address":"350 KEETON AVE","owner":"DEWEY, PAMELA","point":[-86.67203642332505,36.27591616449318]}},{"type":"Feature","id":"120820","geometry":{"type":"Polygon","coordinates":[[[-86.6745390977278,36.279822170483],[-86.6747143693575,36.2796871411119],[-86.6751245809687,36.2800496469754],[-86.6750463051199,36.2801006261696],[-86.6749383227218,36.2801693560397],[-86.6745390977278,36.279822170483]]]},"properties":{"id":"120820","parcel":"04304001100","address":"106 HILLER DR","owner":"REEVES, DION S. & SCOTT, STEPHANIE M.","point":[-86.67483287832329,36.27993591191264]}},{"type":"Feature","id":"120823","geometry":{"type":"Polygon","coordinates":[[[-86.6750514508344,36.2794303408956],[-86.6752105483285,36.2793085852411],[-86.6754401553559,36.2794984916904],[-86.675609623783,36.2796381882267],[-86.6756670499122,36.2796884137625],[-86.6756050198947,36.2797349072027],[-86.6754916487648,36.2798080612085],[-86.6750514508344,36.2794303408956]]]},"properties":{"id":"120823","parcel":"04304001400","address":"112 HILLER DR","owner":"CRIPPS, WILLIE S. JR. & GENEA M.","point":[-86.67536808630857,36.27956791443744]}},{"type":"Feature","id":"120826","geometry":{"type":"Polygon","coordinates":[[[-86.6741950763852,36.2792637097625],[-86.6743676700892,36.2791330902149],[-86.6747505312134,36.2794715744107],[-86.6745779561305,36.2796043942956],[-86.6741950763852,36.2792637097625]]]},"properties":{"id":"120826","parcel":"04304001900","address":"109 HILLER DR","owner":"CHITTOM, ANNA KATELYN & SKIDMORE, ALEXANDER MCKEE","point":[-86.67447242718494,36.279367641383985]}},{"type":"Feature","id":"120829","geometry":{"type":"Polygon","coordinates":[[[-86.6740278729784,36.2793899036858],[-86.6741950763852,36.2792637097625],[-86.6745779561305,36.2796043942956],[-86.674399971991,36.2797394395076],[-86.6740278729784,36.2793899036858]]]},"properties":{"id":"120829","parcel":"04304002000","address":"107 HILLER DR","owner":"MITCHELL, BENJAMIN S.","point":[-86.6742997376465,36.27949714065478]}},{"type":"Feature","id":"120832","geometry":{"type":"Polygon","coordinates":[[[-86.6739847097536,36.27942091065],[-86.6740278729784,36.2793899036858],[-86.674399971991,36.2797394395076],[-86.6742408723787,36.279861193178],[-86.6738525821523,36.2795227349729],[-86.6739847097536,36.27942091065]]]},"properties":{"id":"120832","parcel":"04304002100","address":"105 HILLER DR","owner":"SHIVERS, MARTHA JANE & NORMAN","point":[-86.67413075221583,36.27963109974805]}},{"type":"Feature","id":"120835","geometry":{"type":"Polygon","coordinates":[[[-86.6736718822684,36.2796577942502],[-86.6738525821523,36.2795227349729],[-86.6742408723787,36.279861193178],[-86.6740709904697,36.2799917973828],[-86.6736718822684,36.2796577942502]]]},"properties":{"id":"120835","parcel":"04304002200","address":"103 HILLER DR","owner":"FLEMING, JOYCE ANN","point":[-86.67395879909289,36.27975950065517]}},{"type":"Feature","id":"120896","geometry":{"type":"Polygon","coordinates":[[[-86.6731298162493,36.2800673646292],[-86.6734965913659,36.2797906250041],[-86.6736605913448,36.2799259603058],[-86.6733019954404,36.2802070519685],[-86.6731298162493,36.2800673646292]]]},"properties":{"id":"120896","parcel":"04304002500","address":"611 SWINGING BRIDGE RD","owner":"ALVAREZ, CHERYL DENISE","point":[-86.67339696346102,36.279996667568746]}},{"type":"Feature","id":"120900","geometry":{"type":"Polygon","coordinates":[[[-86.6719918336362,36.2783793705456],[-86.6722399541045,36.2781933967395],[-86.6728141997121,36.2786978380618],[-86.6725661163315,36.2788882099245],[-86.6719918336362,36.2783793705456]]]},"properties":{"id":"120900","parcel":"04304003000","address":"104 HICKMAN ST","owner":"BREAM, JENNIFER & AUSTIN L.","point":[-86.6724022391887,36.27853860288096]}},{"type":"Feature","id":"120902","geometry":{"type":"Polygon","coordinates":[[[-86.6724907507361,36.2780030113038],[-86.672738850164,36.2778148348445],[-86.6733104013632,36.2783214887755],[-86.6730650152226,36.2785096485652],[-86.6724907507361,36.2780030113038]]]},"properties":{"id":"120902","parcel":"04304003200","address":"108 HICKMAN ST","owner":"GEORGE, DYLAN D","point":[-86.67290100443978,36.27816225191375]}},{"type":"Feature","id":"120905","geometry":{"type":"Polygon","coordinates":[[[-86.672738850164,36.2778148348445],[-86.6729869308822,36.2776244625593],[-86.6735611958207,36.278131100225],[-86.6733104013632,36.2783214887755],[-86.672738850164,36.2778148348445]]]},"properties":{"id":"120905","parcel":"04304003300","address":"110 HICKMAN ST","owner":"MALONE, JACK ROBERTS, III","point":[-86.6731495964327,36.277972967075925]}},{"type":"Feature","id":"120907","geometry":{"type":"Polygon","coordinates":[[[-86.6732323320205,36.277438499986],[-86.6734049233361,36.277307881741],[-86.6734170240005,36.2773008856429],[-86.6734303384555,36.2772955275312],[-86.6734445328218,36.2772919426483],[-86.6734592494565,36.2772902204062],[-86.673474115873,36.2772904061394],[-86.6734887591402,36.2772924929136],[-86.6735028104037,36.2772964296113],[-86.6735159159774,36.2773021163644],[-86.6735277462932,36.2773094099111],[-86.6735380003913,36.2773181280772],[-86.6737638746354,36.2775080576702],[-86.6740546570443,36.2777525640421],[-86.6738065784901,36.2779429385113],[-86.6732323320205,36.277438499986]]]},"properties":{"id":"120907","parcel":"04304003500","address":"114 HICKMAN ST","owner":"ALEXANDER, OWEN L.& ANNA L. & SAVAGE, L. A.","point":[-86.6736792613348,36.27762968356704]}},{"type":"Feature","id":"120910","geometry":{"type":"Polygon","coordinates":[[[-86.671989263735,36.276877598257],[-86.6724482915061,36.2765176865379],[-86.6725281266953,36.276557285941],[-86.6726061615296,36.2765991700227],[-86.6726822976334,36.2766432879637],[-86.6727564376669,36.2766895799265],[-86.6725271903074,36.2768600685528],[-86.672300655458,36.2770305425434],[-86.6721824925115,36.2770388926659],[-86.671989263735,36.276877598257]]]},"properties":{"id":"120910","parcel":"04304003800","address":"403 KEETON AVE","owner":"CAUDELL, PAUL & KIMBERLY","point":[-86.67238198550034,36.27677411278749]}},{"type":"Feature","id":"120913","geometry":{"type":"Polygon","coordinates":[[[-86.6725271903074,36.2768600685528],[-86.6727564376669,36.2766895799265],[-86.6728505197713,36.2767549552957],[-86.6729421236108,36.2768225983734],[-86.6732865435994,36.2771107593099],[-86.6732953956805,36.2771191410356],[-86.6733024790407,36.2771285609204],[-86.6733076101934,36.2771387766539],[-86.6733106566809,36.277149525814],[-86.6733115415732,36.2771605312496],[-86.6733102401972,36.2771715092098],[-86.6733067879974,36.2771821774111],[-86.6733012716851,36.2771922613954],[-86.6732938348574,36.2772015008074],[-86.6732846691698,36.277209658456],[-86.6731012974417,36.2773491289983],[-86.6725271903074,36.2768600685528]]]},"properties":{"id":"120913","parcel":"04304003900","address":"115 HICKMAN ST","owner":"BROWN, MYERS E LIVING TRUST, THE","point":[-86.67290553188808,36.27698541088242]}},{"type":"Feature","id":"120916","geometry":{"type":"Polygon","coordinates":[[[-86.6717556413042,36.2774115544599],[-86.6717691201213,36.2774004917152],[-86.6723651058056,36.2779092142331],[-86.6721143102896,36.2780996003085],[-86.6717149590623,36.2777348238837],[-86.6715617256326,36.277588438245],[-86.6717125561194,36.2774513508246],[-86.6717556413042,36.2774115544599]]]},"properties":{"id":"120916","parcel":"04304004300","address":"107 HICKMAN ST","owner":"BONILLA, GERARDO URIDE & TORRES, YANET G RODRIGUEZ","point":[-86.67203669945455,36.27782201035974]}},{"type":"Feature","id":"120919","geometry":{"type":"Polygon","coordinates":[[[-86.6714013150274,36.2757249880703],[-86.6718073767707,36.2754083022066],[-86.6719326531106,36.2755129942592],[-86.6719769791719,36.2755506266705],[-86.671572469815,36.2758661022192],[-86.6714013150274,36.2757249880703]]]},"properties":{"id":"120919","parcel":"04304004800","address":"346 KEETON AVE","owner":"O'NEILL, KEVIN","point":[-86.67168914739227,36.27563780771899]}},{"type":"Feature","id":"120976","geometry":{"type":"Polygon","coordinates":[[[-86.6716062571665,36.275240468382],[-86.6720179461487,36.2749132547104],[-86.6721809719501,36.27504965291],[-86.6717704681267,36.2753759268583],[-86.6716507114568,36.2752782957696],[-86.6716369799679,36.275266597459],[-86.6716062571665,36.275240468382]]]},"properties":{"id":"120976","parcel":"04304005300","address":"141 SCENIC VIEW RD","owner":"VILORIO, LUISA MARIA & AMAY, SANTOA ARSUETA","point":[-86.67189361522396,36.27514506099466]}},{"type":"Feature","id":"120979","geometry":{"type":"Polygon","coordinates":[[[-86.6738065784901,36.2779429385113],[-86.6740546570443,36.2777525640421],[-86.6744400751984,36.2780734574109],[-86.6739438617793,36.2784476142617],[-86.6735611958207,36.278131100225],[-86.6738065784901,36.2779429385113]]]},"properties":{"id":"120979","parcel":"04304005500","address":"505 KEETON AVE","owner":"WEBSTER, JOHN F.(LE)& TRAWICK, HOWARD R. & JOY F.","point":[-86.67400030598361,36.27810227872751]}},{"type":"Feature","id":"121093","geometry":{"type":"Polygon","coordinates":[[[-86.6747143693575,36.2796871411119],[-86.6748923528438,36.2795520954349],[-86.6753108011959,36.2799255425182],[-86.6752325256048,36.2799765236373],[-86.6751245809687,36.2800496469754],[-86.6747143693575,36.2796871411119]]]},"properties":{"id":"121093","parcel":"04304001200","address":"108 HILLER DR","owner":"STEWART, O. B. ETUX","point":[-86.67501324592287,36.27980634398235]}},{"type":"Feature","id":"121096","geometry":{"type":"Polygon","coordinates":[[[-86.6748923528438,36.2795520954349],[-86.6750514508344,36.2794303408956],[-86.6754916487648,36.2798080612085],[-86.6754160682637,36.2798568301832],[-86.6753108011959,36.2799255425182],[-86.6748923528438,36.2795520954349]]]},"properties":{"id":"121096","parcel":"04304001300","address":"110 HILLER DR","owner":"GINN, JOHN R. & JENNIFER","point":[-86.67518912740552,36.279680070893]}},{"type":"Feature","id":"121099","geometry":{"type":"Polygon","coordinates":[[[-86.6746912959546,36.2788895519605],[-86.6750715331616,36.2786017444208],[-86.6752355741612,36.2787414727188],[-86.6748634543779,36.2790270373334],[-86.6746912959546,36.2788895519605]]]},"properties":{"id":"121099","parcel":"04304001500","address":"517 KEETON AVE","owner":"PEACOCK, PAIGE","point":[-86.67496410529283,36.27881551447202]}},{"type":"Feature","id":"121102","geometry":{"type":"Polygon","coordinates":[[[-86.67361862167,36.279698196828],[-86.6736718822684,36.2796577942502],[-86.6740709904697,36.2799917973828],[-86.6738956994974,36.280124628702],[-86.6736605913448,36.2799259603058],[-86.6734965913659,36.2797906250041],[-86.67361862167,36.279698196828]]]},"properties":{"id":"121102","parcel":"04304002300","address":"101 HILLER DR","owner":"DAVIS, MICHAEL P. & KIMBERLY DIANN","point":[-86.67374557096548,36.279858748345454]}},{"type":"Feature","id":"121183","geometry":{"type":"Polygon","coordinates":[[[-86.6734899422656,36.2790083273384],[-86.6745794786577,36.2781891503112],[-86.6748228005368,36.278396561777],[-86.6737359586831,36.2792135278185],[-86.6735938026195,36.2790934540064],[-86.6734899422656,36.2790083273384]]]},"properties":{"id":"121183","parcel":"04304002600","address":"507 KEETON AVE","owner":"WALLACE, CONNIE D.","point":[-86.67415632748896,36.278702446308934]}},{"type":"Feature","id":"121186","geometry":{"type":"Polygon","coordinates":[[[-86.6727307862622,36.279742148602],[-86.6732243175005,36.2793702090989],[-86.67361862167,36.279698196828],[-86.6734965913659,36.2797906250041],[-86.6731298162493,36.2800673646292],[-86.6727307862622,36.279742148602]]]},"properties":{"id":"121186","parcel":"04304002700","address":"609 SWINGING BRIDGE RD","owner":"STEELE, SHAUN & HANNAH","point":[-86.67317478038399,36.27972017374812]}},{"type":"Feature","id":"121189","geometry":{"type":"Polygon","coordinates":[[[-86.6717522514416,36.2785721655682],[-86.6719918336362,36.2783793705456],[-86.6725661163315,36.2788882099245],[-86.6723153845535,36.2790785455224],[-86.672315314861,36.279078596379],[-86.672066828433,36.2788550504506],[-86.6720667734822,36.2788550020896],[-86.6720634804298,36.2788520472333],[-86.6717522514416,36.2785721655682]]]},"properties":{"id":"121189","parcel":"04304002900","address":"102 HICKMAN ST","owner":"HALL, T. C. ETUX","point":[-86.67213832718089,36.2787127385477]}},{"type":"Feature","id":"121209","geometry":{"type":"Polygon","coordinates":[[[-86.672690556396,36.2731650405163],[-86.6729143447389,36.273011343778],[-86.6731948162204,36.2733429888977],[-86.6730270460628,36.2734729817789],[-86.6730269840822,36.2734730226797],[-86.672690556396,36.2731650405163]]]},"properties":{"id":"121209","parcel":"04308000100","address":"113 SHELBY ST","owner":"WILLIAMS, KEVIN GENE & ALVES WILLIAMS, JEANNEL C.","point":[-86.6729536323595,36.27325404490609]}},{"type":"Feature","id":"121212","geometry":{"type":"Polygon","coordinates":[[[-86.6718244786278,36.2737659493165],[-86.6721300439383,36.2735549316192],[-86.6724883480413,36.2738891105169],[-86.6724883816976,36.2738891418728],[-86.6724884075096,36.2738891669637],[-86.6722053000029,36.2741083015251],[-86.6722052203638,36.2741082289681],[-86.6718244786278,36.2737659493165]]]},"properties":{"id":"121212","parcel":"04308000600","address":"103 SHELBY ST","owner":"LOPEZ - SILVA, JULIO  CESAR","point":[-86.67215763932396,36.27382753373781]}},{"type":"Feature","id":"121215","geometry":{"type":"Polygon","coordinates":[[[-86.6716821622099,36.2738656309043],[-86.6718244786278,36.2737659493165],[-86.6722052203638,36.2741082289681],[-86.6722053000029,36.2741083015251],[-86.6721363008995,36.2741627223388],[-86.672067808104,36.2742167473583],[-86.6718901592244,36.2740704977758],[-86.6717917770776,36.2739902832813],[-86.6716612553408,36.2738805814002],[-86.6716821622099,36.2738656309043]]]},"properties":{"id":"121215","parcel":"04308000800","address":"101 SHELBY ST","owner":"BROWN, CATHY","point":[-86.6719802263279,36.27403077256875]}},{"type":"Feature","id":"121218","geometry":{"type":"Polygon","coordinates":[[[-86.6713800325223,36.2733613189807],[-86.6716439335054,36.2732057119775],[-86.6719888321631,36.2735447289861],[-86.6717692922463,36.2736989555146],[-86.6713800325223,36.2733613189807]]]},"properties":{"id":"121218","parcel":"04308001600","address":"104 SHELBY ST","owner":"HOFFMAN, ETHAN","point":[-86.67169062750835,36.27345304137742]}},{"type":"Feature","id":"121523","geometry":{"type":"Polygon","coordinates":[[[-86.6748634543779,36.2790270373334],[-86.6752355741612,36.2787414727188],[-86.6754105216827,36.2788877323656],[-86.6754178290781,36.2788971400571],[-86.6754230801647,36.2789074082],[-86.6754261233079,36.2789182456424],[-86.6754268701616,36.2789293428543],[-86.6754253024461,36.278940383605],[-86.6754214642344,36.2789510540191],[-86.6754154642318,36.2789610488724],[-86.675407473673,36.2789700860231],[-86.6753977196284,36.278977904647],[-86.675090307637,36.2792125645176],[-86.6748634543779,36.2790270373334]]]},"properties":{"id":"121523","parcel":"04304001600","address":"519 KEETON AVE","owner":"SHELTON, THOMAS COLE","point":[-86.67516841413187,36.27897335947162]}},{"type":"Feature","id":"121581","geometry":{"type":"Polygon","coordinates":[[[-86.6731359241676,36.2775115564522],[-86.6732323320205,36.277438499986],[-86.6738065784901,36.2779429385113],[-86.6735611958207,36.278131100225],[-86.6729869308822,36.2776244625593],[-86.6731359241676,36.2775115564522]]]},"properties":{"id":"121581","parcel":"04304003400","address":"112 HICKMAN ST","owner":"LOCKE, ROSAMOND M., TRUSTEE","point":[-86.67339636389832,36.277783700170446]}},{"type":"Feature","id":"121584","geometry":{"type":"Polygon","coordinates":[[[-86.6715096052397,36.2764772082757],[-86.6717030145461,36.2763257195612],[-86.6718046503553,36.2762463778904],[-86.6718138624234,36.2762401415233],[-86.6718240701161,36.2762350225581],[-86.6718350672587,36.2762311212762],[-86.6718466352501,36.2762285163986],[-86.6718585419124,36.276227260586],[-86.6718588637132,36.2762274075007],[-86.6718721621232,36.27622751743],[-86.6718852605579,36.2762293777633],[-86.6718978113157,36.2762329372607],[-86.6719094808043,36.2762381022462],[-86.6721390199618,36.2763579580595],[-86.6717393826374,36.2766690134657],[-86.6715096052397,36.2764772082757]]]},"properties":{"id":"121584","parcel":"04304003600","address":"114 HICKERSON ST","owner":"MONTGOMERY, MARC BRITTANY & NUTT, GAVIN HUMES","point":[-86.67182407073254,36.27641758291884]}},{"type":"Feature","id":"121586","geometry":{"type":"Polygon","coordinates":[[[-86.672300655458,36.2770305425434],[-86.6725271903074,36.2768600685528],[-86.6731012974417,36.2773491289983],[-86.6728875015452,36.2775129396999],[-86.6728586097786,36.2775350762049],[-86.672300655458,36.2770305425434]]]},"properties":{"id":"121586","parcel":"04304004000","address":"113 HICKMAN ST","owner":"CARCAMO, MARTIR MAJANO & JOSE ADAN MAJANO & ET AL","point":[-86.67269556208923,36.2771898216229]}},{"type":"Feature","id":"121589","geometry":{"type":"Polygon","coordinates":[[[-86.6719516140052,36.2772406917674],[-86.6720008057541,36.2771970275173],[-86.6726105103827,36.2777232511298],[-86.6723651058056,36.2779092142331],[-86.6717691201213,36.2774004917152],[-86.6719516140052,36.2772406917674]]]},"properties":{"id":"121589","parcel":"04304004200","address":"109 HICKMAN ST","owner":"BROWN, FELLER, LIVING TRUST","point":[-86.6721908540772,36.27756187501011]}},{"type":"Feature","id":"121592","geometry":{"type":"Polygon","coordinates":[[[-86.6719671682895,36.2761074749229],[-86.6723155279135,36.2758357895247],[-86.672490481312,36.2759821696871],[-86.6721884481033,36.2762203406352],[-86.6720024750187,36.2761232331606],[-86.6719671682895,36.2761074749229]]]},"properties":{"id":"121592","parcel":"04304004500","address":"352 KEETON AVE","owner":"TEASTER, DEANA D.","point":[-86.67222926795543,36.276044823806636]}},{"type":"Feature","id":"121595","geometry":{"type":"Polygon","coordinates":[[[-86.6716999083446,36.2759592701323],[-86.6716665184093,36.2759379982236],[-86.6716551881898,36.2759301753945],[-86.6716002719277,36.27589048652],[-86.671572469815,36.2758661022192],[-86.6719769791719,36.2755506266705],[-86.6720941576239,36.2756506032601],[-86.6721457584325,36.2756935944457],[-86.6717573185362,36.2759965388073],[-86.6717139612229,36.2759694760079],[-86.6717073257406,36.2759651941742],[-86.6716999083446,36.2759592701323]]]},"properties":{"id":"121595","parcel":"04304004700","address":"348 KEETON AVE","owner":"KOHOUT, MICHAEL & JESSIE","point":[-86.6718591145773,36.275779848678596]}},{"type":"Feature","id":"121660","geometry":{"type":"Polygon","coordinates":[[[-86.6717704681267,36.2753759268583],[-86.6721809719501,36.27504965291],[-86.6723448728243,36.2751853565758],[-86.6719326531106,36.2755129942592],[-86.6718073767707,36.2754083022066],[-86.6717928391063,36.2753961749016],[-86.6717704681267,36.2753759268583]]]},"properties":{"id":"121660","parcel":"04304005200","address":"143 SCENIC VIEW RD","owner":"LAMHANDI, MESSAOUD","point":[-86.67205767071302,36.27528064206416]}},{"type":"Feature","id":"121663","geometry":{"type":"Polygon","coordinates":[[[-86.6737359586831,36.2792135278185],[-86.6748228005368,36.278396561777],[-86.6750715331616,36.2786017444208],[-86.6746912959546,36.2788895519605],[-86.6745294628905,36.2790091232055],[-86.6743676700892,36.2791330902149],[-86.6741950763852,36.2792637097625],[-86.6740278729784,36.2793899036858],[-86.6739847097536,36.27942091065],[-86.6737359586831,36.2792135278185]]]},"properties":{"id":"121663","parcel":"04304005600","address":"509 KEETON AVE","owner":"GEBRAEIL, RAAFAT BASHA & GENDY, MAKRAM","point":[-86.67434984614755,36.27894862844399]}},{"type":"Feature","id":"121666","geometry":{"type":"Polygon","coordinates":[[[-86.6730650152226,36.2785096485652],[-86.6733104013632,36.2783214887755],[-86.6735611958207,36.278131100225],[-86.6739438617793,36.2784476142617],[-86.6744400751984,36.2780734574109],[-86.6745794786577,36.2781891503112],[-86.6734899422656,36.2790083273384],[-86.6733095104535,36.2788555029689],[-86.6729733156142,36.2785782833402],[-86.6730650152226,36.2785096485652]]]},"properties":{"id":"121666","parcel":"04304005900","address":"505 B KEETON AVE","owner":"TRAWICK, HOWARD R. & JOY F.","point":[-86.67356139655686,36.278545447293354]}},{"type":"Feature","id":"121669","geometry":{"type":"Polygon","coordinates":[[[-86.6718235050583,36.2789999289227],[-86.6719275110989,36.278915660537],[-86.6719579370197,36.2789429582584],[-86.6720667734822,36.2788550020896],[-86.672066828433,36.2788550504506],[-86.672315314861,36.279078596379],[-86.6721454149903,36.2792161798481],[-86.6721158420937,36.2792401287208],[-86.6718233923091,36.2790000214751],[-86.6718235050583,36.2789999289227]]]},"properties":{"id":"121669","parcel":"04304006100","address":"603 SWINGING BRIDGE RD","owner":"MARTINEZ, MARVIN","point":[-86.67207142147552,36.27903931485027]}},{"type":"Feature","id":"122424","geometry":{"type":"Polygon","coordinates":[[[-86.6714433591058,36.2751039686718],[-86.6718554891605,36.2747764034108],[-86.6720179461487,36.2749132547104],[-86.6716062571665,36.275240468382],[-86.6714433591058,36.2751039686718]]]},"properties":{"id":"122424","parcel":"04304005400","address":"139 SCENIC VIEW RD","owner":"AEC DEVELOPMENT LLC","point":[-86.67173065269263,36.27500861203795]}},{"type":"Feature","id":"122425","geometry":{"type":"Polygon","coordinates":[[[-86.672435597204,36.2794998608945],[-86.6733095104535,36.2788555029689],[-86.6734899422656,36.2790083273384],[-86.6735938026195,36.2790934540064],[-86.6732243175005,36.2793702090989],[-86.6727307862622,36.279742148602],[-86.672435597204,36.2794998608945]]]},"properties":{"id":"122425","parcel":"04304005700","address":"607 SWINGING BRIDGE RD","owner":"GUYTON, SEAN","point":[-86.6731052145334,36.279231001525865]}},{"type":"Feature","id":"122746","geometry":{"type":"Polygon","coordinates":[[[-86.6740283244222,36.2775285589132],[-86.674590095789,36.2772045795638],[-86.6747897112742,36.2773792706622],[-86.6742306156082,36.2776988415821],[-86.6740283244222,36.2775285589132]]]},"properties":{"id":"122746","parcel":"04300001100","address":"504 KEETON AVE","owner":"BROWN, FELLER, LIVING TRUST","point":[-86.67440843530036,36.27745391380896]}},{"type":"Feature","id":"122747","geometry":{"type":"Polygon","coordinates":[[[-86.6740020241964,36.2775067299074],[-86.673541784825,36.2771247203866],[-86.6755168131053,36.275755598997],[-86.674944143786,36.275435755581],[-86.6747273250187,36.2753451944338],[-86.6748298928847,36.2752643155749],[-86.6816988051074,36.2708796319051],[-86.6817837835844,36.2710571564489],[-86.6818386584213,36.2711266196145],[-86.6819784445164,36.2712868032521],[-86.6820361322679,36.2713677880662],[-86.6821685300912,36.2716153671946],[-86.6822345495925,36.2717182805995],[-86.6823060573732,36.2718283052711],[-86.6823393179778,36.2719088780772],[-86.6823856101635,36.2719657541214],[-86.682391599931,36.2719657203025],[-86.6824099278455,36.2719956315532],[-86.682440805841,36.2720335668307],[-86.6825371359532,36.2721895980359],[-86.6826993614485,36.2724923457197],[-86.6827811777982,36.2726420085584],[-86.682860942778,36.2727923958036],[-86.6828646561358,36.2727981274057],[-86.6828725789466,36.2728147221418],[-86.6829476094855,36.2729612220107],[-86.683020693662,36.2731083663956],[-86.6830918246264,36.2732561364127],[-86.6831252646163,36.273327272935],[-86.6831478023493,36.2733673676556],[-86.6831667987393,36.2734086476855],[-86.6831821585229,36.2734509080832],[-86.6832696067915,36.2736478679661],[-86.683274345621,36.2736506683494],[-86.6833141508677,36.273750032449],[-86.6772835689695,36.2771464125372],[-86.6765885145417,36.2763517394465],[-86.6747897112742,36.2773792706622],[-86.674590095789,36.2772045795638],[-86.6740283244222,36.2775285589132],[-86.6740020241964,36.2775067299074]]]},"properties":{"id":"122747","parcel":"04300001200","address":"502 KEETON AVE","owner":"BROWN, FELLER, LIVING TRUST","point":[-86.67899244975067,36.274507035838326]}},{"type":"Feature","id":"122748","geometry":{"type":"Polygon","coordinates":[[[-86.6728941870024,36.2765848405512],[-86.6733338203994,36.2762378299892],[-86.6734853451842,36.2763245333797],[-86.6730208145175,36.2766908397353],[-86.6728941870024,36.2765848405512]]]},"properties":{"id":"122748","parcel":"04300001400","address":"400 KEETON AVE","owner":"DILLIARD, GREGORY B. & NATALIE B. TRUST","point":[-86.67318968636451,36.27645468711544]}},{"type":"Feature","id":"122749","geometry":{"type":"Polygon","coordinates":[[[-86.6727202834603,36.2752911291088],[-86.6740052188395,36.2743019843361],[-86.6742154275808,36.2745507664323],[-86.6729327874974,36.2755330286726],[-86.6729313388456,36.2755282394721],[-86.6729269611974,36.2755151202551],[-86.672923407752,36.2755056058894],[-86.6729229901523,36.2755045321415],[-86.672919109038,36.2754950971061],[-86.6729172179489,36.2754907654915],[-86.6729133919802,36.2754824503822],[-86.6729087988127,36.2754731797303],[-86.6728983532182,36.2754541948199],[-86.6728959020222,36.2754500952365],[-86.672879073855,36.2754247624206],[-86.6728600208037,36.2754004838142],[-86.6728388408154,36.2753773904512],[-86.6728336817932,36.2753722614108],[-86.672806019269,36.2753474305011],[-86.6727758681373,36.2753245781266],[-86.6727434445791,36.2753038653042],[-86.6727393832202,36.2753015140607],[-86.672732878791,36.2752978543054],[-86.6727202834603,36.2752911291088]]]},"properties":{"id":"122749","parcel":"04300001700","address":"142 SCENIC VIEW RD","owner":"TDR STRATEGIC REALTY PARTNERS, LLC","point":[-86.67346660855502,36.27492094672226]}},{"type":"Feature","id":"122887","geometry":{"type":"Polygon","coordinates":[[[-86.6710058321259,36.273089204709],[-86.6711446500142,36.273007414791],[-86.6713605935633,36.2731858809877],[-86.6706675576274,36.2735943727986],[-86.6704515898657,36.2734158847941],[-86.6706217833727,36.2733155705124],[-86.6708138080235,36.2732023877652],[-86.6710058321259,36.273089204709]]]},"properties":{"id":"122887","parcel":"04400000100","address":"118 SCENIC VIEW RD","owner":"VEYVERIS, MARSHALL","point":[-86.67097598192662,36.27325968975616]}},{"type":"Feature","id":"123338","geometry":{"type":"Polygon","coordinates":[[[-86.6752105483285,36.2793085852411],[-86.675515265516,36.2790761382388],[-86.6755280103376,36.2790690950744],[-86.6755419414942,36.2790637251761],[-86.6755567272599,36.2790601556689],[-86.6755720166183,36.2790584705266],[-86.6755874426177,36.2790587123554],[-86.6756026401098,36.279060874184],[-86.6756172446827,36.2790649048766],[-86.6756309093411,36.2790707072375],[-86.6756346563479,36.2790724491041],[-86.6756455749332,36.2790798052173],[-86.6758096157085,36.2792195327285],[-86.6754401553559,36.2794984916904],[-86.6752105483285,36.2793085852411]]]},"properties":{"id":"123338","parcel":"04304000100","address":"601 KEETON AVE","owner":"WALKER, MELINDA HESTER","point":[-86.67550977788865,36.27926405853527]}},{"type":"Feature","id":"123386","geometry":{"type":"Polygon","coordinates":[[[-86.6729272516891,36.2761854101146],[-86.6730169350449,36.276084662974],[-86.6733338203994,36.2762378299892],[-86.6728941870024,36.2765848405512],[-86.6728932452328,36.2765840382892],[-86.6729272516891,36.2761854101146]]]},"properties":{"id":"123386","parcel":"04300001500","address":"146 SCENIC VIEW RD","owner":"FELLER, MYERS E. LIVING TRUST","point":[-86.67301128474206,36.276410654823906]}},{"type":"Feature","id":"123389","geometry":{"type":"Polygon","coordinates":[[[-86.6747499733579,36.2781310622867],[-86.6752434663548,36.2777569163551],[-86.6756297424176,36.2780777299669],[-86.6750656677585,36.2783953678167],[-86.6747499733579,36.2781310622867]]]},"properties":{"id":"123389","parcel":"04300002400","address":"512 KEETON AVE","owner":"BROWN, FELLER, LIVING TRUST","point":[-86.67523497063885,36.27791677592368]}},{"type":"Feature","id":"123756","geometry":{"type":"Polygon","coordinates":[[[-86.674411046563,36.2778516646301],[-86.6749429270965,36.2775234551408],[-86.6747897112742,36.2773792706622],[-86.6765885145417,36.2763517394465],[-86.6772835689695,36.2771464125372],[-86.6756297424176,36.2780777299669],[-86.6752434663548,36.2777569163551],[-86.6747499733579,36.2781310622867],[-86.674411046563,36.2778516646301]]]},"properties":{"id":"123756","parcel":"04300001000","address":"512 KEETON AVE","owner":"BROWN, FELLER, LIVING TRUST","point":[-86.67603514678407,36.27726284406063]}},{"type":"Feature","id":"124673","geometry":{"type":"Polygon","coordinates":[[[-86.6742306156082,36.2776988415821],[-86.6747897112742,36.2773792706622],[-86.6749429270965,36.2775234551408],[-86.674411046563,36.2778516646301],[-86.6742306156082,36.2776988415821]]]},"properties":{"id":"124673","parcel":"04300001001","address":"510 KEETON AVE","owner":"BROWN, FELLER, LIVING TRUST","point":[-86.67459243685104,36.27761116430935]}},{"type":"Feature","id":"124679","geometry":{"type":"Polygon","coordinates":[[[-86.6734853451842,36.2763245333797],[-86.6747273250187,36.2753451944338],[-86.674944143786,36.275435755581],[-86.6755168131053,36.275755598997],[-86.673541784825,36.2771247203866],[-86.6730208145175,36.2766908397353],[-86.6734853451842,36.2763245333797]]]},"properties":{"id":"124679","parcel":"04300001300","address":"402 KEETON AVE","owner":"BROWN, FELLER, LIVING TRUST","point":[-86.6744762242331,36.27604000286665]}},{"type":"Feature","id":"124685","geometry":{"type":"Polygon","coordinates":[[[-86.6729327874974,36.2755330286726],[-86.6742154275808,36.2745507664323],[-86.6740052188395,36.2743019843361],[-86.6737763551356,36.2740288499745],[-86.6735945724444,36.2738114185159],[-86.673594546272,36.2738113510692],[-86.6736826473375,36.2737410477372],[-86.6737675609648,36.2736732738468],[-86.6796370887438,36.2692342706498],[-86.680346906645,36.26869956165],[-86.6803765726501,36.2687225942564],[-86.6804031692615,36.2687479675221],[-86.6804264170422,36.2687754117501],[-86.6804460698012,36.2688046408343],[-86.6804619223294,36.2688353459065],[-86.6804738082516,36.2688672043615],[-86.6804816022679,36.268899881646],[-86.680485445275,36.2689274937002],[-86.68049373336,36.2689544579714],[-86.6805063200697,36.2689803084435],[-86.6805229878724,36.2690045966232],[-86.6805434493634,36.2690269023491],[-86.6805673506578,36.2690468400806],[-86.6805942770088,36.2690640651756],[-86.6806158470926,36.2690826209125],[-86.6806343276638,36.269103249764],[-86.6806494153241,36.2691256136741],[-86.6806608665766,36.2691493517187],[-86.6806684944485,36.2691740756179],[-86.6806687451544,36.2691956200491],[-86.6806722940779,36.2692169719656],[-86.6806790883166,36.2692378027143],[-86.680689021603,36.2692577902508],[-86.680701941029,36.2692766245091],[-86.6807704056269,36.2693487586081],[-86.6809076939516,36.2695347816164],[-86.6809985301649,36.2696837027911],[-86.6809852638884,36.269718939251],[-86.6810053153019,36.2697627777252],[-86.6810837302914,36.269808484516],[-86.6812076038982,36.2700121613636],[-86.6813183218,36.2701851458617],[-86.6813761058818,36.2702771183295],[-86.681450465035,36.2704036092595],[-86.6815046508082,36.2704719778654],[-86.6815674969215,36.2705216177002],[-86.6815870270231,36.2705835891634],[-86.6815930805917,36.2706560756356],[-86.6816370407462,36.2707190079158],[-86.6816988051074,36.2708796319051],[-86.6748298928847,36.2752643155749],[-86.6747194377636,36.2751441038242],[-86.6744634075464,36.2748450092083],[-86.6729399037364,36.2760479367314],[-86.6729672056288,36.2757511067845],[-86.6729690671936,36.275706875596],[-86.672966524677,36.2756626662247],[-86.6729595961095,36.2756187660636],[-86.6729483262174,36.2755754605536],[-86.6729327874974,36.2755330286726]]]},"properties":{"id":"124685","parcel":"04300001600","address":"144 SCENIC VIEW RD","owner":"TDR STRATEGIC REALTY PARTNERS, LLC","point":[-86.67756264119735,36.272276059290625]}},{"type":"Feature","id":"124691","geometry":{"type":"Polygon","coordinates":[[[-86.6724387010813,36.2750673425701],[-86.6737763551356,36.2740288499745],[-86.6740052188395,36.2743019843361],[-86.6727202834603,36.2752911291088],[-86.6726859047676,36.2752730884958],[-86.6724387010813,36.2750673425701]]]},"properties":{"id":"124691","parcel":"04300001800","address":"140 SCENIC VIEW RD","owner":"HAHN, CHRISTIAN LEE & WRIGHT, BROOKS CHANDLER","point":[-86.67321986853672,36.27468466032475]}},{"type":"Feature","id":"124697","geometry":{"type":"Polygon","coordinates":[[[-86.6731182092074,36.2741892786805],[-86.673594546272,36.2738113510692],[-86.6735945724444,36.2738114185159],[-86.6737763551356,36.2740288499745],[-86.6724387010813,36.2750673425701],[-86.6722309519037,36.274892692767],[-86.6722415389987,36.2748843010762],[-86.6723927078748,36.2747648830698],[-86.6731182092074,36.2741892786805]]]},"properties":{"id":"124697","parcel":"04300001900","address":"138 SCENIC VIEW RD","owner":"HAHN, CHRISTIAN LEE & WRIGHT, BROOKS CHANDLER","point":[-86.67297645513419,36.27447768593768]}},{"type":"Feature","id":"125737","geometry":{"type":"Polygon","coordinates":[[[-86.6692365071538,36.272419653727],[-86.6690831556528,36.272292849266],[-86.6690401565289,36.2722598777231],[-86.6709906042918,36.2707532572563],[-86.6716103905112,36.2714742252962],[-86.6713932676195,36.2716129744526],[-86.6710686966041,36.2718203864902],[-86.6708012203222,36.2719913106187],[-86.6706147805124,36.2721104502159],[-86.6704283379239,36.2722295904347],[-86.670241896993,36.2723487294481],[-86.6700554543886,36.2724678681758],[-86.6698690112236,36.2725870066117],[-86.6696304803721,36.2727394293376],[-86.6696300051587,36.2727390381313],[-86.669434022381,36.2725787263039],[-86.6692365071538,36.272419653727]]]},"properties":{"id":"125737","parcel":"04400000200","address":"108 SCENIC VIEW RD","owner":"LARKINS, WILMA JEAN","point":[-86.67048982702383,36.27171464089886]}},{"type":"Feature","id":"128829","geometry":{"type":"Polygon","coordinates":[[[-86.671129380233,36.2739760458246],[-86.6714611267247,36.2737234673579],[-86.6715895704433,36.2738282377362],[-86.6713145099775,36.274036337645],[-86.6713031958768,36.2740433886539],[-86.6712905553308,36.2740487626229],[-86.6712769631831,36.2740522997539],[-86.6712628225754,36.2740538959681],[-86.6712485526959,36.274053502073],[-86.6712345788247,36.2740511310277],[-86.6712213155933,36.2740468526284],[-86.671209155862,36.2740407944712],[-86.6711984606582,36.2740331366007],[-86.671129380233,36.2739760458246]]]},"properties":{"id":"128829","parcel":"04405000200","address":"126 SCENIC VIEW RD","owner":"MANZO, ALEXIS MARINA","point":[-86.67135916717076,36.273902141155894]}},{"type":"Feature","id":"128831","geometry":{"type":"Polygon","coordinates":[[[-86.6705921197286,36.274395661988],[-86.6709983926706,36.2740752941809],[-86.6711681806887,36.2742186236582],[-86.6707617407469,36.2745391236275],[-86.6707474655577,36.2745269352572],[-86.6706175193292,36.2744159916821],[-86.6706038617777,36.2744056293722],[-86.6705921197286,36.274395661988]]]},"properties":{"id":"128831","parcel":"04405000900","address":"129 SCENIC VIEW RD","owner":"CAMPBELL, ELIZABETH MARIE","point":[-86.67088015052298,36.27430714317224]}},{"type":"Feature","id":"128835","geometry":{"type":"Polygon","coordinates":[[[-86.670251991699,36.2741094368496],[-86.6706603022206,36.2737874636674],[-86.6706938572998,36.2738156311864],[-86.6708284504677,36.2739320851822],[-86.6704223445318,36.2742523217281],[-86.6704094641987,36.2742413350359],[-86.6702840322797,36.2741343522146],[-86.670271066568,36.2741256361888],[-86.670251991699,36.2741094368496]]]},"properties":{"id":"128835","parcel":"04405001100","address":"125 SCENIC VIEW RD","owner":"CUMMINS, SAMUEL MEYER & SHEARON, EMILY CECILIA","point":[-86.6705402216307,36.27402076136616]}},{"type":"Feature","id":"128837","geometry":{"type":"Polygon","coordinates":[[[-86.6699136926421,36.2738217712487],[-86.6703189415787,36.273502213443],[-86.6703440006727,36.2735236463946],[-86.6704898427109,36.273644663514],[-86.6700834538377,36.2739651222226],[-86.6700766222328,36.2739593345227],[-86.6699136926421,36.2738217712487]]]},"properties":{"id":"128837","parcel":"04405001300","address":"121 SCENIC VIEW RD","owner":"MENDEZ, LYDIA & SANTOS, FERNANDO ADRIAN MOO","point":[-86.67020176825946,36.273733217731355]}},{"type":"Feature","id":"128972","geometry":{"type":"Polygon","coordinates":[[[-86.670787581981,36.2736935670455],[-86.671165967314,36.2734811769919],[-86.6713251501015,36.2736104987011],[-86.6709990577729,36.2738683410633],[-86.670787581981,36.2736935670455]]]},"properties":{"id":"128972","parcel":"04405000400","address":"122 SCENIC VIEW RD","owner":"MALONE, CELESTE","point":[-86.67106719993627,36.27365206297347]}},{"type":"Feature","id":"128974","geometry":{"type":"Polygon","coordinates":[[[-86.6709308582092,36.2746829825619],[-86.6713379648996,36.2743619565202],[-86.6715089924547,36.2745043098019],[-86.671101382661,36.2748257330382],[-86.6710412367069,36.2747762395801],[-86.6709619576185,36.2747085545618],[-86.6709308582092,36.2746829825619]]]},"properties":{"id":"128974","parcel":"04405000700","address":"133 SCENIC VIEW RD","owner":"EDDE, HAZEL ANN","point":[-86.67121992564753,36.274593646533575]}},{"type":"Feature","id":"128978","geometry":{"type":"Polygon","coordinates":[[[-86.6707617407469,36.2745391236275],[-86.6711681806887,36.2742186236582],[-86.6713379648996,36.2743619565202],[-86.6709308582092,36.2746829825619],[-86.6709157617564,36.2746702913761],[-86.6707924893209,36.2745666532956],[-86.67077607646,36.274551361228],[-86.6707617407469,36.2745391236275]]]},"properties":{"id":"128978","parcel":"04405000800","address":"131 SCENIC VIEW RD","owner":"MILLS, ERIC ROBERT","point":[-86.67104985310856,36.27445054042312]}},{"type":"Feature","id":"128981","geometry":{"type":"Polygon","coordinates":[[[-86.6704223445318,36.2742523217281],[-86.6708284504677,36.2739320851822],[-86.670857897047,36.2739575627447],[-86.6709983926706,36.2740752941809],[-86.6705921197286,36.274395661988],[-86.670578503268,36.2743841044112],[-86.6704514631626,36.2742762682076],[-86.6704223445318,36.2742523217281]]]},"properties":{"id":"128981","parcel":"04405001000","address":"127 SCENIC VIEW RD","owner":"MCCLANAHAN, HOLLY MARIE","point":[-86.67071036875619,36.27416380830319]}},{"type":"Feature","id":"128984","geometry":{"type":"Polygon","coordinates":[[[-86.6700834538377,36.2739651222226],[-86.6704898427109,36.273644663514],[-86.6706603022206,36.2737874636674],[-86.670251991699,36.2741094368496],[-86.6702421252441,36.2741010587197],[-86.6701091013977,36.2739880876601],[-86.6701008904476,36.2739798923026],[-86.6700834538377,36.2739651222226]]]},"properties":{"id":"128984","parcel":"04405001200","address":"123 SCENIC VIEW RD","owner":"RUSK, NATHAN K. JENNIFER S","point":[-86.67037187811366,36.273876293294464]}},{"type":"Feature","id":"129166","geometry":{"type":"Polygon","coordinates":[[[-86.6711980275168,36.2729762042413],[-86.6713507306511,36.2728869198128],[-86.6716439335054,36.2732057119775],[-86.6713800325223,36.2733613189807],[-86.671165967314,36.2734811769919],[-86.670787581981,36.2736935670455],[-86.6706675576274,36.2735943727986],[-86.6713605935633,36.2731858809877],[-86.6711446500142,36.273007414791],[-86.6711980275168,36.2729762042413]]]},"properties":{"id":"129166","parcel":"04400003300","address":"120 SCENIC VIEW RD","owner":"LOPEZ, HUGO BLAS","point":[-86.6713542025248,36.27328308208358]}},{"type":"Feature","id":"129232","geometry":{"type":"Polygon","coordinates":[[[-86.6713219738784,36.2778007369899],[-86.6713327370736,36.2777896884776],[-86.6717183492872,36.2781347622483],[-86.6718742942631,36.2782811335004],[-86.6717206218829,36.2784028537339],[-86.6716478623517,36.2784647897243],[-86.6711037242996,36.277988742088],[-86.6713219738784,36.2778007369899]]]},"properties":{"id":"129232","parcel":"04401000200","address":"103 HICKMAN ST","owner":"BROWN, MYERS E., II & ANGELA W.","point":[-86.67141196434943,36.27806175511135]}},{"type":"Feature","id":"129234","geometry":{"type":"Polygon","coordinates":[[[-86.6705896279845,36.2772136557448],[-86.6708187536555,36.27702778837],[-86.6715428800563,36.2776061233017],[-86.6713327370736,36.2777896884776],[-86.6713219738784,36.2778007369899],[-86.6705896279845,36.2772136557448]]]},"properties":{"id":"129234","parcel":"04401000600","address":"104 HICKERSON ST","owner":"NASHVILLE MHC SERIES A LLC","point":[-86.67106579647678,36.27740988921499]}},{"type":"Feature","id":"129236","geometry":{"type":"Polygon","coordinates":[[[-86.6711510641921,36.2760926842198],[-86.671383614035,36.2759100375071],[-86.6713954244968,36.2759198962835],[-86.6714452360863,36.2759606112735],[-86.6714966990006,36.2759999571074],[-86.6715002916934,36.276002824699],[-86.671557431896,36.2760431780873],[-86.6716161984307,36.2760819704876],[-86.6716274449606,36.2760913421039],[-86.6716355371522,36.2761004518651],[-86.671642024488,36.2761103663327],[-86.6716467896741,36.2761209041097],[-86.6716497419908,36.2761318674291],[-86.6716508327301,36.2761435503636],[-86.6716498655211,36.2761552402279],[-86.6716468606214,36.2761667007862],[-86.6716418806202,36.2761777000736],[-86.6716350227013,36.2761880167476],[-86.6714439546169,36.2763371752841],[-86.6711510641921,36.2760926842198]]]},"properties":{"id":"129236","parcel":"04401001000","address":"339 KEETON AVE","owner":"O'CONNOR, APRIL","point":[-86.67141909719666,36.27612575634949]}},{"type":"Feature","id":"129256","geometry":{"type":"Polygon","coordinates":[[[-86.6709709914474,36.2769028183305],[-86.6710575649461,36.2768344099678],[-86.6717118482738,36.2773678465134],[-86.6717556413042,36.2774115544599],[-86.6717125561194,36.2774513508246],[-86.6715617256326,36.277588438245],[-86.6715428800563,36.2776061233017],[-86.6708187536555,36.27702778837],[-86.6709709914474,36.2769028183305]]]},"properties":{"id":"129256","parcel":"04401000700","address":"108 HICKERSON ST","owner":"NASHVILLE MHC SERIES A LLC","point":[-86.671267470878,36.2771978242402]}},{"type":"Feature","id":"129260","geometry":{"type":"Polygon","coordinates":[[[-86.6712668140883,36.2766690622899],[-86.6715096052397,36.2764772082757],[-86.6717393826374,36.2766690134657],[-86.671989263735,36.276877598257],[-86.6721824925115,36.2770388926659],[-86.6720008057541,36.2771970275173],[-86.6719516140052,36.2772406917674],[-86.6712668140883,36.2766690622899]]]},"properties":{"id":"129260","parcel":"04401000900","address":"112 HICKERSON ST","owner":"STRAND, BRITTANY & DANIEL J","point":[-86.67162803837023,36.276773330817285]}},{"type":"Feature","id":"129264","geometry":{"type":"Polygon","coordinates":[[[-86.6704385608681,36.27624813493],[-86.6702584888112,36.2760965278253],[-86.6702588127205,36.2760962664738],[-86.6702573343421,36.2760950507974],[-86.6704867589624,36.2759161290238],[-86.670487108348,36.275916379431],[-86.6704875018563,36.2759165827292],[-86.6704879294324,36.2759167344681],[-86.6704883821268,36.2759168292901],[-86.6704888465683,36.2759168654667],[-86.6704893127325,36.2759168421524],[-86.6704897672713,36.2759167603223],[-86.6704902024014,36.2759166209211],[-86.6704906036997,36.2759164294359],[-86.6704909633907,36.2759161877125],[-86.6712134684347,36.2765193059325],[-86.6709824802142,36.2767011604314],[-86.6704385608681,36.27624813493]]]},"properties":{"id":"129264","parcel":"04401001200","address":"103 HICKERSON ST","owner":"ROROYA, CORY & STEWART, JESSICA","point":[-86.67082619594765,36.27638372155785]}},{"type":"Feature","id":"129356","geometry":{"type":"Polygon","coordinates":[[[-86.6712302902129,36.2755837720164],[-86.6716369799679,36.275266597459],[-86.6716507114568,36.2752782957696],[-86.6717704681267,36.2753759268583],[-86.6717928391063,36.2753961749016],[-86.6718073767707,36.2754083022066],[-86.6714013150274,36.2757249880703],[-86.6712302902129,36.2755837720164]]]},"properties":{"id":"129356","parcel":"04401002000","address":"344 KEETON AVE","owner":"AGNEW, NATHAN MCNEIL & JULIE ANN","point":[-86.67151883391146,36.275496037462155]}},{"type":"Feature","id":"129360","geometry":{"type":"Polygon","coordinates":[[[-86.6712150237778,36.2753210814573],[-86.6712773852211,36.2749704914365],[-86.6713196655598,36.2750054389626],[-86.6714433591058,36.2751039686718],[-86.6716062571665,36.275240468382],[-86.6716369799679,36.275266597459],[-86.6712302902129,36.2755837720164],[-86.6710592408215,36.2754426045211],[-86.6712150237778,36.2753210814573]]]},"properties":{"id":"129360","parcel":"04401002100","address":"342 KEETON AVE","owner":"CAIN, MARK EDWARD & AMANDA","point":[-86.67141070091861,36.275293797605485]}},{"type":"Feature","id":"129362","geometry":{"type":"Polygon","coordinates":[[[-86.6707481768147,36.2751858646388],[-86.6711523425202,36.2748671609663],[-86.6712773852211,36.2749704914365],[-86.6712150237778,36.2753210814573],[-86.6710592408215,36.2754426045211],[-86.6707481768147,36.2751858646388]]]},"properties":{"id":"129362","parcel":"04401002200","address":"340 KEETON AVE","owner":"KELLEY, CHARLES R. ET UX","point":[-86.67107164796565,36.27507834025248]}},{"type":"Feature","id":"129366","geometry":{"type":"Polygon","coordinates":[[[-86.6705110952454,36.2749893890916],[-86.6709157617564,36.2746702913761],[-86.6709308582092,36.2746829825619],[-86.6709619576185,36.2747085545618],[-86.6710412367069,36.2747762395801],[-86.671101382661,36.2748257330382],[-86.6711523425202,36.2748671609663],[-86.6707481768147,36.2751858646388],[-86.6705110952454,36.2749893890916]]]},"properties":{"id":"129366","parcel":"04401002400","address":"338 KEETON AVE","owner":"CRENSHAW, JAMES THOMAS","point":[-86.67083171914486,36.274928275460375]}},{"type":"Feature","id":"129372","geometry":{"type":"Polygon","coordinates":[[[-86.6713882677084,36.2740930643706],[-86.6716612553408,36.2738805814002],[-86.6717917770776,36.2739902832813],[-86.6716839502853,36.274076588103],[-86.6714547024144,36.2742465260101],[-86.6713870698855,36.2741919598062],[-86.671378354998,36.2741835501371],[-86.6713713757188,36.2741741394693],[-86.6713663031946,36.2741639602718],[-86.6713632630856,36.2741532623901],[-86.6713623310983,36.2741423112675],[-86.6713635284353,36.2741313762554],[-86.6713668273437,36.2741207287792],[-86.6713721454598,36.2741106315552],[-86.6713793513279,36.2741013331527],[-86.6713882677084,36.2740930643706]]]},"properties":{"id":"129372","parcel":"04405000100","address":"128 SCENIC VIEW RD","owner":"DOUGLAS, SHEILA","point":[-86.67160184963947,36.27403306230042]}},{"type":"Feature","id":"129376","geometry":{"type":"Polygon","coordinates":[[[-86.6709990577729,36.2738683410633],[-86.6713251501015,36.2736104987011],[-86.6714611267247,36.2737234673579],[-86.671129380233,36.2739760458246],[-86.6709990577729,36.2738683410633]]]},"properties":{"id":"129376","parcel":"04405000300","address":"124 SCENIC VIEW RD","owner":"HUNT, RICKIE","point":[-86.67122832408647,36.27379589957401]}},{"type":"Feature","id":"129379","geometry":{"type":"Polygon","coordinates":[[[-86.671165967314,36.2734811769919],[-86.6713800325223,36.2733613189807],[-86.6717692922463,36.2736989555146],[-86.6716812821504,36.2737618010298],[-86.6715895704433,36.2738282377362],[-86.6714611267247,36.2737234673579],[-86.6713251501015,36.2736104987011],[-86.671165967314,36.2734811769919]]]},"properties":{"id":"129379","parcel":"04405000500","address":"102 SHELBY ST","owner":"TESSEMA, DAWIT","point":[-86.67141971243393,36.27354631647203]}},{"type":"Feature","id":"129382","geometry":{"type":"Polygon","coordinates":[[[-86.671101382661,36.2748257330382],[-86.6715089924547,36.2745043098019],[-86.6715446638657,36.274533908199],[-86.671684689612,36.2746441539895],[-86.6712857263516,36.2749236025928],[-86.6712773852211,36.2749704914365],[-86.6711523425202,36.2748671609663],[-86.671101382661,36.2748257330382]]]},"properties":{"id":"129382","parcel":"04405000600","address":"135 SCENIC VIEW RD","owner":"REID, ELIZABETH J. & MATTHEW B.","point":[-86.67138578395614,36.27473492394415]}},{"type":"Feature","id":"129447","geometry":{"type":"Polygon","coordinates":[[[-86.6698359320362,36.2744213586338],[-86.6702421252441,36.2741010587197],[-86.670251991699,36.2741094368496],[-86.670271066568,36.2741256361888],[-86.6702840322797,36.2741343522146],[-86.6704094641987,36.2742413350359],[-86.6700031393818,36.27456173987],[-86.6698605432092,36.2744427148543],[-86.6698359320362,36.2744213586338]]]},"properties":{"id":"129447","parcel":"04405003700","address":"330 KEETON AVE","owner":"KINSLEY, CHRISTINE","point":[-86.67012269855532,36.27433134718135]}},{"type":"Feature","id":"129449","geometry":{"type":"Polygon","coordinates":[[[-86.6700031393818,36.27456173987],[-86.6704094641987,36.2742413350359],[-86.6704223445318,36.2742523217281],[-86.6704514631626,36.2742762682076],[-86.670578503268,36.2743841044112],[-86.6701707001461,36.2747056742791],[-86.6700272751684,36.2745818856311],[-86.6700031393818,36.27456173987]]]},"properties":{"id":"129449","parcel":"04405003800","address":"332 KEETON AVE","owner":"ARNOLD, DESIREE M","point":[-86.67029082143978,36.274472922488364]}},{"type":"Feature","id":"130458","geometry":{"type":"Polygon","coordinates":[[[-86.6712857263516,36.2749236025928],[-86.671684689612,36.2746441539895],[-86.6716887883807,36.2746473810599],[-86.6717181674103,36.274671390676],[-86.6718329179691,36.2747614034716],[-86.6718499647247,36.2747717468033],[-86.6718554891605,36.2747764034108],[-86.6714433591058,36.2751039686718],[-86.6713196655598,36.2750054389626],[-86.6712773852211,36.2749704914365],[-86.6712857263516,36.2749236025928]]]},"properties":{"id":"130458","parcel":"04401002300","address":"137 SCENIC VIEW RD","owner":"BOYCE, PHILLIP R.","point":[-86.67157686626764,36.274850020529094]}},{"type":"Feature","id":"130459","geometry":{"type":"Polygon","coordinates":[[[-86.6697434378465,36.2736788102993],[-86.6701498498536,36.273358335454],[-86.6701799777965,36.2733833623936],[-86.6703189415787,36.273502213443],[-86.6699136926421,36.2738217712487],[-86.6699099025124,36.2738185703455],[-86.6697674059793,36.2736982540823],[-86.6697434378465,36.2736788102993]]]},"properties":{"id":"130459","parcel":"04405001400","address":"119 SCENIC VIEW RD","owner":"CANTRELL, DEBRA L.","point":[-86.67003118995972,36.27359051221944]}},{"type":"Feature","id":"130565","geometry":{"type":"Polygon","coordinates":[[[-86.6710575649461,36.2768344099678],[-86.6712668140883,36.2766690622899],[-86.6719516140052,36.2772406917674],[-86.6717691201213,36.2774004917152],[-86.6717556413042,36.2774115544599],[-86.6717118482738,36.2773678465134],[-86.6710575649461,36.2768344099678]]]},"properties":{"id":"130565","parcel":"04401000800","address":"110 A HICKERSON ST","owner":"TUCKER, LINDA B.& JIMMY D.& GREGORY D.","point":[-86.6715074918012,36.27703755967589]}},{"type":"Feature","id":"131004","geometry":{"type":"Polygon","coordinates":[[[-86.6715428800563,36.2776061233017],[-86.6715617256326,36.277588438245],[-86.6717149590623,36.2777348238837],[-86.6721143102896,36.2780996003085],[-86.6718742942631,36.2782811335004],[-86.6717183492872,36.2781347622483],[-86.6713327370736,36.2777896884776],[-86.6715428800563,36.2776061233017]]]},"properties":{"id":"131004","parcel":"04401000100","address":"105 HICKMAN ST","owner":"WINDHAM, JOY FLINT","point":[-86.67172528031894,36.277944649853694]}},{"type":"Feature","id":"131009","geometry":{"type":"Polygon","coordinates":[[[-86.6708639481595,36.2781988419141],[-86.6710875712151,36.2780042149155],[-86.6711037242996,36.277988742088],[-86.6716478623517,36.2784647897243],[-86.67147270327,36.2786129999937],[-86.6714607247937,36.278619353536],[-86.6714476890917,36.2786241538175],[-86.6714339024266,36.2786272891865],[-86.6714196858434,36.2786286848595],[-86.6714053729895,36.278628308341],[-86.6713912978714,36.2786261694918],[-86.6713777914922,36.2786223178436],[-86.6708639481595,36.2781988419141]]]},"properties":{"id":"131009","parcel":"04401000300","address":"511 SWINGING BRIDGE RD","owner":"BELL, DANA","point":[-86.67126057524725,36.278331829298814]}},{"type":"Feature","id":"131012","geometry":{"type":"Polygon","coordinates":[[[-86.6702068873375,36.2775278332066],[-86.6703551322287,36.2774061449707],[-86.6710875712151,36.2780042149155],[-86.6708639481595,36.2781988419141],[-86.6701861237913,36.2776400247471],[-86.6701775199165,36.2776305572373],[-86.6701709210731,36.2776200854511],[-86.6701665021468,36.2776088887028],[-86.6701643802612,36.2775972601449],[-86.6701646114385,36.2775855067874],[-86.6701671882823,36.2775739386953],[-86.670172043241,36.2775628599586],[-86.670179048569,36.2775525641859],[-86.6701880195674,36.2775433227707],[-86.6702068873375,36.2775278332066]]]},"properties":{"id":"131012","parcel":"04401000400","address":"507 SWINGING BRIDGE RD","owner":"NASHVILLE MHC SERIES A LLC","point":[-86.67063578069639,36.27782211774287]}},{"type":"Feature","id":"131016","geometry":{"type":"Polygon","coordinates":[[[-86.6703551322287,36.2774061449707],[-86.6705896279845,36.2772136557448],[-86.6713219738784,36.2778007369899],[-86.6711037242996,36.277988742088],[-86.6710875712151,36.2780042149155],[-86.6703551322287,36.2774061449707]]]},"properties":{"id":"131016","parcel":"04401000500","address":"102 HICKERSON ST","owner":"NASHVILLE MHC SERIES A LLC","point":[-86.67083630635837,36.27760343577394]}},{"type":"Feature","id":"131020","geometry":{"type":"Polygon","coordinates":[[[-86.6699295764192,36.275826643043],[-86.6706289773268,36.2752811988587],[-86.6709554305956,36.2755506213853],[-86.6709542010227,36.2755515799134],[-86.6707218317356,36.2757328008694],[-86.6707208564795,36.2757335615149],[-86.6704909386539,36.2759128695088],[-86.670490309833,36.2759123484793],[-86.6704898487759,36.2759121861113],[-86.6704893593303,36.2759120887896],[-86.6704888571008,36.2759120591312],[-86.6704883565714,36.2759120988584],[-86.6704878699772,36.275912207002],[-86.6704874150956,36.2759123798585],[-86.6704870019053,36.2759126128663],[-86.6704866425879,36.275912898748],[-86.6704863493178,36.2759132293251],[-86.6704861275835,36.2759135955546],[-86.6704859873181,36.2759139874679],[-86.6704859295277,36.2759143924423],[-86.6704859539074,36.2759147744299],[-86.6704860516677,36.2759151469982],[-86.6704862227552,36.2759155038387],[-86.6704864603929,36.2759158332731],[-86.6704867589624,36.2759161290238],[-86.6702573343421,36.2760950507974],[-86.6699295764192,36.275826643043]]]},"properties":{"id":"131020","parcel":"04401001500","address":"333 KEETON AVE","owner":"CAPPS, MARY RENEE & BALDWIN, CHRISTOPHER","point":[-86.67050323804546,36.27564126855691]}},{"type":"Feature","id":"131024","geometry":{"type":"Polygon","coordinates":[[[-86.6696950930415,36.2756332265407],[-86.6703948650622,36.2750877194373],[-86.6706289773268,36.2752811988587],[-86.6699295764192,36.275826643043],[-86.6696950930415,36.2756332265407]]]},"properties":{"id":"131024","parcel":"04401001600","address":"331 KEETON AVE","owner":"HARRISON, PAUL R. & BECKHAM, JAMIE L.","point":[-86.6701620828324,36.27545721374778]}},{"type":"Feature","id":"132023","geometry":{"type":"Polygon","coordinates":[[[-86.6703411229422,36.2748473539155],[-86.6707474655577,36.2745269352572],[-86.6707617407469,36.2745391236275],[-86.67077607646,36.274551361228],[-86.6707924893209,36.2745666532956],[-86.6709157617564,36.2746702913761],[-86.6705110952454,36.2749893890916],[-86.6703411229422,36.2748473539155]]]},"properties":{"id":"132023","parcel":"04405004000","address":"336 KEETON AVE","owner":"CUMMINGS, BRADLEY P","point":[-86.6706284427099,36.27475882299336]}},{"type":"Feature","id":"132380","geometry":{"type":"Polygon","coordinates":[[[-86.6701707001461,36.2747056742791],[-86.670578503268,36.2743841044112],[-86.6705921197286,36.274395661988],[-86.6706038617777,36.2744056293722],[-86.6706175193292,36.2744159916821],[-86.6707474655577,36.2745269352572],[-86.6703411229422,36.2748473539155],[-86.6702602459469,36.2747805731298],[-86.6701967792993,36.2747281830795],[-86.6701707001461,36.2747056742791]]]},"properties":{"id":"132380","parcel":"04405003900","address":"334 KEETON AVE","owner":"HAGER, DORRIS ET UX","point":[-86.67045908316655,36.274616305118165]}},{"type":"Feature","id":"136063","geometry":{"type":"Polygon","coordinates":[[[-86.6700554543886,36.2724678681758],[-86.670241896993,36.2723487294481],[-86.6705504011701,36.2726780145079],[-86.6703612503822,36.2727942631402],[-86.6700554543886,36.2724678681758]]]},"properties":{"id":"136063","parcel":"044050G00300CO","address":"1009 SCENIC VIEW CT","owner":"GARRETT, TREVOR JOSEPH REVOCABLE TRUST","point":[-86.67030292749344,36.27257294159725]}},{"type":"Feature","id":"136064","geometry":{"type":"Polygon","coordinates":[[[-86.6704283379239,36.2722295904347],[-86.6706147805124,36.2721104502159],[-86.670928702194,36.2724455163368],[-86.670739552516,36.2725617655692],[-86.6704283379239,36.2722295904347]]]},"properties":{"id":"136064","parcel":"044050G00500CO","address":"1017 SCENIC VIEW CT","owner":"HURLEY, PRESTON R & EMILY S","point":[-86.6706785200777,36.27233755364764]}},{"type":"Feature","id":"136157","geometry":{"type":"Polygon","coordinates":[[[-86.670241896993,36.2723487294481],[-86.6704283379239,36.2722295904347],[-86.670739552516,36.2725617655692],[-86.6705504011701,36.2726780145079],[-86.670241896993,36.2723487294481]]]},"properties":{"id":"136157","parcel":"044050G00400CO","address":"1013 SCENIC VIEW CT","owner":"STIEBEL, JOHN C. & ELKO, CAITLIN B.","point":[-86.67049072410374,36.272455247765855]}},{"type":"Feature","id":"136158","geometry":{"type":"Polygon","coordinates":[[[-86.6710758974255,36.2725277343466],[-86.6711619920182,36.2724748440999],[-86.671170251262,36.2724706120014],[-86.671179274082,36.2724675706986],[-86.6711888018825,36.2724658063434],[-86.6711985601889,36.2724653700279],[-86.6712082708676,36.2724662750127],[-86.6712176521025,36.2724684940233],[-86.6712442896993,36.2724752540453],[-86.6712717878233,36.2724791451596],[-86.6712996773387,36.2724801005762],[-86.6713274828668,36.2724781049106],[-86.671583172535,36.2727510092883],[-86.6713905997507,36.2728636078244],[-86.6710758974255,36.2725277343466]]]},"properties":{"id":"136158","parcel":"044050G01000CO","address":"1020 SCENIC VIEW CT","owner":"DODGE, JOSHUA MATTHEW & LOOPER, CHRISTOPHER SHANE","point":[-86.67132953740627,36.27263937209326]}},{"type":"Feature","id":"136168","geometry":{"type":"Polygon","coordinates":[[[-86.6703191818662,36.2729925904235],[-86.6705083646337,36.2728763750352],[-86.6708138080235,36.2732023877652],[-86.6706217833727,36.2733155705124],[-86.6703191818662,36.2729925904235]]]},"properties":{"id":"136168","parcel":"044050G01400CO","address":"1004 SCENIC VIEW CT","owner":"GARRETT, TREVOR JOSEPH REVOCABLE TRUST","point":[-86.67056649464689,36.27309748934937]}},{"type":"Feature","id":"136169","geometry":{"type":"Polygon","coordinates":[[[-86.6701682686406,36.27318247828],[-86.6701590895768,36.2731735069232],[-86.6701519155009,36.2731634078194],[-86.6701469525577,36.2731524727273],[-86.6701443447502,36.2731410153792],[-86.6701441660949,36.2731293652165],[-86.670146421667,36.2731178592725],[-86.6701510474703,36.2731068268526],[-86.6701579093024,36.2730965868359],[-86.6701668093098,36.2730874332205],[-86.670177493733,36.273079629672],[-86.6703191818662,36.2729925904235],[-86.6706217833727,36.2733155705124],[-86.6704515898657,36.2734158847941],[-86.6701682686406,36.27318247828]]]},"properties":{"id":"136169","parcel":"044050G01500CO","address":"116 SCENIC VIEW RD","owner":"RUSSO, TARA NICOLE","point":[-86.67040420861012,36.273249049917716]}},{"type":"Feature","id":"136871","geometry":{"type":"Polygon","coordinates":[[[-86.6706147805124,36.2721104502159],[-86.6708012203222,36.2719913106187],[-86.6710819626335,36.2722909608472],[-86.6710810329371,36.2723073477452],[-86.6710820231166,36.2723237320941],[-86.6710821960864,36.272330883329],[-86.6710810184821,36.2723379726679],[-86.6710785178199,36.2723448323285],[-86.671074751742,36.2723513033734],[-86.6710698102188,36.2723572329942],[-86.6710638089251,36.2723624808574],[-86.670928702194,36.2724455163368],[-86.6706147805124,36.2721104502159]]]},"properties":{"id":"136871","parcel":"044050G00600CO","address":"1021 SCENIC VIEW CT","owner":"SMITH, DANIEL GENE","point":[-86.67084837114342,36.27220070575852]}},{"type":"Feature","id":"136873","geometry":{"type":"Polygon","coordinates":[[[-86.6706975468462,36.2727601593466],[-86.6708867284963,36.2726439424567],[-86.6711980275168,36.2729762042413],[-86.6711446500142,36.273007414791],[-86.6710058321259,36.273089204709],[-86.6706975468462,36.2727601593466]]]},"properties":{"id":"136873","parcel":"044050G01200CO","address":"1012 SCENIC VIEW CT","owner":"GARRETT, TREVOR JOSEPH REVOCABLE TRUST","point":[-86.67094778692775,36.27286818205522]}},{"type":"Feature","id":"136892","geometry":{"type":"Polygon","coordinates":[[[-86.6705083646337,36.2728763750352],[-86.6706975468462,36.2727601593466],[-86.6710058321259,36.273089204709],[-86.6708138080235,36.2732023877652],[-86.6705083646337,36.2728763750352]]]},"properties":{"id":"136892","parcel":"044050G01300CO","address":"1008 SCENIC VIEW CT","owner":"GARRETT, TREVOR JOSEPH REVOCABLE TRUST, THE","point":[-86.67075709807499,36.27298279013007]}},{"type":"Feature","id":"138207","geometry":{"type":"Polygon","coordinates":[[[-86.6698690112236,36.2725870066117],[-86.6700554543886,36.2724678681758],[-86.6703612503822,36.2727942631402],[-86.6701720990393,36.2729105114724],[-86.6698690112236,36.2725870066117]]]},"properties":{"id":"138207","parcel":"044050G00200CO","address":"1005 SCENIC VIEW CT","owner":"WEAVER, MATTHEW SHARP & KARI ANNE","point":[-86.67011513052346,36.27269063512855]}},{"type":"Feature","id":"138208","geometry":{"type":"Polygon","coordinates":[[[-86.6708012203222,36.2719913106187],[-86.6710686966041,36.2718203864902],[-86.6712195163826,36.2721451135916],[-86.671192391431,36.2721551760072],[-86.6711672626275,36.2721681977998],[-86.6711446175529,36.2721839275227],[-86.6711248987913,36.2722020572009],[-86.6711084895608,36.2722222341278],[-86.6710957104059,36.272244064488],[-86.6710868103773,36.2722671233196],[-86.6710819626335,36.2722909608472],[-86.6708012203222,36.2719913106187]]]},"properties":{"id":"138208","parcel":"044050G00700CO","address":"1025 SCENIC VIEW CT","owner":"GARRETT, TREVOR JOSEPH REV TRUST, THE","point":[-86.67102846805024,36.27206826207514]}},{"type":"Feature","id":"138209","geometry":{"type":"Polygon","coordinates":[[[-86.6710686966041,36.2718203864902],[-86.6713932676195,36.2716129744526],[-86.671502947693,36.2717419346947],[-86.6713558395589,36.2721412579757],[-86.6713287906083,36.2721362468552],[-86.6713011683858,36.2721341156529],[-86.6712734384136,36.2721348996347],[-86.6712460669219,36.2721385862975],[-86.6712195163826,36.2721451135916],[-86.6710686966041,36.2718203864902]]]},"properties":{"id":"138209","parcel":"044050G00800CO","address":"1029 SCENIC VIEW CT","owner":"GARRETT, TREVOR JOSEPH REVOCABLE TRUST, THE","point":[-86.67127876086361,36.27197750905773]}},{"type":"Feature","id":"138210","geometry":{"type":"Polygon","coordinates":[[[-86.6713274828668,36.2724781049106],[-86.6713558901594,36.2724729137242],[-86.671383162824,36.2724646430078],[-86.6714087924246,36.2724534478952],[-86.6714323054622,36.2724395346968],[-86.6714532645029,36.272423162696],[-86.6714712792313,36.2724046350745],[-86.6714860164444,36.2723842961542],[-86.671914528692,36.2725572632895],[-86.671583172535,36.2727510092883],[-86.6713274828668,36.2724781049106]]]},"properties":{"id":"138210","parcel":"044050G00900CO","address":"1024 SCENIC VIEW CT","owner":"GARRETT, TREVOR JOSEPH REV TRUST, THE","point":[-86.67162029975658,36.27265378351088]}},{"type":"Feature","id":"139774","geometry":{"type":"Polygon","coordinates":[[[-86.6708867284963,36.2726439424567],[-86.6710758974255,36.2725277343466],[-86.6713905997507,36.2728636078244],[-86.6713507306511,36.2728869198128],[-86.6711980275168,36.2729762042413],[-86.6708867284963,36.2726439424567]]]},"properties":{"id":"139774","parcel":"044050G01100CO","address":"1016 SCENIC VIEW CT","owner":"GARRETT, TREVOR JOSEPH REV TRUST, THE","point":[-86.67113866072367,36.27275377539673]}},{"type":"Feature","id":"139786","geometry":{"type":"Polygon","coordinates":[[[-86.6714860164444,36.2723842961542],[-86.6714978041908,36.2723610617309],[-86.6715053140004,36.272336690285],[-86.6715083877262,36.2723116945969],[-86.671506959725,36.2722866022538],[-86.6715010611938,36.2722619421067],[-86.6714908156188,36.27223823258],[-86.6714764398187,36.2722159735543],[-86.6714582349422,36.2721956347006],[-86.6714365863678,36.2721776437651],[-86.6714119503033,36.2721623812362],[-86.6713848436547,36.2721501668826],[-86.6713558395589,36.2721412579757],[-86.671502947693,36.2717419346947],[-86.6713932676195,36.2716129744526],[-86.6716103905112,36.2714742252962],[-86.6723265982685,36.2723163203677],[-86.671914528692,36.2725572632895],[-86.6714860164444,36.2723842961542]]]},"properties":{"id":"139786","parcel":"044050G90000CO","address":"1030 SCENIC VIEW CT","owner":"COBALT PROPERTIES III, LLC","point":[-86.67171931900315,36.2719423925173]}},{"type":"Feature","id":"154249","geometry":{"type":"Polygon","coordinates":[[[-86.6696994573137,36.2768409385819],[-86.6699404796053,36.2766476276433],[-86.6704895937827,36.2770964844471],[-86.6702485714578,36.2772897955532],[-86.6696994573137,36.2768409385819]]]},"properties":{"id":"154249","parcel":"04401003900","address":"87 HICKERSON ST","owner":"WALSH, CAMERON & NIGG, AUDRIANA","point":[-86.67009452506218,36.27696871216555]}},{"type":"Feature","id":"154250","geometry":{"type":"Polygon","coordinates":[[[-86.6699404796053,36.2766476276433],[-86.670181500721,36.2764543162128],[-86.6707306149317,36.276903172849],[-86.6704895937827,36.2770964844471],[-86.6699404796053,36.2766476276433]]]},"properties":{"id":"154250","parcel":"04401004000","address":"91 HICKERSON ST","owner":"WANDEL, JACOB RICHARD & RICHARD","point":[-86.67033554678248,36.27677540089721]}},{"type":"Feature","id":"154623","geometry":{"type":"Polygon","coordinates":[[[-86.6704081740781,36.2762725088001],[-86.6704385608681,36.27624813493],[-86.6709824802142,36.2767011604314],[-86.6707306149317,36.276903172849],[-86.670181500721,36.2764543162128],[-86.6704081740781,36.2762725088001]]]},"properties":{"id":"154623","parcel":"04401004100","address":"95 HICKERSON ST","owner":"AUDAIN, EDWARD LEROY","point":[-86.67058338919168,36.276577742845255]}}]}