{"type":"FeatureCollection","features":[{"type":"Feature","id":"122750","geometry":{"type":"Polygon","coordinates":[[[-86.6731948162204,36.2733429888977],[-86.6729143447389,36.273011343778],[-86.6728558652118,36.2729421923092],[-86.6726146807791,36.2726569873488],[-86.6723265982685,36.2723163203677],[-86.6716103905112,36.2714742252962],[-86.6709906042918,36.2707532572563],[-86.6708317495629,36.2705684658158],[-86.6704318497977,36.2701032702235],[-86.6700312252358,36.2696372229167],[-86.6686799771836,36.2680430623734],[-86.6694884740157,36.2675214781326],[-86.6700318847731,36.2671541123635],[-86.6702568573573,36.2670155156436],[-86.6703053959058,36.2670586877969],[-86.6703089732794,36.2670563761127],[-86.6704961493388,36.2672484500632],[-86.6705287821583,36.2672780449343],[-86.6705642386678,36.2673054278177],[-86.6706022892285,36.2673304224419],[-86.670642688765,36.2673528697444],[-86.6706851800741,36.2673726242491],[-86.6707294871929,36.2673895595097],[-86.6707753287305,36.267403565333],[-86.6708224067931,36.2674145541484],[-86.6708704213902,36.2674224537185],[-86.6709287476468,36.2671798471458],[-86.6708970134831,36.2671754387321],[-86.6708660616058,36.2671682582728],[-86.6708362588888,36.2671583911518],[-86.6708079591254,36.2671459552706],[-86.6707815007802,36.2671310983568],[-86.67075719695,36.2671139953159],[-86.6707353365147,36.2670948527314],[-86.6707161806846,36.267073895365],[-86.6705485217508,36.2669034152115],[-86.6710781058289,36.2665510602219],[-86.6711726633844,36.2665346030677],[-86.6716193714468,36.2664568537444],[-86.671887652241,36.2664125096364],[-86.6742007024752,36.2650118573358],[-86.6738781952696,36.2646620432179],[-86.67501140067,36.2638959060591],[-86.6750174804579,36.2639018094475],[-86.6753123893444,36.2641881529341],[-86.6753361523147,36.2642126887938],[-86.6753578535537,36.264238447433],[-86.6753773952775,36.2642653158433],[-86.6753946930021,36.2642931746334],[-86.6753982410826,36.2643050871782],[-86.6754040942617,36.2643163866163],[-86.6754121031754,36.264326783584],[-86.6754220618741,36.2643360088608],[-86.6754337135025,36.2643438268567],[-86.675446759202,36.2643500355621],[-86.6754608626385,36.264354475535],[-86.6754756611464,36.2643570316413],[-86.675490773572,36.2643576393199],[-86.6755058113866,36.2643562827176],[-86.6755365235362,36.2643582649975],[-86.6755666867233,36.264363343383],[-86.6755958295218,36.2643714375959],[-86.6756229845321,36.2643832938622],[-86.6756481110103,36.2643977876675],[-86.6756708231063,36.26441469496],[-86.6756900312474,36.2644341380924],[-86.6757060154042,36.2644554089316],[-86.6757185132988,36.2644781583642],[-86.6757268596757,36.2645022846663],[-86.6757374533595,36.2645294608039],[-86.6757517743266,36.2645554922562],[-86.6757696350082,36.2645800466136],[-86.6757908090244,36.2646028079048],[-86.6758150256962,36.2646234856413],[-86.6758419722641,36.2646418139031],[-86.6758713039642,36.2646575584925],[-86.6759026462466,36.2646705160209],[-86.6760137843129,36.2647358216422],[-86.6762021842176,36.2648715663187],[-86.6762595754566,36.2649190431619],[-86.6762880845963,36.2649434873838],[-86.6763134008034,36.2649701376701],[-86.6763352657885,36.2649987214926],[-86.6763534567021,36.2650289462968],[-86.6763608722554,36.265042948764],[-86.6763708592643,36.2650558589598],[-86.6763831803154,36.2650673726932],[-86.6763975414865,36.2650772149289],[-86.6764136013336,36.2650851496508],[-86.6764309765481,36.2650909906455],[-86.6764492552638,36.2650945960197],[-86.6764680016322,36.2650958825955],[-86.6764916106243,36.2650991760393],[-86.6765142769188,36.2651054578489],[-86.6765354271385,36.265114569012],[-86.6765545273597,36.2651262790982],[-86.6765710942942,36.2651402925049],[-86.6765847109223,36.2651562546781],[-86.6765950321499,36.2651737628955],[-86.6766017948927,36.2651923743213],[-86.6766131265637,36.2652145678162],[-86.6766271759081,36.2652357186842],[-86.676643795277,36.2652556087506],[-86.6766628171052,36.2652740334708],[-86.6766840450316,36.2652908046833],[-86.6768533679849,36.2654167667865],[-86.6770640750917,36.2656221588983],[-86.6771214854466,36.2656575505405],[-86.6771813439501,36.2656901760611],[-86.6772025828257,36.2656985647199],[-86.6772217104105,36.2657098022987],[-86.677238149547,36.2657235486618],[-86.6772514048102,36.2657393911165],[-86.6772610770368,36.2657568515418],[-86.6772668757046,36.2657754025409],[-86.6772642095973,36.2657896425983],[-86.6772646264519,36.2658040420206],[-86.6772681136401,36.2658181646801],[-86.6772745673804,36.2658315866757],[-86.6772837916641,36.2658439008455],[-86.6772955073346,36.2658547374438],[-86.6773093632543,36.2658637685854],[-86.6773249386381,36.2658707208495],[-86.6773417665079,36.2658753850623],[-86.6773593359642,36.2658776216916],[-86.6774065771698,36.2658906375184],[-86.6774522745061,36.2659068730868],[-86.6774960919801,36.2659262095162],[-86.6775377101132,36.2659485071058],[-86.6775768247899,36.2659736008341],[-86.6776131495522,36.2660013084574],[-86.6776464189079,36.2660314268862],[-86.6776763905945,36.2660637366786],[-86.6779764763238,36.2663274118002],[-86.6786406779387,36.2668846150832],[-86.6786819691956,36.2669208886816],[-86.6787200588171,36.266959390979],[-86.6787547638163,36.2669999373514],[-86.6787859167001,36.267042333174],[-86.6788133699283,36.2670863746978],[-86.6788285334385,36.2671065249816],[-86.6788465212979,36.2671250894452],[-86.678867084222,36.2671418090303],[-86.678889935312,36.2671564510261],[-86.6789147567629,36.267168812636],[-86.6789412031947,36.2671787200579],[-86.6789689061807,36.2671860374717],[-86.6790048444172,36.267203840456],[-86.6790386455508,36.2672242032321],[-86.6790700321578,36.2672469597307],[-86.6790987477799,36.2672719230364],[-86.679124555835,36.2672988880973],[-86.6792346826663,36.2674037525792],[-86.6794338497712,36.267607008146],[-86.679655914301,36.2678694710899],[-86.6797380262998,36.2679514165014],[-86.6799136248288,36.2681745814409],[-86.6802098629579,36.2685421075771],[-86.680346906645,36.26869956165],[-86.6796370887438,36.2692342706498],[-86.6737675609648,36.2736732738468],[-86.6731948162204,36.2733429888977]]]},"properties":{"id":"122750","parcel":"04300002100","address":"640 OLD HICKORY BLVD","owner":"SCARAB PROPERTIES, LLC","point":[-86.67471535812138,36.268952682106196]}},{"type":"Feature","id":"122883","geometry":{"type":"Polygon","coordinates":[[[-86.6788097296019,36.26285934957],[-86.678701251378,36.2625500972304],[-86.6787820048775,36.2625655270772],[-86.6788619141894,36.262583605843],[-86.678936337595,36.2626030302827],[-86.6790097377571,36.2626248559151],[-86.6790819997546,36.2626490473384],[-86.6791223606959,36.2628466024781],[-86.6789506659448,36.2628540615532],[-86.6788097296019,36.26285934957]]]},"properties":{"id":"122883","parcel":"04316019000","address":"81 VANDIVER DR","owner":"BROWN, GARY WAYNE","point":[-86.67893623852913,36.26274737959741]}},{"type":"Feature","id":"125741","geometry":{"type":"Polygon","coordinates":[[[-86.6681515262716,36.2645864403579],[-86.6715816495612,36.2620053173235],[-86.6728094332699,36.2615238421862],[-86.6728095142275,36.2615238092909],[-86.6728164069322,36.2615484332739],[-86.6728253624412,36.2615726176835],[-86.6728344577271,36.2615928169439],[-86.6728377588232,36.2615992910775],[-86.6728564919375,36.2616308436343],[-86.6728606759422,36.2616369748873],[-86.6728733728054,36.2616542097486],[-86.6728833542882,36.2616660622183],[-86.6729028264278,36.2616870057935],[-86.6729069707955,36.2616909580737],[-86.672914574629,36.2616981472602],[-86.6729301252274,36.261712283993],[-86.6729380686234,36.2617192279531],[-86.6729580865461,36.2617398332196],[-86.6729699485976,36.2617540274387],[-86.6729807669183,36.2617687582979],[-86.6729921974004,36.2617867770653],[-86.6729922527226,36.2617868704859],[-86.6729987429349,36.2617985522279],[-86.6730046108942,36.261810606041],[-86.6730651623905,36.2619113578801],[-86.6731195290771,36.261993526379],[-86.6731739136867,36.2620754333933],[-86.6731789206281,36.2620825405965],[-86.6731830708393,36.2620903212899],[-86.6731885795465,36.2621048816328],[-86.6731903114306,36.2621127785387],[-86.673190480914,36.2621137347084],[-86.6731906070522,36.2621146974283],[-86.6731906975889,36.2621156612477],[-86.6731905726814,36.2621204772538],[-86.6731894298815,36.2621252043003],[-86.6731888011898,36.2621309766218],[-86.6731891108266,36.2621355937373],[-86.6731891884739,36.2621367432834],[-86.6731895170985,36.2621378310485],[-86.6731909289245,36.2621425042095],[-86.6731911149199,36.2621429150388],[-86.6731930032685,36.2621470907659],[-86.6731955129343,36.2621510458338],[-86.6731986044722,36.2621547218815],[-86.6732015787504,36.2621578253955],[-86.6732065826038,36.2621615547776],[-86.6732128352931,36.2621651798689],[-86.6732193598046,36.2621676597755],[-86.673239888047,36.2621811126364],[-86.673261486009,36.2621927633683],[-86.6732714404753,36.2621972285142],[-86.6732888075776,36.2622043128121],[-86.6732899636353,36.2622046839895],[-86.6732935605679,36.2622058896316],[-86.673297175022,36.2622070618301],[-86.6733008036975,36.2622082051097],[-86.6733265522656,36.2622153652719],[-86.6733320926526,36.2622176695071],[-86.6733352854826,36.262219251413],[-86.6733430641299,36.2622248696427],[-86.6733466020008,36.2622284233351],[-86.6733477272808,36.2622297563034],[-86.6733559785268,36.2622454179896],[-86.6733607835904,36.2622520756913],[-86.6733653616076,36.2622575513336],[-86.673368242751,36.2622606941156],[-86.6733700696179,36.2622624782991],[-86.6733770688873,36.2622681810796],[-86.6733809598149,36.2622713750125],[-86.6733833578475,36.2622741086208],[-86.6733851459969,36.2622786706328],[-86.6733855640664,36.262282688722],[-86.6733855382243,36.2622867200998],[-86.6733855051672,36.262287282656],[-86.6733854491882,36.2622873739929],[-86.673383072481,36.2622917348046],[-86.6733802189734,36.2622959054083],[-86.6733798642304,36.2622963282628],[-86.6733792638232,36.2622990100852],[-86.6733785981363,36.2623021293713],[-86.6733769612627,36.2623097404277],[-86.6733768766522,36.2623101293324],[-86.6733752634502,36.2623194787432],[-86.6733771642984,36.2623236832373],[-86.673378319717,36.2623281703674],[-86.6733785889683,36.2623327480529],[-86.673377966644,36.2623373036694],[-86.6733764695762,36.2623417226659],[-86.6733760779318,36.2623442203739],[-86.6733760403183,36.2623469972951],[-86.6733776783518,36.2623514420814],[-86.6733800354072,36.2623556395272],[-86.673380666189,36.2623565327433],[-86.673388508887,36.262361435932],[-86.6733908481183,36.2623619636392],[-86.6733954330528,36.2623626203268],[-86.6734010842818,36.2623623824525],[-86.6734064339798,36.2623618885044],[-86.6734067590681,36.2623619047176],[-86.6734153299362,36.2623626599586],[-86.6734187364857,36.2623633304218],[-86.6734280426072,36.2623670583508],[-86.6734322539181,36.2623694520005],[-86.6734354072552,36.2623718857929],[-86.6734408926907,36.2623787226509],[-86.6734412796592,36.262379080088],[-86.6734484053122,36.2623847244807],[-86.6734484668603,36.2623847646934],[-86.6734527071873,36.2623872987737],[-86.6734630560286,36.2623923339916],[-86.6734634993439,36.262392643349],[-86.6734665421537,36.2623947731384],[-86.6734705343247,36.2623979628991],[-86.6734732517404,36.2624004333669],[-86.673473645386,36.2624007907667],[-86.6734754013212,36.2624031323085],[-86.6734757615346,36.2624036151666],[-86.6734812359779,36.2624125627813],[-86.6734837809297,36.2624173936487],[-86.673486989111,36.2624219594611],[-86.6734918286584,36.2624296605977],[-86.6734969599347,36.2624373808368],[-86.6734998330826,36.2624419386024],[-86.6735055187834,36.2624509949894],[-86.6735056158621,36.2624511566711],[-86.6735091674537,36.2624565848553],[-86.6735236611469,36.2624745243123],[-86.6735306606476,36.2624831317695],[-86.6735313344251,36.2624839769796],[-86.6735382455005,36.2624935717839],[-86.6735422167834,36.2624992788138],[-86.6735457942497,36.2625047392973],[-86.6735539488452,36.2625180555875],[-86.673557401213,36.2625234617923],[-86.6735602160198,36.2625279631037],[-86.6735623151579,36.2625327135404],[-86.6735636668332,36.262537638477],[-86.6735636854038,36.2625377284972],[-86.6735643222041,36.2625418174655],[-86.6735643661301,36.2625459385778],[-86.6735638166993,36.2625500350591],[-86.6735636756464,36.2625507225879],[-86.6735619000986,36.2625566806492],[-86.6735591330704,36.2625623846803],[-86.6735588367017,36.262567057444],[-86.6735547132916,36.2625780205435],[-86.6735515895864,36.2625827415104],[-86.6735463427164,36.2625886585364],[-86.6735414270205,36.2625924269696],[-86.6735359783353,36.2625956792607],[-86.6735300785939,36.2625983662861],[-86.6735238413233,36.2626027161724],[-86.6734904109036,36.2626291149699],[-86.6734777597076,36.2626391594669],[-86.6734777033456,36.2626392057441],[-86.6734373348146,36.2626723465938],[-86.673427176416,36.2626806918803],[-86.6734237722357,36.262683838143],[-86.6734149536872,36.2626925743088],[-86.6734124857912,36.262695241303],[-86.6734113101221,36.2626966231421],[-86.6734057612095,36.2627035359093],[-86.6734046587933,36.2627048948092],[-86.6734020877078,36.2627090386045],[-86.6734013160194,36.2627113392566],[-86.673401371471,36.2627174727669],[-86.6734013799396,36.2627184694878],[-86.6734024997453,36.262721121897],[-86.6734028904877,36.2627220543025],[-86.6734063146997,36.2627265044557],[-86.6734109745657,36.2627299527574],[-86.6734184394256,36.2627329492294],[-86.6734225338989,36.2627340322305],[-86.6734279656427,36.2627349401492],[-86.6734304078342,36.2627352726148],[-86.673435580327,36.2627357926435],[-86.6734407940874,36.2627357996382],[-86.6734459690094,36.2627352958477],[-86.6734494857565,36.2627347886804],[-86.673457345818,36.262732693662],[-86.6734581950095,36.2627324419906],[-86.6734586050012,36.2627324964837],[-86.6734642566987,36.2627332274339],[-86.673469372411,36.2627364947481],[-86.673470593213,36.2627388527905],[-86.6734717856897,36.2627411515092],[-86.6734716246238,36.2627424961512],[-86.6734711208081,36.2627534021245],[-86.6734717988857,36.2627571105409],[-86.6734730670087,36.2627607156317],[-86.6734749046262,36.2627641562271],[-86.6734824546755,36.2627748199449],[-86.6734844826869,36.2627784027759],[-86.6734877686801,36.2627858376928],[-86.6734925473367,36.262789382663],[-86.6734961897734,36.2627908322806],[-86.6734986742643,36.2627918206096],[-86.6735044971612,36.2627925298753],[-86.673505402356,36.2627925825096],[-86.6735115650245,36.2627920236433],[-86.6735176546033,36.2627900664641],[-86.6735251019055,36.2627883765949],[-86.6735270311615,36.2627878025691],[-86.6735289412013,36.2627871935022],[-86.6735308387475,36.2627865547642],[-86.6735427244953,36.262781638061],[-86.6735536443791,36.26277542265],[-86.6735552312161,36.2627743647656],[-86.6735567900111,36.2627732809016],[-86.6735583185077,36.2627721674656],[-86.6735636463049,36.2627677838939],[-86.6735710186426,36.2627601543863],[-86.6735756657857,36.2627542479122],[-86.6735840541779,36.2627441334374],[-86.6735964111014,36.2627312823154],[-86.6735969685296,36.2627307456759],[-86.6736037341181,36.2627249211211],[-86.6736143778155,36.2627164577564],[-86.6736256104755,36.2627086805539],[-86.6736444046742,36.2626973364613],[-86.673644463323,36.2626972973812],[-86.6736467500131,36.2626958318401],[-86.673651238108,36.2626928174181],[-86.6736700228002,36.2626779991055],[-86.6736738619576,36.2626744439531],[-86.6736757306013,36.2626726310618],[-86.6736854642185,36.2626621017212],[-86.6736870796748,36.2626602217473],[-86.6736886582326,36.2626583212506],[-86.6736917125035,36.2626544658549],[-86.6736993971285,36.2626435162433],[-86.6737059437143,36.2626320908138],[-86.6737080453445,36.2626278378757],[-86.6737090398025,36.2626256927948],[-86.6737099907542,36.2626235353392],[-86.6737117979028,36.2626195940682],[-86.6737150431389,36.2626159484968],[-86.6737169592535,36.2626136982403],[-86.6737237008276,36.262608716469],[-86.6737314722833,36.2626051024409],[-86.6737361116898,36.2626039175845],[-86.6737402725005,36.2626028552608],[-86.6737448481515,36.2626024178851],[-86.6737494226897,36.2626019805154],[-86.673754367277,36.2626023972576],[-86.6737598314131,36.2626030580419],[-86.6737674255829,36.2626049019905],[-86.6737727654443,36.2626073073608],[-86.6737776454477,36.2626100757897],[-86.6737819604273,36.262613403432],[-86.6737856151443,36.2626172142137],[-86.6737875607399,36.2626193483101],[-86.673828804141,36.2626828484242],[-86.6739904113437,36.2628599514338],[-86.67411045173,36.2630153094354],[-86.6741132186622,36.2630201949274],[-86.6741136028553,36.2630208795269],[-86.6741176789771,36.2630281757347],[-86.6741216578088,36.2630363322652],[-86.6741228549873,36.2630389193469],[-86.6741263842984,36.2630466917541],[-86.6741299765153,36.2630562338397],[-86.6741321145466,36.2630628036465],[-86.6741391218847,36.263086710423],[-86.6741444708959,36.2630971205125],[-86.67415160099,36.2631068059851],[-86.6741560442631,36.2631114739387],[-86.6741605407237,36.2631150682222],[-86.6741633947255,36.263117236899],[-86.6741648681269,36.2631182813241],[-86.6741678954899,36.2631202904161],[-86.6741781305539,36.2631259318384],[-86.6741892410919,36.2631303553107],[-86.6742010060173,36.263133473745],[-86.6742321505391,36.263151936665],[-86.6742624282172,36.2631713218727],[-86.6742723081405,36.2631779917775],[-86.6742772089203,36.2631813648001],[-86.6742869354086,36.2631881815601],[-86.6742918114079,36.2631916502515],[-86.6742966564868,36.2631951470537],[-86.6743228222781,36.263214803931],[-86.6743480665444,36.2632352347],[-86.6743525646694,36.263239022733],[-86.674357029633,36.2632428370867],[-86.6743726477546,36.2632566037465],[-86.6743805035652,36.2632636841857],[-86.6743812134455,36.2632643237074],[-86.6735002423885,36.2637746800873],[-86.673450586839,36.2638051185054],[-86.6733673308084,36.2638561562411],[-86.6733672887359,36.2638561817102],[-86.6733218206642,36.2638120689705],[-86.6729546959824,36.263456157994],[-86.6725841491608,36.2630969591924],[-86.6720805672034,36.2635069838314],[-86.6716280921925,36.2638754285093],[-86.6712530170251,36.2641808659814],[-86.6709111448282,36.2644593430857],[-86.6708296222263,36.2645257228899],[-86.6692755363089,36.2657891568021],[-86.6681515262716,36.2645864403579]]]},"properties":{"id":"125741","parcel":"04400000700","address":"741 HICKORY INDUSTRIAL DR","owner":"HAWKINS, WILLIAM H., TRUSTEE","point":[-86.6706698227264,36.26363501408234]}},{"type":"Feature","id":"126028","geometry":{"type":"Polygon","coordinates":[[[-86.6786918960102,36.2633588597449],[-86.6792010960638,36.263247218694],[-86.6792236769315,36.2633608279191],[-86.6792515985066,36.2635013189617],[-86.6787929391165,36.2635924841156],[-86.6787534839979,36.2635002577219],[-86.6787368931198,36.263464091431],[-86.6786918960102,36.2633588597449]]]},"properties":{"id":"126028","parcel":"04316014100","address":"112 EAGAN CIR","owner":"HALE, ANGEL","point":[-86.67897429201408,36.263412443838504]}},{"type":"Feature","id":"126066","geometry":{"type":"Polygon","coordinates":[[[-86.6795784838813,36.2642197246415],[-86.6801367618195,36.2641347236566],[-86.6801370824041,36.2641720808327],[-86.680144055903,36.2642731306421],[-86.6796094766195,36.2643530559971],[-86.6795784838813,36.2642197246415]]]},"properties":{"id":"126066","parcel":"04312003900","address":"133 EAGAN CIR","owner":"MALNOFSKI, JOSHUA","point":[-86.67986339189187,36.26424643365557]}},{"type":"Feature","id":"126067","geometry":{"type":"Polygon","coordinates":[[[-86.6789238732233,36.2638705327735],[-86.6793143551573,36.2637991900858],[-86.6793143747934,36.2637992737905],[-86.6793482472394,36.263952364884],[-86.6789905753134,36.2640137097629],[-86.6789877905615,36.2640054844977],[-86.6789242242707,36.2638712400748],[-86.6789238732233,36.2638705327735]]]},"properties":{"id":"126067","parcel":"04312004200","address":"126 EAGAN CIR","owner":"GIBBS, SAMANTHA","point":[-86.67914128945465,36.26391181622419]}},{"type":"Feature","id":"126068","geometry":{"type":"Polygon","coordinates":[[[-86.6789905753134,36.2640137097629],[-86.6793482472394,36.263952364884],[-86.6793856704161,36.2641235652844],[-86.6790568844861,36.2641517843121],[-86.6789905753134,36.2640137097629]]]},"properties":{"id":"126068","parcel":"04312004300","address":"128 EAGAN CIR","owner":"WALLACE, JOSEPH A.","point":[-86.67919525278818,36.26406865681024]}},{"type":"Feature","id":"126084","geometry":{"type":"Polygon","coordinates":[[[-86.679457178877,36.2636809000754],[-86.6801076315269,36.2635860422867],[-86.6801079615224,36.2636244980241],[-86.6801113816877,36.2637068879057],[-86.6799088125879,36.2637387942025],[-86.6794826639278,36.2638049202251],[-86.6794685479709,36.2637412704121],[-86.679457178877,36.2636809000754]]]},"properties":{"id":"126084","parcel":"04316001100","address":"127 EAGAN CIR","owner":"LWB, LLC","point":[-86.67978517036289,36.26369389682062]}},{"type":"Feature","id":"126085","geometry":{"type":"Polygon","coordinates":[[[-86.6785960031783,36.2631726042253],[-86.6791614124181,36.2630496597955],[-86.6791926285798,36.2632088086877],[-86.678675313484,36.2633237920056],[-86.6786310141664,36.2632207544921],[-86.6785960031783,36.2631726042253]]]},"properties":{"id":"126085","parcel":"04316002800","address":"108 EAGAN CIR","owner":"STRAIT WORD CHURCH & LANIER, HORACE E., JR.","point":[-86.67889892058679,36.26319071919014]}},{"type":"Feature","id":"126086","geometry":{"type":"Polygon","coordinates":[[[-86.6778162127844,36.2631363248064],[-86.6783675495853,36.2628750158549],[-86.6784663442491,36.2630041186353],[-86.6779129057744,36.263257748656],[-86.6778162127844,36.2631363248064]]]},"properties":{"id":"126086","parcel":"04316003500","address":"105 VANDIVER DR","owner":"VIDDAL, NOAH P","point":[-86.67813888964777,36.26307021573535]}},{"type":"Feature","id":"126087","geometry":{"type":"Polygon","coordinates":[[[-86.6790568844861,36.2641517843121],[-86.6793856704161,36.2641235652844],[-86.6794195323467,36.2642750080413],[-86.6792758896793,36.2642832056726],[-86.6791205007702,36.2642920702682],[-86.6788557442191,36.2644298095142],[-86.6787604189817,36.264310025323],[-86.6790603752007,36.2641633023335],[-86.6790600465256,36.2641622190911],[-86.6790568844861,36.2641517843121]]]},"properties":{"id":"126087","parcel":"04312004400","address":"136 EAGAN CIR","owner":"WOOD, ERIC & KRISTINA L.","point":[-86.67908709897975,36.26427840793258]}},{"type":"Feature","id":"126088","geometry":{"type":"Polygon","coordinates":[[[-86.6782832298864,36.2637237552209],[-86.6787534839979,36.2635002577219],[-86.6787929391165,36.2635924841156],[-86.6788570421597,36.2637350070688],[-86.678861408449,36.2637446825561],[-86.6784608093338,36.2639425169276],[-86.6783024313295,36.2637478213286],[-86.6782832298864,36.2637237552209]]]},"properties":{"id":"126088","parcel":"04312005000","address":"115 VANDIVER DR","owner":"STRIPLIN, MICHAEL E. ET UX","point":[-86.67862239635106,36.263658346507604]}},{"type":"Feature","id":"126089","geometry":{"type":"Polygon","coordinates":[[[-86.6789910709104,36.2655761866726],[-86.6793880271571,36.2653481562966],[-86.6797249718004,36.2657171006691],[-86.679111551371,36.2656812680116],[-86.679081507186,36.2656795136008],[-86.6789910709104,36.2655761866726]]]},"properties":{"id":"126089","parcel":"04312005100","address":"140 VANDIVER DR","owner":"THORNBERRY, BRANDON","point":[-86.67934122259916,36.26546257837489]}},{"type":"Feature","id":"126090","geometry":{"type":"Polygon","coordinates":[[[-86.6782854473197,36.2649340606821],[-86.6788140615667,36.2646327705851],[-86.6789107460171,36.2647525452868],[-86.6784050290159,36.2650344775706],[-86.6782854473197,36.2649340606821]]]},"properties":{"id":"126090","parcel":"04312005600","address":"126 VANDIVER DR","owner":"DILLS, BRIANNA","point":[-86.67859631632226,36.26484329861057]}},{"type":"Feature","id":"126091","geometry":{"type":"Polygon","coordinates":[[[-86.6779347304378,36.2646195764644],[-86.6785322025916,36.2642783459793],[-86.6786227225739,36.2643915620818],[-86.6780496191992,36.2647266134834],[-86.6779347304378,36.2646195764644]]]},"properties":{"id":"126091","parcel":"04312005900","address":"120 VANDIVER DR","owner":"HILL, JASON","point":[-86.67828102939404,36.264505575964314]}},{"type":"Feature","id":"126092","geometry":{"type":"Polygon","coordinates":[[[-86.6778360860981,36.2645080537901],[-86.6784334778847,36.2641574838104],[-86.6785322025916,36.2642783459793],[-86.6779347304378,36.2646195764644],[-86.6778360860981,36.2645080537901]]]},"properties":{"id":"126092","parcel":"04312006000","address":"118 VANDIVER DR","owner":"HILL, JASON","point":[-86.67818145596472,36.264393193160096]}},{"type":"Feature","id":"126093","geometry":{"type":"Polygon","coordinates":[[[-86.6773793094205,36.2640870309515],[-86.6780406563627,36.263678967734],[-86.6780962063286,36.2637489786718],[-86.6781393903869,36.2638009287901],[-86.6774860671534,36.2641957624529],[-86.6773793094205,36.2640870309515]]]},"properties":{"id":"126093","parcel":"04312006400","address":"110 VANDIVER DR","owner":"VON HAEGER, ARDEN & POWERS, SHER","point":[-86.67775692396476,36.26394397394212]}},{"type":"Feature","id":"126114","geometry":{"type":"Polygon","coordinates":[[[-86.6770766144078,36.2637546954922],[-86.6777690714534,36.2633354706222],[-86.6779364166974,36.2635476970594],[-86.67761999224,36.2637516498602],[-86.6772617610932,36.2639860518849],[-86.6770401659157,36.2637763257065],[-86.6770766144078,36.2637546954922]]]},"properties":{"id":"126114","parcel":"04316004700","address":"108 VANDIVER DR","owner":"NEWLAND, ROGER L.","point":[-86.67751531622805,36.26364896506783]}},{"type":"Feature","id":"126115","geometry":{"type":"Polygon","coordinates":[[[-86.676947520834,36.2636521324371],[-86.677676477411,36.2632173204008],[-86.6777690714534,36.2633354706222],[-86.6770766144078,36.2637546954922],[-86.6770401659157,36.2637763257065],[-86.6770237013543,36.2637549919393],[-86.676947520834,36.2636521324371]]]},"properties":{"id":"126115","parcel":"04316004800","address":"106 VANDIVER DR","owner":"RUCKER, MICHAEL","point":[-86.67736025080629,36.26349380751168]}},{"type":"Feature","id":"126116","geometry":{"type":"Polygon","coordinates":[[[-86.6767062916385,36.2634469109509],[-86.6774892548507,36.2629810320442],[-86.677676477411,36.2632173204008],[-86.676947520834,36.2636521324371],[-86.6767062916385,36.2634469109509]]]},"properties":{"id":"126116","parcel":"04316004900","address":"104 VANDIVER DR","owner":"LEGENHAUSEN FAMILY TRUST, THE","point":[-86.67719162257858,36.263332117304785]}},{"type":"Feature","id":"126117","geometry":{"type":"Polygon","coordinates":[[[-86.6756950798234,36.2624910862056],[-86.6756775319037,36.2624775756396],[-86.6756577536809,36.2624662648438],[-86.6756361600669,36.26245739393],[-86.6756039014469,36.2624489737742],[-86.6755730105175,36.2624376809307],[-86.6755438768674,36.2624236565194],[-86.6755168647976,36.2624070778512],[-86.6754923166132,36.2623881530025],[-86.6754705403754,36.262367119982],[-86.675409196233,36.2623060408303],[-86.6753505030879,36.2622432768389],[-86.6752945316883,36.2621789033201],[-86.6752413483455,36.2621129974136],[-86.6751910182732,36.2620456380673],[-86.6760198365637,36.2618662986219],[-86.6763209290334,36.2621711743016],[-86.6757215263062,36.2625239425383],[-86.675709678468,36.2625067879454],[-86.6756950798234,36.2624910862056]]]},"properties":{"id":"126117","parcel":"04316005900","address":"0 OLD HICKORY BLVD","owner":"JONES BEND PARTNERS, GP","point":[-86.6757856790574,36.26221234641236]}},{"type":"Feature","id":"130643","geometry":{"type":"Polygon","coordinates":[[[-86.6795473207671,36.2640896134501],[-86.6801286866188,36.2640034597604],[-86.6801306873101,36.2640359813577],[-86.6801367618195,36.2641347236566],[-86.6795784838813,36.2642197246415],[-86.6795473207671,36.2640896134501]]]},"properties":{"id":"130643","parcel":"04312004000","address":"131 EAGAN CIR","owner":"MORALES, ALBERTO CALZADA","point":[-86.67984397995997,36.26411217410555]}},{"type":"Feature","id":"130657","geometry":{"type":"Polygon","coordinates":[[[-86.6785567972535,36.2640606474773],[-86.6789242242707,36.2638712400748],[-86.6789877905615,36.2640054844977],[-86.678653440749,36.2641760263952],[-86.6785567972535,36.2640606474773]]]},"properties":{"id":"130657","parcel":"04312004800","address":"119 VANDIVER DR","owner":"LAWSON, MARY E. & RUCKER, RONDAL EUGENE","point":[-86.67877200641873,36.26403306540978]}},{"type":"Feature","id":"130658","geometry":{"type":"Polygon","coordinates":[[[-86.6787496999409,36.2653555869087],[-86.6791925964793,36.2651053215655],[-86.6792913340531,36.2652272816285],[-86.6788727500772,36.2654647745103],[-86.6787496999409,36.2653555869087]]]},"properties":{"id":"130658","parcel":"04312005300","address":"132 VANDIVER DR","owner":"SCRUGGS, JESSICA & BUTLER, DANTI SR","point":[-86.67902074840809,36.26529143519707]}},{"type":"Feature","id":"130659","geometry":{"type":"Polygon","coordinates":[[[-86.6781671848456,36.264829240038],[-86.6787180324576,36.2645096962996],[-86.6788140615667,36.2646327705851],[-86.6782854473197,36.2649340606821],[-86.6781671848456,36.264829240038]]]},"properties":{"id":"130659","parcel":"04312005700","address":"124 VANDIVER DR","owner":"ROSS, LEONARD K.& ROSALINA A.","point":[-86.67848911906853,36.26473100170745]}},{"type":"Feature","id":"130675","geometry":{"type":"Polygon","coordinates":[[[-86.6764075773527,36.263001038872],[-86.6765355148048,36.2629116571893],[-86.6766258005799,36.2629979579687],[-86.6766777326146,36.2629623278744],[-86.6770149539696,36.2627309679109],[-86.6772121912921,36.2626309718],[-86.6774892548507,36.2629810320442],[-86.6767062916385,36.2634469109509],[-86.676296111838,36.2630789140657],[-86.6764075773527,36.263001038872]]]},"properties":{"id":"130675","parcel":"04316005100","address":"100 VANDIVER DR","owner":"YOUNGBLOOD, JOHNNY WAYNE JR","point":[-86.67686867224815,36.26304137382988]}},{"type":"Feature","id":"130737","geometry":{"type":"Polygon","coordinates":[[[-86.6797004363718,36.2647546988879],[-86.6801687434241,36.2646993218517],[-86.6801723016614,36.2647360623778],[-86.6801746987253,36.2647608211855],[-86.6801783079618,36.2648326799219],[-86.6801812971813,36.2648922024111],[-86.6801845175194,36.2649563505484],[-86.6801874014363,36.2649761119594],[-86.6796051235137,36.2650321300324],[-86.679605232911,36.2650320392935],[-86.6796290366431,36.2650122170096],[-86.6796502698995,36.2649904823328],[-86.6796686947985,36.2649671268006],[-86.6796841219757,36.2649423894057],[-86.6796963966495,36.26491651886],[-86.6797053243485,36.2648895478014],[-86.6797053434906,36.2648894440515],[-86.6797102102244,36.2648620767578],[-86.6797120066445,36.2648344644726],[-86.6797107202271,36.264806833477],[-86.6797004363718,36.2647546988879]]]},"properties":{"id":"130737","parcel":"04312003600","address":"143 EAGAN CIR","owner":"VEST, MARGARET R.","point":[-86.67994415592221,36.26487639316065]}},{"type":"Feature","id":"130748","geometry":{"type":"Polygon","coordinates":[[[-86.679406018423,36.2634108859504],[-86.6800971342522,36.2633114033453],[-86.6801001112652,36.26334215303],[-86.6801044270778,36.2634498103734],[-86.6794315797676,36.2635436954573],[-86.679406018423,36.2634108859504]]]},"properties":{"id":"130748","parcel":"04316001300","address":"115 EAGAN CIR","owner":"JACKSON, TOMIKA & LENARDO","point":[-86.67975663519037,36.26343035245318]}},{"type":"Feature","id":"130749","geometry":{"type":"Polygon","coordinates":[[[-86.678675313484,36.2633237920056],[-86.6791926285798,36.2632088086877],[-86.6792010960638,36.263247218694],[-86.6786918960102,36.2633588597449],[-86.678675313484,36.2633237920056]]]},"properties":{"id":"130749","parcel":"04316002900","address":"0 EAGAN CIR","owner":"STRAIT WORD CHURCH & LANIER, HORACE E., JR.","point":[-86.67893702496701,36.26328550247223]}},{"type":"Feature","id":"130750","geometry":{"type":"Polygon","coordinates":[[[-86.6787929391165,36.2635924841156],[-86.6792515985066,36.2635013189617],[-86.6792822564178,36.2636503455497],[-86.6788570421597,36.2637350070688],[-86.6787929391165,36.2635924841156]]]},"properties":{"id":"130750","parcel":"04316003000","address":"120 EAGAN CIR","owner":"MORGAN FAMILY LIVING TRUST, THE","point":[-86.67904105402545,36.2636214243573]}},{"type":"Feature","id":"130751","geometry":{"type":"Polygon","coordinates":[[[-86.6779129057744,36.263257748656],[-86.6784663442491,36.2630041186353],[-86.6785843489055,36.2631583850575],[-86.6780384004118,36.2634152703045],[-86.6779129057744,36.263257748656]]]},"properties":{"id":"130751","parcel":"04316003400","address":"107 VANDIVER DR","owner":"MITCHELL, JIM","point":[-86.67825004780876,36.26320807114969]}},{"type":"Feature","id":"130752","geometry":{"type":"Polygon","coordinates":[[[-86.6782705844999,36.262879300264],[-86.6783675495853,36.2628750158549],[-86.6778162127844,36.2631363248064],[-86.6776351147122,36.2629021995332],[-86.6778284748676,36.26289593301],[-86.678004059868,36.2628902408579],[-86.6781396947049,36.2628850853712],[-86.6782705844999,36.262879300264]]]},"properties":{"id":"130752","parcel":"04316003600","address":"103 VANDIVER DR","owner":"BIG M'S, LLC","point":[-86.6778934806617,36.26301971424898]}},{"type":"Feature","id":"130753","geometry":{"type":"Polygon","coordinates":[[[-86.6777164689992,36.2625786993138],[-86.6777604965934,36.2625707603326],[-86.678004059868,36.2628902408579],[-86.6778284748676,36.26289593301],[-86.6776351147122,36.2629021995332],[-86.6776022149301,36.2628628278079],[-86.67758504218,36.2628379264792],[-86.6775729407187,36.2628110743746],[-86.6775655781728,36.2627830961889],[-86.6775636403779,36.2627548109069],[-86.6775667879791,36.2627262267404],[-86.6775750303085,36.2626984359362],[-86.6775883744263,36.2626722648882],[-86.6776064809254,36.262647715498],[-86.67762250403,36.2626320018018],[-86.6776290185554,36.2626256133517],[-86.6776549738074,36.2626065138852],[-86.6776846873141,36.262590689162],[-86.6777164689992,36.2625786993138]]]},"properties":{"id":"130753","parcel":"04316003700","address":"101 VANDIVER DR","owner":"BIG M'S, LLC","point":[-86.67772789903943,36.262740957264064]}},{"type":"Feature","id":"130754","geometry":{"type":"Polygon","coordinates":[[[-86.6777604965934,36.2625707603326],[-86.6778093949399,36.2625598082164],[-86.6778588779966,36.2625507336829],[-86.6779088324313,36.2625435571943],[-86.6781396947049,36.2628850853712],[-86.678004059868,36.2628902408579],[-86.6777604965934,36.2625707603326]]]},"properties":{"id":"130754","parcel":"04316003800","address":"95 VANDIVER DR","owner":"MITCHELL, JIMMY R","point":[-86.67795688944544,36.26272794129538]}},{"type":"Feature","id":"130755","geometry":{"type":"Polygon","coordinates":[[[-86.679267504302,36.2645840739809],[-86.6794871989653,36.264571301282],[-86.6795401885511,36.2648171320248],[-86.6795414435489,36.2648448695444],[-86.6795352299832,36.2648718253293],[-86.679522219724,36.2648974449448],[-86.6795024008748,36.264920081896],[-86.6794771194221,36.2649386282015],[-86.6794477259697,36.2649522543366],[-86.6794148947486,36.264960679828],[-86.6793916328638,36.2649623165711],[-86.6793809945907,36.2649630676257],[-86.6793470426361,36.2649594129122],[-86.6793150742466,36.2649497033453],[-86.6792864542761,36.2649350307635],[-86.6792622020701,36.2649153885385],[-86.6790175215633,36.2646250377219],[-86.679267504302,36.2645840739809]]]},"properties":{"id":"130755","parcel":"04312004500","address":"142 EAGAN CIR","owner":"FISHER, JOHNNY R","point":[-86.67930883842843,36.26472116555373]}},{"type":"Feature","id":"130756","geometry":{"type":"Polygon","coordinates":[[[-86.678653440749,36.2641760263952],[-86.6789877905615,36.2640054844977],[-86.6789905753134,36.2640137097629],[-86.6790568844861,36.2641517843121],[-86.6790600465256,36.2641622190911],[-86.6790603752007,36.2641633023335],[-86.6787604189817,36.264310025323],[-86.678653440749,36.2641760263952]]]},"properties":{"id":"130756","parcel":"04312004700","address":"121 VANDIVER DR","owner":"MARLAR, BRENDA B.","point":[-86.67887556501283,36.264156510791146]}},{"type":"Feature","id":"130757","geometry":{"type":"Polygon","coordinates":[[[-86.6788727500772,36.2654647745103],[-86.6792913340531,36.2652272816285],[-86.6793880271571,36.2653481562966],[-86.6789910709104,36.2655761866726],[-86.6788727500772,36.2654647745103]]]},"properties":{"id":"130757","parcel":"04312005200","address":"136 VANDIVER DR","owner":"DRIOLI, JOHN","point":[-86.67913102315971,36.265406467383954]}},{"type":"Feature","id":"130758","geometry":{"type":"Polygon","coordinates":[[[-86.6785172800762,36.2651503196086],[-86.6790094921141,36.2648756023453],[-86.6791925964793,36.2651053215655],[-86.6787496999409,36.2653555869087],[-86.6785172800762,36.2651503196086]]]},"properties":{"id":"130758","parcel":"04312005400","address":"130 VANDIVER DR","owner":"THORNBERRY, BRANDON","point":[-86.67885519330918,36.2651278217487]}},{"type":"Feature","id":"130759","geometry":{"type":"Polygon","coordinates":[[[-86.6784050290159,36.2650344775706],[-86.6789107460171,36.2647525452868],[-86.6790094921141,36.2648756023453],[-86.6785172800762,36.2651503196086],[-86.6784050290159,36.2650344775706]]]},"properties":{"id":"130759","parcel":"04312005500","address":"128 VANDIVER DR","owner":"LEE, KARLA JAN","point":[-86.6787073422576,36.26495504056049]}},{"type":"Feature","id":"130760","geometry":{"type":"Polygon","coordinates":[[[-86.6780496191992,36.2647266134834],[-86.6786227225739,36.2643915620818],[-86.6787180324576,36.2645096962996],[-86.6781671848456,36.264829240038],[-86.6780496191992,36.2647266134834]]]},"properties":{"id":"130760","parcel":"04312005800","address":"122 VANDIVER DR","owner":"COPELAND, DAVID L. & JANET","point":[-86.67838310224725,36.26461815341483]}},{"type":"Feature","id":"130761","geometry":{"type":"Polygon","coordinates":[[[-86.6774860671534,36.2641957624529],[-86.6781393903869,36.2638009287901],[-86.6782360564876,36.2639190575928],[-86.6776043310967,36.2643005810611],[-86.6774860671534,36.2641957624529]]]},"properties":{"id":"130761","parcel":"04312006300","address":"112 VANDIVER DR","owner":"POWERS, SHER","point":[-86.67786098521704,36.26405741040754]}},{"type":"Feature","id":"130781","geometry":{"type":"Polygon","coordinates":[[[-86.6795293955108,36.2619992032292],[-86.6795272846336,36.2619984454421],[-86.6795103658334,36.2619923103224],[-86.6795092684647,36.2619919082322],[-86.6794299851018,36.2619620264704],[-86.6793515958341,36.2619306363659],[-86.6790300701227,36.2617980337851],[-86.6789661744496,36.2617728427148],[-86.678901203195,36.2617495277214],[-86.67891006146,36.261696922282],[-86.6789804931267,36.2617033228045],[-86.6789773250576,36.2617016543891],[-86.6790833094593,36.2617112842982],[-86.6792327862373,36.261724867628],[-86.6793831194992,36.2617385279706],[-86.6795380936267,36.2617526108461],[-86.6796865314762,36.2617660994202],[-86.6798391023311,36.261779962908],[-86.6799942035861,36.2617940571015],[-86.6801228588309,36.2618057467333],[-86.6800975164751,36.2619864361062],[-86.680024474398,36.2619803717635],[-86.6800049412261,36.2621085799923],[-86.6799232347797,36.2620863375598],[-86.6799064975133,36.2620817813436],[-86.6799026963724,36.262106726456],[-86.6799015796148,36.2621140534922],[-86.679899454899,36.2621134994691],[-86.6798055578053,36.262087942298],[-86.6797125370202,36.2620603604517],[-86.6796204617127,36.2620307733703],[-86.6795293955108,36.2619992032292]]]},"properties":{"id":"130781","parcel":"04316005600","address":"1216 OLD HICKORY BLVD","owner":"GP SELF-STORAGE 1216, LLC","point":[-86.67965531591697,36.26186797282447]}},{"type":"Feature","id":"131844","geometry":{"type":"Polygon","coordinates":[[[-86.6793615715129,36.2658382487995],[-86.6793562119288,36.2658312510856],[-86.6801273139993,36.2658796560723],[-86.679720270892,36.2661181836923],[-86.6797007358382,36.2661056843646],[-86.67968312223,36.266091435742],[-86.6796676676363,36.2660756284526],[-86.6796604590268,36.2660666304927],[-86.6796517536218,36.2660585466928],[-86.6796417253113,36.2660515391987],[-86.6796305745226,36.2660457501793],[-86.6796185270389,36.266041293723],[-86.6795978141681,36.2660308233769],[-86.679579652983,36.2660176052281],[-86.6795645944647,36.2660020399332],[-86.6795451167243,36.265986743721],[-86.6795237785337,36.2659731703161],[-86.6795008137669,36.265961468909],[-86.6794833821198,36.2659527293943],[-86.6794675442704,36.2659421874553],[-86.6794535822775,36.2659300307667],[-86.6794417450615,36.2659164760288],[-86.6794189478494,36.2658940687763],[-86.6793945588674,36.2658727898038],[-86.6793773174414,36.2658559876432],[-86.6793615715129,36.2658382487995]]]},"properties":{"id":"131844","parcel":"04312001600","address":"144 VANDIVER DR","owner":"GRETSCH, MAYME ROSE & WALKER, WESLEY JAMES","point":[-86.67974434116874,36.26598051921085]}},{"type":"Feature","id":"131852","geometry":{"type":"Polygon","coordinates":[[[-86.6796051235137,36.2650321300324],[-86.6801874014363,36.2649761119594],[-86.68019014484,36.2650246263202],[-86.6801959096299,36.2651265534995],[-86.6801969986881,36.2651458212203],[-86.6802032888037,36.2652463250897],[-86.679591429022,36.2653338248517],[-86.6795509682085,36.2652907812953],[-86.6795133367003,36.2652460860718],[-86.6794947591911,36.2652156989854],[-86.6794940108258,36.2652074622844],[-86.6794896208119,36.2651868603623],[-86.6794886036977,36.2651659691045],[-86.6794909748279,36.2651451507218],[-86.6794966938669,36.2651247632321],[-86.6795064039958,36.2651054483037],[-86.6795189759839,36.2650872465322],[-86.6795342185848,36.2650704374744],[-86.6795707686579,36.2650526163738],[-86.6796051235137,36.2650321300324]]]},"properties":{"id":"131852","parcel":"04312003400","address":"149 EAGAN CIR","owner":"STRIPLIN, MICHAEL & JUNE Y.","point":[-86.67984375801755,36.26515650791541]}},{"type":"Feature","id":"131854","geometry":{"type":"Polygon","coordinates":[[[-86.6796581365961,36.2645686916782],[-86.6801588916998,36.2644999470801],[-86.6801609164002,36.2645446000879],[-86.6801630756432,36.2645922219136],[-86.6801687434241,36.2646993218517],[-86.6797004363718,36.2647546988879],[-86.6796669455853,36.2646074304717],[-86.6796581365961,36.2645686916782]]]},"properties":{"id":"131854","parcel":"04312003700","address":"141 EAGAN CIR","owner":"PANDIT, JOSEPH V.","point":[-86.67992179747584,36.26465338700316]}},{"type":"Feature","id":"131856","geometry":{"type":"Polygon","coordinates":[[[-86.6796094766195,36.2643530559971],[-86.680144055903,36.2642731306421],[-86.680145812809,36.26430590235],[-86.6801497094902,36.2643785823084],[-86.6801518585097,36.26440698892],[-86.6801551585357,36.2644506019338],[-86.6801588916998,36.2644999470801],[-86.6796581365961,36.2645686916782],[-86.6796369109599,36.2644746326913],[-86.6796094766195,36.2643530559971]]]},"properties":{"id":"131856","parcel":"04312003800","address":"139 EAGAN CIR","owner":"MALNOFSKI, JOSHUA & RAUCH, JENNIFER L.","point":[-86.67988987882421,36.264428090159456]}},{"type":"Feature","id":"131858","geometry":{"type":"Polygon","coordinates":[[[-86.6799088125879,36.2637387942025],[-86.6801113816877,36.2637068879057],[-86.680111645689,36.263737652855],[-86.6801131175425,36.2637614606653],[-86.6801155843879,36.2638013598728],[-86.6801180864409,36.2638557363553],[-86.6795143775313,36.2639431899508],[-86.6794826639278,36.2638049202251],[-86.6799088125879,36.2637387942025]]]},"properties":{"id":"131858","parcel":"04312004100","address":"129 EAGAN CIR","owner":"EQUITY TRUST COMPANY","point":[-86.6798026281101,36.26383033474316]}},{"type":"Feature","id":"131886","geometry":{"type":"Polygon","coordinates":[[[-86.6794315797676,36.2635436954573],[-86.6801044270778,36.2634498103734],[-86.6801047099447,36.2634827742378],[-86.6801076315269,36.2635860422867],[-86.679457178877,36.2636809000754],[-86.6794315797676,36.2635436954573]]]},"properties":{"id":"131886","parcel":"04316001200","address":"125 EAGAN CIR","owner":"GAINES, ROBERT P., JR.","point":[-86.67977121065316,36.26356487364657]}},{"type":"Feature","id":"131888","geometry":{"type":"Polygon","coordinates":[[[-86.6793804205944,36.263273680403],[-86.6800938921179,36.2631707762984],[-86.680094222105,36.2632092320405],[-86.6800971342522,36.2633114033453],[-86.679406018423,36.2634108859504],[-86.6793804205944,36.263273680403]]]},"properties":{"id":"131888","parcel":"04316001400","address":"111 EAGAN CIR","owner":"ALLEN & COMPANY PROPERTY MANAGEMETN, LLC","point":[-86.67974019304594,36.26329254620121]}},{"type":"Feature","id":"131890","geometry":{"type":"Polygon","coordinates":[[[-86.6793015835286,36.2628662416054],[-86.6792590050918,36.2626425585971],[-86.6793599362869,36.2626764734769],[-86.6795246203689,36.2627320479329],[-86.6796940302387,36.2627892250219],[-86.6798588465554,36.2628448514525],[-86.6800856493287,36.262921397134],[-86.6800892030017,36.2630306350445],[-86.6800896423364,36.2630708106351],[-86.6800938921179,36.2631707762984],[-86.6793804205944,36.263273680403],[-86.6793526734059,36.2631369330404],[-86.6793015835286,36.2628662416054]]]},"properties":{"id":"131890","parcel":"04316001600","address":"105 EAGAN CIR","owner":"MITCHELL, JIMMY R","point":[-86.67970467069958,36.26297499174844]}},{"type":"Feature","id":"131892","geometry":{"type":"Polygon","coordinates":[[[-86.6789506659448,36.2628540615532],[-86.6791223606959,36.2628466024781],[-86.6791614124181,36.2630496597955],[-86.6785960031783,36.2631726042253],[-86.6785843489055,36.2631583850575],[-86.6784663442491,36.2630041186353],[-86.6783675495853,36.2628750158549],[-86.6784062159985,36.2628747987949],[-86.6785398001421,36.2628696832106],[-86.6786768752729,36.2628644361196],[-86.6788097296019,36.26285934957],[-86.6789506659448,36.2628540615532]]]},"properties":{"id":"131892","parcel":"04316002700","address":"104 EAGAN CIR","owner":"STRAIT WORD CHURCH & LANIER, HORACE E., JR.","point":[-86.67882014670398,36.26302690655226]}},{"type":"Feature","id":"131894","geometry":{"type":"Polygon","coordinates":[[[-86.6781618414215,36.2635706061264],[-86.678675313484,36.2633237920056],[-86.6786918960102,36.2633588597449],[-86.6787368931198,36.263464091431],[-86.6787534839979,36.2635002577219],[-86.6782832298864,36.2637237552209],[-86.6781618414215,36.2635706061264]]]},"properties":{"id":"131894","parcel":"04316003200","address":"111 VANDIVER DR","owner":"MIDDLE TENNESSEE PROPERTY GROUP, LLC","point":[-86.6784572419014,36.263535431159134]}},{"type":"Feature","id":"131896","geometry":{"type":"Polygon","coordinates":[[[-86.6780384004118,36.2634152703045],[-86.6785843489055,36.2631583850575],[-86.6785960031783,36.2631726042253],[-86.6786310141664,36.2632207544921],[-86.678675313484,36.2633237920056],[-86.6781618414215,36.2635706061264],[-86.6780384004118,36.2634152703045]]]},"properties":{"id":"131896","parcel":"04316003300","address":"109 VANDIVER DR","owner":"NEWLAND, ROBERT","point":[-86.6783578905795,36.26336953435916]}},{"type":"Feature","id":"131898","geometry":{"type":"Polygon","coordinates":[[[-86.6782206531478,36.2625154391602],[-86.6784062159985,36.2628747987949],[-86.6783675495853,36.2628750158549],[-86.6782705844999,36.262879300264],[-86.6781396947049,36.2628850853712],[-86.6779088324313,36.2625435571943],[-86.6779850427697,36.2625322769509],[-86.6780618349647,36.2625239719839],[-86.6781411029651,36.262517977366],[-86.6782206531478,36.2625154391602]]]},"properties":{"id":"131898","parcel":"04316003900","address":"91 VANDIVER DR","owner":"MITCHELL, JIMMY R","point":[-86.67817072932694,36.2627092137852]}},{"type":"Feature","id":"131900","geometry":{"type":"Polygon","coordinates":[[[-86.6784608093338,36.2639425169276],[-86.678861408449,36.2637446825561],[-86.6789238732233,36.2638705327735],[-86.6789242242707,36.2638712400748],[-86.6785567972535,36.2640606474773],[-86.6784608093338,36.2639425169276]]]},"properties":{"id":"131900","parcel":"04312004900","address":"117 VANDIVER DR","owner":"L&H TN, LLC","point":[-86.67869404250824,36.263906882824514]}},{"type":"Feature","id":"131902","geometry":{"type":"Polygon","coordinates":[[[-86.6776043310967,36.2643005810611],[-86.6782360564876,36.2639190575928],[-86.6783368112145,36.2640393569764],[-86.6784334778847,36.2641574838104],[-86.6778360860981,36.2645080537901],[-86.6777272511944,36.2643949389198],[-86.6776043310967,36.2643005810611]]]},"properties":{"id":"131902","parcel":"04312006200","address":"116 VANDIVER DR","owner":"CASEY, JOHN & ALEXANDRA","point":[-86.67801716705304,36.264229028478425]}},{"type":"Feature","id":"131906","geometry":{"type":"Polygon","coordinates":[[[-86.6792758896793,36.2642832056726],[-86.6794195323467,36.2642750080413],[-86.6794871989653,36.264571301282],[-86.679267504302,36.2645840739809],[-86.6790175215633,36.2646250377219],[-86.6788757006771,36.2644538920149],[-86.6788557442191,36.2644298095142],[-86.6791205007702,36.2642920702682],[-86.6792758896793,36.2642832056726]]]},"properties":{"id":"131906","parcel":"04312006600","address":"140 EAGAN CIR","owner":"RICHARDS, JUSTIN MARK","point":[-86.67916186031015,36.26444264549462]}},{"type":"Feature","id":"131924","geometry":{"type":"Polygon","coordinates":[[[-86.6783840415985,36.2625168986265],[-86.678462313434,36.2625212880398],[-86.6785403106157,36.2625281717672],[-86.6786210471335,36.262537855527],[-86.678701251378,36.2625500972304],[-86.6788097296019,36.26285934957],[-86.6786768752729,36.2628644361196],[-86.6785398001421,36.2628696832106],[-86.6784062159985,36.2628747987949],[-86.6782206531478,36.2625154391602],[-86.6783023640348,36.2625149300766],[-86.6783840415985,36.2625168986265]]]},"properties":{"id":"131924","parcel":"04316004400","address":"85 VANDIVER DR","owner":"BROWN, GARY WAYNE","point":[-86.67853663836513,36.26270413543053]}},{"type":"Feature","id":"131926","geometry":{"type":"Polygon","coordinates":[[[-86.67761999224,36.2637516498602],[-86.6779364166974,36.2635476970594],[-86.6780406563627,36.263678967734],[-86.6773793094205,36.2640870309515],[-86.6772617610932,36.2639860518849],[-86.67761999224,36.2637516498602]]]},"properties":{"id":"131926","parcel":"04316004500","address":"0 VANDIVER DR","owner":"VON HAEGER, ARDEN & POWERS, SHER","point":[-86.67758626065934,36.263869242988946]}},{"type":"Feature","id":"131930","geometry":{"type":"Polygon","coordinates":[[[-86.6760198365637,36.2618662986219],[-86.6767518060079,36.2617061713182],[-86.6765864092806,36.2614829416623],[-86.6771268281689,36.261532658754],[-86.6772535970719,36.2617604967982],[-86.6771529364712,36.2617914848707],[-86.6770534728979,36.2618249121105],[-86.6769552939849,36.2618607464865],[-86.6768584929449,36.2618989577385],[-86.6767631540428,36.2619395102497],[-86.6766693659876,36.2619823674773],[-86.6765797538699,36.2620264756005],[-86.6764917619736,36.2620726726669],[-86.6764054622872,36.2621209186223],[-86.6763209290334,36.2621711743016],[-86.6760198365637,36.2618662986219]]]},"properties":{"id":"131930","parcel":"04316005800","address":"0 OLD HICKORY BLVD","owner":"JONES BEND PARTNERS, GP","point":[-86.67657110739857,36.26184165851761]}},{"type":"Feature","id":"132983","geometry":{"type":"Polygon","coordinates":[[[-86.6788570421597,36.2637350070688],[-86.6792822564178,36.2636503455497],[-86.6793009931765,36.2637422123803],[-86.6793143551573,36.2637991900858],[-86.6789238732233,36.2638705327735],[-86.678861408449,36.2637446825561],[-86.6788570421597,36.2637350070688]]]},"properties":{"id":"132983","parcel":"04316019200","address":"122 EAGAN CIR","owner":"DILICK, TYNAN & BATTY, SAMANTHA","point":[-86.67909137702358,36.26377194591289]}},{"type":"Feature","id":"208478","geometry":{"type":"Polygon","coordinates":[[[-86.6795143775313,36.2639431899508],[-86.6801180864409,36.2638557363553],[-86.6801210405817,36.2638958779556],[-86.6801273015407,36.2639809465414],[-86.6801286866188,36.2640034597604],[-86.6795473207671,36.2640896134501],[-86.6795143775313,36.2639431899508]]]},"properties":{"id":"208478","parcel":"04312007400","address":"131 A EAGAN CIR","owner":"RUMPSA, AMY","point":[-86.67982220748887,36.26396207230044]}}]}