{"type":"FeatureCollection","features":[{"type":"Feature","id":"655","geometry":{"type":"Polygon","coordinates":[[[-86.6190913112347,36.0114351990862],[-86.6193359328011,36.0113964883814],[-86.6193359442029,36.0113965279796],[-86.6193359567068,36.0113965666709],[-86.6193445918185,36.0114233546513],[-86.6193546054253,36.0114499480743],[-86.6193746421131,36.0114939525008],[-86.6193985049244,36.0115366781439],[-86.6194260712459,36.0115779066177],[-86.6194571996477,36.0116174250408],[-86.6194917299392,36.011655033246],[-86.6195294853174,36.0116905347569],[-86.6195702724722,36.0117237503062],[-86.6196138804071,36.0117545088293],[-86.6196600882387,36.011782651931],[-86.6197086563304,36.0118080348314],[-86.619759336289,36.0118305281186],[-86.6198118676238,36.0118500159621],[-86.6198659821972,36.0118663978934],[-86.6199214009186,36.0118795915266],[-86.6199778403649,36.0118895280175],[-86.6200350094807,36.0118961556868],[-86.6200468605255,36.0118982920356],[-86.620647188825,36.0120048119577],[-86.6205610569768,36.012232993385],[-86.6204144377119,36.0125960970053],[-86.6203876120765,36.0127116159046],[-86.620351197394,36.0128115242245],[-86.6203377480703,36.0128646138072],[-86.620080841561,36.0130038432786],[-86.6194867001288,36.0126508700009],[-86.6192002595657,36.0125147109219],[-86.6190971664375,36.0124325517574],[-86.6188895671845,36.0123036783341],[-86.6187525106761,36.0122020749378],[-86.6186341604596,36.012114339038],[-86.6182578171727,36.0117654603289],[-86.6186041173142,36.0115123191625],[-86.6190913112347,36.0114351990862]]]},"properties":{"id":"655","parcel":"18300000900","address":"611 MUCI DR","owner":"CWW ENTERPRISES, LLC","point":[-86.6196401776464,36.012161213378576]}},{"type":"Feature","id":"4041","geometry":{"type":"Polygon","coordinates":[[[-86.619550823962,36.0113338340409],[-86.6195412823213,36.0112925047768],[-86.6195358735426,36.011250684682],[-86.6195346352511,36.0112086475562],[-86.6197864289055,36.0112381196785],[-86.6203035400459,36.0112969945069],[-86.6201690714661,36.0117438230895],[-86.6200769848419,36.0117289129997],[-86.6200271316949,36.0117212643833],[-86.6199781898146,36.0117104069613],[-86.6199304703552,36.0116964094343],[-86.6198842790923,36.0116793621621],[-86.6198399086229,36.0116593726971],[-86.619797645056,36.0116365702567],[-86.6197577557609,36.0116110994767],[-86.6197204971537,36.0115831230755],[-86.6196861058015,36.0115528191957],[-86.6196548017501,36.0115203813868],[-86.6196267840805,36.0114860177272],[-86.6196022330848,36.0114499454043],[-86.6195813047621,36.0114123961513],[-86.6195641307766,36.0113736108392],[-86.619550823962,36.0113338340409]]]},"properties":{"id":"4041","parcel":"18300004000","address":"0 MUCI DR","owner":"PENCE, PASTY A. REVOCABLE LIVING TRUST & ETAL","point":[-86.61993299227257,36.01146899118375]}},{"type":"Feature","id":"6611","geometry":{"type":"Polygon","coordinates":[[[-86.6187942139865,36.0101340126812],[-86.6186720916888,36.0098187116404],[-86.6204877427183,36.0099713960531],[-86.6213396621008,36.0100430286477],[-86.6212884867914,36.0102121768725],[-86.6197620049034,36.0100840247153],[-86.6197465855467,36.0102208067299],[-86.6187942139865,36.0101340126812]]]},"properties":{"id":"6611","parcel":"18300001101","address":"0 OLD HICKORY BLVD","owner":"UMIYA 62 LLC","point":[-86.6198280691957,36.01000377702849]}}]}