{"type":"FeatureCollection","features":[{"type":"Feature","id":"2298","geometry":{"type":"Polygon","coordinates":[[[-86.6694847724055,35.9935700394364],[-86.6695012666267,35.9929857202534],[-86.6695136054204,35.9929148798435],[-86.6697121538579,35.9917749183945],[-86.6697418493596,35.9916044193729],[-86.6699109801795,35.9906333360271],[-86.6699228167988,35.9905653734748],[-86.6699508387533,35.9905652193867],[-86.6700435807079,35.9905673973862],[-86.6700437781611,35.9905674025967],[-86.6701365816793,35.990572016395],[-86.6702289807891,35.9905790442506],[-86.6702291561461,35.990579059498],[-86.6703214016545,35.9905885198442],[-86.6706356936847,35.9906245155025],[-86.6702519059895,35.9931275534951],[-86.6702483837147,35.9936555640429],[-86.6701546578936,35.9936444561785],[-86.6694847724055,35.9935700394364]]]},"properties":{"id":"2298","parcel":"18600002700","address":"6994 BURKITT RD","owner":"PRICE, GARY L., JR. & DEBORAH A. EVANS","point":[-86.66999223622516,35.992345943317545]}},{"type":"Feature","id":"3068","geometry":{"type":"Polygon","coordinates":[[[-86.6693506065638,36.0010325825573],[-86.666879590702,36.0008331106278],[-86.6668795285528,36.0008331064654],[-86.6652963141577,36.0007061594549],[-86.6652962408796,36.0007061508468],[-86.6636198123122,36.0005715606835],[-86.6636685363159,36.0001668485358],[-86.663841469411,35.9987304250112],[-86.6639415823881,35.9978988459577],[-86.6639995986186,35.9974169310916],[-86.6655801766438,35.9975206965045],[-86.6662541602426,35.9961782941602],[-86.6665811271346,35.9955270723243],[-86.6665291760623,35.9952586494266],[-86.6665422257418,35.9952566565349],[-86.6665533824502,35.9952544316695],[-86.6665768810328,35.9952480736359],[-86.6665993774721,35.995239657171],[-86.6666168457707,35.9952313063886],[-86.6666333176457,35.9952217119194],[-86.6666385933113,35.9952182298416],[-86.6666420757985,35.9952158356428],[-86.6666476260465,35.9952121645746],[-86.666668438679,35.9952001558283],[-86.6666906583085,35.9951899454918],[-86.6667140507155,35.9951816421153],[-86.666738365973,35.9951753327054],[-86.6667452828528,35.9951739370558],[-86.6667619103873,35.9951712708903],[-86.6667787220431,35.9951695320407],[-86.6668068731206,35.9951687110175],[-86.6668349572216,35.9951704842958],[-86.666877967612,35.9951760874522],[-86.6669205842439,35.9951834061424],[-86.6669627071313,35.9951924201907],[-86.6670097658168,35.9950604960636],[-86.6670493480857,35.9949345456723],[-86.6670558425404,35.9949095004657],[-86.667059705429,35.9948840984998],[-86.6670700437079,35.9947800746342],[-86.6670708676812,35.9947757005742],[-86.6670725525954,35.9947714920909],[-86.6670750550258,35.9947675611857],[-86.6670783081899,35.9947640118779],[-86.6670822241421,35.9947609374883],[-86.6670867026397,35.994758419689],[-86.6670916244574,35.9947565249352],[-86.6670968591357,35.9947553026195],[-86.6671022672069,35.9947547859612],[-86.667107706819,35.9947549883644],[-86.6671130348518,35.9947559043126],[-86.6671443918595,35.9947635061125],[-86.6671644612917,35.9947110511109],[-86.6671744948359,35.9946848173059],[-86.6672404608327,35.9947028139988],[-86.6673053633446,35.9947232031874],[-86.6673690733714,35.9947459432272],[-86.6674012651326,35.9947585173059],[-86.667458042137,35.9947825674524],[-86.6675135462635,35.9948085074405],[-86.6675676806492,35.9948362927437],[-86.6676203528369,35.9948658752065],[-86.6685552409394,35.9944253688106],[-86.6694847724055,35.9935700394364],[-86.6701546578936,35.9936444561785],[-86.6702483837147,35.9936555640429],[-86.6709222094717,35.9937354227741],[-86.6710207696039,35.9937467446539],[-86.6713080362427,35.9937797427499],[-86.6712899430474,35.9939073828373],[-86.671189597238,35.9946707971186],[-86.6710963968853,35.9953934993531],[-86.671067925582,35.9955682603072],[-86.6709268446346,35.9959959555015],[-86.670377742731,35.997661433985],[-86.6702559365661,35.9980318461138],[-86.6698076390591,35.9975565980346],[-86.66877685545,35.9973605951461],[-86.6687642160969,35.9974098347575],[-86.6681566059598,35.9972542308579],[-86.6681805254078,35.9971738195171],[-86.6682078181167,35.9970941204068],[-86.6678366440806,35.9969990643474],[-86.6671318936669,35.997228211046],[-86.6668155794985,35.9986587923851],[-86.6679202111627,35.9995043653808],[-86.6694193931744,35.9997821670273],[-86.6694275454895,35.9998150983997],[-86.6694319638443,35.9998484975696],[-86.6694326148194,35.9998820844195],[-86.6694294927233,35.9999155786776],[-86.6694226218334,35.9999487026087],[-86.6694158763126,35.9999752427634],[-86.6694054104637,36.0000009735001],[-86.6693913633757,36.0000255524531],[-86.6693739230611,36.000048651405],[-86.6693533220725,36.0000699626208],[-86.6693381221349,36.0001027975525],[-86.6693267595541,36.000136642241],[-86.6693193338936,36.0001712014095],[-86.6693159091646,36.0002061727685],[-86.6693165171836,36.0002412506013],[-86.669321149839,36.0002761294133],[-86.6693297690802,36.0003105047767],[-86.6693373141638,36.0003319083232],[-86.6693462383169,36.0003529590078],[-86.6693530607239,36.0003629570417],[-86.6693577036298,36.0003737495145],[-86.6693600313063,36.0003850244306],[-86.6693624210152,36.0004225132456],[-86.6693611629434,36.0004600385568],[-86.6693562684229,36.0004973659638],[-86.6693477643366,36.0005342636831],[-86.6693369270772,36.0006123429417],[-86.669349970136,36.0007963307558],[-86.6693763244824,36.0008747531045],[-86.6693767060044,36.0009200790435],[-86.6693594022924,36.0010333583615],[-86.6693506065638,36.0010325825573]]]},"properties":{"id":"3068","parcel":"18700000100","address":"0 BURKITT RD","owner":"MCGOWAN FAMILY LIMITED PARTNERSHIP","point":[-86.66942788995865,35.99731006586601]}},{"type":"Feature","id":"177289","geometry":{"type":"Polygon","coordinates":[[[-86.6668155794985,35.9986587923851],[-86.6671318936669,35.997228211046],[-86.6678366440806,35.9969990643474],[-86.6682078181167,35.9970941204068],[-86.6681805254078,35.9971738195171],[-86.6681566059598,35.9972542308579],[-86.6687642160969,35.9974098347575],[-86.66877685545,35.9973605951461],[-86.6698076390591,35.9975565980346],[-86.6702559365661,35.9980318461138],[-86.6701711668292,35.9982898205485],[-86.6701502425111,35.9983534992316],[-86.6699636094476,35.9988190747366],[-86.6699330325704,35.9988953495312],[-86.6698767962746,35.9989402747846],[-86.6698228713124,35.9989870330145],[-86.6697713479782,35.9990355462102],[-86.6697223121078,35.9990857336819],[-86.6696758461803,35.9991375111533],[-86.66963202931,35.9991907898603],[-86.6696112010561,35.9992180076935],[-86.6695778837742,35.9992590758027],[-86.6695477710058,35.9993017457196],[-86.6695209778377,35.999345853672],[-86.6694976082056,35.999391228739],[-86.6694777527064,35.9994376964684],[-86.6694614885749,35.9994850761731],[-86.6694488775041,35.9995331854494],[-86.6694345414716,35.9995825895626],[-86.6694241317518,35.999632637909],[-86.6694176910019,35.9996831265596],[-86.6694152474153,35.999733846257],[-86.6694157142392,35.9997707247697],[-86.6694193931744,35.9997821670273],[-86.6679202111627,35.9995043653808],[-86.6668155794985,35.9986587923851]]]},"properties":{"id":"177289","parcel":"18200023500","address":"0 BURKITT RD","owner":"METRO GOV'T BOARD OF PUBLIC EDUCATION ","point":[-86.66846880153949,35.99850611841268]}},{"type":"Feature","id":"181907","geometry":{"type":"Polygon","coordinates":[[[-86.6687639086928,35.9935307724353],[-86.6687913966435,35.9934805760591],[-86.6689849367934,35.9935505703198],[-86.668957448933,35.9936007658381],[-86.6687639086928,35.9935307724353]]]},"properties":{"id":"181907","parcel":"187010B13800CO","address":"619 LANYARD LN","owner":"REGENT HOMES, LLC","point":[-86.66887442290198,35.993540671428846]}},{"type":"Feature","id":"181946","geometry":{"type":"Polygon","coordinates":[[[-86.6687364206998,35.9935809679033],[-86.6687639086928,35.9935307724353],[-86.668957448933,35.9936007658381],[-86.668929959929,35.9936509613557],[-86.6687364206998,35.9935809679033]]]},"properties":{"id":"181946","parcel":"187010B13900CO","address":"621 LANYARD LN","owner":"REGENT HOMES, LLC","point":[-86.66884693472402,35.993590866921316]}},{"type":"Feature","id":"181976","geometry":{"type":"Polygon","coordinates":[[[-86.6684800422051,35.9939610459092],[-86.6685284788553,35.9939227151828],[-86.6686762714372,35.9940460494884],[-86.6686278347831,35.9940843802731],[-86.6684800422051,35.9939610459092]]]},"properties":{"id":"181976","parcel":"187010B14300CO","address":"631 LANYARD LN","owner":"REGENT HOMES, LLC","point":[-86.66857815676856,35.99400354773879]}},{"type":"Feature","id":"182130","geometry":{"type":"Polygon","coordinates":[[[-86.6682753774259,35.9937807142708],[-86.6682941274887,35.9937614269761],[-86.6683082200237,35.993744987492],[-86.6683234915434,35.9937247244624],[-86.6683217446329,35.99372748402],[-86.6683578590095,35.9937432302791],[-86.6684983183975,35.9938604451239],[-86.6684874011591,35.9938708102754],[-86.6684340235811,35.9939131052838],[-86.6682753774259,35.9937807142708]]]},"properties":{"id":"182130","parcel":"187010B11400CO","address":"261 BEN HILL DR","owner":"REGENT HOMES, LLC","point":[-86.66838684803646,35.993820579749475]}},{"type":"Feature","id":"182137","geometry":{"type":"Polygon","coordinates":[[[-86.6684146527126,35.9940127928085],[-86.6684800422051,35.9939610459092],[-86.6686278347831,35.9940843802731],[-86.6685624452777,35.9941361263501],[-86.6684146527126,35.9940127928085]]]},"properties":{"id":"182137","parcel":"187010B14400CO","address":"633 LANYARD LN","owner":"REGENT HOMES, LLC","point":[-86.66852124385501,35.99404858658843]}},{"type":"Feature","id":"182138","geometry":{"type":"Polygon","coordinates":[[[-86.6681819600337,35.9941303858962],[-86.6682624186944,35.9940953683369],[-86.6683624319131,35.9942471265192],[-86.6682819731429,35.9942821441441],[-86.6681819600337,35.9941303858962]]]},"properties":{"id":"182138","parcel":"187010B14700CO","address":"639 LANYARD LN","owner":"REGENT HOMES, LLC","point":[-86.66827219590711,35.99418875624156]}},{"type":"Feature","id":"182139","geometry":{"type":"Polygon","coordinates":[[[-86.6679502240998,35.9942312415096],[-86.668009824002,35.9942053023259],[-86.668109836877,35.9943570607145],[-86.6680502368937,35.9943829999467],[-86.6679502240998,35.9942312415096]]]},"properties":{"id":"182139","parcel":"187010B14900CO","address":"645 LANYARD LN","owner":"REGENT HOMES, LLC","point":[-86.66803003042526,35.99429415113859]}},{"type":"Feature","id":"182525","geometry":{"type":"Polygon","coordinates":[[[-86.6689405202789,35.993208263923],[-86.6689810653652,35.9931342250085],[-86.6691746037225,35.9932042180745],[-86.6691340587807,35.993278257053],[-86.6689405202789,35.993208263923]]]},"properties":{"id":"182525","parcel":"187010B13300CO","address":"609 LANYARD LN","owner":"REGENT HOMES, LLC","point":[-86.66905756200323,35.99320624105585]}},{"type":"Feature","id":"182528","geometry":{"type":"Polygon","coordinates":[[[-86.6688999762262,35.9932823028165],[-86.6689405202789,35.993208263923],[-86.6691340587807,35.993278257053],[-86.6690935148724,35.9933522960105],[-86.6688999762262,35.9932823028165]]]},"properties":{"id":"182528","parcel":"187010B13400CO","address":"611 LANYARD LN","owner":"REGENT HOMES, LLC","point":[-86.66901701750598,35.993280279991865]}},{"type":"Feature","id":"182529","geometry":{"type":"Polygon","coordinates":[[[-86.6687913966435,35.9934805760591],[-86.668831942015,35.9934065381005],[-86.6690254820052,35.9934765304946],[-86.6689849367934,35.9935505703198],[-86.6687913966435,35.9934805760591]]]},"properties":{"id":"182529","parcel":"187010B13700CO","address":"617 LANYARD LN","owner":"REGENT HOMES, LLC","point":[-86.66890843934272,35.993478553334]}},{"type":"Feature","id":"182532","geometry":{"type":"Polygon","coordinates":[[[-86.6686718235097,35.9936989280841],[-86.6687089326797,35.9936311642658],[-86.6689024719992,35.9937011568604],[-86.668865362969,35.9937689216385],[-86.6686718235097,35.9936989280841]]]},"properties":{"id":"182532","parcel":"187010B14100CO","address":"625 LANYARD LN","owner":"REGENT HOMES, LLC","point":[-86.66878714773807,35.993700042527635]}},{"type":"Feature","id":"182536","geometry":{"type":"Polygon","coordinates":[[[-86.6685284788553,35.9939227151828],[-86.6685367662813,35.9939161563912],[-86.6685542741062,35.9939004279715],[-86.6685691981135,35.9938830275632],[-86.6685812977662,35.9938642350039],[-86.6687389226138,35.99399577325],[-86.6687328390181,35.9940012842255],[-86.6686762714372,35.9940460494884],[-86.6685284788553,35.9939227151828]]]},"properties":{"id":"182536","parcel":"187010B14200CO","address":"629 LANYARD LN","owner":"REGENT HOMES, LLC","point":[-86.66863370050086,35.99395924426188]}},{"type":"Feature","id":"182549","geometry":{"type":"Polygon","coordinates":[[[-86.6683318193946,35.9937122862872],[-86.6683366484853,35.9937045155269],[-86.6685459168508,35.9937801987271],[-86.6685119712263,35.9938421009085],[-86.6685057111245,35.9938515515287],[-86.6684983183975,35.9938604451239],[-86.6683578590095,35.9937432302791],[-86.6683217446329,35.99372748402],[-86.6683234915434,35.9937247244624],[-86.668326778678,35.9937199500657],[-86.6683318193946,35.9937122862872]]]},"properties":{"id":"182549","parcel":"187010B92000CO","address":"259 C BEN HILL DR","owner":"REGENT HOMES, LLC","point":[-86.668483946721,35.993811025481754]}},{"type":"Feature","id":"183747","geometry":{"type":"Polygon","coordinates":[[[-86.6688724872959,35.9933324983245],[-86.6688999762262,35.9932823028165],[-86.6690935148724,35.9933522960105],[-86.6690660271492,35.9934024915557],[-86.6688724872959,35.9933324983245]]]},"properties":{"id":"183747","parcel":"187010B13500CO","address":"613 LANYARD LN","owner":"REGENT HOMES, LLC","point":[-86.66898300114852,35.99334239721855]}},{"type":"Feature","id":"183749","geometry":{"type":"Polygon","coordinates":[[[-86.668831942015,35.9934065381005],[-86.6688724872959,35.9933324983245],[-86.6690660271492,35.9934024915557],[-86.6690254820052,35.9934765304946],[-86.668831942015,35.9934065381005]]]},"properties":{"id":"183749","parcel":"187010B13600CO","address":"615 LANYARD LN","owner":"REGENT HOMES, LLC","point":[-86.66894898457672,35.993404514885185]}},{"type":"Feature","id":"183751","geometry":{"type":"Polygon","coordinates":[[[-86.6687089326797,35.9936311642658],[-86.6687364206998,35.9935809679033],[-86.668929959929,35.9936509613557],[-86.6689024719992,35.9937011568604],[-86.6687089326797,35.9936311642658]]]},"properties":{"id":"183751","parcel":"187010B14000CO","address":"623 LANYARD LN","owner":"REGENT HOMES, LLC","point":[-86.66881944646322,35.99364106286206]}},{"type":"Feature","id":"183753","geometry":{"type":"Polygon","coordinates":[[[-86.6683220183929,35.994069428998],[-86.6683473748385,35.99405839428],[-86.6683678162127,35.9940479375284],[-86.6683862592105,35.994035262051],[-86.6683972867412,35.9940265348584],[-86.6685013657896,35.9941844622859],[-86.668495197017,35.9941893437138],[-86.6684220316928,35.9942211871317],[-86.6683220183929,35.994069428998]]]},"properties":{"id":"183753","parcel":"187010B14500CO","address":"635 LANYARD LN","owner":"REGENT HOMES, LLC","point":[-86.66841169205387,35.99412694567547]}},{"type":"Feature","id":"185006","geometry":{"type":"Polygon","coordinates":[[[-86.6682624186944,35.9940953683369],[-86.6683220183929,35.994069428998],[-86.6684220316928,35.9942211871317],[-86.6683624319131,35.9942471265192],[-86.6682624186944,35.9940953683369]]]},"properties":{"id":"185006","parcel":"187010B14600CO","address":"637 LANYARD LN","owner":"REGENT HOMES, LLC","point":[-86.66834222513042,35.99415827776083]}},{"type":"Feature","id":"185008","geometry":{"type":"Polygon","coordinates":[[[-86.668009824002,35.9942053023259],[-86.6680902828219,35.9941702857835],[-86.6681902958063,35.9943220441064],[-86.668109836877,35.9943570607145],[-86.668009824002,35.9942053023259]]]},"properties":{"id":"185008","parcel":"187010B14800CO","address":"643 LANYARD LN","owner":"REGENT HOMES, LLC","point":[-86.66810005983785,35.99426367325002]}},{"type":"Feature","id":"185019","geometry":{"type":"Polygon","coordinates":[[[-86.6671744948359,35.9946848173059],[-86.6671992682381,35.9944355484787],[-86.6671049221498,35.994429355557],[-86.6671054136651,35.9944269977407],[-86.6671064007208,35.9944247453353],[-86.6671078528307,35.994422666107],[-86.6671097272636,35.9944208224821],[-86.6671119668256,35.9944192715593],[-86.6671145031417,35.9944180596835],[-86.6671172599977,35.9944172242302],[-86.6671201533029,35.9944167890988],[-86.6671230955566,35.9944167682937],[-86.6673712834899,35.9944330577488],[-86.6674038771032,35.9944339271371],[-86.6674364239633,35.9944322650275],[-86.6674686269569,35.9944280865863],[-86.6674873402047,35.9944244578893],[-86.6674932803399,35.9944231153785],[-86.6675030323161,35.9944207017267],[-86.667522892476,35.9944149720488],[-86.6675276740851,35.9944134223501],[-86.6676264280865,35.9945632719463],[-86.6676308468218,35.9945631510111],[-86.6676352095129,35.9945625635137],[-86.6676394396961,35.9945615170884],[-86.667643466559,35.9945600319564],[-86.667709026389,35.9945314992946],[-86.6677686265948,35.994505560232],[-86.6678282267693,35.994479622041],[-86.667909431849,35.9944442797215],[-86.667990636864,35.9944089382481],[-86.6680502368937,35.9943829999467],[-86.668109836877,35.9943570607145],[-86.6681902958063,35.9943220441064],[-86.6680902828219,35.9941702857835],[-86.6681819600337,35.9941303858962],[-86.6682819731429,35.9942821441441],[-86.6683624319131,35.9942471265192],[-86.6684220316928,35.9942211871317],[-86.668495197017,35.9941893437138],[-86.6685013657896,35.9941844622859],[-86.6683972867412,35.9940265348584],[-86.6684146527126,35.9940127928085],[-86.6685624452777,35.9941361263501],[-86.6686278347831,35.9940843802731],[-86.6686762714372,35.9940460494884],[-86.6687328390181,35.9940012842255],[-86.6687389226138,35.99399577325],[-86.6685812977662,35.9938642350039],[-86.6686718235097,35.9936989280841],[-86.668865362969,35.9937689216385],[-86.6689024719992,35.9937011568604],[-86.668929959929,35.9936509613557],[-86.668957448933,35.9936007658381],[-86.6689849367934,35.9935505703198],[-86.6690254820052,35.9934765304946],[-86.6690660271492,35.9934024915557],[-86.6690935148724,35.9933522960105],[-86.6691340587807,35.993278257053],[-86.6691746037225,35.9932042180745],[-86.6692020913087,35.9931540225023],[-86.6692295788527,35.9931038260221],[-86.6692598167775,35.9930486102373],[-86.6692616929396,35.9930442140891],[-86.6692626302851,35.9930396221687],[-86.6692625988915,35.9930349689357],[-86.6692616020845,35.9930303859614],[-86.6692596675955,35.9930260055827],[-86.6690765855997,35.9929597940935],[-86.6691693572289,35.9927903832813],[-86.6695136054204,35.9929148798435],[-86.6695012666267,35.9929857202534],[-86.6694847724055,35.9935700394364],[-86.6685552409394,35.9944253688106],[-86.6676203528369,35.9948658752065],[-86.6675676806492,35.9948362927437],[-86.6675135462635,35.9948085074405],[-86.667458042137,35.9947825674524],[-86.6674012651326,35.9947585173059],[-86.6673690733714,35.9947459432272],[-86.6673053633446,35.9947232031874],[-86.6672404608327,35.9947028139988],[-86.6671744948359,35.9946848173059]]]},"properties":{"id":"185019","parcel":"187010B91600CO","address":"659 LANYARD LN","owner":"REGENT HOMES, LLC","point":[-86.66891147180502,35.99381709779362]}}]}