{"type":"FeatureCollection","features":[{"type":"Feature","id":"63618","geometry":{"type":"Polygon","coordinates":[[[-86.6636446360594,36.2273859164771],[-86.6641747332929,36.2273234900026],[-86.6642329911872,36.227621944334],[-86.6637028931091,36.2276843701514],[-86.6636446360594,36.2273859164771]]]},"properties":{"id":"63618","parcel":"06300028900","address":"1548 HUDSON RD","owner":"DILLARD, MARGARET MARIE PIERCEY TESTAMENTARY TRUST","point":[-86.66393881343527,36.22750393076673]}},{"type":"Feature","id":"184653","geometry":{"type":"Polygon","coordinates":[[[-86.6616633840809,36.228019324526],[-86.6635148555343,36.2277990547836],[-86.6637435879958,36.2290397152803],[-86.6637127091306,36.2290433862899],[-86.6623948249727,36.2292015807503],[-86.6623796717778,36.2292033996432],[-86.6620836970674,36.2287078539563],[-86.6618431584287,36.2283109154426],[-86.6616631207114,36.2280193557097],[-86.6616633840809,36.228019324526]]]},"properties":{"id":"184653","parcel":"06300025900","address":"1562 HUDSON RD","owner":"PROW, TIMOTHY A. & SHANNON S., TRUSTEES","point":[-86.6628050577149,36.2285117594879]}},{"type":"Feature","id":"184657","geometry":{"type":"Polygon","coordinates":[[[-86.6607774885259,36.2265163585718],[-86.6609491749643,36.2257195497221],[-86.6609601962444,36.2257201220881],[-86.6609635424285,36.2257202912366],[-86.6610654202146,36.2257255737826],[-86.6613459791757,36.2257400459059],[-86.6624050213485,36.225794615401],[-86.6624050762286,36.2257947935468],[-86.6627225240431,36.2268282161261],[-86.6610711067285,36.2270204724988],[-86.661070952277,36.2270204922702],[-86.6607762409074,36.2265221495923],[-86.6607774885259,36.2265163585718]]]},"properties":{"id":"184657","parcel":"06300026100","address":"1554 HUDSON RD","owner":"RICHARD, JEFFREY A. & JEANNIE","point":[-86.66168618922893,36.22615584721837]}},{"type":"Feature","id":"184661","geometry":{"type":"Polygon","coordinates":[[[-86.6624050762286,36.2257947935468],[-86.6624050213485,36.225794615401],[-86.6626488614563,36.2258071976749],[-86.66277066304,36.2258134843206],[-86.6638913398965,36.2258705108685],[-86.6641747332929,36.2273234900026],[-86.6636446360594,36.2273859164771],[-86.6634431161013,36.2274096474664],[-86.6634390463309,36.2274102186783],[-86.6634180693596,36.2272938614007],[-86.6627228747792,36.2268295886016],[-86.6627225240431,36.2268282161261],[-86.6624050762286,36.2257947935468]]]},"properties":{"id":"184661","parcel":"06300026200","address":"1546 HUDSON RD","owner":"REHOBOTH DEVELOPMENT, LLC","point":[-86.66327995154623,36.22634928903175]}},{"type":"Feature","id":"184908","geometry":{"type":"Polygon","coordinates":[[[-86.6614516094597,36.2276601051584],[-86.6611229465106,36.2271098510005],[-86.6611228923389,36.2271097575674],[-86.6611153141957,36.227095517005],[-86.6610998277559,36.2270693286521],[-86.661070952277,36.2270204922702],[-86.6610711067285,36.2270204724988],[-86.6627225240431,36.2268282161261],[-86.6627228747792,36.2268295886016],[-86.6634180693596,36.2272938614007],[-86.6634390463309,36.2274102186783],[-86.6634431161013,36.2274096474664],[-86.6635148555343,36.2277990547836],[-86.6616633840809,36.228019324526],[-86.6616631207114,36.2280193557097],[-86.661485654996,36.2277179309929],[-86.6614516094597,36.2276601051584]]]},"properties":{"id":"184908","parcel":"06300026000","address":"1558 HUDSON RD","owner":"LYNCH, JEFFREY C","point":[-86.6624209737832,36.22753509734362]}},{"type":"Feature","id":"185384","geometry":{"type":"Polygon","coordinates":[[[-86.6614515639905,36.2276601216298],[-86.6614516094597,36.2276601051584],[-86.661485654996,36.2277179309929],[-86.6616631207114,36.2280193557097],[-86.6618431584287,36.2283109154426],[-86.659868229736,36.2289488661922],[-86.6590265421021,36.2292254335412],[-86.6589603487176,36.2291195342742],[-86.658688190607,36.2286213278599],[-86.6614515185138,36.2276601372],[-86.6614515639905,36.2276601216298]]]},"properties":{"id":"185384","parcel":"06300004900","address":"1722 HUDSON RD","owner":"DOBROLSKY, BRIAN & TINA UZNANSKI-","point":[-86.66024833639311,36.22846608283068]}},{"type":"Feature","id":"186809","geometry":{"type":"Polygon","coordinates":[[[-86.6635148555343,36.2277990547836],[-86.6634431161013,36.2274096474664],[-86.6636446360594,36.2273859164771],[-86.6637028931091,36.2276843701514],[-86.6642329911872,36.227621944334],[-86.6646494327102,36.229755272762],[-86.6646783393782,36.2298091721926],[-86.6648092526761,36.230053266895],[-86.6648102765348,36.2300551791097],[-86.6652766665715,36.2310239723435],[-86.6651137394301,36.2310449249457],[-86.6646798923956,36.230152609237],[-86.6639899732795,36.2296990577471],[-86.6637323723887,36.2291569793521],[-86.6637127091306,36.2290433862899],[-86.6637435879958,36.2290397152803],[-86.6635148555343,36.2277990547836]]]},"properties":{"id":"186809","parcel":"06300025700","address":"1542 HUDSON RD","owner":"ROGERS, JOEL E. & CALDWELL, KIMBELRY A.","point":[-86.66422355911084,36.22942903611378]}},{"type":"Feature","id":"186871","geometry":{"type":"Polygon","coordinates":[[[-86.6646783393782,36.2298091721926],[-86.6646494327102,36.229755272762],[-86.6642329911872,36.227621944334],[-86.6641747332929,36.2273234900026],[-86.6638913398965,36.2258705108685],[-86.6661541174769,36.2259849229467],[-86.6664586683635,36.2260003549115],[-86.6664904899003,36.2260020629342],[-86.6666691970118,36.2266440753291],[-86.6667453510893,36.2269178807401],[-86.6668306769835,36.2272269976396],[-86.6681184384112,36.2269935282421],[-86.6681516140802,36.2269875758585],[-86.668151629064,36.2269876379616],[-86.6682760097873,36.2274662397488],[-86.6670691468096,36.2276847043924],[-86.6671495794665,36.2279759943537],[-86.6672326211689,36.228277193445],[-86.6672520474951,36.2283476455643],[-86.6673210870488,36.2285977780258],[-86.6673486247534,36.2286975487959],[-86.667349035623,36.2286990507049],[-86.667437627329,36.2290200670694],[-86.6675133740002,36.2292941778074],[-86.6675993239566,36.229606599908],[-86.6676405940721,36.2297563579693],[-86.6672362445017,36.2298138069645],[-86.667136001734,36.2298278216378],[-86.6667393849236,36.2298843628641],[-86.666739102716,36.2298844031753],[-86.666710426716,36.229780450498],[-86.6663782129231,36.2298281579437],[-86.666019585163,36.2298795826496],[-86.6656609580198,36.229931002679],[-86.6653023260075,36.2299824270747],[-86.6648093493212,36.230053251042],[-86.6648092526761,36.230053266895],[-86.6646783393782,36.2298091721926]]]},"properties":{"id":"186871","parcel":"06300018700","address":"1541 NEELYS BEND RD","owner":"BLIER FAMILY TRUST","point":[-86.6656907439045,36.22782639427682]}},{"type":"Feature","id":"219103","geometry":{"type":"Polygon","coordinates":[[[-86.6602973437385,36.2296574963421],[-86.6600660541727,36.2292755510593],[-86.659868229736,36.2289488661922],[-86.6618431584287,36.2283109154426],[-86.6620836970674,36.2287078539563],[-86.6623796717778,36.2292033996432],[-86.6624308209732,36.2292899243832],[-86.6624166386777,36.2292945164949],[-86.6604608090058,36.229927836842],[-86.6602973437385,36.2296574963421]]]},"properties":{"id":"219103","parcel":"06300031700","address":"1620 HUDSON RD","owner":"OLNEY, REDDING","point":[-86.66112446478219,36.22907614095918]}}]}