{"type":"FeatureCollection","features":[{"type":"Feature","id":"119092","geometry":{"type":"Polygon","coordinates":[[[-86.6807073743092,35.9896100646167],[-86.6807734951024,35.9895880965797],[-86.6808022062658,35.9896478995925],[-86.6808598569636,35.9897679982176],[-86.681028335319,35.9901029286799],[-86.6809657596497,35.9901237186344],[-86.680903181745,35.9901445103714],[-86.6808030610017,35.9901777747168],[-86.6807774782839,35.990126917457],[-86.6809245362618,35.9900780593206],[-86.6809269156507,35.9900770823763],[-86.6809309410315,35.9900743133524],[-86.6809309772884,35.9900742734902],[-86.6809337014968,35.9900706952454],[-86.6809337244846,35.9900706599647],[-86.6809337364519,35.990070632858],[-86.6809337516535,35.9900705949174],[-86.6809349734303,35.9900665348607],[-86.6809349840494,35.9900664798214],[-86.6809349959286,35.9900643698098],[-86.6809349955891,35.9900643301545],[-86.6809349897973,35.9900643013456],[-86.6809349817026,35.9900642626355],[-86.6809337853058,35.9900601468523],[-86.6809056437263,35.9900042054305],[-86.6808851775462,35.9899635201798],[-86.680864711387,35.9899228349252],[-86.6808391276105,35.9898719785832],[-86.6808199409123,35.9898338367671],[-86.6807943583097,35.9897829813095],[-86.6807738922512,35.9897422969392],[-86.6807534239416,35.9897016062688],[-86.680732956816,35.9896609218971],[-86.6807073743092,35.9896100646167]]]},"properties":{"id":"119092","parcel":"186030A91200CO","address":"1000 B VIDA WAY","owner":"BURKITT COMMONS HOMEOWNERS ASSOCIATION, INC.","point":[-86.68088848491875,35.98989750402032]}},{"type":"Feature","id":"139115","geometry":{"type":"Polygon","coordinates":[[[-86.6816979248652,35.9899966162517],[-86.6818637555115,35.9899415191437],[-86.681894455528,35.9900025463186],[-86.6817286247834,35.9900576443694],[-86.6816979248652,35.9899966162517]]]},"properties":{"id":"139115","parcel":"186030A05100CO","address":"1045 VIDA WAY","owner":"JAIN, ANIL K & NEERU & JPY REVOCABLE LIVING TRUST","point":[-86.68179619018274,35.98999958132536]}},{"type":"Feature","id":"139445","geometry":{"type":"Polygon","coordinates":[[[-86.6816672250017,35.9899355890267],[-86.6818330544332,35.9898804919664],[-86.6818637555115,35.9899415191437],[-86.6816979248652,35.9899966162517],[-86.6816672250017,35.9899355890267]]]},"properties":{"id":"139445","parcel":"186030A05200CO","address":"1043 VIDA WAY","owner":"THOTA, SURESHA & RAO, KAVITA","point":[-86.68176549022793,35.98993855412536]}}]}