{"type":"FeatureCollection","features":[{"type":"Feature","id":"42620","geometry":{"type":"Polygon","coordinates":[[[-86.6878619742458,36.1918884374405],[-86.6878745383941,36.1917044536944],[-86.688309455808,36.1907561865567],[-86.6887673133634,36.1908303597704],[-86.6884463773764,36.1917030446256],[-86.6884400990072,36.1917201159733],[-86.6885890042381,36.1915963895163],[-86.6891307935501,36.1916182784257],[-86.6891374849162,36.1916473589263],[-86.6891431624908,36.1916767200962],[-86.6891490709291,36.1917238247853],[-86.6891517244378,36.1917711237976],[-86.6891511161603,36.1918184684652],[-86.6891472470384,36.1918657118777],[-86.6891401291317,36.1919127070612],[-86.689132405694,36.1919748558191],[-86.6891282566001,36.1920372293156],[-86.6891276873471,36.1920996914301],[-86.6891307012241,36.1921621078566],[-86.6891372903868,36.1922243425502],[-86.6891474414547,36.1922862622007],[-86.6891755826938,36.1924047735857],[-86.6891867698138,36.1924442667651],[-86.6891871516433,36.192488217049],[-86.6892126275454,36.1926509709785],[-86.6892321144541,36.1927537687718],[-86.6892551996082,36.1928560755621],[-86.6892818611842,36.1929578094579],[-86.6893120806856,36.193058887647],[-86.6893400415881,36.19310796453],[-86.6893710495977,36.1931558235351],[-86.6894050235866,36.1932023407498],[-86.6894418768908,36.193247394997],[-86.6894815128702,36.1932908687615],[-86.6894948379595,36.1933079237413],[-86.6895051601926,36.1933262945782],[-86.6895122864537,36.1933456380961],[-86.689516080142,36.1933655891656],[-86.6895164712868,36.1933857732641],[-86.6895134532601,36.193405811902],[-86.6895070828156,36.1934253271285],[-86.6894983593877,36.1934445583773],[-86.6894932668471,36.1934646268863],[-86.6894919202923,36.1934850867783],[-86.6894943480054,36.1935054818562],[-86.6895004959935,36.1935253563927],[-86.6895239429607,36.1936010424522],[-86.6895513706071,36.1936758441709],[-86.6895827288239,36.1937496239404],[-86.6896179586386,36.1938222478073],[-86.6896569977263,36.1938935800348],[-86.6896997715785,36.1939634903628],[-86.6897462034777,36.1940318503461],[-86.6897962067223,36.1940985343003],[-86.6898496913134,36.1941634210654],[-86.6898988140734,36.194233296847],[-86.6899442982641,36.1943047714987],[-86.6899860683117,36.1943777219843],[-86.6900240463704,36.194452019873],[-86.6900581701672,36.1945275375458],[-86.6900883796203,36.1946041437659],[-86.690114622399,36.1946817036468],[-86.6901368506271,36.1947600831775],[-86.6901395052126,36.1947745809249],[-86.6901446787437,36.194788624461],[-86.6901522675427,36.1948019268779],[-86.6901621136082,36.1948142196027],[-86.690174020165,36.1948252505068],[-86.6902308497719,36.1948715647242],[-86.6902861786278,36.1949190573246],[-86.6903399686554,36.1949676969836],[-86.6904044150331,36.1950179772555],[-86.6904660657668,36.1950705103965],[-86.6905248032102,36.1951251934392],[-86.6905805108039,36.1951819207064],[-86.6906330819472,36.1952405810561],[-86.6906824144779,36.1953010624198],[-86.690728411729,36.1953632454874],[-86.6907707018156,36.1954454594224],[-86.6908167508165,36.1955263351004],[-86.6903896096874,36.1956942820857],[-86.6896936817362,36.195748525972],[-86.6897147534566,36.1959503120525],[-86.6897012418546,36.1960723579263],[-86.6895531818577,36.1964283946078],[-86.6894464721938,36.1965119645194],[-86.6886581272586,36.1965084972509],[-86.6883384853845,36.1964641693431],[-86.6883018051169,36.1959083796723],[-86.6881826983697,36.1953838258971],[-86.6878735118301,36.1951372558415],[-86.6878471449612,36.1950187341397],[-86.6876259486565,36.1940244698348],[-86.6876827096011,36.1937697707228],[-86.6877049116541,36.1935158190789],[-86.6877723807384,36.1934017070882],[-86.6877869875928,36.1922720436362],[-86.6878502417311,36.1921019163565],[-86.6878619742458,36.1918884374405]]]},"properties":{"id":"42620","parcel":"07300004100","address":"1 GAYLORD DR","owner":"RHP CORPORATE PROPERTIES, LLC","point":[-86.68861613345797,36.19363604965343]}},{"type":"Feature","id":"52782","geometry":{"type":"Polygon","coordinates":[[[-86.6868659314155,36.1959704074146],[-86.6869706810424,36.195939410336],[-86.6870076908036,36.1960250109713],[-86.6868979285501,36.1960539519943],[-86.6868659314155,36.1959704074146]]]},"properties":{"id":"52782","parcel":"073150A00100CO","address":"2342 TALLY GREEN CT","owner":"TAYLOR, THEODORE, JR.","point":[-86.68693614045377,36.195997707459874]}},{"type":"Feature","id":"52787","geometry":{"type":"Polygon","coordinates":[[[-86.6868979285501,36.1960539519943],[-86.6870076908036,36.1960250109713],[-86.6870414861355,36.1961031701954],[-86.6869292488591,36.1961357294483],[-86.6868979285501,36.1960539519943]]]},"properties":{"id":"52787","parcel":"073150A00200CO","address":"2340 TALLY GREEN CT","owner":"TAYLOR, THEODORE, JR.","point":[-86.68696910288485,36.1960785595356]}},{"type":"Feature","id":"53390","geometry":{"type":"Polygon","coordinates":[[[-86.6868100172133,36.1961547671959],[-86.6868066327655,36.1961354013504],[-86.6867997256265,36.1961166611859],[-86.6867894506244,36.1960989631024],[-86.6867760369175,36.1960827041501],[-86.6867597845257,36.1960682467289],[-86.6872570370283,36.1955676550306],[-86.6873726526746,36.1960032260751],[-86.687315721171,36.1961601306417],[-86.6868100172133,36.1961547671959]],[[-86.6870076908036,36.1960250109713],[-86.6869706810424,36.195939410336],[-86.6868659314155,36.1959704074146],[-86.6868979285501,36.1960539519943],[-86.6869292488591,36.1961357294483],[-86.6870414861355,36.1961031701954],[-86.6870076908036,36.1960250109713]]]},"properties":{"id":"53390","parcel":"073150A90000CO","address":"2342 B TALLY GREEN CT","owner":"O.I.C LOT 10 ON THE PLAN OF TALLY GREEN, A CONDOMINIUM","point":[-86.68718950821739,36.19575373049284]}},{"type":"Feature","id":"129623","geometry":{"type":"Polygon","coordinates":[[[-86.6858725923889,36.1998789788566],[-86.6858490201471,36.1996519101758],[-86.6856871377121,36.1995990129734],[-86.6856707912431,36.1995936712361],[-86.6857903177891,36.1986832491883],[-86.6858173858909,36.1986834892968],[-86.6858231712112,36.1986830842189],[-86.6858289351303,36.1986825188389],[-86.6858497856971,36.1986790873957],[-86.6858516523942,36.1986786703269],[-86.6858663438224,36.1986747204951],[-86.6858735075854,36.1986723428501],[-86.6858805300777,36.1986697019396],[-86.6858822619962,36.1986690008395],[-86.6858924360509,36.1986644647131],[-86.6858940925215,36.1986636540883],[-86.6859115157148,36.1986537548739],[-86.6859270940652,36.1986422997567],[-86.6859408049319,36.1986293708803],[-86.6859524387614,36.1986151668105],[-86.6859618150893,36.1985999066767],[-86.6869277862126,36.2001640099127],[-86.6866916143593,36.200181744357],[-86.6859101144587,36.2002404263745],[-86.6858725923889,36.1998789788566]]]},"properties":{"id":"129623","parcel":"07300004500","address":"2304 DONNA HILL CT","owner":"POLSTON, JAMES RICHARD & HOLLLY LYNN","point":[-86.686012962689,36.19913928593526]}},{"type":"Feature","id":"220537","geometry":{"type":"Polygon","coordinates":[[[-86.6859618150893,36.1985999066767],[-86.6859632494101,36.1985970667866],[-86.6859682819269,36.1985852173426],[-86.6859717222124,36.1985740204399],[-86.6859746039488,36.1985576399905],[-86.6859749739453,36.1985529784028],[-86.6859751334921,36.198549183215],[-86.6859751602556,36.1985476491278],[-86.6859737138547,36.1985285192057],[-86.6859689957839,36.1985097386308],[-86.6859607026773,36.1984909441179],[-86.6859537327919,36.1984796071783],[-86.6859455035396,36.1984688388742],[-86.6859422916393,36.1984651700885],[-86.6859299342807,36.1984530517227],[-86.6859159484911,36.1984421565961],[-86.686430700228,36.1985086622056],[-86.6869384593204,36.1992226314682],[-86.6872103031086,36.1993769944164],[-86.6869189861589,36.1997637895524],[-86.687285794319,36.199945272433],[-86.6875629707965,36.1995772507628],[-86.6878922672439,36.1997642330674],[-86.6882123766147,36.2000675367484],[-86.6869277862126,36.2001640099127],[-86.6859618150893,36.1985999066767]]]},"properties":{"id":"220537","parcel":"07300002700","address":"2300 DONNA HILL CT","owner":"MOLLOY, MICHAEL & PEREZ-MOLLOY, RAQUEL","point":[-86.68673367151308,36.199298921785235]}},{"type":"Feature","id":"223097","geometry":{"type":"Polygon","coordinates":[[[-86.6818231576933,36.1977999319807],[-86.6817606973827,36.1977489059555],[-86.6816962167328,36.1976995586249],[-86.6826317053631,36.1968410457875],[-86.6827240200003,36.1968564562231],[-86.6826747953365,36.1971226470345],[-86.6826307092982,36.197355842663],[-86.6819303663653,36.1978916267117],[-86.6818776120207,36.1978451261055],[-86.6818231576933,36.1977999319807]]]},"properties":{"id":"223097","parcel":"07315001100","address":"2407 CABIN HILL RD","owner":"FOX, STINNETT R. & ELIZABETH LAMBERT","point":[-86.68214476113548,36.19752765189887]}},{"type":"Feature","id":"223101","geometry":{"type":"Polygon","coordinates":[[[-86.6864396925464,36.1966766115995],[-86.6864929129938,36.1965603841945],[-86.6871044947789,36.1967376602478],[-86.6870641337688,36.1968516165866],[-86.6864396925464,36.1966766115995]]]},"properties":{"id":"223101","parcel":"07315001800","address":"2330 TALLY GREEN CT","owner":"COOK, JASON & LAURA","point":[-86.68677387950571,36.196707141058255]}},{"type":"Feature","id":"223105","geometry":{"type":"Polygon","coordinates":[[[-86.6865913865621,36.1963472037848],[-86.6865986858042,36.1963290317293],[-86.6871912066801,36.1964970760274],[-86.6871435907226,36.1966341494267],[-86.686545465667,36.1964452591884],[-86.6865913865621,36.1963472037848]]]},"properties":{"id":"223105","parcel":"07315001900","address":"2334 TALLY GREEN CT","owner":"WEBB, LONNIE D.","point":[-86.6868637514549,36.1964711560493]}},{"type":"Feature","id":"223110","geometry":{"type":"Polygon","coordinates":[[[-86.6866477245031,36.1960430621952],[-86.6867834641471,36.195906586382],[-86.6868385887283,36.1957755142032],[-86.6871791440852,36.1954175607918],[-86.6872570370283,36.1955676550306],[-86.6867597845257,36.1960682467289],[-86.6867401882197,36.1960570834859],[-86.6867185318969,36.1960487871325],[-86.6866954503264,36.1960435991988],[-86.6866716153149,36.1960416726818],[-86.6866477245031,36.1960430621952]]]},"properties":{"id":"223110","parcel":"07315002700","address":"2344 TALLY GREEN CT","owner":"DANYMYER, LAURA & RUSTY","point":[-86.68704563385062,36.19567157910418]}},{"type":"Feature","id":"223607","geometry":{"type":"Polygon","coordinates":[[[-86.6869189861589,36.1997637895524],[-86.6872103031086,36.1993769944164],[-86.6875629707965,36.1995772507628],[-86.687285794319,36.199945272433],[-86.6869189861589,36.1997637895524]]]},"properties":{"id":"223607","parcel":"07300002800","address":"2271 RIDGELAND DR","owner":"METRO GOV'T  NE  POWER BOARD","point":[-86.68724097879439,36.199670520593145]}},{"type":"Feature","id":"224281","geometry":{"type":"Polygon","coordinates":[[[-86.6843883165225,36.1974316024668],[-86.6844400068216,36.1973778416345],[-86.6844892580147,36.1973225976221],[-86.6845360084689,36.1972659437833],[-86.685164348318,36.1975782858807],[-86.6851373026379,36.1975861333601],[-86.6847646245308,36.1976799978972],[-86.6843883165225,36.1974316024668]]]},"properties":{"id":"224281","parcel":"07315000200","address":"2934 DONNA HILL DR","owner":"ROBERTS, COLLEEN JOHNSON","point":[-86.68475820190274,36.19750489705344]}},{"type":"Feature","id":"224282","geometry":{"type":"Polygon","coordinates":[[[-86.6834074378771,36.1978195451919],[-86.6828400940275,36.1968755787789],[-86.6832039048992,36.1969328566711],[-86.6836742571651,36.1977119994123],[-86.6835678722197,36.197755454586],[-86.6834793942338,36.1977905681328],[-86.6834341163029,36.1978084060953],[-86.6834074378771,36.1978195451919]]]},"properties":{"id":"224282","parcel":"07315000700","address":"2929 DONNA HILL DR","owner":"WEAVER, RONTAE","point":[-86.68327360585408,36.19732199053456]}},{"type":"Feature","id":"224304","geometry":{"type":"Polygon","coordinates":[[[-86.681202103981,36.1973875372911],[-86.6811336827612,36.1973527617426],[-86.681104070578,36.1973380941371],[-86.6813640764721,36.1969894035528],[-86.6815103931751,36.1966627796417],[-86.6820859791096,36.1967545766991],[-86.6814057914912,36.1975056095191],[-86.681339423133,36.1974645398573],[-86.6812715049484,36.1974251696569],[-86.681202103981,36.1973875372911]]]},"properties":{"id":"224304","parcel":"07315001300","address":"2411 CABIN HILL RD","owner":"LEBERMAN, TERESA L.","point":[-86.68147416142885,36.19716438806254]}},{"type":"Feature","id":"224305","geometry":{"type":"Polygon","coordinates":[[[-86.6860742521578,36.1976066350461],[-86.6860935931414,36.1974916989837],[-86.6867984102916,36.1975803346836],[-86.6867549755974,36.1976899913604],[-86.6860742521578,36.1976066350461]]]},"properties":{"id":"224305","parcel":"07315001400","address":"2314 TALLY GREEN CT","owner":"BALL, CAROL ANN","point":[-86.68643472759737,36.19759348121167]}},{"type":"Feature","id":"224306","geometry":{"type":"Polygon","coordinates":[[[-86.6862826716792,36.197017263778],[-86.6862853329329,36.1970115274858],[-86.68693698947,36.1971979163021],[-86.6868986425841,36.1973096638502],[-86.686495508266,36.1971735066996],[-86.6862400847709,36.1971090300629],[-86.6862826716792,36.197017263778]]]},"properties":{"id":"224306","parcel":"07315001600","address":"2322 TALLY GREEN CT","owner":"CALLIS, MATTHEW DREW","point":[-86.68655508010836,36.19714175902998]}},{"type":"Feature","id":"224307","geometry":{"type":"Polygon","coordinates":[[[-86.6867099365923,36.1962608220423],[-86.6867330380729,36.1962530182676],[-86.6867541198991,36.1962420851016],[-86.6867725422526,36.1962283542415],[-86.6867877472159,36.196212241637],[-86.6867992742365,36.1961942356853],[-86.6868067733372,36.196174881835],[-86.6868100172133,36.1961547671959],[-86.687315721171,36.1961601306417],[-86.6872528328616,36.1963341009985],[-86.6869904358463,36.1963251559164],[-86.6868774033155,36.1962659132899],[-86.6867099365923,36.1962608220423]]]},"properties":{"id":"224307","parcel":"07315002000","address":"2338 TALLY GREEN CT","owner":"FLAUM, MANNING ETAL","point":[-86.68701359400995,36.19624825802888]}},{"type":"Feature","id":"224308","geometry":{"type":"Polygon","coordinates":[[[-86.6869035470163,36.1953320488078],[-86.6871791440852,36.1954175607918],[-86.6868385887283,36.1957755142032],[-86.6867834641471,36.195906586382],[-86.6866477245031,36.1960430621952],[-86.686627216665,36.1960481095869],[-86.6866077656838,36.1960554032017],[-86.6865897428381,36.1960648030371],[-86.6865734934986,36.1960761304835],[-86.6865593293377,36.1960891674684],[-86.6869032055217,36.1953317758677],[-86.6869035470163,36.1953320488078]]]},"properties":{"id":"224308","parcel":"07315002200","address":"2346 TALLY GREEN CT","owner":"STARR, LINDSAY H.","point":[-86.6868960660474,36.195596242614656]}},{"type":"Feature","id":"224309","geometry":{"type":"Polygon","coordinates":[[[-86.6867984102916,36.1975803346836],[-86.6860935931414,36.1974916989837],[-86.6861027936003,36.1974427545341],[-86.6861152661565,36.1973942880811],[-86.6861309731357,36.1973464440385],[-86.6868291098415,36.1974990552381],[-86.6867999909586,36.1975805329813],[-86.6867984102916,36.1975803346836]]]},"properties":{"id":"224309","parcel":"07315002300","address":"2316 TALLY GREEN CT","owner":"HICKEY, MEGAN EMILIE","point":[-86.68639439951897,36.197468003192434]}},{"type":"Feature","id":"224310","geometry":{"type":"Polygon","coordinates":[[[-86.6865986858042,36.1963290317293],[-86.6866077610038,36.1963137119604],[-86.6866197044356,36.1962997457878],[-86.6866342200185,36.1962874827789],[-86.6866509401461,36.1962772305489],[-86.6866694489659,36.196269246517],[-86.6866892789812,36.1962637307161],[-86.6867099365923,36.1962608220423],[-86.6868774033155,36.1962659132899],[-86.6869904358463,36.1963251559164],[-86.6872528328616,36.1963341009985],[-86.6871912066801,36.1964970760274],[-86.6865986858042,36.1963290317293]]]},"properties":{"id":"224310","parcel":"07315002600","address":"2336 TALLY GREEN CT","owner":"POSTIGLIONE, PATRICK & LOREN","point":[-86.68706147075716,36.19641516888273]}},{"type":"Feature","id":"224311","geometry":{"type":"Polygon","coordinates":[[[-86.6862853329329,36.1970115274858],[-86.686335881115,36.1968997107725],[-86.6869773793813,36.1970872557436],[-86.68693698947,36.1971979163021],[-86.6862853329329,36.1970115274858]]]},"properties":{"id":"224311","parcel":"07315002900","address":"2324 TALLY GREEN CT","owner":"TUMMINS, VICKI FURLOUGH & LARRY EUGENE","point":[-86.68663278086977,36.19704939584453]}},{"type":"Feature","id":"224408","geometry":{"type":"Polygon","coordinates":[[[-86.6862248276333,36.1981661732234],[-86.6860755387564,36.1981472435464],[-86.6859699522725,36.1981654242185],[-86.685969630292,36.1981654801231],[-86.6859797195858,36.1981134771926],[-86.6860088343144,36.1979586267465],[-86.6866086138877,36.1980288005553],[-86.686518752756,36.1982711722049],[-86.6862248276333,36.1981661732234]]]},"properties":{"id":"224408","parcel":"07311011700","address":"2306 TALLY GREEN CT","owner":"WHITLEY, ANGELIA","point":[-86.68627345124172,36.19813100494406]}},{"type":"Feature","id":"224540","geometry":{"type":"Polygon","coordinates":[[[-86.6801089991716,36.1976535688197],[-86.6799920458642,36.1976102742465],[-86.6801942137712,36.1971564255261],[-86.6803321530367,36.1971924520099],[-86.6804687053954,36.197231795559],[-86.6802232307596,36.1976946795522],[-86.6801089991716,36.1976535688197]]]},"properties":{"id":"224540","parcel":"07316002300","address":"2416 CABIN HILL RD","owner":"REASONOVER, CHARLES & EMILY","point":[-86.68022234009027,36.19742101367698]}},{"type":"Feature","id":"224611","geometry":{"type":"Polygon","coordinates":[[[-86.6801644934863,36.1996986929385],[-86.6803058745379,36.199111131496],[-86.6805292553193,36.1991543748441],[-86.6805812827958,36.1992925340438],[-86.6804631589022,36.1997459068262],[-86.6801644934863,36.1996986929385]]]},"properties":{"id":"224611","parcel":"07312005700","address":"2405 DUNDEE LN","owner":"BIRDWELL, SUSAN C.","point":[-86.680370862696,36.199495608268535]}},{"type":"Feature","id":"225481","geometry":{"type":"Polygon","coordinates":[[[-86.6845360084689,36.1972659437833],[-86.6845652260792,36.1972318558085],[-86.6845920632417,36.1971965051462],[-86.684616434173,36.197160001336],[-86.6859739752607,36.1973764547246],[-86.6857568517129,36.1974298815264],[-86.6855438035147,36.1974843834264],[-86.6853726800191,36.1975271100188],[-86.685164348318,36.1975782858807],[-86.6845360084689,36.1972659437833]]]},"properties":{"id":"225481","parcel":"07315000100","address":"2936 DONNA HILL DR","owner":"SCHWARTZ, BARBARA & MIKE","point":[-86.68513880303637,36.19732089583316]}},{"type":"Feature","id":"225484","geometry":{"type":"Polygon","coordinates":[[[-86.6842388595716,36.1977862667533],[-86.684149309639,36.1976988694186],[-86.6841425452598,36.1976926278041],[-86.6841370817257,36.1976855983322],[-86.6841330562176,36.1976779577729],[-86.6841305704602,36.1976698975172],[-86.6841296873631,36.1976616208922],[-86.6841304276158,36.1976533350695],[-86.6841327741032,36.1976452474345],[-86.6841366674281,36.197637562007],[-86.684142009176,36.197630471312],[-86.6841486652284,36.1976241536562],[-86.6842117724779,36.1975786909775],[-86.6842728023829,36.1975314032806],[-86.6843316765283,36.1974823522982],[-86.6843883165225,36.1974316024668],[-86.6847646245308,36.1976799978972],[-86.6844199579794,36.197956655375],[-86.6843700447675,36.1979126641596],[-86.6843217416541,36.1978675074884],[-86.6842750901282,36.1978212256848],[-86.6842388595716,36.1977862667533]]]},"properties":{"id":"225484","parcel":"07315000300","address":"2932 DONNA HILL DR","owner":"SMITH, BRADLEY & DEBORAH HOPE","point":[-86.68444448415171,36.19769653607487]}},{"type":"Feature","id":"225487","geometry":{"type":"Polygon","coordinates":[[[-86.6833729255683,36.1969604690517],[-86.6836281357095,36.197000779494],[-86.6841693307462,36.1974267978859],[-86.6840939570349,36.1974840292296],[-86.6840157558205,36.1975387115718],[-86.6839348575141,36.1975907522407],[-86.6833729255683,36.1969604690517]]]},"properties":{"id":"225487","parcel":"07315000500","address":"2933 DONNA HILL DR","owner":"BARRETT, ROBERT R. & HORTON, JEFFREY N.","point":[-86.68374839851656,36.197213391889676]}},{"type":"Feature","id":"225490","geometry":{"type":"Polygon","coordinates":[[[-86.6832039048992,36.1969328566711],[-86.6833729255683,36.1969604690517],[-86.6839348575141,36.1975907522407],[-86.6838723679416,36.1976246905378],[-86.6838080131524,36.1976562555466],[-86.683741929337,36.1976853798005],[-86.6836742571651,36.1977119994123],[-86.6832039048992,36.1969328566711]]]},"properties":{"id":"225490","parcel":"07315000600","address":"2931 DONNA HILL DR","owner":"MUNOZ, ROBERT JR & MARY ELLEN","point":[-86.68353215954544,36.19727528919263]}},{"type":"Feature","id":"225565","geometry":{"type":"Polygon","coordinates":[[[-86.6819303663653,36.1978916267117],[-86.6826307092982,36.197355842663],[-86.6825556068028,36.1977655764829],[-86.6821189719608,36.1980685690299],[-86.6820807119559,36.1980336236267],[-86.6820322194147,36.1979851730334],[-86.6819820918809,36.1979378284816],[-86.6819303663653,36.1978916267117]]]},"properties":{"id":"225565","parcel":"07315001000","address":"2405 CABIN HILL RD","owner":"GULLETT, DALTON","point":[-86.68247843787817,36.197560405314505]}},{"type":"Feature","id":"225568","geometry":{"type":"Polygon","coordinates":[[[-86.6814057914912,36.1975056095191],[-86.6820859791096,36.1967545766991],[-86.6826317053631,36.1968410457875],[-86.6816962167328,36.1976995586249],[-86.6816265928638,36.1976482016567],[-86.6815549292581,36.197598723561],[-86.6814813019638,36.1975511752765],[-86.6814057914912,36.1975056095191]]]},"properties":{"id":"225568","parcel":"07315001200","address":"2409 CABIN HILL RD","owner":"LEONARD, SONDA","point":[-86.6819881936443,36.19717324806317]}},{"type":"Feature","id":"225571","geometry":{"type":"Polygon","coordinates":[[[-86.6861309731357,36.1973464440385],[-86.6861387378808,36.1973256323002],[-86.6861485257008,36.1973053894729],[-86.6861602732048,36.1972858429932],[-86.6861868731037,36.1972263577168],[-86.6868555892572,36.1974258335747],[-86.6868291098415,36.1974990552381],[-86.6861309731357,36.1973464440385]]]},"properties":{"id":"225571","parcel":"07315001500","address":"2318 TALLY GREEN CT","owner":"LIN, HAI","point":[-86.68651745887972,36.197386202678274]}},{"type":"Feature","id":"225574","geometry":{"type":"Polygon","coordinates":[[[-86.686335881115,36.1968997107725],[-86.6863864814488,36.196793937553],[-86.6870204656593,36.1969749323313],[-86.6869773793813,36.1970872557436],[-86.686335881115,36.1968997107725]]]},"properties":{"id":"225574","parcel":"07315001700","address":"2326 TALLY GREEN CT","owner":"ADAMS, THOMAS D., II","point":[-86.68667663517282,36.196937318014584]}},{"type":"Feature","id":"225577","geometry":{"type":"Polygon","coordinates":[[[-86.6864929129938,36.1965603841945],[-86.686545465667,36.1964452591884],[-86.6871435907226,36.1966341494267],[-86.6871044947789,36.1967376602478],[-86.6864929129938,36.1965603841945]]]},"properties":{"id":"225577","parcel":"07315002400","address":"2332 TALLY GREEN CT","owner":"DIGBY, STEVE & AUBREY, DIANE","point":[-86.686823446204,36.19659728084317]}},{"type":"Feature","id":"225580","geometry":{"type":"Polygon","coordinates":[[[-86.6861868731037,36.1972263577168],[-86.6862400847709,36.1971090300629],[-86.686495508266,36.1971735066996],[-86.6868986425841,36.1973096638502],[-86.6868555892572,36.1974258335747],[-86.6861868731037,36.1972263577168]]]},"properties":{"id":"225580","parcel":"07315002500","address":"2320 TALLY GREEN CT","owner":"HILL, KIMBERLY & WILLIAM, IV","point":[-86.68655086383284,36.197268032539796]}},{"type":"Feature","id":"225583","geometry":{"type":"Polygon","coordinates":[[[-86.686052867981,36.197720484081],[-86.6860742521578,36.1976066350461],[-86.6867549755974,36.1976899913604],[-86.6867224267197,36.1977721672332],[-86.6867092418671,36.1978018980072],[-86.686052867981,36.197720484081]]]},"properties":{"id":"225583","parcel":"07315002800","address":"2312 TALLY GREEN CT","owner":"JACOBSON, JESSAMI S.","point":[-86.68640224098742,36.19770523383206]}},{"type":"Feature","id":"225587","geometry":{"type":"Polygon","coordinates":[[[-86.6863864814488,36.196793937553],[-86.6864396925464,36.1966766115995],[-86.6870641337688,36.1968516165866],[-86.6870204656593,36.1969749323313],[-86.6863864814488,36.196793937553]]]},"properties":{"id":"225587","parcel":"07315003000","address":"2328 TALLY GREEN CT","owner":"DOERGE, JOHN","point":[-86.68672437688113,36.19682277511321]}},{"type":"Feature","id":"225940","geometry":{"type":"Polygon","coordinates":[[[-86.6830658670827,36.1997158288008],[-86.683369441409,36.1993888629285],[-86.6836012633837,36.1995457793825],[-86.683394539279,36.1997842930106],[-86.6832098311465,36.1997457804211],[-86.6830658670827,36.1997158288008]]]},"properties":{"id":"225940","parcel":"07311008000","address":"2322 CABIN HILL RD","owner":"KAIMAN, CATHERINE M. & HERNANDEZ, KENT","point":[-86.68333619942037,36.199630811361416]}},{"type":"Feature","id":"225942","geometry":{"type":"Polygon","coordinates":[[[-86.6841751103542,36.1997469075184],[-86.6846729010741,36.1992496272447],[-86.6848132889655,36.1993029045694],[-86.6850135823774,36.1993789167057],[-86.6844532714362,36.1999321268121],[-86.6841751103542,36.1997469075184]]]},"properties":{"id":"225942","parcel":"07311008700","address":"2311 CABIN HILL RD","owner":"PEARSON, JESSICA","point":[-86.68459325976312,36.199562909988025]}},{"type":"Feature","id":"225944","geometry":{"type":"Polygon","coordinates":[[[-86.6838941962494,36.1995573041532],[-86.684396941029,36.1990599924285],[-86.6846044202231,36.1992236385264],[-86.6846729010741,36.1992496272447],[-86.6841751103542,36.1997469075184],[-86.6838941962494,36.1995573041532]]]},"properties":{"id":"225944","parcel":"07311008800","address":"2313 CABIN HILL RD","owner":"CANNON, WILLIAM A. JR. & ALANA ROSE MCQUEEN","point":[-86.68428431156397,36.19940346834829]}},{"type":"Feature","id":"225946","geometry":{"type":"Polygon","coordinates":[[[-86.6836658503676,36.198545495585],[-86.6833419810518,36.1984044828014],[-86.6831332007734,36.1980892067321],[-86.6832745216047,36.1980289910037],[-86.6834168228487,36.1979703116051],[-86.6835600801355,36.1979131785843],[-86.6838458369429,36.1983510851946],[-86.6838427645162,36.1986236076699],[-86.6836658503676,36.198545495585]]]},"properties":{"id":"225946","parcel":"07311009400","address":"2926 DONNA HILL DR","owner":"BURKE, JEFFREY W. & CAROLYN","point":[-86.68349014891452,36.19822014815985]}},{"type":"Feature","id":"225948","geometry":{"type":"Polygon","coordinates":[[[-86.6850135823774,36.1993789167057],[-86.6848132889655,36.1993029045694],[-86.6851492563083,36.1984777902357],[-86.6852191106906,36.1984998738287],[-86.6852900409638,36.1985195809761],[-86.6853619211743,36.1985368772417],[-86.6854346276235,36.1985517317823],[-86.6854812333144,36.1985598984429],[-86.6852249513991,36.1994479863845],[-86.6850135823774,36.1993789167057]]]},"properties":{"id":"225948","parcel":"07311009900","address":"2310 DONNA HILL CT","owner":"WERNER, TODD A","point":[-86.68516930364707,36.19893145996768]}},{"type":"Feature","id":"225950","geometry":{"type":"Polygon","coordinates":[[[-86.6854801429796,36.198419187265],[-86.6856602198838,36.1977782037662],[-86.6857568517129,36.1974298815264],[-86.6859739752607,36.1973764547246],[-86.6859046344003,36.1977768155837],[-86.6858782403462,36.1979292099596],[-86.685784922371,36.1984101726863],[-86.6857626111866,36.1984136520696],[-86.6857410745493,36.1984195198807],[-86.6857207007241,36.1984276702706],[-86.6857018553804,36.1984379560615],[-86.6856919249216,36.1984431423959],[-86.6856810343205,36.1984468525194],[-86.6856695150757,36.1984489736951],[-86.6856577168892,36.1984494408492],[-86.6856459965941,36.1984482420415],[-86.6854801429796,36.198419187265]]]},"properties":{"id":"225950","parcel":"07311010100","address":"2305 DONNA HILL CT","owner":"MIDKIFF, JACKIE LEE","point":[-86.68576518299307,36.197853696287964]}},{"type":"Feature","id":"225986","geometry":{"type":"Polygon","coordinates":[[[-86.6849077725144,36.1982439751943],[-86.6852088035279,36.1977807663406],[-86.6853726800191,36.1975271100188],[-86.6855438035147,36.1974843834264],[-86.6851835115799,36.1983407601902],[-86.6851718959338,36.1983371273556],[-86.6851022869178,36.1983144673425],[-86.6850333548008,36.1982904831113],[-86.6849701047761,36.1982680447038],[-86.6849077725144,36.1982439751943]]]},"properties":{"id":"225986","parcel":"07311010300","address":"2309 DONNA HILL CT","owner":"CASSIDY, JAMES A.","point":[-86.68518983438302,36.19801271692027]}},{"type":"Feature","id":"225988","geometry":{"type":"Polygon","coordinates":[[[-86.6844199579794,36.197956655375],[-86.6847646245308,36.1976799978972],[-86.6851373026379,36.1975861333601],[-86.6846518157825,36.1981179650778],[-86.6845720604796,36.1980665563941],[-86.6844947376294,36.1980127608649],[-86.6844199579794,36.197956655375]]]},"properties":{"id":"225988","parcel":"07311010500","address":"2313 DONNA HILL CT","owner":"BUSCH, RONALD D. ETUX","point":[-86.68475841840838,36.19781876440702]}},{"type":"Feature","id":"225989","geometry":{"type":"Polygon","coordinates":[[[-86.6832098311465,36.1997457804211],[-86.683394539279,36.1997842930106],[-86.6836329439065,36.2000752264564],[-86.6835823175507,36.2001007139377],[-86.6835299489141,36.2001237742695],[-86.6834760152392,36.2001443289386],[-86.6834206994142,36.2001623093135],[-86.6833641877176,36.2001776530531],[-86.6833066709699,36.2001903086056],[-86.6832483434128,36.2002002343142],[-86.6831894038062,36.200207396608],[-86.6832098311465,36.1997457804211]]]},"properties":{"id":"225989","parcel":"07311006500","address":"2309 DUNDEE LN","owner":"HACKNEY, NANCY ELLEN & JORDAN, JUDY CARYL","point":[-86.68335773382917,36.19992934718276]}},{"type":"Feature","id":"225990","geometry":{"type":"Polygon","coordinates":[[[-86.681212477838,36.1985955164601],[-86.6812070310562,36.1985923567494],[-86.681497068099,36.1982676691316],[-86.6816250818712,36.1983350732537],[-86.6819394815538,36.1986365700659],[-86.6816457488372,36.198847002358],[-86.6816356994293,36.1988531344435],[-86.6816245379829,36.1988578335029],[-86.6816125703065,36.1988609725352],[-86.6816001270113,36.1988624640549],[-86.6815875502227,36.1988622664753],[-86.681575188036,36.1988603859428],[-86.6815633800383,36.1988568737147],[-86.6815524506451,36.1988518270978],[-86.681542702382,36.1988453840793],[-86.6814936755272,36.1987988271269],[-86.6814420982073,36.1987541167978],[-86.6813880779625,36.1987113453111],[-86.681331722286,36.1986705994789],[-86.6812731486538,36.1986319633528],[-86.681212477838,36.1985955164601]]]},"properties":{"id":"225990","parcel":"07311010700","address":"2401 VALE LN","owner":"PITT, ABRA CLAIR & THOMAS P.","point":[-86.68154117552145,36.1984640481433]}},{"type":"Feature","id":"225991","geometry":{"type":"Polygon","coordinates":[[[-86.6819591807844,36.1999814029236],[-86.6820711945212,36.199448945692],[-86.6823175022585,36.1993992063332],[-86.6823824788037,36.1993878510563],[-86.6822035920939,36.2000261727981],[-86.6820817003047,36.2000026618354],[-86.6819591807844,36.1999814029236]]]},"properties":{"id":"225991","parcel":"07311006900","address":"2319 A DUNDEE LN","owner":"NICKS, DAVID W.","point":[-86.6821528656388,36.19971554001376]}},{"type":"Feature","id":"225992","geometry":{"type":"Polygon","coordinates":[[[-86.681497068099,36.1982676691316],[-86.6813472327771,36.198185007206],[-86.6817026419456,36.1978951107784],[-86.6817871223819,36.1979682906037],[-86.6818691279298,36.1980432976692],[-86.6819485980658,36.198120076444],[-86.6816250818712,36.1983350732537],[-86.681497068099,36.1982676691316]]]},"properties":{"id":"225992","parcel":"07311010900","address":"2404 CABIN HILL RD","owner":"AWT PROPERTIES, LLC","point":[-86.6816920894101,36.19808111078769]}},{"type":"Feature","id":"226205","geometry":{"type":"Polygon","coordinates":[[[-86.6802232307596,36.1976946795522],[-86.6804687053954,36.197231795559],[-86.6805864301205,36.1972721129879],[-86.6807025238952,36.1973154262542],[-86.6808168707077,36.1973616909539],[-86.6805115631713,36.1978029366929],[-86.6802232307596,36.1976946795522]]]},"properties":{"id":"226205","parcel":"07316002400","address":"2414 CABIN HILL RD","owner":"KINCAID, MARIE J.","point":[-86.6805065777449,36.19752814966332]}},{"type":"Feature","id":"226227","geometry":{"type":"Polygon","coordinates":[[[-86.6804631589022,36.1997459068262],[-86.6805812827958,36.1992925340438],[-86.6805292553193,36.1991543748441],[-86.68116766844,36.1993765806357],[-86.6811263694125,36.199451985399],[-86.6810887137567,36.1995286322522],[-86.681054758318,36.1996064064186],[-86.6810245554717,36.199685190443],[-86.6809981498106,36.1997648669137],[-86.6809936342774,36.1997756362279],[-86.6809868957906,36.1997856132592],[-86.6809781375079,36.1997945003489],[-86.680967620678,36.1998020310545],[-86.6809556602852,36.1998079809897],[-86.6809426139541,36.1998121705901],[-86.6809288709226,36.1998144759912],[-86.6809148442356,36.1998148263682],[-86.6809009530392,36.1998132139499],[-86.6804631589022,36.1997459068262]]]},"properties":{"id":"226227","parcel":"07312005600","address":"2901 DONNA HILL DR","owner":"PRINCE, BONNIE J.","point":[-86.68081884826677,36.19948953932733]}},{"type":"Feature","id":"226394","geometry":{"type":"Polygon","coordinates":[[[-86.6806339652314,36.1978483964061],[-86.6805115631713,36.1978029366929],[-86.6808168707077,36.1973616909539],[-86.6809225413214,36.1974093906037],[-86.6810260507889,36.1974601071328],[-86.6811272706714,36.1975137736773],[-86.6808891394035,36.1978052026112],[-86.680803285394,36.1979111731319],[-86.6806339652314,36.1978483964061]]]},"properties":{"id":"226394","parcel":"07316002500","address":"2412 CABIN HILL RD","owner":"SCHLEIFER, ADAM HENRY & SHARON LEE","point":[-86.68081035183532,36.19765833141073]}},{"type":"Feature","id":"226395","geometry":{"type":"Polygon","coordinates":[[[-86.680803285394,36.1979111731319],[-86.6808891394035,36.1978052026112],[-86.6811272706714,36.1975137736773],[-86.6812035382195,36.1975545487743],[-86.6812805257488,36.1975992636502],[-86.6813557398219,36.1976459198726],[-86.6814291044459,36.1976944728112],[-86.6812067180932,36.197924830127],[-86.6810891302953,36.1980452638572],[-86.6809093598349,36.1979501319513],[-86.680803285394,36.1979111731319]]]},"properties":{"id":"226395","parcel":"07316002600","address":"2410 CABIN HILL RD","owner":"OLLENBURG, SANDRA J.","point":[-86.68115498355598,36.19774982699265]}},{"type":"Feature","id":"226424","geometry":{"type":"Polygon","coordinates":[[[-86.6812233715267,36.1998639871545],[-86.6812101795107,36.199860534973],[-86.6811978492657,36.1998553988924],[-86.6811867066477,36.1998487140654],[-86.6811770445108,36.1998406572884],[-86.681169117086,36.1998314398233],[-86.6811631332863,36.1998213047321],[-86.6811592510776,36.199810518796],[-86.6811575718572,36.1997993653384],[-86.6811581392956,36.1997881388229],[-86.6811609403635,36.1997771349343],[-86.6811784166364,36.1997198427743],[-86.6811985008378,36.1996631145031],[-86.6812211647263,36.1996070286877],[-86.6812528006007,36.199539241738],[-86.6812878630778,36.1994725719258],[-86.6813262919631,36.1994071322446],[-86.6813680226074,36.1993430348116],[-86.6817138688836,36.1995168930447],[-86.6816279270142,36.1999283328885],[-86.6812233715267,36.1998639871545]]]},"properties":{"id":"226424","parcel":"07311007100","address":"2323 DUNDEE LN","owner":"HAMMOND, GREGORY S. & SUSAN","point":[-86.6814493751009,36.199635709353714]}},{"type":"Feature","id":"226428","geometry":{"type":"Polygon","coordinates":[[[-86.6813680226074,36.1993430348116],[-86.6814126370007,36.1992793843333],[-86.6814609495692,36.1992175307949],[-86.6815128481165,36.1991576172235],[-86.6815442117151,36.1991280755384],[-86.6815746972577,36.1990979349609],[-86.6820603456297,36.1994490069743],[-86.6817138688836,36.1995168930447],[-86.6813680226074,36.1993430348116]]]},"properties":{"id":"226428","parcel":"07311007200","address":"2904 DONNA HILL DR","owner":"GRASMICK, KATHLEEN","point":[-86.68163091289586,36.19931184973715]}},{"type":"Feature","id":"226430","geometry":{"type":"Polygon","coordinates":[[[-86.6826737959248,36.1995268522757],[-86.682540394387,36.1994638760444],[-86.6829955177052,36.1991030900717],[-86.6830531792202,36.1991544643436],[-86.683113287645,36.1992039627535],[-86.6831757478005,36.1992515083284],[-86.6828017559817,36.1995876627743],[-86.6826737959248,36.1995268522757]]]},"properties":{"id":"226430","parcel":"07311007800","address":"2326 CABIN HILL RD","owner":"LAPPIN, JONATHAN T. & CANDIDA","point":[-86.68286599046434,36.199357713593]}},{"type":"Feature","id":"226437","geometry":{"type":"Polygon","coordinates":[[[-86.6844532714362,36.1999321268121],[-86.6850135823774,36.1993789167057],[-86.6852249513991,36.1994479863845],[-86.6853046060003,36.199474014979],[-86.6846889531973,36.200087851271],[-86.6844532714362,36.1999321268121]]]},"properties":{"id":"226437","parcel":"07311008600","address":"2309 CABIN HILL RD","owner":"DOZIER, LUCIAN C. & ANITA R. & RICHARD K. ET AL","point":[-86.68488007015559,36.1997030746385]}},{"type":"Feature","id":"226440","geometry":{"type":"Polygon","coordinates":[[[-86.6833405301851,36.1991802519285],[-86.6839110004718,36.1986759644027],[-86.6840038277308,36.1987501579791],[-86.6841348584684,36.1988527038926],[-86.6836160166044,36.1993698837109],[-86.6834251103128,36.1992413072641],[-86.6833405301851,36.1991802519285]]]},"properties":{"id":"226440","parcel":"07311009000","address":"2317 CABIN HILL RD","owner":"COLLINS, CHRISTINA","point":[-86.68374818653209,36.19901650629636]}},{"type":"Feature","id":"226444","geometry":{"type":"Polygon","coordinates":[[[-86.6835600801355,36.1979131785843],[-86.6836641830696,36.1978739199651],[-86.6837668834499,36.197832305207],[-86.6838681003817,36.1977883672168],[-86.6839167126631,36.1977661156873],[-86.6839299055901,36.1977615752432],[-86.6839438094126,36.1977587539696],[-86.6839580855894,36.197757721378],[-86.6839723862801,36.1977585001675],[-86.6839863633026,36.1977610733841],[-86.6839996769737,36.197765378062],[-86.6840120016986,36.1977713087964],[-86.6840230371222,36.197778721286],[-86.6840325159419,36.1977874358932],[-86.6840736408862,36.1978373189702],[-86.6841173595917,36.1978857318109],[-86.684163592347,36.19793258564],[-86.6842122539043,36.1979777944174],[-86.6842632557024,36.1980212748254],[-86.6838458369429,36.1983510851946],[-86.6835600801355,36.1979131785843]]]},"properties":{"id":"226444","parcel":"07311009500","address":"2928 DONNA HILL DR","owner":"SWEETMAN, CAROLYN J. TRUST","point":[-86.68389611406606,36.198185761893804]}},{"type":"Feature","id":"226448","geometry":{"type":"Polygon","coordinates":[[[-86.6846729010741,36.1992496272447],[-86.6846044202231,36.1992236385264],[-86.684396941029,36.1990599924285],[-86.6843723685758,36.1990403536791],[-86.6848601468161,36.1983804978882],[-86.6849360157275,36.1984086535294],[-86.6850132142729,36.1984343267351],[-86.6850916175483,36.1984574758524],[-86.6851492563083,36.1984777902357],[-86.6848132889655,36.1993029045694],[-86.6846729010741,36.1992496272447]]]},"properties":{"id":"226448","parcel":"07311009800","address":"2312 DONNA HILL CT","owner":"FREDERICK, LINDSAY RAE","point":[-86.68480754065139,36.198759195656876]}},{"type":"Feature","id":"226521","geometry":{"type":"Polygon","coordinates":[[[-86.6851835115799,36.1983407601902],[-86.6855438035147,36.1974843834264],[-86.6857568517129,36.1974298815264],[-86.6856602198838,36.1977782037662],[-86.6854801429796,36.198419187265],[-86.6854704254156,36.1984174858869],[-86.685459232785,36.1984149402951],[-86.6854542592452,36.198413805911],[-86.685448049913,36.1984123658068],[-86.6854381180501,36.1984100563946],[-86.6854368790311,36.1984097633104],[-86.6854257211422,36.1984071201828],[-86.6854220018383,36.1984062382388],[-86.6854145741083,36.1984044463499],[-86.6854059095057,36.1984023523513],[-86.6854034379448,36.1984017436142],[-86.6853923159252,36.1983990047469],[-86.6853898432527,36.1983983960158],[-86.6853812069456,36.1983962306557],[-86.6853738031027,36.1983943719358],[-86.6853701077244,36.1983934276679],[-86.6853590226784,36.1983905921535],[-86.68535779016,36.198390279204],[-86.685347950641,36.1983877178103],[-86.6853418021929,36.1983861169316],[-86.6853368917058,36.1983848154528],[-86.6853258425527,36.1983818869024],[-86.6853148141215,36.1983789113681],[-86.6853099123514,36.1983775891098],[-86.6853037943604,36.1983759096473],[-86.6852940082455,36.1983732226717],[-86.6852927877016,36.1983728799122],[-86.6852817973871,36.1983698113294],[-86.6852781335708,36.1983687875691],[-86.6852708201438,36.1983667111275],[-86.685262287231,36.1983642856108],[-86.6852598537711,36.1983635820228],[-86.6852489048938,36.1983604185701],[-86.6852464714342,36.1983597149817],[-86.6852379701683,36.1983572198871],[-86.6852306850843,36.1983550774907],[-86.6852270496491,36.1983539922825],[-86.6852161422089,36.19835073396],[-86.6852149292854,36.1983503722301],[-86.685205251121,36.198347437691],[-86.6851992051571,36.1983456000949],[-86.6851943753514,36.198344112494],[-86.6851835115799,36.1983407601902]]]},"properties":{"id":"226521","parcel":"07311010200","address":"2307 DONNA HILL CT","owner":"JARRETT, MILDRED BROOKS","point":[-86.68544153210348,36.19805953390894]}},{"type":"Feature","id":"226524","geometry":{"type":"Polygon","coordinates":[[[-86.6846518157825,36.1981179650778],[-86.6851373026379,36.1975861333601],[-86.685164348318,36.1975782858807],[-86.6853726800191,36.1975271100188],[-86.6852088035279,36.1977807663406],[-86.6849077725144,36.1982439751943],[-86.6848410598381,36.1982162416629],[-86.6847760630918,36.1981859496154],[-86.6847129340725,36.1981531648867],[-86.6846518157825,36.1981179650778]]]},"properties":{"id":"226524","parcel":"07311010400","address":"2311 DONNA HILL CT","owner":"ENGLISH, JON G","point":[-86.68495248405644,36.19794942440387]}},{"type":"Feature","id":"226527","geometry":{"type":"Polygon","coordinates":[[[-86.6811402158845,36.1980740943116],[-86.6810891302953,36.1980452638572],[-86.6812067180932,36.197924830127],[-86.6814291044459,36.1976944728112],[-86.6815057788943,36.1977469788519],[-86.6815805020371,36.1978013019723],[-86.6816299650584,36.1978383824508],[-86.6817026419456,36.1978951107784],[-86.6813472327771,36.198185007206],[-86.6811402158845,36.1980740943116]]]},"properties":{"id":"226527","parcel":"07311011000","address":"2406 CABIN HILL RD","owner":"GOSSETT, CHARLES DAVIS, JR.","point":[-86.6813694300845,36.19798563686502]}},{"type":"Feature","id":"226535","geometry":{"type":"Polygon","coordinates":[[[-86.6798766900985,36.1996525157829],[-86.6800179945046,36.1990561642816],[-86.6802732825801,36.1991047224472],[-86.6803058745379,36.199111131496],[-86.6801644934863,36.1996986929385],[-86.6798766900985,36.1996525157829]]]},"properties":{"id":"226535","parcel":"07312005800","address":"2407 DUNDEE LN","owner":"KREMER, PETER W. & AMY R.","point":[-86.68009078471768,36.19938182250971]}},{"type":"Feature","id":"226537","geometry":{"type":"Polygon","coordinates":[[[-86.6859699522725,36.1981654242185],[-86.6860755387564,36.1981472435464],[-86.6862248276333,36.1981661732234],[-86.686518752756,36.1982711722049],[-86.686430700228,36.1985086622056],[-86.6859159484911,36.1984421565961],[-86.685969630292,36.1981654801231],[-86.6859699522725,36.1981654242185]]]},"properties":{"id":"226537","parcel":"07311011900","address":"2304 TALLY GREEN CT","owner":"HORTON, LAKEISHA GEVON","point":[-86.68620973718791,36.19835664482228]}},{"type":"Feature","id":"226541","geometry":{"type":"Polygon","coordinates":[[[-86.6860088343144,36.1979586267465],[-86.6860295546239,36.1978464298943],[-86.6866578940004,36.1979176795093],[-86.6866086138877,36.1980288005553],[-86.6860088343144,36.1979586267465]]]},"properties":{"id":"226541","parcel":"07311012000","address":"2308 TALLY GREEN CT","owner":"HOME ADVANTAGE PROPERTIES, LLC","point":[-86.68633060932086,36.197938146348875]}},{"type":"Feature","id":"226660","geometry":{"type":"Polygon","coordinates":[[[-86.6836281357095,36.197000779494],[-86.6844419791406,36.197130773103],[-86.684403074667,36.1971838396025],[-86.6843614518504,36.1972355326621],[-86.6843171855257,36.1972857626309],[-86.684270353864,36.1973344398385],[-86.6842210395314,36.1973814799971],[-86.6841693307462,36.1974267978859],[-86.6836281357095,36.197000779494]]]},"properties":{"id":"226660","parcel":"07315000400","address":"2935 DONNA HILL DR","owner":"DEVITO, ANTHONY JOHN & KRISTEN LEE","point":[-86.6841370698646,36.19720903935068]}},{"type":"Feature","id":"226667","geometry":{"type":"Polygon","coordinates":[[[-86.6826747953365,36.1971226470345],[-86.6827240200003,36.1968564562231],[-86.6828400940275,36.1968755787789],[-86.6834074378771,36.1978195451919],[-86.6832814382006,36.1978680563104],[-86.6831561260824,36.197917662035],[-86.6826747953365,36.1971226470345]]]},"properties":{"id":"226667","parcel":"07315000800","address":"2927 DONNA HILL DR","owner":"THEIN, MATTHEW C & AUDREY E","point":[-86.68304188481447,36.197471098714374]}},{"type":"Feature","id":"226673","geometry":{"type":"Polygon","coordinates":[[[-86.6825556068028,36.1977655764829],[-86.6826307092982,36.197355842663],[-86.6826747953365,36.1971226470345],[-86.6831561260824,36.197917662035],[-86.6830369957627,36.1979695407711],[-86.6829199371852,36.198024430478],[-86.6828050654962,36.1980822746322],[-86.6825556068028,36.1977655764829]]]},"properties":{"id":"226673","parcel":"07315000900","address":"2923 DONNA HILL DR","owner":"GREER, SUZANNE","point":[-86.68276686422863,36.197561170087745]}},{"type":"Feature","id":"227122","geometry":{"type":"Polygon","coordinates":[[[-86.6807177542639,36.1968699818641],[-86.6813640764721,36.1969894035528],[-86.681104070578,36.1973380941371],[-86.6810222397619,36.1972971277446],[-86.6809387791003,36.1972583821669],[-86.6808537790296,36.197221901052],[-86.6807673332827,36.1971877235235],[-86.6806795378077,36.1971558877913],[-86.6806670616787,36.1971498953846],[-86.6806560115892,36.1971422816922],[-86.6806467052148,36.1971332666323],[-86.6806394082891,36.1971231073673],[-86.6806343301493,36.1971120974278],[-86.6806316180296,36.1971005496207],[-86.6806313481737,36.1970887969805],[-86.6806335290244,36.1970771756275],[-86.6806380967292,36.1970660193859],[-86.6806637394142,36.1970186490961],[-86.6806856188065,36.196970054482],[-86.6807036476406,36.1969204316094],[-86.6807177542639,36.1968699818641]]]},"properties":{"id":"227122","parcel":"07316003700","address":"2415 CABIN HILL RD","owner":"RICHARDSON, DONALD CARSON, JR","point":[-86.680954295304,36.19710718042526]}},{"type":"Feature","id":"227505","geometry":{"type":"Polygon","coordinates":[[[-86.683394539279,36.1997842930106],[-86.6836012633837,36.1995457793825],[-86.6838958067337,36.1997440952618],[-86.6839060999182,36.1997530891581],[-86.6839144522657,36.1997633197519],[-86.6839206390389,36.1997745152366],[-86.6839244975419,36.1997863773177],[-86.683925924974,36.1997985902375],[-86.6839248818281,36.1998108279659],[-86.6839213975513,36.1998227658846],[-86.6839155628001,36.1998340853372],[-86.6838831680548,36.199874092529],[-86.6838478880631,36.1999124631521],[-86.6838098495202,36.1999490603971],[-86.6837691869753,36.1999837555215],[-86.6837260439206,36.2000164251398],[-86.6836805761269,36.2000469512041],[-86.6836329439065,36.2000752264564],[-86.683394539279,36.1997842930106]]]},"properties":{"id":"227505","parcel":"07311006400","address":"2301 DUNDEE LN","owner":"SOMMERS, STEVEN S. & SUSAN M.","point":[-86.68367161232683,36.19981613244324]}},{"type":"Feature","id":"227507","geometry":{"type":"Polygon","coordinates":[[[-86.6827796558227,36.2001701573211],[-86.6829787461797,36.1996745665124],[-86.6830658670827,36.1997158288008],[-86.6832098311465,36.1997457804211],[-86.6831894038062,36.200207396608],[-86.6831302212522,36.2002102369325],[-86.6830709362014,36.2002103434035],[-86.6830117387904,36.2002077140441],[-86.6829528214882,36.2002023594821],[-86.682894376818,36.2001942966544],[-86.6828365918129,36.2001835506401],[-86.6827796558227,36.2001701573211]]]},"properties":{"id":"227507","parcel":"07311006600","address":"2311 DUNDEE LN","owner":"JENKINS, LOUISE AVALEE","point":[-86.68303272624662,36.19995806966071]}},{"type":"Feature","id":"227510","geometry":{"type":"Polygon","coordinates":[[[-86.6824590027974,36.2000884607711],[-86.6826737959248,36.1995268522757],[-86.6828017559817,36.1995876627743],[-86.6829787461797,36.1996745665124],[-86.6827796558227,36.2001701573211],[-86.6826189948195,36.2001298603575],[-86.6824590027974,36.2000884607711]]]},"properties":{"id":"227510","parcel":"07311006700","address":"2313 DUNDEE LN","owner":"KECK, JUSTIN W.","point":[-86.68271687911985,36.199881508639685]}},{"type":"Feature","id":"227513","geometry":{"type":"Polygon","coordinates":[[[-86.6820603456297,36.1994490069743],[-86.6820711945212,36.199448945692],[-86.6819591807844,36.1999814029236],[-86.6816279270142,36.1999283328885],[-86.6817138688836,36.1995168930447],[-86.6820603456297,36.1994490069743]]]},"properties":{"id":"227513","parcel":"07311007000","address":"2321 DUNDEE LN","owner":"KINSLEY, KELSIE","point":[-86.68184216474205,36.19972306834851]}},{"type":"Feature","id":"227569","geometry":{"type":"Polygon","coordinates":[[[-86.6823333056409,36.1990299146861],[-86.6826674412914,36.1987884870904],[-86.6828451517595,36.1989588971748],[-86.6823708203727,36.1992934195517],[-86.6823333056409,36.1990299146861]]]},"properties":{"id":"227569","parcel":"07311007600","address":"2330 CABIN HILL RD","owner":"CULWELL, DONALD H. & LYNSEY K.","point":[-86.6824544651327,36.19916193883727]}},{"type":"Feature","id":"227572","geometry":{"type":"Polygon","coordinates":[[[-86.6830865456996,36.1989685198911],[-86.6836658503676,36.198545495585],[-86.6838427645162,36.1986236076699],[-86.6839110004718,36.1986759644027],[-86.6833405301851,36.1991802519285],[-86.6832739971007,36.1991297625567],[-86.6832094479553,36.1990776090223],[-86.6831469432494,36.19902384416],[-86.6830865456996,36.1989685198911]]]},"properties":{"id":"227572","parcel":"07311009100","address":"2319 CABIN HILL RD","owner":"KRUSE, BRIAN E. & DANDIDA K.","point":[-86.68351620928453,36.19882228896481]}},{"type":"Feature","id":"227575","geometry":{"type":"Polygon","coordinates":[[[-86.6831332007734,36.1980892067321],[-86.6833419810518,36.1984044828014],[-86.682846025365,36.1987457230808],[-86.6825644962029,36.1984835997585],[-86.6825560624036,36.198473429914],[-86.6825499248168,36.1984622304739],[-86.6825462720439,36.1984503392442],[-86.682545211696,36.1984381152172],[-86.6825467758529,36.1984259268247],[-86.6825509187539,36.1984141420371],[-86.6825575144582,36.1984031148575],[-86.6825663645737,36.1983931789701],[-86.6825772014845,36.1983846351036],[-86.6826834716132,36.1983196685263],[-86.6827923271248,36.1982575766551],[-86.682903647403,36.1981984268579],[-86.6830173140258,36.1981422828859],[-86.6831332007734,36.1980892067321]]]},"properties":{"id":"227575","parcel":"07311009300","address":"2920 DONNA HILL DR","owner":"PEREZ, RUTH N. & MYERS, JONATHAN","point":[-86.68293263537379,36.19842105169027]}},{"type":"Feature","id":"227578","geometry":{"type":"Polygon","coordinates":[[[-86.6839110004718,36.1986759644027],[-86.6838427645162,36.1986236076699],[-86.6838458369429,36.1983510851946],[-86.6842632557024,36.1980212748254],[-86.6843122019084,36.1980631184671],[-86.6843632286905,36.1981032955932],[-86.6844162498422,36.1981417381943],[-86.6844711769713,36.1981783827799],[-86.6845279150061,36.1982131649961],[-86.6840038277308,36.1987501579791],[-86.6839110004718,36.1986759644027]]]},"properties":{"id":"227578","parcel":"07311009600","address":"2316 DONNA HILL CT","owner":"SCHAUF, MICHAEL M.","point":[-86.68405177798171,36.198487894275615]}},{"type":"Feature","id":"227583","geometry":{"type":"Polygon","coordinates":[[[-86.6841348584684,36.1988527038926],[-86.6840038277308,36.1987501579791],[-86.6845279150061,36.1982131649961],[-86.6845911138407,36.1982506927274],[-86.6846560324987,36.1982862396301],[-86.6847225760232,36.1983197548686],[-86.6847906461368,36.1983511894286],[-86.6848601468161,36.1983804978882],[-86.6843723685758,36.1990403536791],[-86.6841348584684,36.1988527038926]]]},"properties":{"id":"227583","parcel":"07311009700","address":"2314 DONNA HILL CT","owner":"LAUTHERN, JARROD M","point":[-86.68445390131433,36.19856538647789]}},{"type":"Feature","id":"227644","geometry":{"type":"Polygon","coordinates":[[[-86.6860425025522,36.1977760323261],[-86.686052867981,36.197720484081],[-86.6867092418671,36.1978018980072],[-86.6866578940004,36.1979176795093],[-86.6860295546239,36.1978464298943],[-86.6860425025522,36.1977760323261]]]},"properties":{"id":"227644","parcel":"07311011800","address":"2310 TALLY GREEN CT","owner":"DUNCAN, SCOTT","point":[-86.6863663978916,36.19782415657179]}},{"type":"Feature","id":"227689","geometry":{"type":"Polygon","coordinates":[[[-86.6815746972577,36.1990979349609],[-86.6816480909659,36.1990350556352],[-86.6817244325271,36.1989745254118],[-86.681803607078,36.1989164350595],[-86.6823175022585,36.1993992063332],[-86.6820711945212,36.199448945692],[-86.6820603456297,36.1994490069743],[-86.6815746972577,36.1990979349609]]]},"properties":{"id":"227689","parcel":"07311007300","address":"2908 DONNA HILL DR","owner":"MCCLURE, CHERYL A.","point":[-86.68197011388118,36.199248635032376]}},{"type":"Feature","id":"227691","geometry":{"type":"Polygon","coordinates":[[[-86.681803607078,36.1989164350595],[-86.6820299740014,36.1987547297995],[-86.6823333056409,36.1990299146861],[-86.6823708203727,36.1992934195517],[-86.6823824788037,36.1993878510563],[-86.6823175022585,36.1993992063332],[-86.681803607078,36.1989164350595]]]},"properties":{"id":"227691","parcel":"07311007400","address":"2912 DONNA HILL DR","owner":"PEREZ, RODRIGO A. & YVONNE","point":[-86.68220794818059,36.199161284576626]}},{"type":"Feature","id":"227693","geometry":{"type":"Polygon","coordinates":[[[-86.6820299740014,36.1987547297995],[-86.6823075706391,36.1985597712511],[-86.6823180847439,36.1985531209654],[-86.682329776649,36.198547921351],[-86.6823423450512,36.1985443056937],[-86.682355464964,36.1985423686588],[-86.6823687987828,36.1985421599205],[-86.6823820018518,36.1985436850317],[-86.6823947324555,36.1985469035645],[-86.6824066640881,36.1985517335479],[-86.6824174865498,36.1985580496582],[-86.6824269215678,36.1985656894404],[-86.6826674412914,36.1987884870904],[-86.6823333056409,36.1990299146861],[-86.6820299740014,36.1987547297995]]]},"properties":{"id":"227693","parcel":"07311007500","address":"2916 DONNA HILL DR","owner":"WILSON, ROBERT JR.","point":[-86.68234889096773,36.1987716093557]}},{"type":"Feature","id":"227695","geometry":{"type":"Polygon","coordinates":[[[-86.6823708203727,36.1992934195517],[-86.6828451517595,36.1989588971748],[-86.6829059689027,36.1990159658211],[-86.6829955177052,36.1991030900717],[-86.682540394387,36.1994638760444],[-86.6823824788037,36.1993878510563],[-86.6823708203727,36.1992934195517]]]},"properties":{"id":"227695","parcel":"07311007700","address":"2328 CABIN HILL RD","owner":"TUCKER, WAYNE R. ET UX","point":[-86.68269062573815,36.19919827498896]}},{"type":"Feature","id":"227697","geometry":{"type":"Polygon","coordinates":[[[-86.6829787461797,36.1996745665124],[-86.6828017559817,36.1995876627743],[-86.6831757478005,36.1992515083284],[-86.6832385073527,36.1992989485324],[-86.6833030931423,36.1993447480003],[-86.683369441409,36.1993888629285],[-86.6830658670827,36.1997158288008],[-86.6829787461797,36.1996745665124]]]},"properties":{"id":"227697","parcel":"07311007900","address":"2324 CABIN HILL RD","owner":"ROSS, DOUGLAS H.","point":[-86.68309476825881,36.19948828746776]}},{"type":"Feature","id":"227703","geometry":{"type":"Polygon","coordinates":[[[-86.6846889531973,36.200087851271],[-86.6853046060003,36.199474014979],[-86.6856707912431,36.1995936712361],[-86.6856871377121,36.1995990129734],[-86.6849947908999,36.2002892250702],[-86.6846889531973,36.200087851271]]]},"properties":{"id":"227703","parcel":"07311008500","address":"2307 CABIN HILL RD","owner":"MOULON, KIEL","point":[-86.68518803004936,36.19984343313083]}},{"type":"Feature","id":"227705","geometry":{"type":"Polygon","coordinates":[[[-86.6836160166044,36.1993698837109],[-86.6841348584684,36.1988527038926],[-86.6843723685758,36.1990403536791],[-86.684396941029,36.1990599924285],[-86.6838941962494,36.1995573041532],[-86.6836160166044,36.1993698837109]]]},"properties":{"id":"227705","parcel":"07311008900","address":"2315 CABIN HILL RD","owner":"DEAN, NORMA J. & JAMES P.","point":[-86.6840058811434,36.199214937132524]}},{"type":"Feature","id":"227707","geometry":{"type":"Polygon","coordinates":[[[-86.682846025365,36.1987457230808],[-86.6833419810518,36.1984044828014],[-86.6836658503676,36.198545495585],[-86.6830865456996,36.1989685198911],[-86.682846025365,36.1987457230808]]]},"properties":{"id":"227707","parcel":"07311009200","address":"2321 CABIN HILL RD","owner":"STAFFORD, DAVID MICHAEL","point":[-86.6832601546611,36.1986456211956]}},{"type":"Feature","id":"227709","geometry":{"type":"Polygon","coordinates":[[[-86.6853046060003,36.199474014979],[-86.6852249513991,36.1994479863845],[-86.6854812333144,36.1985598984429],[-86.6856101979967,36.1985824906978],[-86.6856214831887,36.1985853214477],[-86.6856319900241,36.1985896968602],[-86.6856414004521,36.1985954844546],[-86.685649429405,36.1986025083027],[-86.6856558304114,36.1986105553059],[-86.6856692706,36.1986279254686],[-86.6856857529615,36.1986434794502],[-86.6857049075714,36.1986568723672],[-86.6857263081865,36.1986678047188],[-86.6857494790105,36.1986760331635],[-86.6857696242174,36.1986806602511],[-86.6857903177891,36.1986832491883],[-86.6856707912431,36.1995936712361],[-86.6853046060003,36.199474014979]]]},"properties":{"id":"227709","parcel":"07311010000","address":"2308 DONNA HILL CT","owner":"WARREN, DAVID ERNEST & KIMBERLY JO","point":[-86.68553773172128,36.199065697211324]}},{"type":"Feature","id":"227757","geometry":{"type":"Polygon","coordinates":[[[-86.6821189719608,36.1980685690299],[-86.6825556068028,36.1977655764829],[-86.6828050654962,36.1980822746322],[-86.6826865585813,36.1981482451109],[-86.6825705265597,36.1982170467403],[-86.6824570745356,36.1982886185494],[-86.682444968482,36.1982949173439],[-86.6824317220724,36.1982994651365],[-86.6824177178327,36.1983021344902],[-86.6824033587138,36.1983028456199],[-86.6823890570895,36.1983015799721],[-86.6823752269104,36.1982983730603],[-86.6823622625935,36.1982933163861],[-86.6823505412462,36.1982865574269],[-86.6823403970067,36.198278289867],[-86.6821189719608,36.1980685690299]]]},"properties":{"id":"227757","parcel":"07311010600","address":"2403 CABIN HILL RD","owner":"NPI","point":[-86.6825064674468,36.197917521825886]}},{"type":"Feature","id":"227759","geometry":{"type":"Polygon","coordinates":[[[-86.6816250818712,36.1983350732537],[-86.6819485980658,36.198120076444],[-86.6822082073984,36.1983559534565],[-86.682216501534,36.1983660520142],[-86.6822226057672,36.1983771290891],[-86.6822263506394,36.1983888747062],[-86.6822276288179,36.1984009623169],[-86.6822264073661,36.1984130532358],[-86.6822227200842,36.1984248111038],[-86.6822166686679,36.1984359072898],[-86.6822084239135,36.1984460316981],[-86.6821982124601,36.1984549027577],[-86.6819394815538,36.1986365700659],[-86.6816250818712,36.1983350732537]]]},"properties":{"id":"227759","parcel":"07311010800","address":"2400 CABIN HILL RD","owner":"EVENSON, JEANNIE K.","point":[-86.68194900651939,36.19838227023423]}},{"type":"Feature","id":"227981","geometry":{"type":"Polygon","coordinates":[[[-86.6822035920939,36.2000261727981],[-86.6823824788037,36.1993878510563],[-86.682540394387,36.1994638760444],[-86.6826737959248,36.1995268522757],[-86.6824590027974,36.2000884607711],[-86.6823317103653,36.2000562032726],[-86.6822035920939,36.2000261727981]]]},"properties":{"id":"227981","parcel":"07311006800","address":"2317 DUNDEE LN","owner":"WONG, SHOW & AH SHEW ET AL","point":[-86.68242592538282,36.199776478897114]}},{"type":"Feature","id":"228158","geometry":{"type":"Polygon","coordinates":[[[-86.6809104212194,36.1984682155787],[-86.6811402158845,36.1980740943116],[-86.6813472327771,36.198185007206],[-86.681497068099,36.1982676691316],[-86.6812070310562,36.1985923567494],[-86.6811794463667,36.1985774037449],[-86.6811145285357,36.1985464594863],[-86.6810479622661,36.1985179083079],[-86.6809798803877,36.198491809842],[-86.6809104212194,36.1984682155787]]]},"properties":{"id":"228158","parcel":"07312008800","address":"2403 VALE LN","owner":"HEAD, LYNN FERRELL","point":[-86.68118813148374,36.19836790113089]}},{"type":"Feature","id":"229473","geometry":{"type":"Polygon","coordinates":[[[-86.6797745406064,36.1969082600612],[-86.6799166696612,36.1964085991692],[-86.6802614612448,36.1964615975904],[-86.6800733379622,36.1969725060542],[-86.6797745406064,36.1969082600612]]]},"properties":{"id":"229473","parcel":"07316004000","address":"2423 CABIN HILL RD","owner":"HALL, DERICK & BAKER, SHANNON","point":[-86.68000863688049,36.196684904046165]}},{"type":"Feature","id":"229517","geometry":{"type":"Polygon","coordinates":[[[-86.6805292553193,36.1991543748441],[-86.6808437152314,36.1985938561459],[-86.6809163460807,36.1986191701794],[-86.6809871124188,36.198647743706],[-86.6810557910992,36.1986794878623],[-86.6811221666566,36.1987143020254],[-86.6811860302266,36.1987520774244],[-86.6812139743617,36.1987697754217],[-86.6812709214751,36.1988099880334],[-86.6813250588654,36.1988526750937],[-86.6813762219611,36.198897706853],[-86.6814242561502,36.1989449480982],[-86.6814318877705,36.1989540401409],[-86.6814376919393,36.1989639788603],[-86.6814415276167,36.1989745262202],[-86.6814433036666,36.1989854285814],[-86.6814429766792,36.1989964221217],[-86.6814405554966,36.1990072418224],[-86.6814360956994,36.1990176269072],[-86.681429708564,36.1990273280019],[-86.6813722784121,36.1990922026146],[-86.6813178828141,36.1991587733596],[-86.6812665988179,36.1992269478784],[-86.6812184989863,36.1992966293313],[-86.6811923851298,36.1993363128655],[-86.68116766844,36.1993765806357],[-86.6805292553193,36.1991543748441]]]},"properties":{"id":"229517","parcel":"07312005500","address":"2400 VALE LN","owner":"MENKEN, ANNA ROSE","point":[-86.68103266055905,36.19898983218348]}},{"type":"Feature","id":"229902","geometry":{"type":"Polygon","coordinates":[[[-86.6807177542639,36.1968699818641],[-86.6807226798056,36.196851548674],[-86.6807338877741,36.1967897152982],[-86.6807417103215,36.1967275405053],[-86.6807461329258,36.196665145146],[-86.6807471466479,36.1966026527428],[-86.6807447492118,36.1965401858794],[-86.6815103931751,36.1966627796417],[-86.6813640764721,36.1969894035528],[-86.6807177542639,36.1968699818641]]]},"properties":{"id":"229902","parcel":"07316003800","address":"2923 CORDELL DR","owner":"SUDARSHAN, NARASIMHA & NARASIMHA, KAJAL","point":[-86.68110219285111,36.19675959928071]}},{"type":"Feature","id":"229904","geometry":{"type":"Polygon","coordinates":[[[-86.6800733379622,36.1969725060542],[-86.6802614612448,36.1964615975904],[-86.6805709882384,36.1965125965459],[-86.6805756597796,36.1967411229807],[-86.6805685641324,36.1967908365238],[-86.6805573333483,36.1968400461393],[-86.6805420199765,36.1968885271174],[-86.6805226932678,36.1969360573575],[-86.6804994425107,36.1969824173498],[-86.6804723737498,36.197027396502],[-86.6804659633915,36.1970355520307],[-86.6804580428875,36.1970427832711],[-86.6804488108136,36.1970489070505],[-86.6804384993648,36.1970537706493],[-86.6804273698926,36.1970572500239],[-86.6804156996474,36.1970592597949],[-86.6804037850598,36.1970597469204],[-86.6803919251477,36.1970587007026],[-86.6803804181261,36.1970561464989],[-86.680369555879,36.1970521493574],[-86.6802217812577,36.1970117765983],[-86.6800733379622,36.1969725060542]]]},"properties":{"id":"229904","parcel":"07316003900","address":"2421 CABIN HILL RD","owner":"WATSON, CHRISTINA E","point":[-86.68036095560305,36.1967654160646]}},{"type":"Feature","id":"229944","geometry":{"type":"Polygon","coordinates":[[[-86.6804295540998,36.1983571997778],[-86.6806339652314,36.1978483964061],[-86.680803285394,36.1979111731319],[-86.6809093598349,36.1979501319513],[-86.6810891302953,36.1980452638572],[-86.6811402158845,36.1980740943116],[-86.6809104212194,36.1984682155787],[-86.6808457400076,36.1984488816004],[-86.6807799658034,36.1984321412507],[-86.6804295540998,36.1983571997778]]]},"properties":{"id":"229944","parcel":"07312008900","address":"2409 VALE LN","owner":"GARDNER, HELEN M. M.","point":[-86.68077200088872,36.19821561321386]}},{"type":"Feature","id":"231684","geometry":{"type":"Polygon","coordinates":[[[-86.6799507769923,36.1990433547682],[-86.6801672795306,36.1984421840806],[-86.6805095379074,36.1985149777113],[-86.6802732825801,36.1991047224472],[-86.6800179945046,36.1990561642816],[-86.6799507769923,36.1990433547682]]]},"properties":{"id":"231684","parcel":"07312008600","address":"2410 VALE LN","owner":"VEZINA, ALAN M. & LOWE, ADRIENNE","point":[-86.68022480758496,36.19877915228121]}},{"type":"Feature","id":"231686","geometry":{"type":"Polygon","coordinates":[[[-86.6803058745379,36.199111131496],[-86.6802732825801,36.1991047224472],[-86.6805095379074,36.1985149777113],[-86.680732294057,36.1985642671116],[-86.6807883579647,36.1985781881367],[-86.6808437152314,36.1985938561459],[-86.6805292553193,36.1991543748441],[-86.6803058745379,36.199111131496]]]},"properties":{"id":"231686","parcel":"07312008700","address":"2406 VALE LN","owner":"MINCHEY, MARTHA S.","point":[-86.68053800391743,36.19884923494479]}},{"type":"Feature","id":"231688","geometry":{"type":"Polygon","coordinates":[[[-86.6799113816641,36.1982430944477],[-86.6801089991716,36.1976535688197],[-86.6802232307596,36.1976946795522],[-86.6805115631713,36.1978029366929],[-86.6806339652314,36.1978483964061],[-86.6804295540998,36.1983571997778],[-86.6799113816641,36.1982430944477]]]},"properties":{"id":"231688","parcel":"07312009100","address":"2411 VALE LN","owner":"LAINE, R. CRAIG","point":[-86.68026608932978,36.19804572838998]}},{"type":"Feature","id":"267333","geometry":{"type":"Polygon","coordinates":[[[-86.684616434173,36.197160001336],[-86.6844419791406,36.197130773103],[-86.6836281357095,36.197000779494],[-86.6833729255683,36.1969604690517],[-86.6832039048992,36.1969328566711],[-86.6828400940275,36.1968755787789],[-86.6827240200003,36.1968564562231],[-86.6826317053631,36.1968410457875],[-86.6820859791096,36.1967545766991],[-86.6815103931751,36.1966627796417],[-86.6807447492118,36.1965401858794],[-86.6805709882384,36.1965125965459],[-86.6802614612448,36.1964615975904],[-86.6799166696612,36.1964085991692],[-86.6795854355127,36.1963555234593],[-86.6792188992509,36.1962960527575],[-86.6788550941775,36.1962387628483],[-86.6784939815508,36.196179258555],[-86.6781247361787,36.1961197970577],[-86.6783360670021,36.1954681158768],[-86.6789154278608,36.1950517063134],[-86.6787322409669,36.1949322627759],[-86.6785467586507,36.194815169715],[-86.6783590278499,36.1947004556969],[-86.678169095509,36.1945881501889],[-86.677977006317,36.1944782790663],[-86.67778280944,36.1943708717844],[-86.6775865517735,36.194265952404],[-86.6773882835784,36.1941635485719],[-86.6771880528677,36.1940636852443],[-86.6770849713046,36.1940178703501],[-86.6769804081223,36.1939743177143],[-86.6768744391879,36.1939330584517],[-86.6767671403605,36.1938941227761],[-86.6766585896989,36.1938575381856],[-86.6765488641499,36.1938233321844],[-86.6734150017948,36.1932211219662],[-86.6736709431295,36.1923516322557],[-86.6740685073223,36.1910000716763],[-86.6741065352114,36.191008649303],[-86.6745921086694,36.1895994562586],[-86.6747309483286,36.1891965147196],[-86.6747914599632,36.1890370255046],[-86.6748550511307,36.1888783265627],[-86.6749217032291,36.1887204549445],[-86.6749914032384,36.188563450373],[-86.6750641325728,36.1884073517009],[-86.6758217782959,36.1868455442036],[-86.6760249720157,36.1864325249926],[-86.676051620081,36.1863783598403],[-86.6802107874062,36.1877065395741],[-86.6808219097743,36.1843648946515],[-86.6778230928827,36.1839818001872],[-86.6773147753489,36.1838198311812],[-86.6775306117927,36.1833812937654],[-86.6775361633059,36.183371731808],[-86.6775434883711,36.1833629899547],[-86.6775524053689,36.1833552810201],[-86.6775626957943,36.1833487945932],[-86.677574108627,36.1833436880001],[-86.6775863647855,36.1833400871804],[-86.6775991637507,36.1833380812428],[-86.6776121924213,36.1833377179086],[-86.6776251306951,36.1833390061845],[-86.6810855962913,36.1838182959536],[-86.6828269413022,36.1840590881953],[-86.6835445839273,36.1841583156361],[-86.6836608655695,36.1841866335272],[-86.6837758133674,36.1842183250598],[-86.6838892802484,36.1842533514155],[-86.6840011179575,36.1842916656717],[-86.6841111826623,36.1843332181776],[-86.6842193316176,36.1843779565727],[-86.6843254231189,36.1844258203799],[-86.6844293199155,36.1844767499984],[-86.6845308891395,36.1845306785928],[-86.6846299967794,36.1845875357295],[-86.6847265176926,36.1846472482211],[-86.6848203233611,36.1847097383933],[-86.6849112941284,36.1847749249166],[-86.6849993103205,36.1848427246595],[-86.6850842599901,36.1849130481377],[-86.6851660322922,36.1849858049597],[-86.6852445196844,36.18506090111],[-86.6853196223737,36.1851382389244],[-86.685391242766,36.1852177180221],[-86.6854592876892,36.1852992352936],[-86.6855236684013,36.1853826858015],[-86.685584302798,36.1854679609657],[-86.6856411109741,36.1855549494893],[-86.6856940196933,36.1856435400377],[-86.6857429601262,36.1857336167445],[-86.6857878689932,36.1858250628103],[-86.6858286885644,36.1859177605028],[-86.6858653644208,36.1860115893664],[-86.6858978510286,36.1861064279939],[-86.6859261050533,36.1862021522609],[-86.6859500909573,36.1862986398013],[-86.6859697765065,36.1863957646246],[-86.6859851361289,36.1864933998007],[-86.685996149834,36.1865914210711],[-86.6860028042625,36.1866896996332],[-86.6860050905252,36.1867881093619],[-86.6860578974297,36.18858382023],[-86.6860643610911,36.1886591114589],[-86.6860746314266,36.1887341241956],[-86.6860886917832,36.1888087314565],[-86.6861065199647,36.1888828080919],[-86.6861280837763,36.1889562299098],[-86.6861533476719,36.1890288709343],[-86.6861822683694,36.1891006106406],[-86.6862147981312,36.189171327628],[-86.6862541529357,36.1892468734994],[-86.6862976274798,36.1893209196794],[-86.6863451360153,36.1893933206479],[-86.6863965827711,36.1894639291383],[-86.6864518664941,36.189532606928],[-86.6864978913234,36.1895848722797],[-86.6865460741797,36.1896358428534],[-86.6865963600887,36.1896854612787],[-86.6866486918443,36.1897336692968],[-86.6867842912154,36.1903652656568],[-86.6868998007491,36.1922770943519],[-86.6869031709941,36.1950241082001],[-86.6869035470163,36.1953320488078],[-86.6869032055217,36.1953317758677],[-86.6865593293377,36.1960891674684],[-86.6862799575825,36.1967035541633],[-86.6859739752607,36.1973764547246],[-86.684616434173,36.197160001336]]]},"properties":{"id":"267333","parcel":"08400001300","address":"3130 MCGAVOCK PIKE","owner":"METRO GOV'T  P  TWO RIVERS","point":[-86.6805145277198,36.19068307282678]}}]}