{"type":"FeatureCollection","features":[{"type":"Feature","id":"110762","geometry":{"type":"Polygon","coordinates":[[[-86.674568519249,36.2804087572427],[-86.6746657018127,36.2803466832107],[-86.674996835174,36.2806656795135],[-86.6748105939971,36.2807875854582],[-86.6744794421744,36.2804663915571],[-86.674568519249,36.2804087572427]]]},"properties":{"id":"110762","parcel":"03416000300","address":"103 WARREN DR","owner":"LAYMAN, CARL E., JR.& DEBORAH K.","point":[-86.67473778798788,36.280566034861344]}},{"type":"Feature","id":"110949","geometry":{"type":"Polygon","coordinates":[[[-86.67481686458,36.2802491461661],[-86.6748492649124,36.2802291895332],[-86.674871145455,36.2802488431113],[-86.6751857706421,36.2805415583161],[-86.674996835174,36.2806656795135],[-86.6746657018127,36.2803466832107],[-86.6747493877536,36.2802934768643],[-86.67481686458,36.2802491461661]]]},"properties":{"id":"110949","parcel":"03416000200","address":"105 WARREN DR","owner":"NICHOLAS, ALAN K.","point":[-86.67492394577435,36.28044411617915]}},{"type":"Feature","id":"110964","geometry":{"type":"Polygon","coordinates":[[[-86.6738951675994,36.2807003947157],[-86.6742429818073,36.2804281548013],[-86.6743741734845,36.2805351030636],[-86.674337186139,36.2806539782716],[-86.6740728526284,36.2808488390652],[-86.6738951675994,36.2807003947157]]]},"properties":{"id":"110964","parcel":"03416000600","address":"703 SWINGING BRIDGE RD","owner":"TRAINA, DANICA","point":[-86.67419360772391,36.28059409922574]}},{"type":"Feature","id":"110965","geometry":{"type":"Polygon","coordinates":[[[-86.6738711649175,36.2806809222269],[-86.673722986306,36.2805607100447],[-86.6737123827148,36.2805506059507],[-86.6737084250837,36.280545434208],[-86.6737004733418,36.2805328946226],[-86.6736952843215,36.2805194393075],[-86.6736930116465,36.2805054630478],[-86.6736937233887,36.2804913791297],[-86.6736973952221,36.280477599552],[-86.6737039226354,36.2804645313526],[-86.6737131107613,36.2804525586408],[-86.6737246909892,36.2804420325915],[-86.6739727951386,36.2802538555408],[-86.6740024633759,36.2802317144619],[-86.6740325043308,36.280253522595],[-86.6742429818073,36.2804281548013],[-86.6738951675994,36.2807003947157],[-86.6738711649175,36.2806809222269]]]},"properties":{"id":"110965","parcel":"03416000700","address":"701 SWINGING BRIDGE RD","owner":"ELDALY, KAZMIRA & DAVIES, EVAN","point":[-86.67394356299694,36.28047172798028]}},{"type":"Feature","id":"111208","geometry":{"type":"Polygon","coordinates":[[[-86.6740024633759,36.2802317144619],[-86.6741966220202,36.2800833946196],[-86.6743853311633,36.2802515545866],[-86.674568519249,36.2804087572427],[-86.6744794421744,36.2804663915571],[-86.6743741734845,36.2805351030636],[-86.6742429818073,36.2804281548013],[-86.6740325043308,36.280253522595],[-86.6740024633759,36.2802317144619]]]},"properties":{"id":"111208","parcel":"03416000800","address":"100 HILLER DR","owner":"JOYNER, DAVID B. ET UX","point":[-86.67430205811438,36.280331144430505]}},{"type":"Feature","id":"115805","geometry":{"type":"Polygon","coordinates":[[[-86.6743741734845,36.2805351030636],[-86.6744794421744,36.2804663915571],[-86.6748105939971,36.2807875854582],[-86.6746189800241,36.2809161145096],[-86.674337186139,36.2806539782716],[-86.6743741734845,36.2805351030636]]]},"properties":{"id":"115805","parcel":"03416000400","address":"101 WARREN DR","owner":"MARLIN COMMUNITY PROPERTY TRUST, THE","point":[-86.67457535338204,36.28072078608109]}},{"type":"Feature","id":"115806","geometry":{"type":"Polygon","coordinates":[[[-86.6740728526284,36.2808488390652],[-86.674337186139,36.2806539782716],[-86.6746189800241,36.2809161145096],[-86.6744354303761,36.2810358076347],[-86.6744211307262,36.2810440976455],[-86.6744053073928,36.2810503143096],[-86.6743884163466,36.2810542793423],[-86.6743709408165,36.2810558782943],[-86.6743533813178,36.281055066015],[-86.6743362445065,36.2810518649124],[-86.6743200209409,36.2810463677806],[-86.6743051761233,36.2810387315413],[-86.6740728526284,36.2808488390652]]]},"properties":{"id":"115806","parcel":"03416000500","address":"705 SWINGING BRIDGE RD","owner":"DENSON, BOBBY DARRELL","point":[-86.67434837332652,36.28088248378976]}},{"type":"Feature","id":"120489","geometry":{"type":"Polygon","coordinates":[[[-86.6733727198913,36.2802659356414],[-86.67336213408,36.2802572589691],[-86.6733019954404,36.2802070519685],[-86.6736605913448,36.2799259603058],[-86.6738956994974,36.280124628702],[-86.6737258164547,36.2802552324112],[-86.673604469048,36.2803482066219],[-86.6735907664199,36.2803564084935],[-86.6735755305629,36.2803625884313],[-86.67355921297,36.2803665654748],[-86.6735422957157,36.2803682206784],[-86.6735252770471,36.2803675044015],[-86.6735086625178,36.2803644408639],[-86.6734929404087,36.2803591174684],[-86.6734785773369,36.2803516920349],[-86.6734659970465,36.2803423857085],[-86.6733727198913,36.2802659356414]]]},"properties":{"id":"120489","parcel":"04304002400","address":"613 SWINGING BRIDGE RD","owner":"RAMSEY, JERRY L.","point":[-86.67359832533657,36.28016583927911]}},{"type":"Feature","id":"120817","geometry":{"type":"Polygon","coordinates":[[[-86.6743665028055,36.2799527902481],[-86.6745390977278,36.279822170483],[-86.6749383227218,36.2801693560397],[-86.6748492649124,36.2802291895332],[-86.67481686458,36.2802491461661],[-86.6747493877536,36.2802934768643],[-86.6747028778575,36.2802497824843],[-86.6743665028055,36.2799527902481]]]},"properties":{"id":"120817","parcel":"04304001000","address":"104 HILLER DR","owner":"RIGGS, ZEDA","point":[-86.67465147769637,36.28006107094182]}},{"type":"Feature","id":"121520","geometry":{"type":"Polygon","coordinates":[[[-86.6741966220202,36.2800833946196],[-86.6743665028055,36.2799527902481],[-86.6747028778575,36.2802497824843],[-86.6747493877536,36.2802934768643],[-86.6746657018127,36.2803466832107],[-86.674568519249,36.2804087572427],[-86.6743853311633,36.2802515545866],[-86.6741966220202,36.2800833946196]]]},"properties":{"id":"121520","parcel":"04304000900","address":"102 HILLER DR","owner":"DAVIS, JAMES D. & ARETTA JUNE","point":[-86.67444931797121,36.28016658764387]}}]}