{"type":"FeatureCollection","features":[{"type":"Feature","id":"30697","geometry":{"type":"Polygon","coordinates":[[[-86.6882883868481,36.2236226620535],[-86.6883835277395,36.2232545637541],[-86.6886439023622,36.2232999489436],[-86.688591680295,36.2236782338255],[-86.6882883868481,36.2236226620535]]]},"properties":{"id":"30697","parcel":"062110A00100CO","address":"201 VALLEY BEND DR","owner":"RENNER, DONALD WILLIAM III & ALLISON LEE","point":[-86.68847587748596,36.2234613309723]}},{"type":"Feature","id":"30698","geometry":{"type":"Polygon","coordinates":[[[-86.6870783416228,36.2230511789425],[-86.687269965674,36.2229498257571],[-86.6873307007805,36.222924871566],[-86.6875449470124,36.2232100328662],[-86.6875071434522,36.2232296672492],[-86.687460714609,36.2232565552915],[-86.6874162336073,36.2232855240272],[-86.6873799027248,36.2233118381517],[-86.6870783416228,36.2230511789425]]]},"properties":{"id":"30698","parcel":"062110A00900CO","address":"220 VALLEY BEND DR","owner":"DRUMWRIGHT, DARRELL A. & LATONYA T.","point":[-86.68732770839797,36.22313064810765]}},{"type":"Feature","id":"30699","geometry":{"type":"Polygon","coordinates":[[[-86.6879040473755,36.2227395994922],[-86.6881996320614,36.2227897572837],[-86.6881236033876,36.2230913245958],[-86.6881017171254,36.2230905967023],[-86.6880527084749,36.2230903585767],[-86.6880037432356,36.2230920470531],[-86.6879549370378,36.2230956569666],[-86.6879040473755,36.2227395994922]]]},"properties":{"id":"30699","parcel":"062110A01200CO","address":"208 VALLEY BEND DR","owner":"OWEN, CASEY & ZACHARY T.","point":[-86.68804717101004,36.2229398520346]}},{"type":"Feature","id":"30700","geometry":{"type":"Polygon","coordinates":[[[-86.6866488734731,36.2236990519301],[-86.6865821891722,36.2236880599575],[-86.6865871995316,36.2236536948236],[-86.6866297360368,36.2233616955498],[-86.6866597743441,36.2231554841124],[-86.6866956981959,36.2229088776873],[-86.686732010171,36.2226595923184],[-86.6867568911579,36.2224888012612],[-86.6878700895272,36.2226777076845],[-86.6878696708075,36.2226802146388],[-86.6887103050517,36.2228206766533],[-86.6887030238105,36.2228817444103],[-86.6887016849767,36.2228815303371],[-86.6887025723468,36.2228750993757],[-86.6884603432458,36.2228339963625],[-86.6881996320614,36.2227897572837],[-86.6879040473755,36.2227395994922],[-86.6877144603992,36.2227976344072],[-86.6875982581831,36.2228245574603],[-86.687573852469,36.2228312475701],[-86.6874827412198,36.2228624041377],[-86.6873307007805,36.222924871566],[-86.687269965674,36.2229498257571],[-86.6870783416228,36.2230511789425],[-86.6868829093077,36.2232336414876],[-86.6867147841105,36.2234366501229],[-86.6866956311794,36.223482732587],[-86.6866189080694,36.2236673271048],[-86.6870817425322,36.2237433029306],[-86.6870756362935,36.2237693981573],[-86.6866488734731,36.2236990519301]]]},"properties":{"id":"30700","parcel":"062110A01500CO","address":"0 VALLEY BEND DR","owner":"GOODWIN, LAURA, ETAL& CAMBRIDGE BLDRS CP","point":[-86.6868447507921,36.223103268101696]}},{"type":"Feature","id":"30701","geometry":{"type":"Polygon","coordinates":[[[-86.6879344240423,36.2239109537698],[-86.6876750416977,36.2238682002548],[-86.6872285351315,36.2237946023169],[-86.6872347947563,36.2237676013565],[-86.6879507274634,36.2238856088394],[-86.687957418281,36.2238393601311],[-86.6879686622664,36.2237616319253],[-86.6879965030432,36.2235691803178],[-86.688065480845,36.2235818194458],[-86.6882883868481,36.2236226620535],[-86.688591680295,36.2236782338255],[-86.6885876900793,36.2237071379757],[-86.6880254755251,36.2236048615335],[-86.6879801061491,36.2239184830654],[-86.6879344240423,36.2239109537698]]]},"properties":{"id":"30701","parcel":"062110A01600CO","address":"221 VALLEY BEND DR","owner":"GOODWIN, LAURA, ETAL& CAMBRIDGE BLDRS CP","point":[-86.68798977981204,36.2237336337214]}},{"type":"Feature","id":"31340","geometry":{"type":"Polygon","coordinates":[[[-86.6872347947563,36.2237676013565],[-86.687247520177,36.2237249404691],[-86.6872635566336,36.2236830177886],[-86.6872828399671,36.2236420031133],[-86.6873052915131,36.2236020609164],[-86.687330822566,36.2235633521233],[-86.6873593287952,36.2235260314391],[-86.6873888322246,36.2234922451757],[-86.687957418281,36.2238393601311],[-86.6879507274634,36.2238856088394],[-86.6872347947563,36.2237676013565]]]},"properties":{"id":"31340","parcel":"062110A00500CO","address":"217 VALLEY BEND DR","owner":"WILEN, JAMES GEORGE JR & SANDRA ANN","point":[-86.68749662979455,36.223704608997636]}},{"type":"Feature","id":"31341","geometry":{"type":"Polygon","coordinates":[[[-86.6866956311794,36.223482732587],[-86.6867147841105,36.2234366501229],[-86.687143093326,36.2235853580596],[-86.687124070587,36.2236238486368],[-86.6871074767551,36.2236630698241],[-86.6870933554643,36.2237029222371],[-86.6870817425322,36.2237433029306],[-86.6866189080694,36.2236673271048],[-86.6866956311794,36.223482732587]]]},"properties":{"id":"31341","parcel":"062110A00600CO","address":"232 VALLEY BEND DR","owner":"HOLT, NELSON W. & MARY E.","point":[-86.68688954538771,36.22360396504292]}},{"type":"Feature","id":"31342","geometry":{"type":"Polygon","coordinates":[[[-86.6873307007805,36.222924871566],[-86.6874827412198,36.2228624041377],[-86.687573852469,36.2228312475701],[-86.6875982581831,36.2228245574603],[-86.6877351876061,36.2231368174863],[-86.6876960581077,36.2231487375832],[-86.6876443057214,36.2231668796511],[-86.6875938825177,36.2231873321406],[-86.6875449470124,36.2232100328662],[-86.6873307007805,36.222924871566]]]},"properties":{"id":"31342","parcel":"062110A01000CO","address":"216 VALLEY BEND DR","owner":"TOLER, HARLEY PARKER & ICIE CAROLE","point":[-86.68754948727855,36.223030887894225]}},{"type":"Feature","id":"31343","geometry":{"type":"Polygon","coordinates":[[[-86.6881236033876,36.2230913245958],[-86.6881996320614,36.2227897572837],[-86.6884603432458,36.2228339963625],[-86.6883849462857,36.2231257086937],[-86.6882782167499,36.2231075962002],[-86.6882270466422,36.2231000234853],[-86.6881754624737,36.2230945953753],[-86.6881236033876,36.2230913245958]]]},"properties":{"id":"31343","parcel":"062110A01300CO","address":"204 VALLEY BEND DR","owner":"CORTEMEGLIA, THOMAS & JANIECE ANNE","point":[-86.68829156391728,36.222962659533174]}},{"type":"Feature","id":"31817","geometry":{"type":"Polygon","coordinates":[[[-86.6867147841105,36.2234366501229],[-86.6868829093077,36.2232336414876],[-86.6872439276576,36.2234388930112],[-86.6872101392057,36.2234805904428],[-86.6871795479058,36.2235238784029],[-86.6871522669247,36.2235685949264],[-86.687143093326,36.2235853580596],[-86.6867147841105,36.2234366501229]]]},"properties":{"id":"31817","parcel":"062110A00700CO","address":"228 VALLEY BEND DR","owner":"ADLER, ERIC J & BERNADETTE, ADLER","point":[-86.68693075318718,36.22333549101321]}},{"type":"Feature","id":"31818","geometry":{"type":"Polygon","coordinates":[[[-86.6868829093077,36.2232336414876],[-86.6870783416228,36.2230511789425],[-86.6873799027248,36.2233118381517],[-86.6873429262019,36.2233414328778],[-86.687307878042,36.2233725289137],[-86.6872748498585,36.2234050446273],[-86.6872439276576,36.2234388930112],[-86.6868829093077,36.2232336414876]]]},"properties":{"id":"31818","parcel":"062110A00800CO","address":"224 VALLEY BEND DR","owner":"YORK, TASIA & BROADHURST, HARRISON","point":[-86.68714306751396,36.223272770567156]}},{"type":"Feature","id":"31819","geometry":{"type":"Polygon","coordinates":[[[-86.6883849462857,36.2231257086937],[-86.6884603432458,36.2228339963625],[-86.6887025723468,36.2228750993757],[-86.6887016849767,36.2228815303371],[-86.6886630234572,36.2231615785068],[-86.6886619382724,36.2231694390739],[-86.6886429217235,36.2231694817062],[-86.6883849462857,36.2231257086937]]]},"properties":{"id":"31819","parcel":"062110A01400CO","address":"200 VALLEY BEND DR","owner":"PARRISH, CHARDE & JAROD","point":[-86.68855068328455,36.22300363879828]}},{"type":"Feature","id":"32007","geometry":{"type":"Polygon","coordinates":[[[-86.6875982581831,36.2228245574603],[-86.6877144603992,36.2227976344072],[-86.6879040473755,36.2227395994922],[-86.6879549370378,36.2230956569666],[-86.687923857135,36.2230989712318],[-86.6878600100555,36.2231083022774],[-86.6877970325018,36.2231209359191],[-86.6877351876061,36.2231368174863],[-86.6875982581831,36.2228245574603]]]},"properties":{"id":"32007","parcel":"062110A01100CO","address":"212 VALLEY BEND DR","owner":"LILLEY, JAMES JOSEPH","point":[-86.68779659235301,36.22296015951585]}},{"type":"Feature","id":"33601","geometry":{"type":"Polygon","coordinates":[[[-86.688065480845,36.2235818194458],[-86.6880622352044,36.2232166160691],[-86.6881239687886,36.2232179010464],[-86.6881854256,36.2232227961677],[-86.688246286191,36.2232312753148],[-86.6883835277395,36.2232545637541],[-86.6882883868481,36.2236226620535],[-86.688065480845,36.2235818194458]]]},"properties":{"id":"33601","parcel":"062110A00200CO","address":"205 VALLEY BEND DR","owner":"WATSON, DEIDRA & COOK, JULIA","point":[-86.68820258998973,36.223418134609474]}},{"type":"Feature","id":"33602","geometry":{"type":"Polygon","coordinates":[[[-86.6879570713655,36.2237365513167],[-86.6877415364608,36.223270181412],[-86.6877928439469,36.2232543445262],[-86.6878453004998,36.2232412102272],[-86.687898688594,36.2232308338272],[-86.6879527905796,36.2232232562198],[-86.6880073809585,36.2232185111334],[-86.6880622352044,36.2232166160691],[-86.688065480845,36.2235818194458],[-86.6879965030432,36.2235691803178],[-86.6879686622664,36.2237616319253],[-86.6879570713655,36.2237365513167]]]},"properties":{"id":"33602","parcel":"062110A00300CO","address":"209 VALLEY BEND DR","owner":"MURTAGH, HILARY & GRAVES, THOMAS IRREVOCABLE TRUST","point":[-86.68793730097174,36.22341985902237]}},{"type":"Feature","id":"33603","geometry":{"type":"Polygon","coordinates":[[[-86.6873888322246,36.2234922451757],[-86.6874222715477,36.2234585284315],[-86.6874582454437,36.2234265700072],[-86.6874583415527,36.2234264937553],[-86.6874997627033,36.2233941915811],[-86.6875437712174,36.2233642206134],[-86.6875901680487,36.2233367153673],[-86.6876387429438,36.223311800508],[-86.6876892744258,36.223289589049],[-86.6877415364608,36.223270181412],[-86.6879570713655,36.2237365513167],[-86.6879686622664,36.2237616319253],[-86.687957418281,36.2238393601311],[-86.6873888322246,36.2234922451757]]]},"properties":{"id":"33603","parcel":"062110A00400CO","address":"213 VALLEY BEND DR","owner":"HANSON, ANDREW & HEATHER","point":[-86.68774472712465,36.22361458590214]}},{"type":"Feature","id":"55259","geometry":{"type":"Polygon","coordinates":[[[-86.6876067573018,36.2258626017962],[-86.6876406663278,36.225655012742],[-86.6882870326241,36.2257254877358],[-86.6882465612459,36.2259715084208],[-86.6876067573018,36.2258626017962]]]},"properties":{"id":"55259","parcel":"06200027000","address":"2701 PENNINGTON BEND RD","owner":"POLANCO, AARON","point":[-86.68794685483255,36.22579404514586]}},{"type":"Feature","id":"131605","geometry":{"type":"Polygon","coordinates":[[[-86.6888947727759,36.222904266326],[-86.6889208378337,36.2227148662855],[-86.6889592195659,36.2224058174065],[-86.6890604317516,36.2216146087699],[-86.6891183527704,36.2212044470977],[-86.6892519876405,36.2205506953904],[-86.6892732444267,36.2204941820234],[-86.6892944793578,36.2204410439543],[-86.6895625107334,36.2199244942123],[-86.6896681144435,36.2197455754572],[-86.6896765252522,36.2197315066933],[-86.6897105552622,36.2196699589162],[-86.6897408648862,36.2196071471929],[-86.6897673820048,36.2195432188418],[-86.689790042308,36.21947832384],[-86.6898087948646,36.219412615693],[-86.6898235954165,36.2193462478677],[-86.6898344086274,36.2192793764837],[-86.6898412080745,36.2192121594117],[-86.6898439806894,36.2191447553469],[-86.6898427167167,36.2190773202615],[-86.6898374208986,36.2190100145507],[-86.6898281057314,36.2189429949603],[-86.6898147915196,36.2188764208945],[-86.6897975118825,36.2188104480762],[-86.6897763059919,36.2187452312951],[-86.6897512241253,36.2186809234746],[-86.6897545776697,36.2186797912793],[-86.6901097997368,36.2185598353722],[-86.6901593037772,36.2186065806091],[-86.6902189026771,36.2186648473912],[-86.690276010979,36.2187247298986],[-86.6903349538694,36.2187913053872],[-86.6903908176182,36.2188596036119],[-86.6904087345972,36.2188827245932],[-86.6904576306533,36.2189492736352],[-86.6905036233285,36.2190171676976],[-86.690546658503,36.219086323277],[-86.6905866820567,36.2191566568695],[-86.6906236442857,36.219228081341],[-86.6906588523622,36.2193035678491],[-86.6906588977523,36.2193036712332],[-86.6906936710613,36.2193878473601],[-86.6907242516228,36.2194730838906],[-86.6907505904228,36.2195592459206],[-86.6907644331237,36.2196116906688],[-86.6907837608768,36.2196984173136],[-86.6907988157863,36.2197856974257],[-86.6908095699524,36.2198733941761],[-86.6908160099101,36.2199613679493],[-86.690818123314,36.2200494800241],[-86.6908159078206,36.2201375907203],[-86.6908093666398,36.2202255594245],[-86.6907183085544,36.2211448388581],[-86.6906364581837,36.2219711609852],[-86.6906294110399,36.2220593118733],[-86.6906257174642,36.2221475967955],[-86.6906253811946,36.2222359328159],[-86.6906284026089,36.2223242343137],[-86.690634779892,36.2224124192856],[-86.6906445056436,36.2225004030561],[-86.6906575713673,36.2225881027582],[-86.69066572421,36.2226337954105],[-86.6906858999753,36.2227298234443],[-86.6907122425649,36.2228435005075],[-86.6898886382618,36.2229695057099],[-86.6888947727759,36.222904266326]]]},"properties":{"id":"131605","parcel":"06200027400","address":"330 PENNINGTON CENTRE BLVD","owner":"PENNINGTON CENTRE BLVD OWNER, LLC","point":[-86.68996961112978,36.22084772911895]}},{"type":"Feature","id":"162288","geometry":{"type":"Polygon","coordinates":[[[-86.6865728273386,36.2242347345481],[-86.6865970907695,36.2240638209411],[-86.6870273163075,36.2241039161941],[-86.6870030549038,36.2242748298792],[-86.6865728273386,36.2242347345481]]]},"properties":{"id":"162288","parcel":"062110B00300CO","address":"244 VALLEY BEND DR","owner":"NIVEK REVOCABLE TRUST, THE","point":[-86.68680007222369,36.22416932558872]}},{"type":"Feature","id":"162289","geometry":{"type":"Polygon","coordinates":[[[-86.6864757736969,36.2249183906398],[-86.6865000375462,36.2247474770858],[-86.6869302667443,36.2247875726765],[-86.6869060049222,36.2249584863088],[-86.6864757736969,36.2249183906398]]]},"properties":{"id":"162289","parcel":"062110B00700CO","address":"260 VALLEY BEND DR","owner":"VALLEY BEND TRUST","point":[-86.68670302062125,36.22485298187578]}},{"type":"Feature","id":"162290","geometry":{"type":"Polygon","coordinates":[[[-86.6871020149107,36.2246835435063],[-86.6871252583602,36.2245198068417],[-86.6875765775954,36.2245618647359],[-86.6875533361855,36.2247256023803],[-86.6871020149107,36.2246835435063]]]},"properties":{"id":"162290","parcel":"062110B01200CO","address":"249 VALLEY BEND DR","owner":"GREENE, SHELLEY COLLETTE","point":[-86.68733929666756,36.224622704358175]}},{"type":"Feature","id":"162783","geometry":{"type":"Polygon","coordinates":[[[-86.6865243001708,36.2245765626236],[-86.6865485638109,36.224405649043],[-86.6869787922912,36.2244457444586],[-86.6869545295661,36.2246166581236],[-86.6865243001708,36.2245765626236]]]},"properties":{"id":"162783","parcel":"062110B00500CO","address":"252 VALLEY BEND DR","owner":"BURROWS, SAMUEL MATTHEW & QUESENBERRY, KACIE ERIN","point":[-86.68675154641721,36.22451115375816]}},{"type":"Feature","id":"162784","geometry":{"type":"Polygon","coordinates":[[[-86.6865000375462,36.2247474770858],[-86.6865243001708,36.2245765626236],[-86.6869545295661,36.2246166581236],[-86.6869302667443,36.2247875726765],[-86.6865000375462,36.2247474770858]]]},"properties":{"id":"162784","parcel":"062110B00600CO","address":"256 VALLEY BEND DR","owner":"ROBINSON, RAVEN","point":[-86.68672728352794,36.2246820678212]}},{"type":"Feature","id":"162785","geometry":{"type":"Polygon","coordinates":[[[-86.6871252583602,36.2245198068417],[-86.6871545421403,36.2243135212285],[-86.6876013757112,36.224387173461],[-86.6875765775954,36.2245618647359],[-86.6871252583602,36.2245198068417]]]},"properties":{"id":"162785","parcel":"062110B01300CO","address":"245 VALLEY BEND DR","owner":"HOLBECK, JOHN","point":[-86.6873633171624,36.224453490389315]}},{"type":"Feature","id":"162786","geometry":{"type":"Polygon","coordinates":[[[-86.6876412686478,36.2248273682142],[-86.687701413293,36.2244036627548],[-86.6884674270838,36.2245299204646],[-86.6884086895531,36.2249062757389],[-86.6876412686478,36.2248273682142]]]},"properties":{"id":"162786","parcel":"062110B01400CO","address":"0 PENNINGTON BEND RD","owner":"BATSON, FRANK COPE III & GINGER NICCOLE","point":[-86.68805329113194,36.2246786423012]}},{"type":"Feature","id":"162787","geometry":{"type":"Polygon","coordinates":[[[-86.6875785278491,36.2252693647713],[-86.6876412686478,36.2248273682142],[-86.6884086895531,36.2249062757389],[-86.688331447161,36.2254011982134],[-86.6875785278491,36.2252693647713]]]},"properties":{"id":"162787","parcel":"062110B01500CO","address":"2705 PENNINGTON BEND RD","owner":"FCMG PROPERTIE, LLC","point":[-86.6879923203391,36.22508781762064]}},{"type":"Feature","id":"162788","geometry":{"type":"Polygon","coordinates":[[[-86.6865185067735,36.2241366044927],[-86.6865821891722,36.2236880599575],[-86.6866488734731,36.2236990519301],[-86.6866213529758,36.223892906426],[-86.6865970907695,36.2240638209411],[-86.6865728273386,36.2242347345481],[-86.6865485638109,36.224405649043],[-86.6865243001708,36.2245765626236],[-86.6865000375462,36.2247474770858],[-86.6864757736969,36.2249183906398],[-86.6864539042947,36.2250724399424],[-86.6863873076125,36.225060777735],[-86.686434547132,36.2247280182308],[-86.6864804202526,36.2244048854595],[-86.6865185067735,36.2241366044927]]]},"properties":{"id":"162788","parcel":"062110B90000CO","address":"0 VALLEY BEND DR","owner":"SUMMIT AT PENNINGTON BEND CHASE HOMEOWNERS ASSOCATION","point":[-86.6865266239053,36.22431981001371]}},{"type":"Feature","id":"162789","geometry":{"type":"Polygon","coordinates":[[[-86.6871545421403,36.2243135212285],[-86.6872285351315,36.2237946023169],[-86.6876750416977,36.2238682002548],[-86.6876013757112,36.224387173461],[-86.6871545421403,36.2243135212285]]]},"properties":{"id":"162789","parcel":"062110B90200CO","address":"231 VALLEY BEND DR","owner":"SUMMIT AT PENNINGTON BEND CHASE HOMEOWNERS ASSOCATION","point":[-86.6874148640055,36.22409086121879]}},{"type":"Feature","id":"163044","geometry":{"type":"Polygon","coordinates":[[[-86.6865970907695,36.2240638209411],[-86.6866213529758,36.223892906426],[-86.687051578711,36.2239330015881],[-86.6870273163075,36.2241039161941],[-86.6865970907695,36.2240638209411]]]},"properties":{"id":"163044","parcel":"062110B00200CO","address":"240 VALLEY BEND DR","owner":"JANOWSKI, JEFFREY & LAUREN","point":[-86.68682433471206,36.22399841148109]}},{"type":"Feature","id":"163046","geometry":{"type":"Polygon","coordinates":[[[-86.6870787724774,36.2248472801524],[-86.6871020149107,36.2246835435063],[-86.6875533361855,36.2247256023803],[-86.6875300935674,36.2248893400187],[-86.6870787724774,36.2248472801524]]]},"properties":{"id":"163046","parcel":"062110B01100CO","address":"253 VALLEY BEND DR","owner":"IFEOBU, CHUKWUEMEKA CHINEDU & EBONEE DANAE","point":[-86.68731605432914,36.224786441502346]}},{"type":"Feature","id":"163049","geometry":{"type":"Polygon","coordinates":[[[-86.6876013757112,36.224387173461],[-86.6876750416977,36.2238682002548],[-86.6879344240423,36.2239109537698],[-86.6879801061491,36.2239184830654],[-86.6885482376709,36.2240121253803],[-86.6884674270838,36.2245299204646],[-86.687701413293,36.2244036627548],[-86.6876013757112,36.224387173461]]]},"properties":{"id":"163049","parcel":"062110B01600CO","address":"2707 PENNINGTON BEND RD","owner":"BATSON, FRANK COPE III & GINGER NICCOLE","point":[-86.68807347508343,36.22419964689157]}},{"type":"Feature","id":"163052","geometry":{"type":"Polygon","coordinates":[[[-86.6875765775954,36.2245618647359],[-86.6876013757112,36.224387173461],[-86.687701413293,36.2244036627548],[-86.6876412686478,36.2248273682142],[-86.6875785278491,36.2252693647713],[-86.6874786317888,36.225251873282],[-86.6875068508455,36.2250530767439],[-86.6875300935674,36.2248893400187],[-86.6875533361855,36.2247256023803],[-86.6875765775954,36.2245618647359]]]},"properties":{"id":"163052","parcel":"062110B90100CO","address":"0 VALLEY BEND DR","owner":"SUMMIT AT PENNINGTON BEND CHASE HOMEOWNERS ASSOCATION","point":[-86.68758568115031,36.2248583541296]}},{"type":"Feature","id":"163269","geometry":{"type":"Polygon","coordinates":[[[-86.6866213529758,36.223892906426],[-86.6866488734731,36.2236990519301],[-86.6870756362935,36.2237693981573],[-86.6870764115667,36.2237695262307],[-86.6870687906553,36.2238118300084],[-86.687051578711,36.2239330015881],[-86.6866213529758,36.223892906426]]]},"properties":{"id":"163269","parcel":"062110B00100CO","address":"236 VALLEY BEND DR","owner":"KOEHLER, JENNIFER","point":[-86.68684507014864,36.22385236842237]}},{"type":"Feature","id":"163272","geometry":{"type":"Polygon","coordinates":[[[-86.6865485638109,36.224405649043],[-86.6865728273386,36.2242347345481],[-86.6870030549038,36.2242748298792],[-86.6869787922912,36.2244457444586],[-86.6865485638109,36.224405649043]]]},"properties":{"id":"163272","parcel":"062110B00400CO","address":"248 VALLEY BEND DR","owner":"FIELDS, WARNER","point":[-86.68677580954359,36.22434023967816]}},{"type":"Feature","id":"163275","geometry":{"type":"Polygon","coordinates":[[[-86.6864539042947,36.2250724399424],[-86.6864757736969,36.2249183906398],[-86.6869060049222,36.2249584863088],[-86.6868792552324,36.2251469217144],[-86.6864539042947,36.2250724399424]]]},"properties":{"id":"163275","parcel":"062110B00800CO","address":"264 VALLEY BEND DR","owner":"COONEY, RYAN A & YEARGIN, RACHEL","point":[-86.68667995481223,36.2250154633403]}},{"type":"Feature","id":"163277","geometry":{"type":"Polygon","coordinates":[[[-86.6870324287263,36.225173742305],[-86.687055528836,36.2250110167926],[-86.6875068508455,36.2250530767439],[-86.6874786317888,36.225251873282],[-86.6870324287263,36.225173742305]]]},"properties":{"id":"163277","parcel":"062110B00900CO","address":"261 VALLEY BEND DR","owner":"BOETTGER, KEVIN & SAMANTHA","point":[-86.68726964003982,36.22511340976096]}},{"type":"Feature","id":"163280","geometry":{"type":"Polygon","coordinates":[[[-86.687055528836,36.2250110167926],[-86.6870787724774,36.2248472801524],[-86.6875300935674,36.2248893400187],[-86.6875068508455,36.2250530767439],[-86.687055528836,36.2250110167926]]]},"properties":{"id":"163280","parcel":"062110B01000CO","address":"257 VALLEY BEND DR","owner":"CAPOZZOLO, JACLYN & ANTHONY, III JOSEPH","point":[-86.68729281138233,36.2249501786421]}},{"type":"Feature","id":"181784","geometry":{"type":"Polygon","coordinates":[[[-86.6870943123581,36.2201600922174],[-86.6871327176998,36.2199080286758],[-86.6872987267655,36.2199357735699],[-86.6872385436129,36.2203307648996],[-86.6870726779688,36.2203020791027],[-86.6870943123581,36.2201600922174]]]},"properties":{"id":"181784","parcel":"06200007400","address":"0 PENNINGTON BEND RD","owner":"OSBORN, ANNE & PATRICK","point":[-86.68719651949314,36.22004793293849]}},{"type":"Feature","id":"181831","geometry":{"type":"Polygon","coordinates":[[[-86.6878700895272,36.2226777076845],[-86.687917770958,36.2223918962587],[-86.6887633448124,36.222537303756],[-86.6887103050517,36.2228206766533],[-86.6878696708075,36.2226802146388],[-86.6878700895272,36.2226777076845]]]},"properties":{"id":"181831","parcel":"06200010600","address":"2715 PENNINGTON BEND RD","owner":"ROSS, BARRY & JULIE & JOHNS, JOY M. & GEORGE J.","point":[-86.68831599189991,36.22260750466598]}},{"type":"Feature","id":"182030","geometry":{"type":"Polygon","coordinates":[[[-86.6857500326649,36.2261225324307],[-86.6863205693386,36.2259225848004],[-86.6864231836975,36.2261017555203],[-86.6858526019595,36.2262999563562],[-86.6857500326649,36.2261225324307]]]},"properties":{"id":"182030","parcel":"06207000300","address":"2931 WESTERN HILLS DR","owner":"STRASSER, WILLIAM A. FAMILY TRUST","point":[-86.68608646733114,36.22611214407948]}},{"type":"Feature","id":"182031","geometry":{"type":"Polygon","coordinates":[[[-86.685418001796,36.225517272691],[-86.6860854934473,36.2255989159818],[-86.6860972250506,36.2256238400397],[-86.6861125403695,36.2256474531532],[-86.6861312218051,36.2256694176878],[-86.6861530019156,36.225689420626],[-86.6861730201904,36.2257069911879],[-86.6861923503043,36.2257301308597],[-86.6862466706239,36.2257988488078],[-86.6862996448715,36.2258856597136],[-86.6863205693386,36.2259225848004],[-86.6857500326649,36.2261225324307],[-86.685418001796,36.225517272691]]]},"properties":{"id":"182031","parcel":"06207000400","address":"2931 WESTERN HILLS DR","owner":"ROGERS, ROBERT A.","point":[-86.68593422992626,36.22584136516584]}},{"type":"Feature","id":"182209","geometry":{"type":"Polygon","coordinates":[[[-86.6867577566789,36.2224813709539],[-86.6867810452643,36.2222813560399],[-86.6868603052501,36.2216006158456],[-86.6880413025093,36.2218059388745],[-86.6879715426595,36.222069390909],[-86.688821020608,36.2221539739188],[-86.688790588275,36.2223918608142],[-86.6887633448124,36.222537303756],[-86.687917770958,36.2223918962587],[-86.6878700895272,36.2226777076845],[-86.6867568911579,36.2224888012612],[-86.6867577566789,36.2224813709539]]]},"properties":{"id":"182209","parcel":"06200004800","address":"2717 PENNINGTON BEND RD","owner":"JOHNS, JOY M. & GEORGE J.","point":[-86.6875987834521,36.222109603824364]}},{"type":"Feature","id":"182379","geometry":{"type":"Polygon","coordinates":[[[-86.6855319234339,36.2237515530333],[-86.6855317996826,36.2237507480199],[-86.6865871995316,36.2236536948236],[-86.6865821891722,36.2236880599575],[-86.6865185067735,36.2241366044927],[-86.6864834456167,36.2240016895633],[-86.6856238804076,36.2241856705521],[-86.6856217005565,36.2241775978304],[-86.6855946894845,36.2240717481687],[-86.6855707153847,36.2239654189203],[-86.6855497887618,36.2238586686084],[-86.6855319234339,36.2237515530333]]]},"properties":{"id":"182379","parcel":"06211000300","address":"2916 WESTERN HILLS DR","owner":"SCHUTZ, MATTHEW PAUL & EMILY ROSE","point":[-86.68605513618891,36.22391334317464]}},{"type":"Feature","id":"182380","geometry":{"type":"Polygon","coordinates":[[[-86.6855120382415,36.2232074922741],[-86.6855294535564,36.2230793558018],[-86.6866301890193,36.2231529864098],[-86.6866301067048,36.223153499688],[-86.6866597743441,36.2231554841124],[-86.6866297360368,36.2233616955498],[-86.685506186576,36.223353157277],[-86.6855120382415,36.2232074922741]]]},"properties":{"id":"182380","parcel":"06211000500","address":"2908 WESTERN HILLS DR","owner":"SEYMOUR, JANN E. & DANIEL","point":[-86.68607513444772,36.22328181103478]}},{"type":"Feature","id":"182381","geometry":{"type":"Polygon","coordinates":[[[-86.6855294535564,36.2230793558018],[-86.6855505732317,36.2228323948469],[-86.6855980570527,36.2228358835309],[-86.6866956981959,36.2229088776873],[-86.6866597743441,36.2231554841124],[-86.6866301067048,36.223153499688],[-86.6866301890193,36.2231529864098],[-86.6855294535564,36.2230793558018]]]},"properties":{"id":"182381","parcel":"06211000600","address":"2906 WESTERN HILLS DR","owner":"LOFTIS, ROBERT H. ET UX","point":[-86.68610996768794,36.22299411132585]}},{"type":"Feature","id":"182398","geometry":{"type":"Polygon","coordinates":[[[-86.6864889463423,36.2208522392451],[-86.6867442692631,36.2208179021039],[-86.6868715025859,36.2214171255219],[-86.6863228454395,36.2214026637814],[-86.686215337726,36.2208890337987],[-86.6864889463423,36.2208522392451]]]},"properties":{"id":"182398","parcel":"06211001300","address":"2605 CREALEWOOD DR","owner":"WARREN, JOHN & ETOYLE LIVING TRUST, THE","point":[-86.68654164832604,36.22114656307229]}},{"type":"Feature","id":"182399","geometry":{"type":"Polygon","coordinates":[[[-86.6846967020363,36.2227930897443],[-86.6847095746968,36.2226347891181],[-86.6853952476949,36.2227006531607],[-86.6853815978811,36.2228213870361],[-86.6853692497037,36.2229659632523],[-86.6846865682371,36.2229151149164],[-86.6846967020363,36.2227930897443]]]},"properties":{"id":"182399","parcel":"06211002000","address":"2907 WESTERN HILLS DR","owner":"LAMB, GARY DUANE & MELISSA M.","point":[-86.68503934862804,36.222807239403004]}},{"type":"Feature","id":"182400","geometry":{"type":"Polygon","coordinates":[[[-86.6846810004998,36.2244298469937],[-86.6847007411971,36.2238891242423],[-86.6853720369829,36.2238208488905],[-86.6853898706446,36.2239203347],[-86.6854102731998,36.2240194958976],[-86.6854332342737,36.2241182892809],[-86.6854426943847,36.2241559834655],[-86.6854513665516,36.2241785717975],[-86.6854556421055,36.2242019718691],[-86.6854554183497,36.2242256272922],[-86.6854507026227,36.2242489720414],[-86.6854416046846,36.2242714503246],[-86.6854283434679,36.2242925255571],[-86.6854112360737,36.2243116939431],[-86.685390687885,36.2243284989516],[-86.6853671915332,36.2243425403355],[-86.6849878531019,36.2244261028181],[-86.6849268823507,36.2244335224679],[-86.6848654368276,36.2244376164707],[-86.6848037900315,36.224438368855],[-86.6847422188992,36.224435775347],[-86.6846810004998,36.2244298469937]]]},"properties":{"id":"182400","parcel":"06211002400","address":"2917 WESTERN HILLS DR","owner":"GARRETT, MARIA DANIELLE","point":[-86.68506486141058,36.22413615498581]}},{"type":"Feature","id":"182656","geometry":{"type":"Polygon","coordinates":[[[-86.6883297214285,36.2265159468699],[-86.6884017387588,36.2260668467331],[-86.6897045803248,36.2262752759432],[-86.6896271934521,36.2267333695333],[-86.6883297214285,36.2265159468699]]]},"properties":{"id":"182656","parcel":"06200009200","address":"2718 PENNINGTON BEND RD","owner":"STRASSER, WILLIAM A. & DONNA COLLEY, TRS","point":[-86.68901662787201,36.22639561202557]}},{"type":"Feature","id":"183067","geometry":{"type":"Polygon","coordinates":[[[-86.6882849800207,36.2268131601676],[-86.68828385718,36.2268129764026],[-86.6882881469832,36.2267754979168],[-86.6883297214285,36.2265159468699],[-86.6896271934521,36.2267333695333],[-86.6896135007242,36.2270301266742],[-86.6882849800207,36.2268131601676]]]},"properties":{"id":"183067","parcel":"06200012200","address":"0 PENNINGTON BEND RD","owner":"STRASSER, WILLIAM A. FAMILY TRUST","point":[-86.68895896978204,36.22675443897677]}},{"type":"Feature","id":"183079","geometry":{"type":"Polygon","coordinates":[[[-86.6870658593998,36.2203468306584],[-86.6870726779688,36.2203020791027],[-86.6872385436129,36.2203307648996],[-86.6890607197375,36.2206458708415],[-86.6889504295019,36.2211854063583],[-86.6889112761007,36.2214626681932],[-86.686932710818,36.2211205180179],[-86.6869907153229,36.2207834734169],[-86.6870146074133,36.2206446425165],[-86.6870658593998,36.2203468306584]]]},"properties":{"id":"183079","parcel":"06200013100","address":"2725 PENNINGTON BEND RD","owner":"OSBORNE, PATRICK & ANNE","point":[-86.6879793854722,36.220954653581984]}},{"type":"Feature","id":"183084","geometry":{"type":"Polygon","coordinates":[[[-86.6882849800207,36.2268131601676],[-86.6896135007242,36.2270301266742],[-86.6895259006733,36.2276393617014],[-86.689036370798,36.2281062226713],[-86.6889671637295,36.2280628042029],[-86.688900560473,36.2280167896727],[-86.6888367120768,36.2279682800645],[-86.6887757574308,36.227917385444],[-86.6887178343191,36.2278642167846],[-86.6886630717048,36.2278088941223],[-86.688611590779,36.22775153934],[-86.6885635061203,36.2276922815683],[-86.6885189256484,36.2276312517781],[-86.6884779473178,36.2275685864043],[-86.688440663544,36.2275044246173],[-86.688407155642,36.2274389083538],[-86.6883775016437,36.227372185878],[-86.6883517628801,36.2273044037464],[-86.6883300007128,36.2272357121201],[-86.6883122609774,36.2271662666557],[-86.6882985850364,36.2270962203313],[-86.6882890020478,36.2270257297989],[-86.6882835333755,36.2269549508537],[-86.6882821915004,36.2268840411431],[-86.6882849800207,36.2268131601676]]]},"properties":{"id":"183084","parcel":"06200013600","address":"2668 PENNINGTON BEND RD","owner":"STRASSER, WILLIAM A. FAMILY TRUST","point":[-86.6889867510186,36.22747313075814]}},{"type":"Feature","id":"183090","geometry":{"type":"Polygon","coordinates":[[[-86.6804741640774,36.2306596559962],[-86.6810703560479,36.2297267075205],[-86.6820624247615,36.2274394500423],[-86.6819227179958,36.2250717693614],[-86.6831256239035,36.2252297923114],[-86.6837895281198,36.2253164957174],[-86.6838809884053,36.2253285413069],[-86.6839482433531,36.2253374866094],[-86.684485348613,36.2254031894614],[-86.6850836139878,36.225476370391],[-86.685418001796,36.225517272691],[-86.6857500326649,36.2261225324307],[-86.6858526019595,36.2262999563562],[-86.6864231836975,36.2261017555203],[-86.6864441634887,36.2261383765492],[-86.686549196362,36.2263159742515],[-86.686703250043,36.2262725839829],[-86.6875026558761,36.226047429207],[-86.6873725486016,36.2258222827817],[-86.6876067573018,36.2258626017962],[-86.6882465612459,36.2259715084208],[-86.6881924864728,36.2263055367998],[-86.6881021370621,36.2268695772538],[-86.6881040508303,36.2269439832515],[-86.6881099489449,36.2270182502889],[-86.6881198191053,36.227092241446],[-86.688133645627,36.2271658144141],[-86.6881513984122,36.2272388323739],[-86.6881730484674,36.227311157598],[-86.6881985512338,36.2273826533489],[-86.6882278599436,36.2274531847034],[-86.6882609200576,36.2275226185852],[-86.6882976681611,36.2275908246717],[-86.688338036397,36.2276576735668],[-86.6868620819145,36.2278440816331],[-86.6862638553694,36.2290808878181],[-86.6851036223754,36.2300236527438],[-86.6852122804527,36.2303559739586],[-86.6839480347447,36.2306433326417],[-86.6833746060877,36.2302015634104],[-86.6811810162549,36.2307677473824],[-86.6807736936454,36.2308733327263],[-86.6804741640774,36.2306596559962]]]},"properties":{"id":"183090","parcel":"06200013800","address":"2645 PENNINGTON BEND RD","owner":"STRASSER, WILLIAM A. FAMILY TRUST","point":[-86.68409366479588,36.228455991308536]}},{"type":"Feature","id":"183125","geometry":{"type":"Polygon","coordinates":[[[-86.6879715426595,36.222069390909],[-86.6880413025093,36.2218059388745],[-86.6888476114066,36.2219461015645],[-86.688821020608,36.2221539739188],[-86.6879715426595,36.222069390909]]]},"properties":{"id":"183125","parcel":"06200013700","address":"2721 PENNINGTON BEND RD","owner":"JOHNS, JOY MCKINNEY","point":[-86.68841386944169,36.222007758216456]}},{"type":"Feature","id":"183340","geometry":{"type":"Polygon","coordinates":[[[-86.6838246717021,36.2236518012007],[-86.6838306474285,36.2234012402505],[-86.6846425145795,36.2234279567311],[-86.6846326487186,36.2235417411473],[-86.6846180260252,36.2237330138865],[-86.6839480664924,36.2240433752038],[-86.6839182514855,36.2239982833592],[-86.6838923494867,36.2239516300199],[-86.6838704858934,36.2239036397902],[-86.6838527627762,36.2238545410113],[-86.6838392655675,36.2238045675258],[-86.6838300586129,36.2237539587025],[-86.683825186245,36.2237029549247],[-86.6838246717021,36.2236518012007]]]},"properties":{"id":"183340","parcel":"06211002600","address":"2828 GAYWINDS CT","owner":"HEARRING, SIMEON L. & NADIA E.","point":[-86.68422280860842,36.22371798823534]}},{"type":"Feature","id":"183344","geometry":{"type":"Polygon","coordinates":[[[-86.6838306474285,36.2234012402505],[-86.6838361409832,36.2230946424043],[-86.6846696872435,36.2231195884636],[-86.6846609626957,36.2232086406802],[-86.6846425145795,36.2234279567311],[-86.6838306474285,36.2234012402505]]]},"properties":{"id":"183344","parcel":"06211002700","address":"2824 GAYWINDS CT","owner":"BAILEY, JASON N. & RUTH C. & DAVID J.","point":[-86.6842425822024,36.22330493268323]}},{"type":"Feature","id":"183347","geometry":{"type":"Polygon","coordinates":[[[-86.6838500590141,36.2225116479888],[-86.6838538925125,36.2223226318133],[-86.6843808816241,36.2223394257213],[-86.6847236976425,36.2224643947538],[-86.6847095746968,36.2226347891181],[-86.6846967020363,36.2227930897443],[-86.6838448529255,36.2227682484173],[-86.6838500590141,36.2225116479888]]]},"properties":{"id":"183347","parcel":"06211002900","address":"2816 GAYWINDS CT","owner":"JACOBS, KENNETH R. & STACY R.","point":[-86.68428170785742,36.22257322431397]}},{"type":"Feature","id":"183349","geometry":{"type":"Polygon","coordinates":[[[-86.6838538925125,36.2223226318133],[-86.6838620795228,36.2219352577506],[-86.6838634610148,36.2219242997604],[-86.6838669574242,36.2219136551461],[-86.6838724776085,36.2219035893908],[-86.6838798869243,36.2218943538034],[-86.6838889982751,36.2218861792616],[-86.6838995865238,36.2218792707217],[-86.6839113850861,36.2218737991275],[-86.6839240992847,36.221869902236],[-86.6839374129531,36.2218676764682],[-86.6839509940036,36.2218671777793],[-86.6843904733341,36.2218795219899],[-86.6843808816241,36.2223394257213],[-86.6838538925125,36.2223226318133]]]},"properties":{"id":"183349","parcel":"06211003000","address":"2501 ALVINWOOD DR","owner":"HUTCHISON, DONALD W. ET UX","point":[-86.68412161420235,36.2221296409812]}},{"type":"Feature","id":"183352","geometry":{"type":"Polygon","coordinates":[[[-86.6838809884053,36.2253285413069],[-86.6843330812247,36.2245002197945],[-86.6843907521369,36.2245189958846],[-86.6844497285251,36.2245348895692],[-86.684509789627,36.2245478408125],[-86.6846216080355,36.2245648048359],[-86.684485348613,36.2254031894614],[-86.6839482433531,36.2253374866094],[-86.6838809884053,36.2253285413069]]]},"properties":{"id":"183352","parcel":"06211003500","address":"2835 GAYWINDS CT","owner":"GRADY, MARY JO & JEFFERY BRUCE","point":[-86.68432452814295,36.22494686687168]}},{"type":"Feature","id":"183355","geometry":{"type":"Polygon","coordinates":[[[-86.6826737615695,36.2247263478946],[-86.6838289924235,36.2241528309214],[-86.6838635723909,36.2241936455231],[-86.6839006502339,36.2242329940611],[-86.683940131654,36.2242707761274],[-86.6839819179343,36.224306894944],[-86.6840259003932,36.2243412591968],[-86.6831256239035,36.2252297923114],[-86.6827827416842,36.2250982265373],[-86.6826594461048,36.2249538811647],[-86.6826737615695,36.2247263478946]]]},"properties":{"id":"183355","parcel":"06211003700","address":"2831 GAYWINDS CT","owner":"MORELL, TIMOTHY L.& KELLI L.","point":[-86.68344632903991,36.22453406078097]}},{"type":"Feature","id":"183358","geometry":{"type":"Polygon","coordinates":[[[-86.6828734605318,36.2205151517421],[-86.6830408727278,36.2205076124641],[-86.683601958748,36.2210203272504],[-86.6835865017743,36.2210363470072],[-86.6835740290888,36.2210540541331],[-86.6835648117735,36.2210730253105],[-86.6835590388791,36.2210928692295],[-86.6835568292479,36.2211131787549],[-86.6835582293276,36.2211335354447],[-86.6835632088155,36.2211535203896],[-86.6835716662895,36.2211727222927],[-86.6835834259481,36.2211907465002],[-86.6835981446913,36.2212071452297],[-86.6829208217277,36.2212900911592],[-86.6829250543498,36.2212307317274],[-86.6828734605318,36.2205151517421]]]},"properties":{"id":"183358","parcel":"06211004500","address":"2801 GAYWINDS CT","owner":"CADUFF, RUDOLPH & ODILIA","point":[-86.6831087008045,36.22076739848813]}},{"type":"Feature","id":"183365","geometry":{"type":"Polygon","coordinates":[[[-86.6856238804076,36.2241856705521],[-86.6864834456167,36.2240016895633],[-86.6865185067735,36.2241366044927],[-86.6864804202526,36.2244048854595],[-86.6857683809762,36.224607069549],[-86.6857647791029,36.2245995871103],[-86.6857245061382,36.2244972753769],[-86.6856875808652,36.2243941371051],[-86.6856540317019,36.2242902442363],[-86.6856238804076,36.2241856705521]]]},"properties":{"id":"183365","parcel":"06211000200","address":"2920 WESTERN HILLS DR","owner":"KUNKEL, DANIEL & MOLLY M.","point":[-86.68607991113325,36.22434326462609]}},{"type":"Feature","id":"183368","geometry":{"type":"Polygon","coordinates":[[[-86.6855061578809,36.223354083923],[-86.685506186576,36.223353157277],[-86.6866297360368,36.2233616955498],[-86.6865871995316,36.2236536948236],[-86.6855317996826,36.2237507480199],[-86.6855300957941,36.2237394443237],[-86.685517352042,36.2236434499161],[-86.6855091070022,36.2235471316594],[-86.6855053741085,36.2234506300727],[-86.6855061578809,36.223354083923]]]},"properties":{"id":"183368","parcel":"06211000400","address":"2912 WESTERN HILLS DR","owner":"BAKER, DANIEL LEE II & ANNA MARY REVOCABLE TRUST","point":[-86.68605426169694,36.22359671147124]}},{"type":"Feature","id":"183397","geometry":{"type":"Polygon","coordinates":[[[-86.6860835367196,36.2226028461726],[-86.6861075801733,36.2224230276998],[-86.686036736186,36.2220325307035],[-86.6861087778667,36.2220541795464],[-86.6861792540645,36.2220789789926],[-86.6862479561685,36.2221068572288],[-86.6863146799063,36.2221377298003],[-86.6863792253913,36.2221715050174],[-86.6864414026674,36.2222080821222],[-86.6865010239397,36.2222473531345],[-86.6865510104228,36.2222840256081],[-86.6865987931035,36.2223225770742],[-86.6866442666753,36.2223629207131],[-86.6866873269279,36.222404967896],[-86.6867278795822,36.2224486209254],[-86.6867577566789,36.2224813709539],[-86.6867568911579,36.2224888012612],[-86.686732010171,36.2226595923184],[-86.6860835367196,36.2226028461726]]]},"properties":{"id":"183397","parcel":"06211006000","address":"2605 ALVINWOOD DR","owner":"CHLOE EVANS LIVING TRUST","point":[-86.68635714718552,36.2223420562282]}},{"type":"Feature","id":"183417","geometry":{"type":"Polygon","coordinates":[[[-86.6847236976425,36.2224643947538],[-86.6848448876129,36.2223648154809],[-86.685429059983,36.2224201072544],[-86.6854182833737,36.2225027588119],[-86.6854133055304,36.2225409360022],[-86.6853952476949,36.2227006531607],[-86.6847095746968,36.2226347891181],[-86.6847236976425,36.2224643947538]]]},"properties":{"id":"183417","parcel":"06211001900","address":"2905 WESTERN HILLS DR","owner":"SHERLOCK, JOHN R. & MICHELE C.","point":[-86.68506744108245,36.22252093110698]}},{"type":"Feature","id":"183420","geometry":{"type":"Polygon","coordinates":[[[-86.6846696872435,36.2231195884636],[-86.6846865682371,36.2229151149164],[-86.6853692497037,36.2229659632523],[-86.6853606569099,36.2230665633751],[-86.6853428303226,36.2231977231396],[-86.6853407053452,36.2232505609578],[-86.6846609626957,36.2232086406802],[-86.6846696872435,36.2231195884636]]]},"properties":{"id":"183420","parcel":"06211002100","address":"2909 WESTERN HILLS DR","owner":"RYAN, MARVIN W. SR. ET UX","point":[-86.68501444092075,36.22309307449381]}},{"type":"Feature","id":"183423","geometry":{"type":"Polygon","coordinates":[[[-86.6846180260252,36.2237330138865],[-86.6846326487186,36.2235417411473],[-86.6853381372201,36.2235236780495],[-86.6853432703627,36.223601396893],[-86.6853511829436,36.2236789620727],[-86.6853618677366,36.2237563087393],[-86.6853720369829,36.2238208488905],[-86.6847007411971,36.2238891242423],[-86.6846180260252,36.2237330138865]]]},"properties":{"id":"183423","parcel":"06211002300","address":"2915 WESTERN HILLS DR","owner":"WILLIAMSON, JOHN & SUSANNAH","point":[-86.68498760826698,36.22370599644905]}},{"type":"Feature","id":"183607","geometry":{"type":"Polygon","coordinates":[[[-86.6850821493528,36.2254653330077],[-86.6858788303452,36.2252047600916],[-86.6860854934473,36.2255989159818],[-86.685418001796,36.225517272691],[-86.6850836139878,36.225476370391],[-86.6850821493528,36.2254653330077]]]},"properties":{"id":"183607","parcel":"06207000100","address":"2929 WESTERN HILLS DR","owner":"MULLINS, RYAN & MANDY","point":[-86.68571413801317,36.22533566112235]}},{"type":"Feature","id":"183610","geometry":{"type":"Polygon","coordinates":[[[-86.686703250043,36.2262725839829],[-86.686352433173,36.2256466679474],[-86.6873725486016,36.2258222827817],[-86.6875026558761,36.226047429207],[-86.686703250043,36.2262725839829]]]},"properties":{"id":"183610","parcel":"06207000200","address":"2944 WESTERN HILLS DR","owner":"STRASSER, DONNA TRUST, THE","point":[-86.68697510175305,36.2259336470118]}},{"type":"Feature","id":"183867","geometry":{"type":"Polygon","coordinates":[[[-86.6872385436129,36.2203307648996],[-86.6872987267655,36.2199357735699],[-86.6891970598802,36.2202530234171],[-86.6890915490162,36.220495049363],[-86.6890607197375,36.2206458708415],[-86.6872385436129,36.2203307648996]]]},"properties":{"id":"183867","parcel":"06200005100","address":"2731 PENNINGTON BEND RD","owner":"OSBORNE,  ANNE & PATRICK","point":[-86.68821193737813,36.220291882887075]}},{"type":"Feature","id":"184010","geometry":{"type":"Polygon","coordinates":[[[-86.685581491844,36.2225589103884],[-86.6856490180616,36.2220404083655],[-86.6856552347001,36.222026399217],[-86.6856641594487,36.2220133858953],[-86.6856755572281,36.2220017095051],[-86.6856891314754,36.2219916754502],[-86.6857045240979,36.2219835480259],[-86.6857213331588,36.2219775377022],[-86.6857391195669,36.2219738028872],[-86.6857574159109,36.221972442668],[-86.6857757430889,36.221973490407],[-86.6858636617398,36.2219904303498],[-86.6859507032719,36.2220101204132],[-86.686036736186,36.2220325307035],[-86.6861075801733,36.2224230276998],[-86.6860835367196,36.2226028461726],[-86.685581491844,36.2225589103884]]]},"properties":{"id":"184010","parcel":"06211000800","address":"2900 WESTERN HILLS DR","owner":"ALLISON, WILLIAM B III & CHRIS A","point":[-86.68584857777483,36.22223164023049]}},{"type":"Feature","id":"184011","geometry":{"type":"Polygon","coordinates":[[[-86.6856908269919,36.2213930682218],[-86.685689354848,36.2213023118241],[-86.6856851770429,36.2212116113406],[-86.6856782918136,36.2211210190536],[-86.6856687074144,36.2210305880893],[-86.6856673256822,36.221020005359],[-86.6856680891629,36.2210093825118],[-86.6856709769304,36.2209990008558],[-86.6856759135372,36.2209891393052],[-86.6856827655683,36.2209800617817],[-86.6856913504693,36.2209720090536],[-86.6857014409793,36.220965196908],[-86.6857127639412,36.220959807145],[-86.6857250202822,36.2209559829584],[-86.6857378816695,36.2209538280531],[-86.686215337726,36.2208890337987],[-86.6863228454395,36.2214026637814],[-86.6856908269919,36.2213930682218]]]},"properties":{"id":"184011","parcel":"06211001200","address":"2601 CREALEWOOD DR","owner":"NEWKIRK, BRETT L. & MARIEL J.","point":[-86.68597771739353,36.22116709227741]}},{"type":"Feature","id":"184012","geometry":{"type":"Polygon","coordinates":[[[-86.6862799551377,36.2202074080837],[-86.6870943123581,36.2201600922174],[-86.6870726779688,36.2203020791027],[-86.6870658593998,36.2203468306584],[-86.6870146074133,36.2206446425165],[-86.6864877586834,36.2207150470754],[-86.6863766888487,36.220729889214],[-86.6862799551377,36.2202074080837]]]},"properties":{"id":"184012","parcel":"06211001500","address":"2604 CREALEWOOD DR","owner":"SHANES, GARY N. & KATHLEEN","point":[-86.68668661379161,36.220494811253076]}},{"type":"Feature","id":"184013","geometry":{"type":"Polygon","coordinates":[[[-86.6839480664924,36.2240433752038],[-86.6846180260252,36.2237330138865],[-86.6847007411971,36.2238891242423],[-86.6846810004998,36.2244298469937],[-86.6846168016338,36.2244225620011],[-86.6845533535463,36.2244117930015],[-86.6844909436437,36.2243975888374],[-86.684429855015,36.2243800136972],[-86.6843703642069,36.2243591471284],[-86.6843127412161,36.2243350831358],[-86.6842572495051,36.2243079319845],[-86.6842041370719,36.2242778166445],[-86.6841536475815,36.2242448736298],[-86.6841060081144,36.2242092512646],[-86.6840614358639,36.2241711123491],[-86.6840201325361,36.2241306296854],[-86.6839822865741,36.2240879860642],[-86.6839480664924,36.2240433752038]]]},"properties":{"id":"184013","parcel":"06211002500","address":"2832 GAYWINDS CT","owner":"FARQUHARSON, JOHN M. & ARETZ, TAYLOR","point":[-86.68432970090467,36.22406664282065]}},{"type":"Feature","id":"184027","geometry":{"type":"Polygon","coordinates":[[[-86.684961976183,36.2245598856928],[-86.6850139250018,36.2245514311888],[-86.6850652507301,36.2245407667318],[-86.6851158101318,36.2245279219748],[-86.6854020926108,36.2244653148629],[-86.6854186912936,36.224460896485],[-86.6854359486635,36.2244586887328],[-86.6854534191657,36.2244587473082],[-86.6854706545302,36.2244610711503],[-86.6854872070927,36.2244656006134],[-86.6855026509277,36.2244722173481],[-86.6855165897114,36.2244807532681],[-86.6855286622447,36.2244909860134],[-86.6855385570289,36.2245026523855],[-86.6857341187434,36.224906169215],[-86.6850386334841,36.2251374661949],[-86.684961976183,36.2245598856928]]]},"properties":{"id":"184027","parcel":"06211003300","address":"2839 GAYWINDS CT","owner":"CAMPBELL, CHRISTOPHER P. & MARIE C.","point":[-86.68531771054374,36.224732948300996]}},{"type":"Feature","id":"184028","geometry":{"type":"Polygon","coordinates":[[[-86.6828075023277,36.2236427211026],[-86.6828068211325,36.2235636116085],[-86.683656744743,36.2236000089723],[-86.6836540806418,36.2236532760902],[-86.6836553977563,36.2237065765505],[-86.6836606899516,36.2237597139158],[-86.6836699377848,36.2238124963299],[-86.6836831095466,36.2238647284005],[-86.6837001546506,36.2239162184471],[-86.6827256502213,36.2241376462112],[-86.6828075023277,36.2236427211026]]]},"properties":{"id":"184028","parcel":"06211003900","address":"2827 GAYWINDS CT","owner":"JORDAN, LINDA S.","point":[-86.6832260117612,36.22383742059233]}},{"type":"Feature","id":"184029","geometry":{"type":"Polygon","coordinates":[[[-86.6828864651725,36.2217100283683],[-86.6829208217277,36.2212900911592],[-86.6835981446913,36.2212071452297],[-86.6836231325942,36.2212211732303],[-86.6836453990644,36.2212379429066],[-86.6836644906801,36.2212571116484],[-86.6836800158901,36.2212782887293],[-86.6836916584232,36.22130104244],[-86.6836991818067,36.221324908175],[-86.6837024327966,36.2213493992268],[-86.6836943172355,36.2217450148521],[-86.6828864651725,36.2217100283683]]]},"properties":{"id":"184029","parcel":"06211004400","address":"2805 GAYWINDS CT","owner":"WILLSON, LESLEY C. & RALEIGH T.","point":[-86.68330000721492,36.221529729208335]}},{"type":"Feature","id":"184030","geometry":{"type":"Polygon","coordinates":[[[-86.6838830596499,36.2212231129817],[-86.6838877057933,36.2211329852453],[-86.6838879119743,36.2211126555139],[-86.6838845015755,36.2210925138923],[-86.6838775449622,36.2210729808652],[-86.6838671891247,36.221054462964],[-86.6838536476225,36.2210373474169],[-86.6838372049473,36.2210219922103],[-86.6838182030828,36.2210087153502],[-86.6837970392879,36.2209977957758],[-86.6842735164375,36.2205835952042],[-86.6842926381351,36.2205994191455],[-86.6845769630879,36.2208615214366],[-86.6846873360612,36.2210801047207],[-86.6844093819733,36.2212421077489],[-86.6838830596499,36.2212231129817]]]},"properties":{"id":"184030","parcel":"06211004700","address":"2806 GAYWINDS CT","owner":"STUTZ, MICHAEL W. & LISA G.","point":[-86.6842441496603,36.22092981005212]}},{"type":"Feature","id":"184031","geometry":{"type":"Polygon","coordinates":[[[-86.6843940254534,36.2217410520701],[-86.6844093819733,36.2212421077489],[-86.6846873360612,36.2210801047207],[-86.6847783552589,36.221255949559],[-86.6847765802303,36.2217570141822],[-86.6846492058954,36.2217495565375],[-86.6845216709461,36.2217442347266],[-86.6843940254534,36.2217410520701]]]},"properties":{"id":"184031","parcel":"06211004900","address":"2504 ALVINWOOD DR","owner":"ANGEHR, JOSHUA & DANIEL & HEIDI","point":[-86.68458949997185,36.22149850969865]}},{"type":"Feature","id":"184033","geometry":{"type":"Polygon","coordinates":[[[-86.6847765802303,36.2217570141822],[-86.6847783552589,36.221255949559],[-86.6855186824563,36.2212451573023],[-86.6855206172852,36.2213476426304],[-86.6855189739699,36.2214501311404],[-86.6855137517952,36.2215525417236],[-86.6855049567041,36.221654791431],[-86.6854925935347,36.2217567982207],[-86.6854904157861,36.2217676165507],[-86.685486137776,36.2217780160038],[-86.6854798728919,36.2217877318702],[-86.685471779151,36.2217965154096],[-86.685462061502,36.2218041428501],[-86.6854509707522,36.2218104199007],[-86.6854387869073,36.2218151845498],[-86.6854258237218,36.2218183187555],[-86.6854124086087,36.2218197404485],[-86.6853988860537,36.2218194125249],[-86.6848939663365,36.2217667877615],[-86.6848351061275,36.2217632173061],[-86.6847765802303,36.2217570141822]]]},"properties":{"id":"184033","parcel":"06211005000","address":"2508 ALVINWOOD DR","owner":"WEBBER, WALTER C. ET UX","point":[-86.68514692786592,36.22150036496828]}},{"type":"Feature","id":"184035","geometry":{"type":"Polygon","coordinates":[[[-86.6846873360612,36.2210801047207],[-86.6845769630879,36.2208615214366],[-86.68541631949,36.2206985333384],[-86.6854434884234,36.2207881922045],[-86.6854666485067,36.2208785867019],[-86.6854857697888,36.2209695989392],[-86.6855008278794,36.221061110993],[-86.6855118039408,36.2211530040068],[-86.6855186824563,36.2212451573023],[-86.6847783552589,36.221255949559],[-86.6846873360612,36.2210801047207]]]},"properties":{"id":"184035","parcel":"06211005100","address":"2817 WESTERN HILLS DR","owner":"OAKLEY, KATHY","point":[-86.68507341181893,36.22101425067068]}},{"type":"Feature","id":"184036","geometry":{"type":"Polygon","coordinates":[[[-86.6842926381351,36.2205994191455],[-86.6852192156011,36.2202513389885],[-86.6852657401828,36.2203386160432],[-86.6853087569475,36.2204270674818],[-86.6853482183626,36.2205165998477],[-86.6853840858007,36.2206071205349],[-86.68541631949,36.2206985333384],[-86.6845769630879,36.2208615214366],[-86.6842926381351,36.2205994191455]]]},"properties":{"id":"184036","parcel":"06211005200","address":"2813 WESTERN HILLS DR","owner":"WILLIAMS, WANDA","point":[-86.68488548572311,36.22055818199454]}},{"type":"Feature","id":"184037","geometry":{"type":"Polygon","coordinates":[[[-86.6842735164375,36.2205835952042],[-86.6841306762628,36.2204525453671],[-86.6841492239818,36.2203233328055],[-86.6849836015685,36.219898310686],[-86.6850463570469,36.2199848486818],[-86.6851065657797,36.2200725655035],[-86.6851641961912,36.2201614117652],[-86.6852192156011,36.2202513389885],[-86.6842926381351,36.2205994191455],[-86.6842735164375,36.2205835952042]]]},"properties":{"id":"184037","parcel":"06211005300","address":"2809 WESTERN HILLS DR","owner":"PUGH, RONALD G. & SUSANNE C.","point":[-86.68478735873668,36.22020531097045]}},{"type":"Feature","id":"184038","geometry":{"type":"Polygon","coordinates":[[[-86.6842443487848,36.2197179017895],[-86.6846410983048,36.2194942444825],[-86.6848718750934,36.2197588469205],[-86.6849040617764,36.2197954741169],[-86.6849430907996,36.219847268375],[-86.6849836015685,36.219898310686],[-86.6841492239818,36.2203233328055],[-86.6842365970569,36.2197624475784],[-86.6842443487848,36.2197179017895]]]},"properties":{"id":"184038","parcel":"06211005400","address":"2805 WESTERN HILLS DR","owner":"NEAL, MATTHEW PORTER & KELLIE MORGAN","point":[-86.68437445000842,36.22011031632141]}},{"type":"Feature","id":"184377","geometry":{"type":"Polygon","coordinates":[[[-86.6855505732317,36.2228323948469],[-86.685581491844,36.2225589103884],[-86.6860835367196,36.2226028461726],[-86.686732010171,36.2226595923184],[-86.6866956981959,36.2229088776873],[-86.6855980570527,36.2228358835309],[-86.6855505732317,36.2228323948469]]]},"properties":{"id":"184377","parcel":"06211000700","address":"2904 WESTERN HILLS DR","owner":"BRIDGES, JAMES V. ET UX","point":[-86.68613985863904,36.22274599128413]}},{"type":"Feature","id":"184378","geometry":{"type":"Polygon","coordinates":[[[-86.6864995125618,36.2220727727608],[-86.6864403854903,36.2220400798548],[-86.6863794615113,36.2220096277215],[-86.686316871329,36.2219814823079],[-86.6862527467204,36.2219557050488],[-86.6861872249369,36.2219323474347],[-86.6861204443418,36.2219114609494],[-86.6859895353375,36.2218791214952],[-86.6858574764699,36.2218500112938],[-86.6857243891981,36.2218241575905],[-86.6857111661686,36.2218209088573],[-86.6856987792383,36.2218159493124],[-86.6856875610265,36.2218094131563],[-86.6856778178096,36.2218014752954],[-86.6856698083968,36.2217923523628],[-86.6856637529104,36.2217822891503],[-86.6856598138787,36.2217715587149],[-86.6856580961265,36.2217604497626],[-86.6856586489689,36.2217492630307],[-86.6856712278012,36.2216605168715],[-86.6856807879934,36.221571524681],[-86.6856873223392,36.221482352292],[-86.6856908269919,36.2213930682218],[-86.6863228454395,36.2214026637814],[-86.6868715025859,36.2214171255219],[-86.6868816760272,36.221417067666],[-86.6868603052501,36.2216006158456],[-86.6867810452643,36.2222813560399],[-86.6867328446836,36.2222389956411],[-86.6866784818149,36.2221939034241],[-86.6866213736617,36.2221510961327],[-86.6865616657882,36.2221106855916],[-86.6864995125618,36.2220727727608]]]},"properties":{"id":"184378","parcel":"06211001100","address":"2828 WESTERN HILLS DR","owner":"ROGERS, CECIL J. & YOLANDA D. REVOCABLE TRUST","point":[-86.6863116938913,36.22183845072369]}},{"type":"Feature","id":"184379","geometry":{"type":"Polygon","coordinates":[[[-86.6867442692631,36.2208179021039],[-86.6869907153229,36.2207834734169],[-86.686932710818,36.2211205180179],[-86.6868816760272,36.221417067666],[-86.6868715025859,36.2214171255219],[-86.6867442692631,36.2208179021039]]]},"properties":{"id":"184379","parcel":"06211001400","address":"0 CREALEWOOD DR","owner":"MORGAN, ROBERT","point":[-86.68686752914462,36.22096928609089]}},{"type":"Feature","id":"184380","geometry":{"type":"Polygon","coordinates":[[[-86.6854844150467,36.2204185010726],[-86.6862799551377,36.2202074080837],[-86.6863766888487,36.220729889214],[-86.685702140322,36.2208194276597],[-86.6856880587643,36.2208202916902],[-86.6856739963316,36.2208192512717],[-86.6856603403539,36.2208163366504],[-86.6856474696838,36.2208116267881],[-86.6856357413898,36.2208052539441],[-86.6856254795395,36.2207973929239],[-86.685616968535,36.2207882620182],[-86.6856104430248,36.2207781140476],[-86.6856060856245,36.2207672300665],[-86.6855808711628,36.2206789048047],[-86.6855521669879,36.2205912806876],[-86.6855200039348,36.2205044494653],[-86.6854844150467,36.2204185010726]]]},"properties":{"id":"184380","parcel":"06211001600","address":"2600 CREALEWOOD DR","owner":"REDFORD, JOHN G. & KAREN M.","point":[-86.6859397329569,36.2205489251251]}},{"type":"Feature","id":"184381","geometry":{"type":"Polygon","coordinates":[[[-86.6848448876129,36.2223648154809],[-86.6848747762434,36.2218816642669],[-86.6853726363213,36.221933561309],[-86.6853931134152,36.2219371708721],[-86.6854125256746,36.2219435668261],[-86.6854303008715,36.2219525604531],[-86.6854459150448,36.2219638852537],[-86.6854589059484,36.2219772085879],[-86.6854688920058,36.2219921369739],[-86.6854755768759,36.222008229581],[-86.6854787651488,36.2220250125611],[-86.6854783613197,36.2220419889672],[-86.685429059983,36.2224201072544],[-86.6848448876129,36.2223648154809]]]},"properties":{"id":"184381","parcel":"06211001800","address":"2509 ALVINWOOD DR","owner":"MOYER, CHARLES S. & DAWN M.","point":[-86.68515606841247,36.22220338802861]}},{"type":"Feature","id":"184382","geometry":{"type":"Polygon","coordinates":[[[-86.6846425145795,36.2234279567311],[-86.6846609626957,36.2232086406802],[-86.6853407053452,36.2232505609578],[-86.6853367692436,36.2233484083721],[-86.685335686975,36.2234360518819],[-86.6853381372201,36.2235236780495],[-86.6846326487186,36.2235417411473],[-86.6846425145795,36.2234279567311]]]},"properties":{"id":"184382","parcel":"06211002200","address":"2911 WESTERN HILLS DR","owner":"CLAIBORNE, PHILLIP R. & JUDY W., TRS.","point":[-86.68499110158596,36.223388186898234]}},{"type":"Feature","id":"184384","geometry":{"type":"Polygon","coordinates":[[[-86.6884017387588,36.2260668467331],[-86.6885434874319,36.2251996530892],[-86.6888763746417,36.2252300953943],[-86.6888845120052,36.2252300489848],[-86.6891993892705,36.2252590195367],[-86.6900733622254,36.2254073129192],[-86.6899293398235,36.2263113517754],[-86.6897045803248,36.2262752759432],[-86.6884017387588,36.2260668467331]]]},"properties":{"id":"184384","parcel":"06200002000","address":"2716 PENNINGTON BEND RD","owner":"PARK HOLDINGS, LLC","point":[-86.6892382384467,36.22573708454898]}},{"type":"Feature","id":"184396","geometry":{"type":"Polygon","coordinates":[[[-86.6843808816241,36.2223394257213],[-86.6843904733341,36.2218795219899],[-86.6844872777752,36.2218752251323],[-86.6845841982564,36.2218732906129],[-86.6846811469208,36.2218737189294],[-86.6847780359191,36.2218765114812],[-86.6848747762434,36.2218816642669],[-86.6848448876129,36.2223648154809],[-86.6847236976425,36.2224643947538],[-86.6843808816241,36.2223394257213]]]},"properties":{"id":"184396","parcel":"06211003100","address":"2505 ALVINWOOD DR","owner":"DAVIS, ERRETT DOYLE","point":[-86.68462312390803,36.22211053285479]}},{"type":"Feature","id":"184397","geometry":{"type":"Polygon","coordinates":[[[-86.6831256239035,36.2252297923114],[-86.6840259003932,36.2243412591968],[-86.6840720102827,36.2243733780926],[-86.6841203743133,36.2244032409977],[-86.684170825855,36.2244307443086],[-86.6842231894409,36.2244557916819],[-86.684277749736,36.224478631148],[-86.6843330812247,36.2245002197945],[-86.6838809884053,36.2253285413069],[-86.6837895281198,36.2253164957174],[-86.6831256239035,36.2252297923114]]]},"properties":{"id":"184397","parcel":"06211003600","address":"2833 GAYWINDS CT","owner":"MARTIN, CHAD ST & SNELL, SAMUEL","point":[-86.68381462987887,36.224865232958045]}},{"type":"Feature","id":"184398","geometry":{"type":"Polygon","coordinates":[[[-86.6827256502213,36.2241376462112],[-86.6837001546506,36.2239162184471],[-86.6837205641024,36.2239653398932],[-86.6837437040577,36.2240136599902],[-86.6837695247267,36.2240610798813],[-86.6837979741104,36.2241075025244],[-86.6838289924235,36.2241528309214],[-86.6826737615695,36.2247263478946],[-86.6826990991997,36.2242828376915],[-86.6827256502213,36.2241376462112]]]},"properties":{"id":"184398","parcel":"06211003800","address":"2829 GAYWINDS CT","owner":"JACOBS, JOHN F. ET UX","point":[-86.68290228592969,36.22450516500603]}},{"type":"Feature","id":"184399","geometry":{"type":"Polygon","coordinates":[[[-86.6887589012135,36.2238602806475],[-86.6887878139931,36.2236657111146],[-86.6892052557095,36.2237102569834],[-86.6897142017273,36.2237915203147],[-86.6896418700581,36.2243514886184],[-86.6887033402119,36.2242080899256],[-86.6887101383271,36.2241655338806],[-86.6887589012135,36.2238602806475]]]},"properties":{"id":"184399","parcel":"06200002300","address":"2724 PENNINGTON BEND RD","owner":"PARK HOLDINGS, LLC","point":[-86.68920990294886,36.224014142904174]}},{"type":"Feature","id":"184419","geometry":{"type":"Polygon","coordinates":[[[-86.6829104400395,36.2197699532627],[-86.6829259222468,36.2194418723866],[-86.6834022969822,36.2195671885461],[-86.6833822345169,36.2196194843807],[-86.6833646005239,36.2196723504802],[-86.6833494210867,36.2197257154993],[-86.6833448660365,36.2197393510315],[-86.6833429371395,36.2197533898847],[-86.6833436782746,36.219767502855],[-86.6833470862392,36.2197858357054],[-86.6833537845879,36.2198035641272],[-86.6833636287268,36.2198203004997],[-86.683376403091,36.2198356819373],[-86.6833918311849,36.2198493738376],[-86.6834095756519,36.2198610779927],[-86.6828734605318,36.2205151517421],[-86.6829104400395,36.2197699532627]]]},"properties":{"id":"184419","parcel":"06211005700","address":"2500 SHERMAN CT","owner":"JOB, MARK & BRENDA KAREN","point":[-86.68301562084861,36.22018778175486]}},{"type":"Feature","id":"184425","geometry":{"type":"Polygon","coordinates":[[[-86.6857683809762,36.224607069549],[-86.6864804202526,36.2244048854595],[-86.686434547132,36.2247280182308],[-86.6863873076125,36.225060777735],[-86.6863052835394,36.2256385506489],[-86.6862889468813,36.2256357387502],[-86.6860360207571,36.2251533470546],[-86.6859129378279,36.2249072357664],[-86.6857683809762,36.224607069549]]]},"properties":{"id":"184425","parcel":"06211005800","address":"2924 WESTERN HILLS DR","owner":"PRASKACH, DOUGLAS R. & DAROLYN DEE & DAVISON","point":[-86.6861745923094,36.22498407116339]}},{"type":"Feature","id":"184434","geometry":{"type":"Polygon","coordinates":[[[-86.6838361409832,36.2230946424043],[-86.6838448529255,36.2227682484173],[-86.6846967020363,36.2227930897443],[-86.6846865682371,36.2229151149164],[-86.6846696872435,36.2231195884636],[-86.6838361409832,36.2230946424043]]]},"properties":{"id":"184434","parcel":"06211002800","address":"2820 GAYWINDS CT","owner":"NAVANZATI, DAMIANO","point":[-86.68425881659064,36.22300487272085]}},{"type":"Feature","id":"184436","geometry":{"type":"Polygon","coordinates":[[[-86.6850386334841,36.2251374661949],[-86.6857341187434,36.224906169215],[-86.6858788303452,36.2252047600916],[-86.6850821493528,36.2254653330077],[-86.6850386334841,36.2251374661949]]]},"properties":{"id":"184436","parcel":"06211003200","address":"2925 WESTERN HILLS DR","owner":"KUNKEL, BRUCE & HELEN","point":[-86.68545299630033,36.2251710988034]}},{"type":"Feature","id":"184440","geometry":{"type":"Polygon","coordinates":[[[-86.684485348613,36.2254031894614],[-86.6846216080355,36.2245648048359],[-86.6846853013315,36.2245711076283],[-86.6847493768655,36.2245738852426],[-86.6848135364186,36.224573124949],[-86.6848774841444,36.2245688311285],[-86.6849198371421,36.2245650247348],[-86.684961976183,36.2245598856928],[-86.6850386334841,36.2251374661949],[-86.6850821493528,36.2254653330077],[-86.6850836139878,36.225476370391],[-86.684485348613,36.2254031894614]]]},"properties":{"id":"184440","parcel":"06211003400","address":"2837 GAYWINDS CT","owner":"WARD, JOANNE NOLA","point":[-86.68478787113463,36.2248553962767]}},{"type":"Feature","id":"184443","geometry":{"type":"Polygon","coordinates":[[[-86.6828068211325,36.2235636116085],[-86.6828087942474,36.2230839724949],[-86.6836654065649,36.2231104425658],[-86.683656744743,36.2236000089723],[-86.6828068211325,36.2235636116085]]]},"properties":{"id":"184443","parcel":"06211004000","address":"2823 GAYWINDS CT","owner":"RYAN, KENNETH DALE ET UX","point":[-86.68323456781492,36.22333702377176]}},{"type":"Feature","id":"184446","geometry":{"type":"Polygon","coordinates":[[[-86.6828087942474,36.2230839724949],[-86.6828068974683,36.2226274298497],[-86.6836757094023,36.2226538317573],[-86.6836654065649,36.2231104425658],[-86.6828087942474,36.2230839724949]]]},"properties":{"id":"184446","parcel":"06211004100","address":"2819 GAYWINDS CT","owner":"HUDSON, RUT T. (LE) & WILLIAM P & MARY LEE HUDSON TR.","point":[-86.68323936346786,36.222868895272]}},{"type":"Feature","id":"184450","geometry":{"type":"Polygon","coordinates":[[[-86.6828068974683,36.2226274298497],[-86.6828469521857,36.2221607614819],[-86.6836853431262,36.2221983223956],[-86.6836786985772,36.2225126180783],[-86.6836757094023,36.2226538317573],[-86.6828068974683,36.2226274298497]]]},"properties":{"id":"184450","parcel":"06211004200","address":"2815 GAYWINDS CT","owner":"HUTCHISON, DON & JUDY","point":[-86.68325622723256,36.22235434393693]}},{"type":"Feature","id":"184452","geometry":{"type":"Polygon","coordinates":[[[-86.6828469521857,36.2221607614819],[-86.6828864651725,36.2217100283683],[-86.6836943172355,36.2217450148521],[-86.6836853431262,36.2221983223956],[-86.6828469521857,36.2221607614819]]]},"properties":{"id":"184452","parcel":"06211004300","address":"2809 GAYWINDS CT","owner":"HENSON, RANDALL G. ETUX","point":[-86.68327772462553,36.22195290768885]}},{"type":"Feature","id":"184456","geometry":{"type":"Polygon","coordinates":[[[-86.6830408727278,36.2205076124641],[-86.6839497313592,36.2204629125007],[-86.6841306762628,36.2204525453671],[-86.6842735164375,36.2205835952042],[-86.6837970392879,36.2209977957758],[-86.6837727998182,36.2209898118531],[-86.6837473552921,36.2209848683506],[-86.6837212828263,36.2209830773601],[-86.6836951745024,36.2209844805922],[-86.683669622861,36.2209890440504],[-86.6836452065141,36.2209966662237],[-86.683622478984,36.221007173644],[-86.683601958748,36.2210203272504],[-86.6830408727278,36.2205076124641]]]},"properties":{"id":"184456","parcel":"06211004600","address":"2800 GAYWINDS CT","owner":"CARLISLE, ELIZABETH H.","point":[-86.68369215617608,36.220782530152896]}},{"type":"Feature","id":"184460","geometry":{"type":"Polygon","coordinates":[[[-86.6838678465347,36.221660523668],[-86.6838830596499,36.2212231129817],[-86.6844093819733,36.2212421077489],[-86.6843940254534,36.2217410520701],[-86.6839498141481,36.2217303830557],[-86.6839365365779,36.2217295696108],[-86.6839235988209,36.2217270166333],[-86.6839113462802,36.2217227933659],[-86.6839001047044,36.2217170115218],[-86.6838901735135,36.2217098253219],[-86.6838818168472,36.2217014252368],[-86.6838752579879,36.2216920362159],[-86.6838706703701,36.2216819069234],[-86.68386817758,36.221671309738],[-86.6838678465347,36.221660523668]]]},"properties":{"id":"184460","parcel":"06211004800","address":"2808 GAYWINDS CT","owner":"BROWN, CHRISTOPHER L.","point":[-86.68413903424731,36.221451317128704]}},{"type":"Feature","id":"184504","geometry":{"type":"Polygon","coordinates":[[[-86.6834095756519,36.2198610779927],[-86.6834304804161,36.2198706337101],[-86.6834528266341,36.2198777343763],[-86.6834761748721,36.2198822400799],[-86.6835000717035,36.219884065064],[-86.6835240485423,36.2198831714237],[-86.6835476372839,36.2198795771296],[-86.6835703769557,36.2198733532857],[-86.6837956381016,36.2200489861203],[-86.6839497313592,36.2204629125007],[-86.6830408727278,36.2205076124641],[-86.6828734605318,36.2205151517421],[-86.6834095756519,36.2198610779927]]]},"properties":{"id":"184504","parcel":"06211005600","address":"2501 SHERMAN CT","owner":"CARTWRIGHT, JAMES KEVIN & JOHN CHARLES ETAL","point":[-86.68348015252863,36.22025491172263]}},{"type":"Feature","id":"185186","geometry":{"type":"Polygon","coordinates":[[[-86.6873725486016,36.2258222827817],[-86.686352433173,36.2256466679474],[-86.6863052835394,36.2256385506489],[-86.6863873076125,36.225060777735],[-86.6864539042947,36.2250724399424],[-86.6868792552324,36.2251469217144],[-86.6870324287263,36.225173742305],[-86.6874786317888,36.225251873282],[-86.6875785278491,36.2252693647713],[-86.688331447161,36.2254011982134],[-86.6883397633121,36.2254026532019],[-86.6882870326241,36.2257254877358],[-86.6876406663278,36.225655012742],[-86.6876067573018,36.2258626017962],[-86.6873725486016,36.2258222827817]]]},"properties":{"id":"185186","parcel":"06200004200","address":"2703 PENNINGTON BEND RD","owner":"NEAL, GINA M.","point":[-86.68732123571984,36.225520602889155]}},{"type":"Feature","id":"185189","geometry":{"type":"Polygon","coordinates":[[[-86.6879801061491,36.2239184830654],[-86.6880254755251,36.2236048615335],[-86.6885876900793,36.2237071379757],[-86.6886039186342,36.223710089873],[-86.6885565663152,36.2240134982689],[-86.6885482376709,36.2240121253803],[-86.6879801061491,36.2239184830654]]]},"properties":{"id":"185189","parcel":"06200004500","address":"2709 PENNINGTON BEND RD","owner":"RITA S. STINSON & LINDA L. MITCHELL REVOCABLE TRUST","point":[-86.68829141407123,36.22381428531899]}},{"type":"Feature","id":"185839","geometry":{"type":"Polygon","coordinates":[[[-86.6868816760272,36.221417067666],[-86.686932710818,36.2211205180179],[-86.6889112761007,36.2214626681932],[-86.688891921951,36.2215997215435],[-86.6888476114066,36.2219461015645],[-86.6880413025093,36.2218059388745],[-86.6868603052501,36.2216006158456],[-86.6868816760272,36.221417067666]]]},"properties":{"id":"185839","parcel":"06200004900","address":"2723 PENNINGTON BEND RD","owner":"MORGAN, ROBERT ET UX","point":[-86.68788530210581,36.22152854842449]}}]}