{"type":"FeatureCollection","features":[{"type":"Feature","id":"284819","geometry":{"type":"Polygon","coordinates":[[[-86.6804611758453,36.0191288215142],[-86.6786888671924,36.0189527335674],[-86.6786886745761,36.0187895462471],[-86.6786881668879,36.0183531710605],[-86.6810131012235,36.0185942632475],[-86.6809657591477,36.0190448619061],[-86.6804762724441,36.0189860270391],[-86.6804733069414,36.0190155846257],[-86.6804627899607,36.0191203816863],[-86.6804619353447,36.0191288965381],[-86.6804611758453,36.0191288215142]]]},"properties":{"id":"284819","parcel":"17300015700","address":"14344 OLD HICKORY BLVD","owner":"FIELDS, JUSTIN & VICTORIA","point":[-86.67984553838983,36.01869189610285]}}]}