{"type":"FeatureCollection","features":[{"type":"Feature","id":"216700","geometry":{"type":"Polygon","coordinates":[[[-86.6876564735403,36.0716172729223],[-86.6876661632037,36.0713293195219],[-86.6874355570881,36.0713097565418],[-86.687436271632,36.0715487523168],[-86.6873505348604,36.0715166318421],[-86.6872663893022,36.0714818470516],[-86.6871839597802,36.0714444531164],[-86.6871033711007,36.071404503406],[-86.6870264634199,36.0713633510796],[-86.686951469033,36.0713199327879],[-86.6868784883833,36.0712743092497],[-86.6868076207956,36.0712265402885],[-86.6867389623101,36.0711766911548],[-86.6866726034313,36.0711248289329],[-86.6866419346403,36.0710997298135],[-86.6866041199961,36.0710705507155],[-86.6868143414796,36.070885021609],[-86.6870252391462,36.0706994882684],[-86.6865967085281,36.0699780632178],[-86.6865918862973,36.0699682017903],[-86.6880289994941,36.0699726438992],[-86.6894686624345,36.0705042282874],[-86.6902721452727,36.0712645448655],[-86.6904001467253,36.0713856673069],[-86.6905276941008,36.0715063595957],[-86.6892603167998,36.0721924258013],[-86.689201868493,36.0721395057952],[-86.6891402881214,36.072088980352],[-86.6890757244104,36.072040972994],[-86.6890083315648,36.0719955991009],[-86.6889382748423,36.0719529685815],[-86.6888657216647,36.0719131850234],[-86.6887908482556,36.0718763429515],[-86.6887138352387,36.0718425323592],[-86.688634869827,36.0718118350912],[-86.6885541413825,36.0717843248687],[-86.688471844754,36.0717600681716],[-86.688388180278,36.0717391242388],[-86.6883033482116,36.0717215432971],[-86.6882433523575,36.0717147792173],[-86.6881831181693,36.0717095928143],[-86.6880938111178,36.0717007346648],[-86.6880049608619,36.0716892411909],[-86.6879166852237,36.0716751279445],[-86.6878291020478,36.0716584131815],[-86.6877423258879,36.0716391196832],[-86.6876564735403,36.0716172729223]]]},"properties":{"id":"216700","parcel":"14800017500","address":"601 BAKERTOWN RD","owner":"DRAKE PACER BAKERTOWN ACQUISITION, LLC","point":[-86.68835755590848,36.07108966256986]}}]}