{"type":"FeatureCollection","features":[{"type":"Feature","id":"12949","geometry":{"type":"Polygon","coordinates":[[[-86.6615620916661,36.1493866747486],[-86.6615678746894,36.1491874905241],[-86.6615705148364,36.1490965393122],[-86.6615745353158,36.1489673434599],[-86.6615790605995,36.1488217859729],[-86.6615851192297,36.1485734181683],[-86.6615854146441,36.1485681973222],[-86.6620910739385,36.1486453634047],[-86.6626970716214,36.1479206587157],[-86.662775875556,36.1476340489033],[-86.6629277047405,36.1477277188566],[-86.6630431722235,36.1477950326398],[-86.6631605307383,36.1478601593639],[-86.6632797188556,36.147923062409],[-86.6634006718422,36.147983708779],[-86.6635233260751,36.1480420654716],[-86.6636476146124,36.1480981013055],[-86.663658352889,36.1481008010199],[-86.6636686568246,36.1481044494507],[-86.6636826017227,36.148111351251],[-86.6636949964596,36.1481199829926],[-86.663705519106,36.1481301184268],[-86.6637138940933,36.1481414940977],[-86.6637140225099,36.1481417015837],[-86.6637141868772,36.148142221611],[-86.6637166898099,36.1481501119412],[-86.6637178493838,36.1481537656018],[-86.6637188850079,36.1481651879502],[-86.6637189583905,36.14816612306],[-86.6637180538346,36.1481782158065],[-86.6637167543772,36.1481825517316],[-86.6637144290729,36.1481903226139],[-86.663696564645,36.148322279598],[-86.6637290537518,36.1483264891577],[-86.6637288023779,36.1483280560383],[-86.6637061886607,36.1485250212707],[-86.6636898720654,36.1485238077857],[-86.6636754798339,36.1486189100448],[-86.6636646969917,36.1487140221902],[-86.6636444324883,36.1488518785106],[-86.6636264565879,36.1489884775886],[-86.6636115074656,36.1491253159724],[-86.6636074483313,36.149248695353],[-86.6636071242988,36.1492790544473],[-86.6636082703484,36.1493094000492],[-86.6636161657298,36.1493087221384],[-86.6636162145928,36.1493087182646],[-86.6636162568563,36.1493087225385],[-86.663577567092,36.149645921911],[-86.6633102407758,36.1496237523962],[-86.6632792917775,36.1496211871769],[-86.663279235068,36.1496211829823],[-86.6629755984035,36.1495964841778],[-86.6626691949741,36.1495717952979],[-86.6625116467378,36.1495587313374],[-86.6623709213625,36.1495470619168],[-86.6622257546251,36.1495348966764],[-86.662050952097,36.1495202477476],[-86.6616998942687,36.1494912833555],[-86.6615764271477,36.149481095585],[-86.6615764212837,36.1494810586652],[-86.6615764153896,36.1494810181406],[-86.6615620916661,36.1493866747486]]]},"properties":{"id":"12949","parcel":"10800033600","address":"2864 ELM HILL PIKE","owner":"MADESH HOTELS, LLC","point":[-86.66288884825873,36.14863215502832]}},{"type":"Feature","id":"13102","geometry":{"type":"Polygon","coordinates":[[[-86.6618187708105,36.1472116823232],[-86.6618624506151,36.147062111163],[-86.6620256579404,36.1471627370959],[-86.6627779376506,36.1476265534688],[-86.6627779279886,36.1476265940788],[-86.662775875556,36.1476340489033],[-86.6626970716214,36.1479206587157],[-86.6620910739385,36.1486453634047],[-86.6615854146441,36.1485681973222],[-86.6615855936804,36.1485659458816],[-86.6616047082957,36.1483227788775],[-86.661615691495,36.1480150456336],[-86.6616164390719,36.1479936806463],[-86.6616200655895,36.147889760196],[-86.6616702575498,36.1477188078613],[-86.6616885719071,36.1476564318006],[-86.6617280970401,36.1475221581376],[-86.6618187708105,36.1472116823232]]]},"properties":{"id":"13102","parcel":"10800033500","address":"2868 ELM HILL PIKE","owner":"PREH FED, LLC & MRK FED, LLC","point":[-86.66218669535469,36.147805812776916]}},{"type":"Feature","id":"21631","geometry":{"type":"Polygon","coordinates":[[[-86.6678516918127,36.1484312136629],[-86.6678757380509,36.148264014775],[-86.6689574647861,36.148377049288],[-86.6691148158123,36.1474823420394],[-86.6697710832012,36.1475601160953],[-86.6696131928206,36.1484852683635],[-86.6696667834862,36.1484912843308],[-86.6696863341897,36.1484988537114],[-86.6697052092589,36.1485074768131],[-86.6697606249282,36.1485489555251],[-86.6697758337042,36.1485614933341],[-86.6697881358709,36.14857592371],[-86.6697881639398,36.1485759578023],[-86.6697881830279,36.1485759811292],[-86.6697882055636,36.148576017956],[-86.6697972440408,36.1485919021627],[-86.6697972598561,36.148591932718],[-86.6697972790583,36.1485919695633],[-86.6697972915476,36.1485920010382],[-86.6698028509085,36.148608962642],[-86.6698047502727,36.1486265051486],[-86.6697411477517,36.1490011681965],[-86.6705576967003,36.1490939006681],[-86.6704312764032,36.1501900245651],[-86.670401953603,36.150444252354],[-86.6704011562311,36.1504506296304],[-86.6703956809442,36.15047970242],[-86.6703879068351,36.1505084292765],[-86.6703778662185,36.1505366892507],[-86.6703778433243,36.1505367416513],[-86.6703624781406,36.150569292386],[-86.670362460673,36.1505693294349],[-86.6703624409755,36.1505693655949],[-86.6703624212855,36.1505694026562],[-86.6703423136468,36.1506025376166],[-86.6703187402612,36.1506341344391],[-86.6702918769205,36.1506639551124],[-86.6702619273046,36.1506917740879],[-86.6702563984778,36.150696354384],[-86.670239138172,36.1507095231047],[-86.6702065440709,36.15068527264],[-86.6701314086863,36.1506266137878],[-86.6701312923275,36.1506265207024],[-86.6700570997728,36.1505642181601],[-86.6699854735238,36.1504999708132],[-86.6699164908318,36.1504338467335],[-86.6698502267783,36.1503659203137],[-86.6694484096099,36.1499281668777],[-86.6694094315421,36.1498868834499],[-86.6694092544044,36.1498866987719],[-86.6693694973836,36.1498462064568],[-86.6693287226691,36.1498062632363],[-86.6693285019588,36.1498060508606],[-86.6692870265328,36.1497669523931],[-86.6692534450673,36.1497363604345],[-86.6691846305007,36.1496764501236],[-86.6691136389057,36.1496182336059],[-86.6690405340697,36.1495617636986],[-86.6690033968153,36.1495343440108],[-86.6689304413318,36.1494827869073],[-86.6689044445501,36.1494651256187],[-86.6688322693488,36.1494179262547],[-86.6687783582084,36.1493843609096],[-86.6687236233713,36.1493516833452],[-86.6687090154553,36.1493431932645],[-86.6686570271006,36.1493137414001],[-86.6685682912174,36.1492662920641],[-86.668477845739,36.1492210160718],[-86.6683857709939,36.149177951729],[-86.6683250757222,36.1491513499831],[-86.6682577354795,36.1491233321666],[-86.6681896355605,36.1490965469439],[-86.6681059505524,36.149065695844],[-86.6681057867124,36.1490656381688],[-86.6680212600308,36.1490367059581],[-86.6680210694764,36.1490366430231],[-86.6679356275037,36.1490095976618],[-86.6678628618889,36.14898825739],[-86.6678103223416,36.1489733996991],[-86.6677993765177,36.1489698371885],[-86.6677881227962,36.1489640196122],[-86.6677880926497,36.148964002655],[-86.6677880669556,36.1489639865745],[-86.6677880401351,36.1489639686975],[-86.6677782064265,36.1489566778043],[-86.6677697572888,36.1489483238663],[-86.6677628663835,36.1489390753607],[-86.6677628427374,36.1489390385397],[-86.6677628269607,36.1489390124903],[-86.6677628066406,36.1489389747496],[-86.6677581719843,36.1489288494445],[-86.6677553672485,36.1489182904179],[-86.6677544509389,36.1489075154527],[-86.6677544506584,36.1489074821074],[-86.6677544503172,36.1489074415524],[-86.6677544544814,36.1489074081825],[-86.6677558366372,36.1488966799815],[-86.6677574847205,36.1488908793295],[-86.6677643089669,36.1488709389203],[-86.6677878639286,36.148793374543],[-86.6677909009138,36.1487821396847],[-86.6678101042309,36.1486995640131],[-86.6678250521274,36.1486164116448],[-86.6678516918127,36.1484312136629]]]},"properties":{"id":"21631","parcel":"09600004600","address":"501 NELSON PL","owner":"THOMAS NELSON, INC.","point":[-86.66936712620121,36.14909521160401]}},{"type":"Feature","id":"22166","geometry":{"type":"Polygon","coordinates":[[[-86.6684610625324,36.1494879656134],[-86.6684705686941,36.1494752177289],[-86.6685492732792,36.1495183002033],[-86.6686260663311,36.1495635959106],[-86.6687008518105,36.1496110486068],[-86.668773541433,36.1496605993016],[-86.6688440424532,36.1497121872264],[-86.668569841411,36.1500740902785],[-86.6684976604323,36.1500160872859],[-86.6681892386677,36.1498525124793],[-86.6684565462521,36.1494940218995],[-86.6684610625324,36.1494879656134]]]},"properties":{"id":"22166","parcel":"09613017500","address":"2728 ELM HILL PIKE","owner":"HABANERO, LLC","point":[-86.6685162154457,36.14978234912483]}},{"type":"Feature","id":"22894","geometry":{"type":"Polygon","coordinates":[[[-86.6672403492971,36.1498391681572],[-86.6672214961656,36.1495708846337],[-86.6670426645384,36.1495718733201],[-86.6671355475648,36.1490635599298],[-86.6672125109373,36.1490781062219],[-86.6673582870872,36.1491026184422],[-86.6673584851772,36.149102652496],[-86.6675034626435,36.1491299655848],[-86.6675036975018,36.1491300111515],[-86.6676480655528,36.1491601655227],[-86.6676402403618,36.1491812046965],[-86.6675013952403,36.1495544756921],[-86.6674969458244,36.1498215415904],[-86.6673303993729,36.149833450968],[-86.6672403492971,36.1498391681572]]]},"properties":{"id":"22894","parcel":"09613017200","address":"2744 ELM HILL PIKE","owner":"LESTER'S BACK YARD BURGERS JNT. VEN IV","point":[-86.6673255071097,36.14936715902826]}},{"type":"Feature","id":"22904","geometry":{"type":"Polygon","coordinates":[[[-86.663785978439,36.1492093474576],[-86.6637855659321,36.1492038718373],[-86.6643711556192,36.1492344628239],[-86.6645578277864,36.1492441239176],[-86.6646896349914,36.1492512659918],[-86.6646708114845,36.1495907302455],[-86.6640823201094,36.1495722678696],[-86.6638231887311,36.1493283819389],[-86.6638155513288,36.1493143308711],[-86.6638045348185,36.1492903412146],[-86.6638007737484,36.1492807057499],[-86.6637959081154,36.1492656255099],[-86.6637958955077,36.1492655796148],[-86.6637895076159,36.1492376295712],[-86.663785978439,36.1492093474576]]]},"properties":{"id":"22904","parcel":"09613015300","address":"2815 PATRIOT WAY","owner":"COMMUNITY OPTIONS, INC.","point":[-86.66431561923456,36.149451342636354]}},{"type":"Feature","id":"22908","geometry":{"type":"Polygon","coordinates":[[[-86.6664977032814,36.1492122721956],[-86.6665012736296,36.1491845989522],[-86.666501282262,36.1491845682615],[-86.6665090949684,36.1491575069774],[-86.6665091091417,36.1491574744536],[-86.6665210441733,36.1491314205452],[-86.6665369292179,36.1491067634085],[-86.6665369534222,36.1491067344343],[-86.6665565043382,36.1490839118496],[-86.6665565296991,36.1490838882766],[-86.666579463645,36.1490632280627],[-86.6666054277143,36.1490450512152],[-86.6666054675284,36.1490450284636],[-86.6666340131993,36.1490296501974],[-86.6666647466412,36.1490172817802],[-86.666697136273,36.1490081397471],[-86.6666971839791,36.1490081304709],[-86.6667307054013,36.1490023601182],[-86.6667648836818,36.1490000424793],[-86.6667697817056,36.1489999964882],[-86.6667991168481,36.1490012160294],[-86.6667991613189,36.1490012184875],[-86.6668329847715,36.1490058713737],[-86.6671355475648,36.1490635599298],[-86.6670426645384,36.1495718733201],[-86.6665471063304,36.1496097736329],[-86.6665315559492,36.1494846629747],[-86.6664977032814,36.1492122721956]]]},"properties":{"id":"22908","parcel":"09613015402","address":"2750 ELM HILL PIKE","owner":"MILLER FAMILY TRUST","point":[-86.66679891383197,36.149349258879155]}},{"type":"Feature","id":"23042","geometry":{"type":"Polygon","coordinates":[[[-86.6656459031813,36.1487752467418],[-86.6657662827995,36.1488035961623],[-86.6658875593593,36.1488293052136],[-86.6660096471207,36.1488523545382],[-86.6660425700401,36.1488604139913],[-86.666074167272,36.1488720524678],[-86.6661031302931,36.1488872005841],[-86.6661298099462,36.148904893854],[-86.6661538698393,36.1489249052147],[-86.6661737195952,36.1489477436499],[-86.6661901445017,36.1489723061839],[-86.6662029205906,36.1489982560799],[-86.6662109417964,36.1490256823621],[-86.6662145616142,36.1490534078298],[-86.6662503588339,36.1494443917586],[-86.6657303786787,36.1494780280887],[-86.6656459031813,36.1487752467418]]]},"properties":{"id":"23042","parcel":"09613014900","address":"517 DONELSON PIKE","owner":"GINSBERG, NORMAN W., TRUSTEE","point":[-86.66596755972918,36.14924816123018]}},{"type":"Feature","id":"23046","geometry":{"type":"Polygon","coordinates":[[[-86.6666507787783,36.1487257464229],[-86.6666202248433,36.1487173991621],[-86.6665910001113,36.1487060253118],[-86.6665644601161,36.1486913370914],[-86.6665402627973,36.1486738879666],[-86.6665194338928,36.1486539489616],[-86.6665022181706,36.1486318197485],[-86.6664887468689,36.1486080430672],[-86.6664792568403,36.1485830348967],[-86.6664739117487,36.1485572296449],[-86.6664730159116,36.1485311375505],[-86.6664776602234,36.1484388105992],[-86.6664847775579,36.1481186525937],[-86.6677077647149,36.1482464621106],[-86.6676810578241,36.1484321579387],[-86.6676577617308,36.1485941333988],[-86.6676388770678,36.1486978302439],[-86.6676185418115,36.1487765141769],[-86.6675942230534,36.1488544504625],[-86.6675892406852,36.1488649462254],[-86.6675822537132,36.1488746608658],[-86.6675734422895,36.1488833455389],[-86.6675630334414,36.1488907754746],[-86.6675512933921,36.1488967617363],[-86.6675385253225,36.1489011494314],[-86.667525975512,36.148904005569],[-86.667513068498,36.1489054820415],[-86.6675000329614,36.1489055505456],[-86.6674871033741,36.1489042106856],[-86.6670470567466,36.1488048668362],[-86.6666507787783,36.1487257464229]]]},"properties":{"id":"23046","parcel":"09613015000","address":"518 DONELSON PIKE","owner":"TEACHERS' RETIREMENT SYSTEM-STATE OF KY","point":[-86.6670741603679,36.14848664026211]}},{"type":"Feature","id":"23061","geometry":{"type":"Polygon","coordinates":[[[-86.6600605032314,36.1499882634643],[-86.6601319098153,36.1494516464491],[-86.6604318839948,36.149680757679],[-86.6603886000387,36.1500150375343],[-86.6600605032314,36.1499882634643]]]},"properties":{"id":"23061","parcel":"09614015900","address":"915 ALLEN RD","owner":"WILDER, MATTHEW","point":[-86.66024646993591,36.149834511502405]}},{"type":"Feature","id":"23412","geometry":{"type":"Polygon","coordinates":[[[-86.6626691846671,36.1495718917899],[-86.6626691949741,36.1495717952979],[-86.6629755984035,36.1495964841778],[-86.6629755584583,36.1495967574806],[-86.662883301858,36.1502255189531],[-86.6625850257156,36.1502007852042],[-86.6626691846671,36.1495718917899]]]},"properties":{"id":"23412","parcel":"09613013203","address":"925 ALLEN RD","owner":"A N H ALTAMIMI INVESTMENT INCOPRPORATED","point":[-86.66277834123383,36.149898766017756]}},{"type":"Feature","id":"23415","geometry":{"type":"Polygon","coordinates":[[[-86.6622786234086,36.1501760953182],[-86.6623709213625,36.1495470619168],[-86.6625116467378,36.1495587313374],[-86.6626691949741,36.1495717952979],[-86.6626691846671,36.1495718917899],[-86.6625850257156,36.1502007852042],[-86.6622786234086,36.1501760953182]]]},"properties":{"id":"23415","parcel":"09613013204","address":"923 ALLEN RD","owner":"ALTAMIMI, ISRAA & AZIZ","point":[-86.66247585615253,36.14987399922455]}},{"type":"Feature","id":"23417","geometry":{"type":"Polygon","coordinates":[[[-86.6610552902316,36.1497015187599],[-86.6610310332553,36.1493917832611],[-86.6615620916661,36.1493866747486],[-86.6615764153896,36.1494810181406],[-86.6615764212837,36.1494810586652],[-86.6615764271477,36.149481095585],[-86.6615764330418,36.1494811361095],[-86.6616109938479,36.1497270424097],[-86.6610552902316,36.1497015187599]]]},"properties":{"id":"23417","parcel":"09613013400","address":"904 SHAUNA DR","owner":"LEWIS, HUBERT ETUX","point":[-86.66131931524558,36.14959133748705]}},{"type":"Feature","id":"23449","geometry":{"type":"Polygon","coordinates":[[[-86.6656137148025,36.1497753501222],[-86.6662851798118,36.1497189051268],[-86.6663172734387,36.1499912362421],[-86.665800071512,36.1500336493478],[-86.6656457350682,36.1500476863105],[-86.665642812082,36.1500214080267],[-86.665642807297,36.1500213674962],[-86.6656428047647,36.1500213305583],[-86.6656427999797,36.1500212900277],[-86.6656136448338,36.1497753550145],[-86.6656137148025,36.1497753501222]]]},"properties":{"id":"23449","parcel":"09613014700","address":"507 DONELSON PIKE","owner":"MSH STAR, INC.","point":[-86.66596549658824,36.14988329624933]}},{"type":"Feature","id":"23814","geometry":{"type":"Polygon","coordinates":[[[-86.6601319098153,36.1494516464491],[-86.6608659499676,36.1494168612078],[-86.6608870946179,36.1496782654284],[-86.6604318839948,36.149680757679],[-86.6601319098153,36.1494516464491]]]},"properties":{"id":"23814","parcel":"09613013900","address":"905 SHAUNA DR","owner":"THOMPSON, TERESA J. & BRANCH, JAIME K.","point":[-86.66057871257111,36.149565152710565]}},{"type":"Feature","id":"23816","geometry":{"type":"Polygon","coordinates":[[[-86.6601853935062,36.1490403932836],[-86.6608354877393,36.1490126611014],[-86.6608507188147,36.1492147611609],[-86.6601572874759,36.1492449286965],[-86.6601853935062,36.1490403932836]]]},"properties":{"id":"23816","parcel":"09613014100","address":"911 SHAUNA DR","owner":"MOORE FAMILY REVOCABLE LIVING TRUST","point":[-86.66050888268428,36.14912755167956]}},{"type":"Feature","id":"23818","geometry":{"type":"Polygon","coordinates":[[[-86.6602063607578,36.1486293179571],[-86.6608022790104,36.1486040796153],[-86.6608202201488,36.14880616576],[-86.6602134617288,36.1488314634911],[-86.6602210783461,36.1487698870491],[-86.6602063607578,36.1486293179571]]]},"properties":{"id":"23818","parcel":"09613014300","address":"915 SHAUNA DR","owner":"HAYES, L. T. JR & DIANE L","point":[-86.66051231465744,36.14870044931526]}},{"type":"Feature","id":"24018","geometry":{"type":"Polygon","coordinates":[[[-86.6657303786787,36.1494780280887],[-86.6662503588339,36.1494443917586],[-86.6662851798118,36.1497189051268],[-86.6656137148025,36.1497753501222],[-86.6656136448338,36.1497753550145],[-86.6656031139376,36.1496886239759],[-86.6655787189175,36.1494876556375],[-86.6657303786787,36.1494780280887]]]},"properties":{"id":"24018","parcel":"09613014800","address":"515 DONELSON PIKE","owner":"MORRISON, JAMES R.","point":[-86.66592987448479,36.149589085821056]}},{"type":"Feature","id":"24350","geometry":{"type":"Polygon","coordinates":[[[-86.6646612844962,36.1485339879751],[-86.6646899904658,36.1484841187613],[-86.6646900584827,36.1484841463258],[-86.6647620500353,36.1485112752893],[-86.6647810932071,36.148518274152],[-86.6648123299272,36.1485296301444],[-86.6648333189127,36.1485371608402],[-86.6648395134608,36.1485393375145],[-86.6648758310642,36.1485521814247],[-86.6649776848403,36.1485873436259],[-86.6650509916584,36.1486113449885],[-86.6650549617522,36.1486126236335],[-86.6651240159108,36.1486347737581],[-86.6651667472102,36.1486479526484],[-86.6652796504997,36.148681668441],[-86.6653444977338,36.1486999914282],[-86.6654138194342,36.1492520433377],[-86.6654137005351,36.1492520439934],[-86.6651299092399,36.1492545098549],[-86.6648068911101,36.1492573110375],[-86.664771099378,36.1492554136808],[-86.6646896349914,36.1492512659918],[-86.6645578277864,36.1492441239176],[-86.6645661472405,36.1489836566209],[-86.6646612844962,36.1485339879751]]]},"properties":{"id":"24350","parcel":"09613021100","address":"2810 ELM HILL PIKE","owner":"AIRWAY CENTER PARTNERSHIP","point":[-86.66497940915069,36.1488418920438]}},{"type":"Feature","id":"24601","geometry":{"type":"Polygon","coordinates":[[[-86.6665791997082,36.1498821055936],[-86.6665471063304,36.1496097736329],[-86.6670426645384,36.1495718733201],[-86.6672214961656,36.1495708846337],[-86.6672403492971,36.1498391681572],[-86.6672339086083,36.1498389288847],[-86.6670890269261,36.1498490706206],[-86.6665791997082,36.1498821055936]]]},"properties":{"id":"24601","parcel":"09613018500","address":"510 DONELSON PIKE","owner":"DONELSON CHEETAH, LLC","point":[-86.66689642412484,36.149724368208126]}},{"type":"Feature","id":"24689","geometry":{"type":"Polygon","coordinates":[[[-86.6620509385157,36.1495203514676],[-86.662050952097,36.1495202477476],[-86.6622257546251,36.1495348966764],[-86.6623709213625,36.1495470619168],[-86.6622786234086,36.1501760953182],[-86.661969487147,36.1501492223694],[-86.6620509385157,36.1495203514676]]]},"properties":{"id":"24689","parcel":"09613013205","address":"921 ALLEN RD","owner":"CLARK, DEBORAH","point":[-86.66216761080776,36.149848135004824]}},{"type":"Feature","id":"24694","geometry":{"type":"Polygon","coordinates":[[[-86.6615764330418,36.1494811361095],[-86.6615764271477,36.149481095585],[-86.6616998942687,36.1494912833555],[-86.662050952097,36.1495202477476],[-86.6620509385157,36.1495203514676],[-86.661969487147,36.1501492223694],[-86.6616657921604,36.1501245160774],[-86.6616109938479,36.1497270424097],[-86.6615764330418,36.1494811361095]]]},"properties":{"id":"24694","parcel":"09613013206","address":"919 ALLEN RD","owner":"YANG, HUI","point":[-86.66181834447855,36.14992628754489]}},{"type":"Feature","id":"24698","geometry":{"type":"Polygon","coordinates":[[[-86.6610096685946,36.1491040083347],[-86.6615705148364,36.1490965393122],[-86.6615678746894,36.1491874905241],[-86.6615620916661,36.1493866747486],[-86.6610310332553,36.1493917832611],[-86.6610096685946,36.1491040083347]]]},"properties":{"id":"24698","parcel":"09613013500","address":"908 SHAUNA DR","owner":"STINSON, DAVID M.","point":[-86.66129406478736,36.1492863167242]}},{"type":"Feature","id":"24704","geometry":{"type":"Polygon","coordinates":[[[-86.6609674704227,36.1485921866573],[-86.6615851192297,36.1485734181683],[-86.6615790605995,36.1488217859729],[-86.6609884321847,36.1488316154727],[-86.6609674704227,36.1485921866573]]]},"properties":{"id":"24704","parcel":"09613013700","address":"916 SHAUNA DR","owner":"GOODLOW, GWENDOLYN L & PAULA N & VICTORIA L ETAL","point":[-86.66127964372909,36.1487070047454]}},{"type":"Feature","id":"25486","geometry":{"type":"Polygon","coordinates":[[[-86.663577567092,36.149645921911],[-86.6636162568563,36.1493087225385],[-86.6636236200145,36.1493204138124],[-86.6636376601856,36.149355963606],[-86.6636550569936,36.1493905242744],[-86.6636757053441,36.1494238863996],[-86.6636994813267,36.1494558496793],[-86.6637262410964,36.1494862220322],[-86.663755823103,36.149514820487],[-86.6637880503219,36.1495414720712],[-86.6641540220519,36.1498844896406],[-86.6639532547263,36.1498548270902],[-86.6637524658429,36.1498229670409],[-86.663557121549,36.1497932740027],[-86.663577567092,36.149645921911]]]},"properties":{"id":"25486","parcel":"09613020100","address":"2812 PATRIOT WAY","owner":"VALDEZ, NEVY MORAN","point":[-86.66371392235563,36.14959378440993]}},{"type":"Feature","id":"25492","geometry":{"type":"Polygon","coordinates":[[[-86.6640295632551,36.1482133150658],[-86.6640315972089,36.1482134931387],[-86.6640413850477,36.1482142909718],[-86.664047190894,36.1482151729047],[-86.6640510154498,36.1482159287484],[-86.6640648994905,36.1482199332713],[-86.664077819132,36.1482256834434],[-86.6640952993554,36.1482340942859],[-86.6641264226896,36.148248791169],[-86.6641504404289,36.1482599977981],[-86.6642238895852,36.1482933729398],[-86.6642598386135,36.1483093392446],[-86.6643343512379,36.148341774754],[-86.6643766254195,36.1483597205289],[-86.6643857517195,36.1483635276964],[-86.6644429302315,36.1483869494887],[-86.6644975285421,36.1484086550333],[-86.6645899754482,36.1484443704663],[-86.6646066400155,36.1484510435812],[-86.6646152374645,36.1484551258262],[-86.6646344355962,36.1484625853064],[-86.6646837153029,36.1484817361337],[-86.6646899904658,36.1484841187613],[-86.6646612844962,36.1485339879751],[-86.6645661472405,36.1489836566209],[-86.6645578277864,36.1492441239176],[-86.6643711556192,36.1492344628239],[-86.6637855659321,36.1492038718373],[-86.6637855265048,36.1492038080643],[-86.6637855069618,36.1492035972758],[-86.6637850914418,36.1491876624903],[-86.6638873360261,36.1484530897886],[-86.6638957482511,36.1484060686567],[-86.6639122371131,36.1483526843151],[-86.6639186450706,36.1483358738067],[-86.6639311294135,36.1483031333468],[-86.6639385771018,36.1482885351303],[-86.6639491244357,36.1482678723677],[-86.6639658602735,36.1482385738756],[-86.6639684865784,36.1482339764902],[-86.6639783233526,36.148227207035],[-86.6639892671929,36.1482216653196],[-86.6640010846031,36.1482174679903],[-86.6640103715121,36.1482152394294],[-86.6640199032803,36.148213854006],[-86.6640295632551,36.1482133150658]]]},"properties":{"id":"25492","parcel":"09613021300","address":"2828 ELM HILL PIKE","owner":"DARSINOS, BILL E.& WILLIAM V.S. ET AL","point":[-86.66422939877233,36.148757745417825]}},{"type":"Feature","id":"25720","geometry":{"type":"Polygon","coordinates":[[[-86.6654138194342,36.1492520433377],[-86.6653444977338,36.1486999914282],[-86.6654441972253,36.148727071752],[-86.6655446868682,36.1487521621481],[-86.6656459031813,36.1487752467418],[-86.6657303786787,36.1494780280887],[-86.6655787189175,36.1494876556375],[-86.6655013949634,36.1494491997281],[-86.665434500393,36.1494159289161],[-86.6654276154335,36.1493613664359],[-86.6654138194342,36.1492520433377]]]},"properties":{"id":"25720","parcel":"09613015900","address":"2804 ELM HILL PIKE","owner":"CARNEY, DENNIS PHOTOGRAPHY, INC.","point":[-86.6655292198353,36.14901364331005]}},{"type":"Feature","id":"25762","geometry":{"type":"Polygon","coordinates":[[[-86.6675013952403,36.1495544756921],[-86.6676402403618,36.1491812046965],[-86.6676557504809,36.1491850718307],[-86.6677664741558,36.1492148182749],[-86.6678757251111,36.149247952514],[-86.6679833473807,36.1492844267471],[-86.6680006871475,36.1492905954543],[-86.668068489763,36.1493157132854],[-86.6681355190453,36.1493421584178],[-86.6681555346738,36.1493504302603],[-86.668220029598,36.1493781069884],[-86.6682836959699,36.149407019399],[-86.6683052220499,36.1494171646938],[-86.668381572808,36.1494547013089],[-86.6684178341573,36.1494734144083],[-86.668427548479,36.1494785221445],[-86.6684285921579,36.1494790742465],[-86.6684372374871,36.1494836588606],[-86.6684565462521,36.1494940218995],[-86.6681892386677,36.1498525124793],[-86.6679245671998,36.1497121384402],[-86.6677904153578,36.1496417413447],[-86.6675013952403,36.1495544756921]]]},"properties":{"id":"25762","parcel":"09613017300","address":"2740 ELM HILL PIKE","owner":"CFT NV DEVELOPMENTS, LLC","point":[-86.6679730940387,36.14952423345578]}},{"type":"Feature","id":"25779","geometry":{"type":"Polygon","coordinates":[[[-86.6643742820244,36.1498576992532],[-86.6640823201094,36.1495722678696],[-86.6646708114845,36.1495907302455],[-86.6646896349914,36.1492512659918],[-86.664771099378,36.1492554136808],[-86.6648068911101,36.1492573110375],[-86.6651299092399,36.1492545098549],[-86.6654137005351,36.1492520439934],[-86.6654138194342,36.1492520433377],[-86.6654276154335,36.1493613664359],[-86.665434500393,36.1494159289161],[-86.6655013949634,36.1494491997281],[-86.6655787189175,36.1494876556375],[-86.6656031139376,36.1496886239759],[-86.6656136448338,36.1497753550145],[-86.6656427999797,36.1500212900277],[-86.6656428047647,36.1500213305583],[-86.665401374244,36.1499896974292],[-86.6652928800699,36.1499771101332],[-86.6651789481433,36.1499623590357],[-86.6651788880773,36.1499623521567],[-86.6643743145137,36.1498577306186],[-86.6643742820244,36.1498576992532]]]},"properties":{"id":"25779","parcel":"09613021500","address":"2811 PATRIOT WAY","owner":"NASHVILLE HANSHIN COMMUNITY CHURCH","point":[-86.6648728847154,36.14963893932424]}},{"type":"Feature","id":"25960","geometry":{"type":"Polygon","coordinates":[[[-86.6629755584583,36.1495967574806],[-86.6629755984035,36.1495964841778],[-86.663279235068,36.1496211829823],[-86.6632792917775,36.1496211871769],[-86.6631897262361,36.1502524044678],[-86.662883301858,36.1502255189531],[-86.6629755584583,36.1495967574806]]]},"properties":{"id":"25960","parcel":"09613013202","address":"927 ALLEN RD","owner":"PEREZ, ENRIQUE","point":[-86.66308202810367,36.14992335529551]}},{"type":"Feature","id":"25962","geometry":{"type":"Polygon","coordinates":[[[-86.6616657921604,36.1501245160774],[-86.6611071924422,36.1500770320943],[-86.6610963292986,36.1500765733817],[-86.6610856827407,36.1500747669919],[-86.6610755031532,36.1500716548142],[-86.6610660356354,36.1500673112122],[-86.6610575032941,36.1500618386091],[-86.6610501083637,36.1500553683833],[-86.6610437350093,36.1500470684009],[-86.6610391734241,36.1500380158511],[-86.6610365580117,36.1500284704632],[-86.6610359599338,36.1500187040295],[-86.6610359943455,36.1500181657859],[-86.6610362263802,36.1500153372473],[-86.6610388485976,36.1500048844341],[-86.6610487654954,36.1499445670396],[-86.6610553772177,36.1498839523069],[-86.6610586725469,36.1498231601664],[-86.6610586424804,36.1497623096347],[-86.6610552902316,36.1497015187599],[-86.6616109938479,36.1497270424097],[-86.6616657921604,36.1501245160774]]]},"properties":{"id":"25962","parcel":"09613013300","address":"900 SHAUNA DR","owner":"MILLER, LISA A. & O'BOYLE, NOLAND P.","point":[-86.66134455208697,36.14991508711568]}},{"type":"Feature","id":"25964","geometry":{"type":"Polygon","coordinates":[[[-86.6609884321847,36.1488316154727],[-86.6615790605995,36.1488217859729],[-86.6615745353158,36.1489673434599],[-86.6615705148364,36.1490965393122],[-86.6610096685946,36.1491040083347],[-86.6609884321847,36.1488316154727]]]},"properties":{"id":"25964","parcel":"09613013600","address":"912 SHAUNA DR","owner":"JACKSON, PAMELA S.","point":[-86.66128513937457,36.14889949016385]}},{"type":"Feature","id":"25966","geometry":{"type":"Polygon","coordinates":[[[-86.6604318839948,36.149680757679],[-86.6608870946179,36.1496782654284],[-86.66089113883,36.1497418320185],[-86.6608907064448,36.1498054808061],[-86.6608857979704,36.1498690072011],[-86.6608764305459,36.1499322020158],[-86.660862633579,36.1499948614021],[-86.6608606302295,36.1500047700632],[-86.6608566933628,36.1500142891516],[-86.6608509265181,36.1500231747588],[-86.6608434777882,36.1500311953496],[-86.6608345410291,36.1500381434724],[-86.6608254387761,36.1500429664175],[-86.6608155963292,36.1500467109962],[-86.6608052053215,36.1500493031568],[-86.6607944698201,36.1500506940145],[-86.6607835996131,36.1500508544813],[-86.6607834739854,36.1500508479591],[-86.6607763837639,36.1500502748258],[-86.6603886000387,36.1500150375343],[-86.6604318839948,36.149680757679]]]},"properties":{"id":"25966","parcel":"09613013800","address":"901 SHAUNA DR","owner":"RJT PROPERTIES LLC","point":[-86.66065002427727,36.14983656919205]}},{"type":"Feature","id":"25968","geometry":{"type":"Polygon","coordinates":[[[-86.6601572874759,36.1492449286965],[-86.6608507188147,36.1492147611609],[-86.6608659499676,36.1494168612078],[-86.6601319098153,36.1494516464491],[-86.6601572874759,36.1492449286965]]]},"properties":{"id":"25968","parcel":"09613014000","address":"909 SHAUNA DR","owner":"NICHOLS, STEVE A. & LYNDA M.","point":[-86.66050320314159,36.1493308716195]}},{"type":"Feature","id":"25970","geometry":{"type":"Polygon","coordinates":[[[-86.6602134617288,36.1488314634911],[-86.6608202201488,36.14880616576],[-86.6608354877393,36.1490126611014],[-86.6601853935062,36.1490403932836],[-86.6602134617288,36.1488314634911]]]},"properties":{"id":"25970","parcel":"09613014200","address":"913 SHAUNA DR","owner":"MCCULLARS, DAVID R.","point":[-86.66051513320406,36.14892203621962]}},{"type":"Feature","id":"25972","geometry":{"type":"Polygon","coordinates":[[[-86.6601911862908,36.1484338129428],[-86.6607841195461,36.1483756236356],[-86.660790348847,36.1484321790594],[-86.6608022790104,36.1486040796153],[-86.6602063607578,36.1486293179571],[-86.6601915152806,36.1484733667659],[-86.6601911862908,36.1484338129428]]]},"properties":{"id":"25972","parcel":"09613014400","address":"917 SHAUNA DR","owner":"BOOTH, DEVON & ARMSTRONG, AMANDA K","point":[-86.66049772918012,36.14853872593839]}},{"type":"Feature","id":"58969","geometry":{"type":"Polygon","coordinates":[[[-86.6678757380509,36.148264014775],[-86.6677077647149,36.1482464621106],[-86.6664847775579,36.1481186525937],[-86.6664855268642,36.1480849447284],[-86.6664878997004,36.1480421061867],[-86.6664875174198,36.1479992260822],[-86.6666564037966,36.1466919003379],[-86.6692024577699,36.1469840003236],[-86.6691148158123,36.1474823420394],[-86.6689574647861,36.148377049288],[-86.6678757380509,36.148264014775]]]},"properties":{"id":"58969","parcel":"10800017600","address":"530 DONELSON PIKE","owner":"DONELSON PIKE PARTNERS, LLC ETAL","point":[-86.66779505441194,36.14774077432733]}},{"type":"Feature","id":"60027","geometry":{"type":"Polygon","coordinates":[[[-86.6604391815447,36.1459986887362],[-86.660342867692,36.145943043575],[-86.6601914049129,36.1458537683353],[-86.6600508549839,36.1457734990424],[-86.6599682510554,36.1457275248728],[-86.6597824469586,36.1456257804696],[-86.6595948348575,36.1455262429493],[-86.6594054549244,36.1454289337146],[-86.6592143473084,36.1453338714643],[-86.6598536495041,36.1440521683801],[-86.6600865015147,36.1440728685367],[-86.6600940692843,36.1440949883685],[-86.6601053661782,36.1441160369225],[-86.6601201676503,36.1441356026462],[-86.6601381882886,36.1441533040618],[-86.6601590740894,36.1441687961172],[-86.6601824180581,36.1441817755086],[-86.6602077636177,36.1441919896746],[-86.6602346179574,36.1441992385253],[-86.6602624565301,36.1442033807278],[-86.660290734186,36.144204336348],[-86.6603189007145,36.1442020849637],[-86.6603447781889,36.1441971612285],[-86.6603711674921,36.1441945905961],[-86.6603977466669,36.1441944072739],[-86.6604241879229,36.1441966121546],[-86.6604541022831,36.1442026338076],[-86.6604827586152,36.1442118402037],[-86.660509644397,36.1442240656128],[-86.6605342777746,36.1442390909621],[-86.6609028986601,36.1445389740693],[-86.6614529270026,36.1449851051592],[-86.6614296441228,36.1450173827498],[-86.6614046852583,36.1450488268387],[-86.6605647447765,36.1460687426604],[-86.6604391815447,36.1459986887362]]]},"properties":{"id":"60027","parcel":"10800003600","address":"2875 ELM HILL PIKE","owner":"WVC","point":[-86.66028595916895,36.145191287347735]}},{"type":"Feature","id":"60198","geometry":{"type":"Polygon","coordinates":[[[-86.6669463115223,36.1425390967697],[-86.6676122175885,36.1424650891458],[-86.6676026914623,36.1429835136191],[-86.6669406516975,36.1429135530589],[-86.6669037922826,36.1426382260017],[-86.6669463115223,36.1425390967697]]]},"properties":{"id":"60198","parcel":"10800000500","address":"590 DONELSON PIKE","owner":"MUKAM HOTELS, LLC","point":[-86.66726434680805,36.14277684050505]}},{"type":"Feature","id":"60199","geometry":{"type":"Polygon","coordinates":[[[-86.6691236083862,36.1422061846238],[-86.668278911908,36.1421226851591],[-86.66951024412,36.1419886694646],[-86.6705665631278,36.1420253829679],[-86.6712786728595,36.1420720465347],[-86.6712555844226,36.1424151720594],[-86.6691236083862,36.1422061846238]]]},"properties":{"id":"60199","parcel":"10800000700","address":"0 DONELSON PIKE","owner":"WALKER, JOHN D.","point":[-86.66998661960352,36.14216798424851]}},{"type":"Feature","id":"60473","geometry":{"type":"Polygon","coordinates":[[[-86.6689646179161,36.1448406786368],[-86.6690388005062,36.1443194235977],[-86.6692897525273,36.1445180184194],[-86.6692324227708,36.1448688623912],[-86.6689646179161,36.1448406786368]]]},"properties":{"id":"60473","parcel":"10801002300","address":"2725 SHACKLETT DR","owner":"WALKER, WILLIAM B. ETUX","point":[-86.66912548078619,36.14467934393259]}},{"type":"Feature","id":"60478","geometry":{"type":"Polygon","coordinates":[[[-86.6607164589499,36.1477342806873],[-86.6614751046714,36.1474026747651],[-86.6617280970401,36.1475221581376],[-86.6616885719071,36.1476564318006],[-86.6608264495765,36.1479270718785],[-86.6607926430745,36.1478617530552],[-86.6607559637388,36.1477974611724],[-86.6607164589499,36.1477342806873]]]},"properties":{"id":"60478","parcel":"10801004600","address":"924 SHAUNA DR","owner":"BARBA, ISAAC JARED & VIVIANA MARIA","point":[-86.66118470398172,36.14769530684214]}},{"type":"Feature","id":"60481","geometry":{"type":"Polygon","coordinates":[[[-86.6602880874758,36.1470531563373],[-86.660764063467,36.1469428658364],[-86.6609113277614,36.1470563370847],[-86.6609604277877,36.1470956264867],[-86.6604474513856,36.1473181998359],[-86.6603953304954,36.1472415675089],[-86.6603680039866,36.1472062738993],[-86.6603435221554,36.1471696335469],[-86.660321985146,36.1471317964167],[-86.6603034820275,36.1470929170404],[-86.6602880874758,36.1470531563373]]]},"properties":{"id":"60481","parcel":"10801004900","address":"930 SHAUNA DR","owner":"ODEN, KENNEDY E.","point":[-86.66061494064722,36.1471136374473]}},{"type":"Feature","id":"60602","geometry":{"type":"Polygon","coordinates":[[[-86.665636801733,36.1457513297192],[-86.6657054600464,36.1452147237413],[-86.6664295613801,36.145292039788],[-86.6665678537419,36.1453044614352],[-86.6665173694498,36.1456915267995],[-86.6665067572796,36.1457728985483],[-86.6665033910437,36.1457847633839],[-86.6664975480215,36.1457959785684],[-86.6664894065006,36.1458062060429],[-86.6664792083778,36.1458151398431],[-86.6664672603151,36.1458225115],[-86.6664539238002,36.1458280973048],[-86.6664395963775,36.1458317328336],[-86.6664247127068,36.1458333066323],[-86.6664097157631,36.1458327711908],[-86.665636801733,36.1457513297192]]]},"properties":{"id":"60602","parcel":"10801007100","address":"545 DONELSON PIKE","owner":"MCDONALD'S CORP.","point":[-86.66610606950992,36.145496777869425]}},{"type":"Feature","id":"60650","geometry":{"type":"Polygon","coordinates":[[[-86.6620537660681,36.1439288625293],[-86.661993541226,36.1436520121192],[-86.661981841775,36.143508129652],[-86.6619928497896,36.1433660459],[-86.6620155166604,36.1432412051934],[-86.6620749595133,36.1430991305554],[-86.6623128717875,36.1427527930044],[-86.6636577418867,36.1428684722006],[-86.6638810942643,36.1428875715644],[-86.6641769660496,36.1431546063498],[-86.6641824774695,36.143178909308],[-86.6641922693377,36.1432023072647],[-86.6642061342127,36.1432243101706],[-86.6642237815208,36.1432444527678],[-86.6642389655141,36.143261559037],[-86.6642507467246,36.143280346874],[-86.6642588492148,36.1433003743756],[-86.6642630801546,36.143321172143],[-86.6642633409852,36.1433422495289],[-86.664259626452,36.143363111767],[-86.6642520235615,36.1433832680887],[-86.6642407105762,36.1434022443473],[-86.6642259537795,36.1434195947513],[-86.6642080997733,36.1434349109203],[-86.6641160237709,36.143501380538],[-86.6640263388042,36.143569967519],[-86.663885722254,36.1436841954126],[-86.6636270496081,36.1438965931243],[-86.663572003278,36.1439415878596],[-86.6635198544837,36.1439887981707],[-86.6634707388862,36.1440381025456],[-86.6620537660681,36.1439288625293]]]},"properties":{"id":"60650","parcel":"10801007700","address":"1111 AIRPORT CENTER DR","owner":"SAI RAM AIRPORT LLC","point":[-86.66311881936426,36.14338958994893]}},{"type":"Feature","id":"60653","geometry":{"type":"Polygon","coordinates":[[[-86.6620544748063,36.1439327025411],[-86.6620537660681,36.1439288625293],[-86.6634707388862,36.1440381025456],[-86.6634111633902,36.144102135223],[-86.6633551175029,36.1441682312912],[-86.6633027112807,36.1442362630714],[-86.6621430565909,36.144157750234],[-86.6620544748063,36.1439327025411]]]},"properties":{"id":"60653","parcel":"10801007800","address":"0 AIRPORT CENTER DR","owner":"MAHAN INVESTMENTS, INC.","point":[-86.66277401821002,36.14406824285563]}},{"type":"Feature","id":"60654","geometry":{"type":"Polygon","coordinates":[[[-86.6667837937113,36.1456900548392],[-86.666818210856,36.1454327424189],[-86.6668205880365,36.1454220655001],[-86.6668250558452,36.1454118393774],[-86.6668314953992,36.1454023305809],[-86.6668397409807,36.1453937860719],[-86.6668495755854,36.1453864323658],[-86.6668607430083,36.1453804592429],[-86.6668729500967,36.1453760233408],[-86.666885880023,36.1453732408709],[-86.6668991933738,36.1453721849092],[-86.6669125425635,36.1453728817107],[-86.6671132073137,36.1453915516452],[-86.667690817866,36.1454476934777],[-86.6676573905862,36.1456852242003],[-86.6676320118081,36.1458655727957],[-86.667629392715,36.1458761456201],[-86.6676247617616,36.1458862546086],[-86.6676182335267,36.1458956503777],[-86.667609968276,36.1459040986123],[-86.667600173164,36.1459113908748],[-86.6675890889226,36.1459173473822],[-86.6675769898919,36.1459218206112],[-86.6675641762796,36.1459246998476],[-86.6675509630646,36.1459259130497],[-86.6675376800349,36.1459254313549],[-86.6668461223813,36.1458523366589],[-86.6668321964086,36.1458491285047],[-86.6668190626249,36.145844188244],[-86.6668070487563,36.1458376384407],[-86.6667964495118,36.1458296396943],[-86.666787529932,36.1458203924243],[-86.6667805086154,36.1458101243446],[-86.6667755610448,36.1457990895442],[-86.6667728084223,36.1457875622397],[-86.6667723209198,36.1457758268437],[-86.6667837937113,36.1456900548392]]]},"properties":{"id":"60654","parcel":"10800017400","address":"546 DONELSON PIKE","owner":"HILLSBORO REALTY COMPANY","point":[-86.66723737715716,36.14556524619706]}},{"type":"Feature","id":"60971","geometry":{"type":"Polygon","coordinates":[[[-86.6678289609309,36.1456842747423],[-86.6678616230438,36.1454599337299],[-86.6686399174913,36.1455369365645],[-86.6685465241111,36.146029728375],[-86.6678739483988,36.1459587325773],[-86.6678595534132,36.145956182358],[-86.6678459130209,36.1459516604965],[-86.6678334372898,36.1459453026171],[-86.6678224956295,36.1459372986455],[-86.6678134167306,36.1459278855983],[-86.6678064696673,36.1459173467871],[-86.6678018637531,36.1459059946942],[-86.6677997340813,36.1458941692509],[-86.6678001458478,36.1458822233929],[-86.6678289609309,36.1456842747423]]]},"properties":{"id":"60971","parcel":"10800000100","address":"620 ROYAL PKWY","owner":"SR AND L PRICE INVESTMENTS, LLC","point":[-86.66820369075731,36.14578432777755]}},{"type":"Feature","id":"61172","geometry":{"type":"Polygon","coordinates":[[[-86.6670885908301,36.1447192060797],[-86.6672457549266,36.1447205343718],[-86.66772202041,36.1446475748244],[-86.6677366023879,36.1447063306051],[-86.6677541933662,36.1447645415893],[-86.6677747624936,36.1448221061031],[-86.6677982767187,36.1448789251887],[-86.6678246907598,36.1449348990546],[-86.6678299252615,36.1449458195686],[-86.6678327588035,36.1449573085511],[-86.6678331095971,36.1449690221713],[-86.6678309658025,36.1449806099019],[-86.6678263900493,36.1449917235075],[-86.667819521781,36.1450020314511],[-86.6678105661881,36.1450112243638],[-86.6677997909893,36.145019028581],[-86.6677875175648,36.1450252088954],[-86.6676861775171,36.1450638058473],[-86.6675832204238,36.1450994780377],[-86.6674787759347,36.1451321814848],[-86.6673729737383,36.1451618767129],[-86.6672659457386,36.1451885233337],[-86.6670663109936,36.1449698614735],[-86.667079617717,36.1448446605952],[-86.6670885908301,36.1447192060797]]]},"properties":{"id":"61172","parcel":"10801003600","address":"550 DONELSON PIKE","owner":"MAPCO METRO PROPERTIES, LLC","point":[-86.66744235151909,36.14490588770135]}},{"type":"Feature","id":"61175","geometry":{"type":"Polygon","coordinates":[[[-86.6669907547274,36.1433945624657],[-86.6669436261861,36.1429421058739],[-86.6669406516975,36.1429135530589],[-86.6676026914623,36.1429835136191],[-86.6686220249773,36.1430910486779],[-86.6682075575058,36.1434229920416],[-86.6679157504814,36.1431982500413],[-86.6678538421957,36.1432469402767],[-86.6674204799003,36.1435877773387],[-86.6669910570007,36.1433946986885],[-86.6669907547274,36.1433945624657]]]},"properties":{"id":"61175","parcel":"10801004200","address":"580 DONELSON PIKE","owner":"MOORE, JOHNNY ET UX","point":[-86.66737087265415,36.14332060933609]}},{"type":"Feature","id":"61178","geometry":{"type":"Polygon","coordinates":[[[-86.6604474513856,36.1473181998359],[-86.6609604277877,36.1470956264867],[-86.6611595019108,36.1472483710666],[-86.6605737350664,36.1475152966631],[-86.6604501962115,36.1473224838483],[-86.6604474513856,36.1473181998359]]]},"properties":{"id":"61178","parcel":"10801004800","address":"928 SHAUNA DR","owner":"BUI, HUAN & KLEINHENZ, LAUREN","point":[-86.66080543210809,36.14728329151932]}},{"type":"Feature","id":"62103","geometry":{"type":"Polygon","coordinates":[[[-86.6601751435311,36.1428833033588],[-86.6611797363045,36.1427243944723],[-86.6610392430825,36.1429756974044],[-86.6604774104605,36.143958102679],[-86.6604218756799,36.1439182967052],[-86.6603986130324,36.1439034675162],[-86.6603729388372,36.1438915418816],[-86.6603453974615,36.1438827736817],[-86.6603165760434,36.1438773489679],[-86.6602870889215,36.1438753842458],[-86.6602575631375,36.1438769202459],[-86.6602286273558,36.1438819255889],[-86.660200897374,36.1438902914578],[-86.6601749628796,36.143901842485],[-86.6601513774053,36.1439163314002],[-86.660130641752,36.1439334499355],[-86.6601131995823,36.1439528333563],[-86.6600994185978,36.143974068675],[-86.6599467509864,36.1438337501785],[-86.6596800628718,36.1437313240767],[-86.6601751435311,36.1428833033588]]]},"properties":{"id":"62103","parcel":"10802011300","address":"832 ROYAL PKWY","owner":"BNA PREMIER LODGING, LLC","point":[-86.66036190842014,36.143353519084826]}},{"type":"Feature","id":"62408","geometry":{"type":"Polygon","coordinates":[[[-86.659969209652,36.1481339469798],[-86.6599623231234,36.1481125435466],[-86.6599598408055,36.1480905148813],[-86.6599618309634,36.1480684536434],[-86.6599682385196,36.1480469531663],[-86.6599788915797,36.1480265902979],[-86.6599935046692,36.1480079136665],[-86.6600116841244,36.1479914238235],[-86.6600329413601,36.1479775650597],[-86.6601355479566,36.1479249539042],[-86.6602399870646,36.1478747732595],[-86.6603461745775,36.1478270641381],[-86.660454018611,36.1477818675955],[-86.6604677476879,36.1477779638756],[-86.6604820790683,36.1477759314891],[-86.6604966253763,36.1477758239283],[-86.660511001039,36.1477776442049],[-86.6605248156034,36.1477813430843],[-86.6605377004277,36.1477868216428],[-86.6605493087036,36.1477939339718],[-86.6605593310128,36.1478024870921],[-86.6605674954242,36.1478122526701],[-86.6605735852885,36.1478229687228],[-86.6606075064088,36.1478733764475],[-86.6606385661102,36.1479249831896],[-86.660666700158,36.1479776820521],[-86.6606918509691,36.1480313642994],[-86.6607139664934,36.1480859184612],[-86.660235493837,36.1482225933721],[-86.659969209652,36.1481339469798]]]},"properties":{"id":"62408","parcel":"10802000100","address":"923 SHAUNA DR","owner":"STEVENS, AARON C & CRAIG, DANIELLE L","point":[-86.66034024645275,36.14800062685464]}},{"type":"Feature","id":"62603","geometry":{"type":"Polygon","coordinates":[[[-86.6678897820887,36.144620275287],[-86.6678797812941,36.1445604432887],[-86.667872891654,36.1445003236883],[-86.6678691273819,36.1444400218558],[-86.6678684938255,36.1443796459138],[-86.6678709929683,36.1443193003983],[-86.6678784431593,36.1442598314474],[-86.6678892642171,36.1442007034419],[-86.6679034338623,36.1441420426815],[-86.6679209198075,36.1440839746197],[-86.6679416875134,36.1440266211174],[-86.6679658236428,36.1439689254086],[-86.6679937305951,36.1439123588344],[-86.6680253297348,36.1438570849569],[-86.6680605290482,36.1438032620042],[-86.6680992298102,36.143751042834],[-86.6681340196238,36.143706534914],[-86.6681713779159,36.1436634160323],[-86.6682112188583,36.1436217867025],[-86.6682534532145,36.1435817384442],[-86.6682979850817,36.1435433628141],[-86.6684971464587,36.143384027756],[-86.6687824328281,36.143156089162],[-86.6688389770791,36.1431140200454],[-86.6689128794095,36.1430634422477],[-86.6689892862789,36.1430153758671],[-86.6690680694838,36.1429699027241],[-86.6691050182621,36.1429494869227],[-86.6691426665258,36.1429299306444],[-86.669215118277,36.1428942298039],[-86.6692893285854,36.1428609904385],[-86.6693055286393,36.1428543078088],[-86.6690235371612,36.1428294997359],[-86.6691572121575,36.1427370058849],[-86.6691236083862,36.1422061846238],[-86.6712555844226,36.1424151720594],[-86.671241060847,36.1425579279578],[-86.6712344313325,36.1426547374975],[-86.671224302732,36.1427255279914],[-86.671171663089,36.1430922760063],[-86.6704315131536,36.1429977715026],[-86.6702630063465,36.1429764562954],[-86.6702638413535,36.1430753458812],[-86.6702607273535,36.1431433223141],[-86.6702541906978,36.1432111393073],[-86.6702442437522,36.1432786832321],[-86.6702309022161,36.1433458404407],[-86.6702208152777,36.1434010197568],[-86.6702078080758,36.1434557953015],[-86.6701919041897,36.1435100650997],[-86.6701731327695,36.1435637289477],[-86.6695325308558,36.143426635391],[-86.6695005034735,36.1434839525205],[-86.6694417867276,36.143589765277],[-86.6700854860628,36.1437729905803],[-86.6700502338001,36.1438417024518],[-86.6700119510978,36.1439093397051],[-86.6699706883238,36.1439758146347],[-86.6699208769029,36.1440600369891],[-86.669874578876,36.1441455673811],[-86.6698447849338,36.144210258072],[-86.6698173301553,36.1442756261393],[-86.6697922374079,36.1443416155791],[-86.6697715807337,36.1444007857395],[-86.6697537270329,36.1444605513954],[-86.6697387000341,36.1445208267965],[-86.6697265234509,36.144581524389],[-86.6696613797618,36.1448489032885],[-86.6696581947754,36.1448595369831],[-86.6696529014866,36.1448696010614],[-86.6696456420705,36.1448788252553],[-86.6696366155303,36.1448869579082],[-86.6696260655738,36.1448937777579],[-86.669614279571,36.1448991020549],[-86.6696015740857,36.1449027839381],[-86.6695882972049,36.1449047250401],[-86.669574807396,36.1449048719994],[-86.6692324227708,36.1448688623912],[-86.6692897525273,36.1445180184194],[-86.6690388005062,36.1443194235977],[-86.6689646179161,36.1448406786368],[-86.6688958385148,36.1448333333803],[-86.6688267555673,36.1448282059815],[-86.6687574746871,36.1448253030647],[-86.6686881081472,36.144824630316],[-86.668608477277,36.1448260431551],[-86.6685290140806,36.1448304769589],[-86.6684498951452,36.144837921737],[-86.6683712914566,36.1448483621225],[-86.6682827356624,36.1448636613265],[-86.6681952150532,36.1448824750793],[-86.6681089403491,36.1449047562517],[-86.6680963857247,36.1449103955926],[-86.6680828562471,36.1449142792552],[-86.668068723271,36.1449163006362],[-86.668054371925,36.1449164053297],[-86.6680401955406,36.1449145893553],[-86.6680265834672,36.1449109037323],[-86.6680139065667,36.1449054473496],[-86.6680025116953,36.1448983715024],[-86.6679927105011,36.1448898691395],[-86.6679847716157,36.1448801713008],[-86.6679549401261,36.1448167520983],[-86.6679291226554,36.144752184085],[-86.6679073839481,36.1446866354416],[-86.6678897820887,36.144620275287]]]},"properties":{"id":"62603","parcel":"10801002400","address":"562 CLARIDGE DR","owner":"TPS PARKING NASHVILLE, LLC","point":[-86.66885890352879,36.14357175822011]}},{"type":"Feature","id":"62604","geometry":{"type":"Polygon","coordinates":[[[-86.6670885908301,36.1447192060797],[-86.6670920627365,36.1446166660291],[-86.6670930052547,36.1445140894887],[-86.6670914209729,36.1444115188039],[-86.6676957878981,36.1444279551712],[-86.6676980245264,36.1444831498734],[-86.667703148072,36.1445382168426],[-86.6677111521662,36.1445930587768],[-86.66772202041,36.1446475748244],[-86.6672457549266,36.1447205343718],[-86.6670885908301,36.1447192060797]]]},"properties":{"id":"62604","parcel":"10801003800","address":"556 DONELSON PIKE","owner":"WAFFLE HOUSE, INC","point":[-86.66739984869717,36.14456478479729]}},{"type":"Feature","id":"62765","geometry":{"type":"Polygon","coordinates":[[[-86.6602821976494,36.1466707978548],[-86.6602996189317,36.1466247920587],[-86.6603209218414,36.1465798735745],[-86.6603460048187,36.146536257457],[-86.6603747484881,36.1464941543523],[-86.6604070144954,36.1464537641944],[-86.6604426477674,36.1464152807004],[-86.6604913773698,36.1463693991216],[-86.6605014613534,36.1463626844722],[-86.6605125437003,36.1463570972478],[-86.6605244318701,36.1463527349376],[-86.6605371124032,36.1463502501312],[-86.6605501105573,36.1463493453058],[-86.6605631264757,36.1463500410295],[-86.6605758666612,36.1463523208837],[-86.660588035102,36.1463561333144],[-86.6605993565977,36.1463613906029],[-86.6608960613888,36.1465245893283],[-86.6606786053605,36.1467675221137],[-86.6602821976494,36.1466707978548]]]},"properties":{"id":"62765","parcel":"10801005100","address":"934 SHAUNA DR","owner":"WRIGHT, BRIDGETTE N. & WILLS, EMMOND","point":[-86.66059910579843,36.14655881862791]}},{"type":"Feature","id":"62766","geometry":{"type":"Polygon","coordinates":[[[-86.6606786053605,36.1467675221137],[-86.6608960613888,36.1465245893283],[-86.6612145711578,36.1467030515417],[-86.6609113277614,36.1470563370847],[-86.660764063467,36.1469428658364],[-86.6606786053605,36.1467675221137]]]},"properties":{"id":"62766","parcel":"10801005200","address":"2882 ELM HILL PIKE","owner":"EDWARDS, ERNEST L.,III & WM. H. ET AL","point":[-86.66090221746458,36.14685570627675]}},{"type":"Feature","id":"62767","geometry":{"type":"Polygon","coordinates":[[[-86.6638852545859,36.1466249309909],[-86.6639887126654,36.1457930999087],[-86.6650664150667,36.1459105074677],[-86.6649626361062,36.1467431632324],[-86.6638852545859,36.1466249309909]]]},"properties":{"id":"62767","parcel":"10801005800","address":"721 ROYAL PKWY","owner":"SAI BNA LLC","point":[-86.66447578804507,36.14626772057169]}},{"type":"Feature","id":"62788","geometry":{"type":"Polygon","coordinates":[[[-86.6654968781889,36.1432819999661],[-86.6653850562265,36.1432639676573],[-86.6652741945959,36.1432423825647],[-86.665164463615,36.1432172798028],[-86.6650560358457,36.1431886971779],[-86.6649490772355,36.1431566788423],[-86.6648437526727,36.1431212752637],[-86.664740225956,36.1430825396198],[-86.6646386565067,36.1430405332245],[-86.6646843416787,36.1427125566672],[-86.6651792210082,36.1428815207778],[-86.6653300068205,36.1429510125571],[-86.665494739782,36.1430269352704],[-86.6655137788099,36.1430357095389],[-86.6655417148954,36.1429498467896],[-86.66555604204,36.1429058147867],[-86.6662626329077,36.1428359856957],[-86.6662750018951,36.14294579984],[-86.6662801959513,36.1429919223251],[-86.6664292472334,36.1429954946506],[-86.6664598256963,36.1430876271862],[-86.6664801556732,36.1432501412615],[-86.6664805660014,36.1432566623633],[-86.6664796604198,36.1432631501767],[-86.6664774641423,36.1432694315193],[-86.6664740335471,36.143275339345],[-86.6664694617325,36.1432807127143],[-86.6664638719713,36.1432854112497],[-86.6664574120948,36.1432893079571],[-86.6664502556791,36.143292298232],[-86.6664425942828,36.143294301705],[-86.6663378916034,36.1433050210186],[-86.6662327869306,36.1433127286249],[-86.6661274124092,36.1433174129786],[-86.6660218980301,36.1433190706574],[-86.6659163782285,36.1433176982153],[-86.6658109852629,36.1433132976265],[-86.6657058491921,36.1433058735813],[-86.6656011034611,36.1432954370608],[-86.6654968781889,36.1432819999661]]]},"properties":{"id":"62788","parcel":"10801006200","address":"583 DONELSON PIKE","owner":"ELITE EIGHT, LLC AND DONELSON INVESTOR, LLC","point":[-86.66597852493985,36.14301126197822]}},{"type":"Feature","id":"62789","geometry":{"type":"Polygon","coordinates":[[[-86.6658291159794,36.1434822932222],[-86.6659408842899,36.1434836826276],[-86.666052655709,36.143482528538],[-86.6661643446769,36.1434788323268],[-86.6662758612044,36.143472597195],[-86.6663871175322,36.1434638272328],[-86.6664065022855,36.1434633299238],[-86.6664257232412,36.1434654255592],[-86.6664442576727,36.1434700575426],[-86.666461600041,36.1434770988845],[-86.6664772776031,36.1434863584241],[-86.6664908637758,36.1434975843613],[-86.6665019881807,36.1435104696082],[-86.6665103478547,36.1435246634436],[-86.6665157151025,36.1435397804826],[-86.6665179430989,36.1435554060526],[-86.6665301823119,36.1437223602705],[-86.6665399721069,36.1439200972509],[-86.665860025486,36.1439370351422],[-86.6658291159794,36.1434822932222]]]},"properties":{"id":"62789","parcel":"10801006300","address":"577 DONELSON PIKE","owner":"OWC, LTD.","point":[-86.66618184630768,36.14363792981139]}},{"type":"Feature","id":"62790","geometry":{"type":"Polygon","coordinates":[[[-86.6657070688159,36.1449218772474],[-86.6661048290345,36.1448974316436],[-86.666467213749,36.1449358118254],[-86.6664295613801,36.145292039788],[-86.6657054600464,36.1452147237413],[-86.6656674918559,36.1452105377335],[-86.6657070688159,36.1449218772474]]]},"properties":{"id":"62790","parcel":"10801006400","address":"551 DONELSON PIKE","owner":"ARC CAFEUSA001, LLC","point":[-86.66606952602189,36.14507318150971]}},{"type":"Feature","id":"62791","geometry":{"type":"Polygon","coordinates":[[[-86.6642335016389,36.1480490140182],[-86.6644120712544,36.1470459029329],[-86.6649165342909,36.1471024608212],[-86.665450803156,36.1471588522334],[-86.6654068622998,36.1474118238683],[-86.6653241897332,36.1478935654704],[-86.6650462658262,36.1483566040426],[-86.6648811093917,36.1482997160207],[-86.6647172049187,36.1482404947105],[-86.6645546025657,36.148178956965],[-86.6643933514174,36.1481151241494],[-86.6642335016389,36.1480490140182]]]},"properties":{"id":"62791","parcel":"10801006500","address":"2825 ELM HILL PIKE","owner":"BNA HOTELS, LLC","point":[-86.66483505398634,36.14765121127163]}},{"type":"Feature","id":"62792","geometry":{"type":"Polygon","coordinates":[[[-86.6657474503977,36.1463440848694],[-86.6657932311354,36.1459878123875],[-86.6664685327015,36.1460610029054],[-86.6664227331643,36.1464150775693],[-86.6657474503977,36.1463440848694]]]},"properties":{"id":"62792","parcel":"10801006700","address":"541 DONELSON PIKE","owner":"AJS ASSOCIATES","point":[-86.66610793099625,36.14620254426455]}},{"type":"Feature","id":"62793","geometry":{"type":"Polygon","coordinates":[[[-86.6653241897332,36.1478935654704],[-86.6654068622998,36.1474118238683],[-86.6662801700104,36.147508097171],[-86.6662165086332,36.1479941289974],[-86.6653241897332,36.1478935654704]]]},"properties":{"id":"62793","parcel":"10801007300","address":"525 DONELSON PIKE","owner":"FIFTH THIRD BANK N.A.","point":[-86.66580611911031,36.14770084327311]}},{"type":"Feature","id":"62808","geometry":{"type":"Polygon","coordinates":[[[-86.6645850570621,36.1444055712093],[-86.6637689083858,36.1440122879844],[-86.6641557040856,36.14368985218],[-86.66425971219,36.1436126359392],[-86.6642926322689,36.1435878411154],[-86.6643243169089,36.1435620094177],[-86.6643947092883,36.1435149218098],[-86.6644381308766,36.1434773657684],[-86.66447876106,36.1434378080486],[-86.6645164587472,36.1433963846203],[-86.6645510929012,36.1433532377067],[-86.6645825458793,36.1433085166674],[-86.6646107089666,36.143262375319],[-86.6646157438295,36.1432164722157],[-86.6647209718495,36.1432569308275],[-86.6648279405691,36.143294264078],[-86.6649365095688,36.143328424068],[-86.6650465362212,36.1433593647135],[-86.6651578746174,36.1433870462579],[-86.6652703788704,36.1434114316487],[-86.6653838998046,36.1434324892596],[-86.6654982882665,36.1434501901686],[-86.6656080848823,36.1434639867776],[-86.6657184045304,36.1434746917605],[-86.6658291159794,36.1434822932222],[-86.665860025486,36.1439370351422],[-86.6665399721069,36.1439200972509],[-86.6665361689102,36.1441525170416],[-86.6665352568019,36.1443266864176],[-86.6662212426301,36.1443613853485],[-86.6652663697467,36.1445512565927],[-86.6652026522111,36.144707641411],[-86.6645850570621,36.1444055712093]]]},"properties":{"id":"62808","parcel":"10801008000","address":"1112 AIRPORT CENTER DR","owner":"HPTWN PROPERTIES TRUST","point":[-86.66517819631055,36.143975683534606]}},{"type":"Feature","id":"62811","geometry":{"type":"Polygon","coordinates":[[[-86.6613459656282,36.1446678563953],[-86.6604774104605,36.143958102679],[-86.6610392430825,36.1429756974044],[-86.6611797363045,36.1427243944723],[-86.6616090948006,36.1426725938484],[-86.6622523254727,36.1426808780059],[-86.6622490765794,36.1427380343353],[-86.6620100959518,36.1430786086156],[-86.6619469398992,36.1432218022365],[-86.6619223666709,36.1433617631193],[-86.6619093709109,36.143509077002],[-86.6619224580068,36.1436573464377],[-86.6619874889816,36.1439415861323],[-86.6620687382556,36.144140302156],[-86.661671569096,36.1441133617637],[-86.6613459656282,36.1446678563953]]]},"properties":{"id":"62811","parcel":"10801008100","address":"828 ROYAL PKWY","owner":"MAC PARTNERS, LLC","point":[-86.66126267392936,36.14379751024672]}},{"type":"Feature","id":"62814","geometry":{"type":"Polygon","coordinates":[[[-86.6620337807183,36.145227782267],[-86.6615846603854,36.144862819286],[-86.6613459656282,36.1446678563953],[-86.661671569096,36.1441133617637],[-86.6620687382556,36.144140302156],[-86.662132005201,36.1442946149767],[-86.6624027836864,36.1443142814874],[-86.662231999142,36.1453596529088],[-86.6621880678972,36.145337829215],[-86.6621460868566,36.1453136100536],[-86.6621062558877,36.1452871105933],[-86.6620687616143,36.1452584568907],[-86.6620337807183,36.145227782267]]]},"properties":{"id":"62814","parcel":"10801008300","address":"810 ROYAL PKWY","owner":"FSS HOLDINGS LLC","point":[-86.6618970044286,36.144766557366886]}},{"type":"Feature","id":"63394","geometry":{"type":"Polygon","coordinates":[[[-86.6670290232033,36.1437569638398],[-86.6669907547274,36.1433945624657],[-86.6669910570007,36.1433946986885],[-86.6674204799003,36.1435877773387],[-86.6678746833589,36.1437918434377],[-86.667839679824,36.1438554791445],[-86.667807694049,36.1439201526198],[-86.6677787730148,36.1439857680715],[-86.667755715847,36.1440471791005],[-86.6677363325286,36.144109418786],[-86.667720667419,36.1441723435831],[-86.6677087570772,36.1442358072855],[-86.6677006302768,36.1442996628289],[-86.6676963035619,36.1443637623147],[-86.6676957878981,36.1444279551712],[-86.6670914209729,36.1444115188039],[-86.6670850242822,36.1442912477116],[-86.6670749831875,36.1441711409661],[-86.6670613005335,36.1440512706521],[-86.6670290232033,36.1437569638398]]]},"properties":{"id":"63394","parcel":"10801003900","address":"560 DONELSON PIKE","owner":"TPS PARKING NASHVILLE, LLC","point":[-86.66743341162251,36.143886732803104]}},{"type":"Feature","id":"63396","geometry":{"type":"Polygon","coordinates":[[[-86.6674204799003,36.1435877773387],[-86.6678538421957,36.1432469402767],[-86.668091054956,36.1434236371693],[-86.6681002518757,36.1434311280461],[-86.6681078368971,36.1434397246891],[-86.6681136103357,36.1434492019863],[-86.6681174200956,36.1434593120306],[-86.6681191661442,36.1434697876998],[-86.6681188039519,36.1434803552554],[-86.6681163422852,36.1434907361575],[-86.66811184552,36.1435006578669],[-86.6681054314729,36.1435098601662],[-86.6680972692389,36.1435181023819],[-86.6680463130299,36.1435692213677],[-86.667998467726,36.1436222815608],[-86.6679538456184,36.1436771579687],[-86.66791255231,36.1437337229316],[-86.6678746833589,36.1437918434377],[-86.6674204799003,36.1435877773387]]]},"properties":{"id":"63396","parcel":"10801004100","address":"571 CLARIDGE DR","owner":"MOORE, JOHNNY ET UX","point":[-86.66777522727848,36.14354283959608]}},{"type":"Feature","id":"63398","geometry":{"type":"Polygon","coordinates":[[[-86.6615986826077,36.1483231165431],[-86.6616047082957,36.1483227788775],[-86.6615855936804,36.1485659458816],[-86.6615854146441,36.1485681973222],[-86.6615851192297,36.1485734181683],[-86.6609674704227,36.1485921866573],[-86.6609560103811,36.1484362170064],[-86.6609519829782,36.1483593205932],[-86.6615986826077,36.1483231165431]]]},"properties":{"id":"63398","parcel":"10801004300","address":"918 SHAUNA DR","owner":"MORRIS, JUDY LIVING TRUST","point":[-86.6612756666444,36.148501095616396]}},{"type":"Feature","id":"63400","geometry":{"type":"Polygon","coordinates":[[[-86.6616152831933,36.148015121776],[-86.661615691495,36.1480150456336],[-86.6616047082957,36.1483227788775],[-86.6615986826077,36.1483231165431],[-86.6609519829782,36.1483593205932],[-86.6609400870873,36.1482880560224],[-86.6609259454143,36.1482170606106],[-86.6609095650445,36.1481463838877],[-86.6616152831933,36.148015121776]]]},"properties":{"id":"63400","parcel":"10801004400","address":"920 SHAUNA DR","owner":"NEWELL, ALLIE","point":[-86.66126371403543,36.14818270127599]}},{"type":"Feature","id":"63402","geometry":{"type":"Polygon","coordinates":[[[-86.6608264495765,36.1479270718785],[-86.6616885719071,36.1476564318006],[-86.6616702575498,36.1477188078613],[-86.6616200655895,36.147889760196],[-86.6616164390719,36.1479936806463],[-86.661615691495,36.1480150456336],[-86.6616152831933,36.148015121776],[-86.6609095650445,36.1481463838877],[-86.6608861849561,36.1480722323669],[-86.6608584582186,36.1479990726045],[-86.6608264495765,36.1479270718785]]]},"properties":{"id":"63402","parcel":"10801004500","address":"922 SHAUNA DR","owner":"FORSYTHE, GARY EDWARD","point":[-86.6612541331677,36.147908504031115]}},{"type":"Feature","id":"63404","geometry":{"type":"Polygon","coordinates":[[[-86.6605737350664,36.1475152966631],[-86.6611595019108,36.1472483710666],[-86.6611758694197,36.1472614696007],[-86.6612210928668,36.1472826466769],[-86.6614751046714,36.1474026747651],[-86.6607164589499,36.1477342806873],[-86.6605737350664,36.1475152966631]]]},"properties":{"id":"63404","parcel":"10801004700","address":"926 SHAUNA DR","owner":"ABDULLAH, ALI KERIM","point":[-86.66102176738598,36.147458979055514]}},{"type":"Feature","id":"63406","geometry":{"type":"Polygon","coordinates":[[[-86.6602821976494,36.1466707978548],[-86.6606786053605,36.1467675221137],[-86.660764063467,36.1469428658364],[-86.6602880874758,36.1470531563373],[-86.6602725722917,36.1470063727305],[-86.6602612177421,36.1469588101933],[-86.6602540825066,36.1469107108462],[-86.6602512019669,36.1468623214429],[-86.6602525914955,36.1468138879452],[-86.6602582431535,36.1467656591454],[-86.660268128978,36.1467178812414],[-86.6602821976494,36.1466707978548]]]},"properties":{"id":"63406","parcel":"10801005000","address":"932 SHAUNA DR","owner":"CALHOUN, WESLEY & JESSICA","point":[-86.6604827700933,36.14683875942595]}},{"type":"Feature","id":"63438","geometry":{"type":"Polygon","coordinates":[[[-86.6612210928668,36.1472826466769],[-86.6615483746995,36.1468874729534],[-86.6618624506151,36.147062111163],[-86.6618187708105,36.1472116823232],[-86.6617280970401,36.1475221581376],[-86.6614751046714,36.1474026747651],[-86.6612210928668,36.1472826466769]]]},"properties":{"id":"63438","parcel":"10801005400","address":"2874 ELM HILL PIKE","owner":"NOBLE FINANCIAL LLC","point":[-86.66159178918419,36.147136193914896]}},{"type":"Feature","id":"63439","geometry":{"type":"Polygon","coordinates":[[[-86.6659279867588,36.148606393862],[-86.6658937071007,36.1485980669787],[-86.6657803027341,36.1485748461543],[-86.6656675115445,36.1485497345912],[-86.6655553825302,36.1485227437373],[-86.66530984623,36.1484452550702],[-86.6650462658262,36.1483566040426],[-86.6653241897332,36.1478935654704],[-86.6662165086332,36.1479941289974],[-86.6662094154817,36.1484402918823],[-86.6662032225505,36.1484688952871],[-86.66619193445,36.1484964281785],[-86.6661755531441,36.1485220658866],[-86.6661540729959,36.1485455344557],[-86.666128841639,36.1485660026871],[-86.6660998544523,36.1485829199307],[-86.6660681304053,36.1485962805595],[-86.6660343315374,36.1486052580619],[-86.6659991468649,36.1486101217167],[-86.6659632474876,36.1486105947356],[-86.6659279867588,36.148606393862]]]},"properties":{"id":"63439","parcel":"10801005600","address":"519 DONELSON PIKE","owner":"RAMDEV JI, LLC","point":[-86.66568472313286,36.148175516856256]}},{"type":"Feature","id":"63441","geometry":{"type":"Polygon","coordinates":[[[-86.6650700113424,36.1456929202289],[-86.665138710267,36.1451607098375],[-86.6652065011879,36.1451669297924],[-86.665262812009,36.1447732391688],[-86.6652026522111,36.144707641411],[-86.6652663697467,36.1445512565927],[-86.6662212426301,36.1443613853485],[-86.6665352568019,36.1443266864176],[-86.6665103619606,36.1445883444105],[-86.666467213749,36.1449358118254],[-86.6661048290345,36.1448974316436],[-86.6657070688159,36.1449218772474],[-86.6656674918559,36.1452105377335],[-86.6657054600464,36.1452147237413],[-86.665636801733,36.1457513297192],[-86.665130737954,36.1456991764608],[-86.6650700113424,36.1456929202289]]]},"properties":{"id":"63441","parcel":"10801005900","address":"555 DONELSON PIKE","owner":"DRURY DEVELOPMENT CORP.","point":[-86.6654567449944,36.14504729607573]}},{"type":"Feature","id":"63471","geometry":{"type":"Polygon","coordinates":[[[-86.662442082854,36.1470347575904],[-86.6628873637684,36.1464938853098],[-86.6629258161273,36.1464450228361],[-86.6629610483334,36.1463945882088],[-86.6637305551073,36.146837855259],[-86.663863053772,36.1468052603142],[-86.6638852545859,36.1466249309909],[-86.6649626361062,36.1467431632324],[-86.6649521664269,36.1468275577739],[-86.6654973075927,36.1468882845328],[-86.665450803156,36.1471588522334],[-86.6649165342909,36.1471024608212],[-86.6644120712544,36.1470459029329],[-86.6642335016389,36.1480490140182],[-86.6640837094961,36.1479825824512],[-86.6639348946507,36.1479147213217],[-86.6637870772001,36.1478454413381],[-86.663614668508,36.1477594355431],[-86.6634442654467,36.1476708408553],[-86.6632759260559,36.147579686706],[-86.6631097106124,36.1474860043166],[-86.662464548322,36.1471291328486],[-86.6624542617765,36.1471224866104],[-86.6624453840593,36.1471146168297],[-86.6624381356893,36.1471057160684],[-86.6624326951861,36.1470960041566],[-86.6624291956836,36.1470857219031],[-86.6624277237442,36.1470751220883],[-86.6624283171132,36.1470644667734],[-86.662430959081,36.147054017417],[-86.6624355851274,36.1470440321353],[-86.662442082854,36.1470347575904]]]},"properties":{"id":"63471","parcel":"10801006600","address":"2845 ELM HILL PIKE","owner":"STATE OF TENNESSEE","point":[-86.66358466034151,36.14732048206426]}},{"type":"Feature","id":"63473","geometry":{"type":"Polygon","coordinates":[[[-86.665450803156,36.1471588522334],[-86.6654973075927,36.1468882845328],[-86.6663489361881,36.1469846768831],[-86.6662801700104,36.147508097171],[-86.6654068622998,36.1474118238683],[-86.665450803156,36.1471588522334]]]},"properties":{"id":"63473","parcel":"10801007400","address":"529 DONELSON PIKE","owner":"TACO BELL OF AMERICA, LLC","point":[-86.66586897298268,36.14728656683962]}},{"type":"Feature","id":"63499","geometry":{"type":"Polygon","coordinates":[[[-86.662231999142,36.1453596529088],[-86.6624027836864,36.1443142814874],[-86.662132005201,36.1442946149767],[-86.6620687382556,36.144140302156],[-86.6619874889816,36.1439415861323],[-86.6619224580068,36.1436573464377],[-86.6619093709109,36.143509077002],[-86.6619223666709,36.1433617631193],[-86.6619469398992,36.1432218022365],[-86.6620100959518,36.1430786086156],[-86.6622490765794,36.1427380343353],[-86.6622523254727,36.1426808780059],[-86.6623221027405,36.1426818703366],[-86.6623135393621,36.1427519655824],[-86.6623128717875,36.1427527930044],[-86.6620749595133,36.1430991305554],[-86.6620155166604,36.1432412051934],[-86.6619928497896,36.1433660459],[-86.661981841775,36.143508129652],[-86.661993541226,36.1436520121192],[-86.6620537660681,36.1439288625293],[-86.6620544748063,36.1439327025411],[-86.6621430565909,36.144157750234],[-86.6633027112807,36.1442362630714],[-86.6632600789071,36.1443005621333],[-86.6632211316457,36.1443663811872],[-86.6631859539089,36.1444335818791],[-86.6631546189687,36.1445020223108],[-86.6631271922976,36.1445715579228],[-86.6631037326792,36.1446420414883],[-86.66308428889,36.144713324934],[-86.6630689030177,36.1447852575191],[-86.6630576071424,36.1448576876562],[-86.6630504244407,36.1449304620038],[-86.6629718814283,36.1454206947121],[-86.6629688212249,36.1454309454011],[-86.6629637909117,36.1454406706612],[-86.6629569195566,36.1454496246387],[-86.6629483797061,36.145457578365],[-86.6629383896899,36.1454643296578],[-86.6629272036661,36.1454697085838],[-86.66291510605,36.1454735756864],[-86.662902403834,36.1454758337445],[-86.6628894199054,36.145476426007],[-86.6628764863798,36.1454753362289],[-86.6624832303628,36.1454307959876],[-86.6624307179237,36.1454225096439],[-86.6623790757784,36.1454111857401],[-86.6623285677873,36.145396884115],[-86.6622794579075,36.1453796763238],[-86.662231999142,36.1453596529088]]]},"properties":{"id":"63499","parcel":"10801008200","address":"800 ROYAL PKWY","owner":"NNP ROYAL, LLC","point":[-86.66206263516841,36.144041041564385]}},{"type":"Feature","id":"63533","geometry":{"type":"Polygon","coordinates":[[[-86.6599765120214,36.1481569821318],[-86.659969209652,36.1481339469798],[-86.660235493837,36.1482225933721],[-86.6601911862908,36.1484338129428],[-86.6601915152806,36.1484733667659],[-86.6602063607578,36.1486293179571],[-86.6602210783461,36.1487698870491],[-86.6599037683548,36.1487364608],[-86.6598663703936,36.1484751452429],[-86.6598461245781,36.1483214199211],[-86.6598738315371,36.148313302126],[-86.6598994775977,36.1483018987673],[-86.6599223859854,36.1482869395629],[-86.659941883497,36.1482692519525],[-86.6599576346711,36.1482493866428],[-86.6599693117779,36.1482276212148],[-86.6599765704692,36.1482045064236],[-86.6599787430408,36.1481805947923],[-86.6599765120214,36.1481569821318]]]},"properties":{"id":"63533","parcel":"10802000200","address":"2804 SHAUNA CT","owner":"BROCK, BRYAN & STARKE, DALLAS","point":[-86.66002737984567,36.14845312448905]}},{"type":"Feature","id":"63900","geometry":{"type":"Polygon","coordinates":[[[-86.6609113277614,36.1470563370847],[-86.6612145711578,36.1467030515417],[-86.6615483746995,36.1468874729534],[-86.6612210928668,36.1472826466769],[-86.6611758694197,36.1472614696007],[-86.6611595019108,36.1472483710666],[-86.6609604277877,36.1470956264867],[-86.6609113277614,36.1470563370847]]]},"properties":{"id":"63900","parcel":"10801005300","address":"2878 ELM HILL PIKE","owner":"ARAMANUOUS, SAMIR BADI","point":[-86.66123113189317,36.146971909066686]}},{"type":"Feature","id":"63902","geometry":{"type":"Polygon","coordinates":[[[-86.660235493837,36.1482225933721],[-86.6607139664934,36.1480859184612],[-86.6607340233331,36.1481427920313],[-86.6607510951446,36.1482003020132],[-86.6607651510795,36.1482583476354],[-86.6607761657999,36.1483168226884],[-86.6607841195461,36.1483756236356],[-86.6601911862908,36.1484338129428],[-86.660235493837,36.1482225933721]]]},"properties":{"id":"63902","parcel":"10801005500","address":"919 SHAUNA DR","owner":"ANTANAITIS, MICAH DANIEL","point":[-86.66049642255808,36.14828680805598]}},{"type":"Feature","id":"63933","geometry":{"type":"Polygon","coordinates":[[[-86.6637689083858,36.1440122879844],[-86.6645850570621,36.1444055712093],[-86.6644000965226,36.1456152976679],[-86.6632502035185,36.1454919622326],[-86.663235905388,36.1454892721353],[-86.6632223712797,36.1454846617455],[-86.6632099934425,36.145478263196],[-86.6631991267753,36.1454702601974],[-86.6631900832325,36.1454608835621],[-86.6631831217496,36.1454504022473],[-86.6631784448635,36.1454391179654],[-86.6631761852889,36.145427354443],[-86.6631764091916,36.1454154501925],[-86.6632511088564,36.1449513355307],[-86.6632577238695,36.1448813915628],[-86.6632685654268,36.1448117947807],[-86.6632836104879,36.1447427147479],[-86.6633028215378,36.1446743175021],[-86.6633261510543,36.1446067682342],[-86.6633535448336,36.1445402303689],[-86.663384934198,36.1444748638053],[-86.6634202448997,36.1444108266699],[-86.6634593904466,36.1443482744528],[-86.6635022787393,36.1442873563657],[-86.6635488032348,36.1442282216994],[-86.6635988539821,36.1441710107509],[-86.6636523088168,36.1441158647851],[-86.6637090399296,36.1440629142831],[-86.6637689083858,36.1440122879844]]]},"properties":{"id":"63933","parcel":"10801006800","address":"1100 AIRPORT CENTER DR","owner":"JAY ANJANEYA NASHVILLE, LLC","point":[-86.66390189009924,36.144779012597034]}},{"type":"Feature","id":"63935","geometry":{"type":"Polygon","coordinates":[[[-86.6649626361062,36.1467431632324],[-86.6650664150667,36.1459105074677],[-86.6657932311354,36.1459878123875],[-86.6657474503977,36.1463440848694],[-86.6664227331643,36.1464150775693],[-86.6663489361881,36.1469846768831],[-86.6654973075927,36.1468882845328],[-86.6649521664269,36.1468275577739],[-86.6649626361062,36.1467431632324]]]},"properties":{"id":"63935","parcel":"10801007000","address":"531 DONELSON PIKE","owner":"HOTELOLOGY LLC","point":[-86.66569227618486,36.146579121491875]}},{"type":"Feature","id":"63969","geometry":{"type":"Polygon","coordinates":[[[-86.6644000965226,36.1456152976679],[-86.6645850570621,36.1444055712093],[-86.6652026522111,36.144707641411],[-86.665262812009,36.1447732391688],[-86.6652065011879,36.1451669297924],[-86.665138710267,36.1451607098375],[-86.6650700113424,36.1456929202289],[-86.6644000965226,36.1456152976679]]]},"properties":{"id":"63969","parcel":"10801007900","address":"720 ROYAL PKWY","owner":"SAI SHRADHA INVESTMENT LLC","point":[-86.66486730504889,36.14496604189051]}},{"type":"Feature","id":"64104","geometry":{"type":"Polygon","coordinates":[[[-86.65978371344,36.1463548667999],[-86.6600493929112,36.1460457406447],[-86.6601875492515,36.1461232759746],[-86.6603243650648,36.146202466897],[-86.6603357510168,36.1462113361302],[-86.6603450678685,36.1462216722296],[-86.6603520341006,36.1462331621946],[-86.6603564390154,36.1462454574877],[-86.6603581483981,36.1462581866209],[-86.660357111243,36.1462709623293],[-86.6603536150728,36.1462816136929],[-86.6603483602476,36.1462917789848],[-86.6603414474194,36.1463012683881],[-86.6603023676251,36.1463380718279],[-86.6602660699378,36.1463767040205],[-86.6602326854486,36.1464170272587],[-86.6602023329666,36.1464588966922],[-86.66017512016,36.1465021639268],[-86.65978371344,36.1463548667999]]]},"properties":{"id":"64104","parcel":"10802001400","address":"939 SHAUNA DR","owner":"BOSWORTH, LAURA & WILLIAM","point":[-86.66010391913709,36.146275574658425]}},{"type":"Feature","id":"64408","geometry":{"type":"Polygon","coordinates":[[[-86.6629610483334,36.1463945882088],[-86.6629930724264,36.1463429580937],[-86.6630217978499,36.1462900662972],[-86.6630471502166,36.1462360529266],[-86.6630690618073,36.1461810580523],[-86.6630874771633,36.1461252261836],[-86.6631023452792,36.146068702706],[-86.6631136296248,36.1460116365305],[-86.6631212992337,36.1459541774385],[-86.6631522890663,36.1457716026301],[-86.6631557595564,36.1457601861482],[-86.6631615734254,36.1457494156123],[-86.6631695588185,36.1457396029036],[-86.6631794858902,36.1457310349861],[-86.6631910644614,36.1457239594997],[-86.6632039573462,36.145718583786],[-86.6632177880394,36.1457150640305],[-86.6632321562499,36.1457135024734],[-86.6632466423227,36.1457139446823],[-86.6639887126654,36.1457930999087],[-86.6638852545859,36.1466249309909],[-86.663863053772,36.1468052603142],[-86.6637305551073,36.146837855259],[-86.6629610483334,36.1463945882088]]]},"properties":{"id":"64408","parcel":"10800021700","address":"911 AIRPORT CENTER DR","owner":"HABANERO PARTNERS, LLC","point":[-86.66348221164337,36.146264318531564]}},{"type":"Feature","id":"64418","geometry":{"type":"Polygon","coordinates":[[[-86.6685465241111,36.146029728375],[-86.6686399174913,36.1455369365645],[-86.6692748989142,36.1456084114983],[-86.6700170079418,36.1456916491557],[-86.6699242092119,36.1461737254054],[-86.6697886041669,36.1461590944911],[-86.6685465241111,36.146029728375]]]},"properties":{"id":"64418","parcel":"10800023000","address":"616 ROYAL PKWY","owner":"616 ROYAL PARKWAY, LLC","point":[-86.66928151154228,36.14586069032578]}},{"type":"Feature","id":"64453","geometry":{"type":"Polygon","coordinates":[[[-86.6668223746203,36.1461271936254],[-86.6668268654424,36.1461272418104],[-86.6673303643385,36.1461837976302],[-86.6672302641908,36.146713009486],[-86.666661604545,36.1466481340714],[-86.6667207680917,36.1461965982927],[-86.6667249842566,36.1461836589532],[-86.6667316325545,36.146171475856],[-86.666731654475,36.1461714396842],[-86.6667316720493,36.1461714152529],[-86.6667316973108,36.146171379964],[-86.6667406255148,36.1461602189219],[-86.6667516433235,36.1461503108089],[-86.6667516698097,36.1461502890321],[-86.6667516930003,36.14615027178],[-86.6667517206053,36.1461502508983],[-86.6667645193531,36.1461418903309],[-86.6667788171471,36.1461352519093],[-86.6667942566497,36.1461305241697],[-86.6668103433731,36.1461278396267],[-86.66681039333,36.146127833943],[-86.6668104266422,36.1461278310552],[-86.6668104766142,36.1461278271739],[-86.6668223746203,36.1461271936254]]]},"properties":{"id":"64453","parcel":"10800024300","address":"540 DONELSON PIKE","owner":"F & S INVESTMENTS PARTNERSHIP","point":[-86.66698805675465,36.14642319203468]}},{"type":"Feature","id":"64473","geometry":{"type":"Polygon","coordinates":[[[-86.6694417867276,36.143589765277],[-86.6695005034735,36.1434839525205],[-86.6695325308558,36.143426635391],[-86.6701731327695,36.1435637289477],[-86.6701550050784,36.1436170431301],[-86.6701343331396,36.1436697441577],[-86.6701111485019,36.1437217525424],[-86.6700854860628,36.1437729905803],[-86.6694417867276,36.143589765277]]]},"properties":{"id":"64473","parcel":"10801001700","address":"571 UPSHAW DR","owner":"STEIN, R. DAVID","point":[-86.66982299367133,36.14360347254892]}},{"type":"Feature","id":"64745","geometry":{"type":"Polygon","coordinates":[[[-86.6641762445974,36.1431493910863],[-86.6641769660496,36.1431546063498],[-86.6638810942643,36.1428875715644],[-86.6636577418867,36.1428684722006],[-86.6636833782315,36.1426944417079],[-86.6646843416787,36.1427125566672],[-86.6646386565067,36.1430405332245],[-86.6646157438295,36.1432164722157],[-86.6646107089666,36.143262375319],[-86.6645825458793,36.1433085166674],[-86.6645510929012,36.1433532377067],[-86.6645164587472,36.1433963846203],[-86.66447876106,36.1434378080486],[-86.6644381308766,36.1434773657684],[-86.6643947092883,36.1435149218098],[-86.6643243169089,36.1435620094177],[-86.6643654343165,36.1435247599024],[-86.6644037410005,36.1434855899289],[-86.664439103678,36.1434446390291],[-86.6644713968898,36.1434020520989],[-86.6645005030086,36.1433579803002],[-86.6645263222309,36.1433125801039],[-86.6645487603552,36.1432660133577],[-86.6645840477931,36.1431924721254],[-86.6645919756431,36.1431690694315],[-86.6645957253729,36.1431449903673],[-86.6645952232975,36.1431207238254],[-86.6645904790885,36.1430967609431],[-86.664581587921,36.1430735860769],[-86.6645687315313,36.1430516704888],[-86.6645521691991,36.1430314570739],[-86.6645322354877,36.1430133558671],[-86.6645093368198,36.1429977332463],[-86.6644839347578,36.1429849057165],[-86.6644565448322,36.1429751327058],[-86.6644277220678,36.1429686130401],[-86.6643980498187,36.1429654786963],[-86.6643681297549,36.1429657930547],[-86.6643385673945,36.1429695482746],[-86.6643099621495,36.1429766707575],[-86.664282892829,36.1429870149172],[-86.6642579088185,36.1430003713401],[-86.6642355145393,36.1430164686732],[-86.6642161661834,36.1430349817532],[-86.6642002539732,36.1430555362104],[-86.6641880999846,36.1430777138879],[-86.6641799504894,36.1431010673044],[-86.664175971526,36.1431251214804],[-86.6641762445974,36.1431493910863]]]},"properties":{"id":"64745","parcel":"10805000200","address":"1121 AIRPORT CENTER DR","owner":"FORKUM, LYMAN G. & ALLEN","point":[-86.6646108955057,36.14313568652813]}},{"type":"Feature","id":"65096","geometry":{"type":"Polygon","coordinates":[[[-86.6598826599238,36.1475014969109],[-86.6602606964316,36.1473433956054],[-86.6604089115225,36.1475711408917],[-86.6604146164278,36.1475824728215],[-86.6604178174031,36.1475944340194],[-86.6604184181086,36.1476066645067],[-86.6604163999046,36.1476187939656],[-86.6604118253204,36.1476304579425],[-86.6604048314399,36.1476413041933],[-86.6603956277843,36.1476510053129],[-86.6603844941572,36.1476592668584],[-86.6603717641044,36.1476658427608],[-86.6602968579747,36.1476932302493],[-86.660223220063,36.1477227972213],[-86.6601509489305,36.1477545034843],[-86.6600801386939,36.1477883088699],[-86.6598826599238,36.1475014969109]]]},"properties":{"id":"65096","parcel":"10802000800","address":"927 SHAUNA DR","owner":"MAYS, EDWARD R. ETUX","point":[-86.66014643108088,36.14753632102155]}},{"type":"Feature","id":"65326","geometry":{"type":"Polygon","coordinates":[[[-86.6692024577699,36.1469840003236],[-86.6666564037966,36.1466919003379],[-86.666661604545,36.1466481340714],[-86.6672302641908,36.146713009486],[-86.6673303643385,36.1461837976302],[-86.6680006640075,36.146259084668],[-86.669299319669,36.1464332248443],[-86.6692045933969,36.1469718565381],[-86.6692024577699,36.1469840003236]]]},"properties":{"id":"65326","parcel":"10800024600","address":"534 DONELSON PIKE","owner":"PATTERSON, DAVID G., JR.","point":[-86.66827151212892,36.14654149325318]}},{"type":"Feature","id":"65366","geometry":{"type":"Polygon","coordinates":[[[-86.6605647447765,36.1460687426604],[-86.6614046852583,36.1450488268387],[-86.6614296441228,36.1450173827498],[-86.6614529270026,36.1449851051592],[-86.6615395392692,36.1450552301017],[-86.6619568309185,36.1453825894901],[-86.6620090318397,36.1454190855693],[-86.6620639877441,36.1454528149448],[-86.6621214785894,36.1454836418279],[-86.6621812688661,36.1455114413303],[-86.6622431187166,36.1455361003042],[-86.6623067761797,36.1455575200891],[-86.6623719827165,36.1455756128759],[-86.6624384776852,36.1455903052881],[-86.6625059905631,36.1456015384238],[-86.6628178883642,36.1456371857123],[-86.6628315196231,36.1456401228642],[-86.6628443832289,36.1456448126873],[-86.6628561403373,36.1456511308662],[-86.6628664795362,36.1456589114764],[-86.6628751279575,36.1456679469237],[-86.6628818580492,36.1456780005242],[-86.6628864897829,36.1456888046901],[-86.6628889018859,36.1457000752878],[-86.6628890318633,36.1457115143418],[-86.6628528059133,36.145924886161],[-86.6628459524245,36.1459777695318],[-86.6628353740788,36.1460302461631],[-86.6628211050111,36.1460821464282],[-86.6628031937722,36.1461332970161],[-86.6627816956402,36.1461835317888],[-86.6627566859024,36.1462326853992],[-86.6627282432026,36.1462805951851],[-86.6626964629059,36.1463271047017],[-86.6626614492897,36.1463720601583],[-86.6622215328037,36.1469063067161],[-86.6622138023035,36.1469155321363],[-86.6622042583208,36.1469235634175],[-86.6621931756055,36.1469301674262],[-86.6621808748496,36.1469351567414],[-86.6621677104115,36.1469383834133],[-86.6621540615844,36.1469397579372],[-86.6621403236167,36.1469392384884],[-86.6621268922378,36.146936840921],[-86.6621141558422,36.1469326343036],[-86.6621024799185,36.1469267392031],[-86.6605647447765,36.1460687426604]]]},"properties":{"id":"65366","parcel":"10800021600","address":"801 ROYAL PKWY","owner":"MAC PARTNERS, LLC","point":[-86.66175794898466,36.145948250345675]}},{"type":"Feature","id":"65405","geometry":{"type":"Polygon","coordinates":[[[-86.6671369092339,36.142247403419],[-86.6672042457953,36.142240163432],[-86.6672128099305,36.1422920353612],[-86.6671451390579,36.142299826974],[-86.6671369092339,36.142247403419]]]},"properties":{"id":"65405","parcel":"10800024800","address":"596 DONELSON PIKE","owner":"MUKAM HOTELS, LLC","point":[-86.6671747693878,36.14226971914549]}},{"type":"Feature","id":"65413","geometry":{"type":"Polygon","coordinates":[[[-86.6693404511884,36.1455097026052],[-86.6694243912485,36.1450210831192],[-86.66944303242,36.1450226281146],[-86.6701057883294,36.1450947683266],[-86.6704275054612,36.145129791653],[-86.6703482320624,36.1457290929856],[-86.6700170079418,36.1456916491557],[-86.6692748989142,36.1456084114983],[-86.6692854958758,36.1455396762263],[-86.6693404511884,36.1455097026052]]]},"properties":{"id":"65413","parcel":"10801000100","address":"2712 SHACKLETT DR","owner":"616 ROYAL PARKWAY, LLC","point":[-86.66988775778897,36.145319758786265]}},{"type":"Feature","id":"65417","geometry":{"type":"Polygon","coordinates":[[[-86.6686399174913,36.1455369365645],[-86.6678616230438,36.1454599337299],[-86.6678970963189,36.145167449511],[-86.6679017370156,36.1451540174868],[-86.6679091439203,36.1451414290573],[-86.6679190967926,36.145130054059],[-86.6679313039834,36.1451202275744],[-86.6679454034702,36.1451122409132],[-86.6681642200833,36.1450341117461],[-86.6682388269752,36.1450140329574],[-86.6683146012614,36.1449970696432],[-86.6683913433081,36.144983266168],[-86.6684688545246,36.1449726587797],[-86.6685469329038,36.1449652738315],[-86.6686253730525,36.1449611313872],[-86.6687039717239,36.1449602424864],[-86.6687825255956,36.1449626091572],[-86.6688608268321,36.1449682253414],[-86.6689386719739,36.1449770768462],[-86.6694243912485,36.1450210831192],[-86.6693404511884,36.1455097026052],[-86.6692854958758,36.1455396762263],[-86.6692748989142,36.1456084114983],[-86.6686399174913,36.1455369365645]]]},"properties":{"id":"65417","parcel":"10801000400","address":"2730 SHACKLETT DR","owner":"BW RRI I LLC","point":[-86.66862638678606,36.14531576088894]}},{"type":"Feature","id":"65420","geometry":{"type":"Polygon","coordinates":[[[-86.6671132073137,36.1453915516452],[-86.6671878284367,36.1453618578232],[-86.6672638467137,36.1453345941536],[-86.6673411402644,36.1453098018648],[-86.6673671554994,36.1453022387576],[-86.6674824609022,36.1452729416004],[-86.6675969592438,36.1452416335661],[-86.6676152268752,36.145239060321],[-86.6676295477016,36.1452391514238],[-86.6676436652316,36.1452410984558],[-86.6676572179178,36.1452448529467],[-86.6676698549073,36.1452503167976],[-86.6676812516656,36.1452573503056],[-86.6676911144216,36.1452657721397],[-86.6676991891094,36.1452753655997],[-86.6677052680661,36.1452858821844],[-86.6677091945666,36.1452970523814],[-86.6677110105147,36.1453118762743],[-86.667690817866,36.1454476934777],[-86.6671132073137,36.1453915516452]]]},"properties":{"id":"65420","parcel":"10801000800","address":"0 SHACKLETT DR","owner":"BW RRI I LLC","point":[-86.66746562291186,36.145348892016436]}},{"type":"Feature","id":"66166","geometry":{"type":"Polygon","coordinates":[[[-86.6623135393621,36.1427519655824],[-86.6623221027405,36.1426818703366],[-86.6630401920119,36.1426913850698],[-86.6636833782315,36.1426944417079],[-86.6636577418867,36.1428684722006],[-86.6623128717875,36.1427527930044],[-86.6623135393621,36.1427519655824]]]},"properties":{"id":"66166","parcel":"10805000300","address":"1125 AIRPORT CENTER DR","owner":"FLASH EQUITY, LLC","point":[-86.6633256431959,36.142811591680385]}}]}