{"type":"FeatureCollection","features":[{"type":"Feature","id":"187091","geometry":{"type":"Polygon","coordinates":[[[-86.6333305063912,36.0603986864965],[-86.6341276753734,36.0597517178935],[-86.6343461756629,36.0595737885972],[-86.6352975149603,36.0587990799766],[-86.6357361850576,36.0588574287919],[-86.635716235598,36.0589687587313],[-86.6356173885566,36.0595203843348],[-86.6356006435071,36.0596138329965],[-86.6354213114776,36.059552051916],[-86.6353433783991,36.05967396027],[-86.6352868713419,36.0596488130821],[-86.6352318209349,36.0596216194875],[-86.6351783375204,36.0595924356875],[-86.6351327837434,36.0595658589512],[-86.633951297164,36.0604953013762],[-86.6339519736585,36.0604913285666],[-86.6331589078049,36.061194216033],[-86.6325262103108,36.061839118903],[-86.6313173308122,36.0629897945818],[-86.6313174201423,36.0629898608087],[-86.6313010441223,36.0630052972233],[-86.6312620913415,36.0629720366093],[-86.6312312556909,36.0629477724372],[-86.6311993859719,36.0629244068433],[-86.6309698012575,36.0627619521811],[-86.6309597793443,36.0627537912545],[-86.6309512587241,36.0627445760793],[-86.6309444039907,36.0627344851495],[-86.6309393499251,36.0627237169433],[-86.6309361958739,36.0627124809398],[-86.6309361762454,36.0627123855066],[-86.630935009891,36.0626981639647],[-86.6309368788028,36.0626839932296],[-86.6309417263885,36.0626702953979],[-86.6309494093755,36.0626574804012],[-86.6309596954777,36.062645931599],[-86.6323524833527,36.0613375057308],[-86.6323693673987,36.0613211156455],[-86.6329748553408,36.0607124212444],[-86.6329994451055,36.0606877005979],[-86.6331069024668,36.0605891928716],[-86.6332172793925,36.0604928363926],[-86.6333305063912,36.0603986864965]]]},"properties":{"id":"187091","parcel":"14916004100","address":"880 HAMILTON CROSSINGS","owner":"VB TAH, LLC","point":[-86.63308284891313,36.06095336755204]}},{"type":"Feature","id":"213240","geometry":{"type":"Polygon","coordinates":[[[-86.6370833848957,36.0616995158505],[-86.6375719551745,36.0615321058328],[-86.6377140379482,36.0616983790981],[-86.6373673909455,36.0620122846251],[-86.6370833848957,36.0616995158505]]]},"properties":{"id":"213240","parcel":"14916003200","address":"0 BELL RD","owner":"LANHATHAO, LLC","point":[-86.63738221353456,36.061856374818156]}},{"type":"Feature","id":"214566","geometry":{"type":"Polygon","coordinates":[[[-86.6362848666643,36.0613564982282],[-86.6374808663368,36.0609743733013],[-86.6377636082051,36.0614673585696],[-86.6375719551745,36.0615321058328],[-86.6370833848957,36.0616995158505],[-86.6365840209663,36.0618713773353],[-86.6365513189203,36.0617942776326],[-86.6365151839841,36.0617181946702],[-86.6364756658138,36.0616432291266],[-86.6364328162706,36.0615694798659],[-86.6363866916477,36.0614970448272],[-86.6363373537657,36.0614260192166],[-86.6362848666643,36.0613564982282]]]},"properties":{"id":"214566","parcel":"14916003000","address":"5320 RICE RD","owner":"METRO GOV'T  WW  WATER & SEWER","point":[-86.63701676174112,36.06139339751549]}},{"type":"Feature","id":"215672","geometry":{"type":"Polygon","coordinates":[[[-86.6365840209663,36.0618713773353],[-86.6370833848957,36.0616995158505],[-86.6373673909455,36.0620122846251],[-86.6368517211463,36.0625138867023],[-86.636595093143,36.0619020859602],[-86.6365840209663,36.0618713773353]]]},"properties":{"id":"215672","parcel":"14916003100","address":"0 RICE RD","owner":"BELL RD PROPERTIES, LLC","point":[-86.63692780697954,36.06226253560975]}},{"type":"Feature","id":"225074","geometry":{"type":"Polygon","coordinates":[[[-86.6378455554797,36.0634338607788],[-86.6378143833663,36.0634090268466],[-86.6377778111397,36.0633630683703],[-86.6377506070405,36.0633038745482],[-86.6377409910614,36.0632440387828],[-86.6377449953646,36.0631948436015],[-86.63776017512,36.0631469637466],[-86.6377851904368,36.0631020538488],[-86.6378180375601,36.0630634204966],[-86.6379648203851,36.062718979093],[-86.6380341653822,36.0626749331667],[-86.6380987055731,36.0626223982148],[-86.6381027317294,36.0626182544321],[-86.6381364315773,36.0625838380824],[-86.6381668588375,36.0625474679434],[-86.6381938442014,36.0625093477027],[-86.6382172328785,36.0624696917862],[-86.6382368968133,36.0624287261949],[-86.638252722388,36.0623866777541],[-86.6382646227127,36.0623437839631],[-86.6384408906778,36.0621321493722],[-86.638543504466,36.0620178728822],[-86.6386092963921,36.0619529672098],[-86.6411039215024,36.0642654323822],[-86.6398948363365,36.0647072748986],[-86.6393844164911,36.0648943155881],[-86.6392042652623,36.0649601030101],[-86.6389758733103,36.0650437272135],[-86.6386715734571,36.0651549494002],[-86.6386295362343,36.0650449191326],[-86.6385835589665,36.0649359317759],[-86.6385336812795,36.0648280817507],[-86.6384799438867,36.0647214607674],[-86.6384223941534,36.0646161595996],[-86.6383610816572,36.0645122681077],[-86.63829605707,36.0644098743436],[-86.6382273777228,36.0643090663236],[-86.6381551009314,36.0642099302613],[-86.6380846295337,36.0640295429712],[-86.6380365878999,36.0639037051168],[-86.638009355838,36.0637989093015],[-86.6379883799114,36.0636726550699],[-86.6379627249324,36.0635958699725],[-86.63793282101,36.063537512453],[-86.6378931112988,36.0634800350981],[-86.6378722722254,36.0634551464967],[-86.6378455554797,36.0634338607788]]]},"properties":{"id":"225074","parcel":"14900025100","address":"601 BELL RD","owner":"ST. IGNATIUS CATHOLIC CHURCH","point":[-86.63915285834436,36.06357032488405]}},{"type":"Feature","id":"229768","geometry":{"type":"Polygon","coordinates":[[[-86.6349079889311,36.0614604574602],[-86.6352966660048,36.0613243508229],[-86.6354313446359,36.0615807706635],[-86.635435924172,36.0615915420899],[-86.6354382363305,36.0616027815189],[-86.6354382186704,36.0616141765342],[-86.6354358708812,36.0616254107874],[-86.6354312570744,36.0616361729975],[-86.6354245080547,36.0616461632488],[-86.6354158081006,36.0616551056779],[-86.635405400522,36.0616627493467],[-86.6353935744774,36.0616688854351],[-86.6353806571531,36.0616733409742],[-86.6352761812866,36.0617055843811],[-86.6351726782218,36.0617398342342],[-86.6350702066302,36.0617760712998],[-86.6349079889311,36.0614604574602]]]},"properties":{"id":"229768","parcel":"14916002000","address":"5401 ASHBY DR","owner":"BACHER, WERNER & MICHELLE","point":[-86.6351693317033,36.06152061332744]}},{"type":"Feature","id":"230074","geometry":{"type":"Polygon","coordinates":[[[-86.637041561123,36.062897479893],[-86.6374762356034,36.0627589222486],[-86.637412007128,36.0628806863635],[-86.6373509807381,36.0630035312708],[-86.6373453434366,36.0630137140308],[-86.6373377008131,36.0630229952955],[-86.6373282661474,36.0630311170712],[-86.6373173007175,36.0630378544576],[-86.637305110491,36.0630430183701],[-86.637292031789,36.0630464673309],[-86.6372784301544,36.0630481047727],[-86.6372646826422,36.06304788544],[-86.6372511700495,36.0630458154313],[-86.6371101782835,36.063015792752],[-86.6370747707696,36.0629570567261],[-86.637041561123,36.062897479893]]]},"properties":{"id":"230074","parcel":"14916002700","address":"0 RICE RD","owner":"BELL RD PROPERTIES, LLC","point":[-86.63722326793429,36.062927768077486]}},{"type":"Feature","id":"230075","geometry":{"type":"Polygon","coordinates":[[[-86.6368517211463,36.0625138867023],[-86.6373673909455,36.0620122846251],[-86.6377275311062,36.0624100852578],[-86.6376973573084,36.0624445837829],[-86.6376373404522,36.0625209155037],[-86.6375804396652,36.0625988052513],[-86.6375267186609,36.0626781688739],[-86.6374762356034,36.0627589222486],[-86.637041561123,36.062897479893],[-86.6370271218578,36.0628689864376],[-86.6370117032915,36.0628448928113],[-86.6369598586735,36.0627472838586],[-86.6369111249836,36.062648623771],[-86.636865536032,36.0625489772659],[-86.6368517211463,36.0625138867023]]]},"properties":{"id":"230075","parcel":"14916002800","address":"5306 RICE RD","owner":"BELL RD PROPERTIES, LLC","point":[-86.63727885923865,36.062479249060694]}},{"type":"Feature","id":"230076","geometry":{"type":"Polygon","coordinates":[[[-86.6373673909455,36.0620122846251],[-86.6377140379482,36.0616983790981],[-86.6380473296593,36.0620812117405],[-86.6379644832519,36.0621594778614],[-86.6378841446298,36.0622394493985],[-86.6378063688756,36.0623210737908],[-86.637731206618,36.0624042966983],[-86.6377275311062,36.0624100852578],[-86.6373673909455,36.0620122846251]]]},"properties":{"id":"230076","parcel":"14916002900","address":"616 BELL RD","owner":"LANHATHAO, LLC","point":[-86.63770794401938,36.06204675042874]}},{"type":"Feature","id":"230595","geometry":{"type":"Polygon","coordinates":[[[-86.6355934231864,36.0615403596895],[-86.6361390948119,36.0613630367722],[-86.63617115735,36.0613527037804],[-86.63621280581,36.0613994588339],[-86.636147481645,36.0614385380657],[-86.6361948332241,36.0615012076253],[-86.6362394060128,36.0615652059046],[-86.636281142755,36.0616304529946],[-86.6363199906053,36.0616968653578],[-86.6363559011576,36.0617643594333],[-86.6363888282035,36.0618328489442],[-86.6358462975096,36.0620225165848],[-86.6355934231864,36.0615403596895]]]},"properties":{"id":"230595","parcel":"14916002100","address":"613 BELL RIDGE TRCE","owner":"DAVENPORT, J. L., JR.","point":[-86.63597881545543,36.06166268255787]}},{"type":"Feature","id":"230596","geometry":{"type":"Polygon","coordinates":[[[-86.6358462975096,36.0620225165848],[-86.6363888282035,36.0618328489442],[-86.6364288506409,36.0619296111847],[-86.6365130199569,36.0621310793803],[-86.6359647047276,36.0622746260798],[-86.6359095162941,36.0621430559439],[-86.6358462975096,36.0620225165848]]]},"properties":{"id":"230596","parcel":"14916002200","address":"609 BELL RIDGE TRCE","owner":"SEYFOU-MELKE FAMILY TRUST","point":[-86.63618250843577,36.06207680709455]}},{"type":"Feature","id":"230597","geometry":{"type":"Polygon","coordinates":[[[-86.6359647047276,36.0622746260798],[-86.6365130199569,36.0621310793803],[-86.6366344877616,36.0624271267316],[-86.6365166916221,36.0624447713758],[-86.6360451305955,36.0625159483351],[-86.6360217128207,36.0624347797877],[-86.6359948939476,36.062354306945],[-86.6359647047276,36.0622746260798]]]},"properties":{"id":"230597","parcel":"14916002300","address":"605 BELL RIDGE TRCE","owner":"PICKNEY, MATTHEW D & JENICA L.","point":[-86.6362844105314,36.06231539113384]}},{"type":"Feature","id":"230598","geometry":{"type":"Polygon","coordinates":[[[-86.6361943672771,36.0628997570892],[-86.6361817708757,36.0628999488515],[-86.6361692958543,36.062898524873],[-86.6361572544198,36.0628955204585],[-86.6361459457695,36.0628910097369],[-86.6361356572074,36.0628851065562],[-86.6361266441291,36.0628779600832],[-86.6361191332933,36.0628697475755],[-86.6361133128468,36.0628606762366],[-86.6361093277971,36.062850972425],[-86.6361072799918,36.0628408789497],[-86.6360956820118,36.0627591784758],[-86.6360814510048,36.062677752365],[-86.6360645963134,36.062596657348],[-86.6360451305955,36.0625159483351],[-86.6365166916221,36.0624447713758],[-86.6366344877616,36.0624271267316],[-86.6367062150832,36.0625959700543],[-86.6367492460302,36.0626929488141],[-86.6367959323582,36.0627888059762],[-86.6368462311759,36.0628834516349],[-86.6369000929243,36.0629767950181],[-86.6369151773308,36.0630014393049],[-86.6366603134299,36.062947843542],[-86.6365885509505,36.0629331513125],[-86.6365162430139,36.0629203428983],[-86.636443465196,36.0629094305171],[-86.636360626824,36.0629033434995],[-86.6362775438528,36.0629001174868],[-86.6361943672771,36.0628997570892]]]},"properties":{"id":"230598","parcel":"14916002400","address":"601 BELL RIDGE TRCE","owner":"MARBURY, PEGAH ALEXIS","point":[-86.63642779980697,36.062726080274174]}},{"type":"Feature","id":"286106","geometry":{"type":"Polygon","coordinates":[[[-86.6338057759469,36.0614080354341],[-86.633951297164,36.0604953013762],[-86.6351327837434,36.0595658589512],[-86.6351783375204,36.0595924356875],[-86.6352318209349,36.0596216194875],[-86.6352868713419,36.0596488130821],[-86.6353433783991,36.05967396027],[-86.6354213114776,36.059552051916],[-86.6356006435071,36.0596138329965],[-86.6355341781665,36.0599847389727],[-86.6358986368159,36.0611640413737],[-86.6361390948119,36.0613630367722],[-86.6355934231864,36.0615403596895],[-86.6354515270702,36.0612699649252],[-86.6352966660048,36.0613243508229],[-86.6349079889311,36.0614604574602],[-86.6345009142201,36.0613263441563],[-86.6342658056848,36.0615867446119],[-86.6338057759469,36.0614080354341]]]},"properties":{"id":"286106","parcel":"16300027000","address":"0 RICE RD","owner":"HOOVER, EPHRIAM H. III ET AL","point":[-86.63484730298539,36.060829438781845]}}]}