{"type":"FeatureCollection","features":[{"type":"Feature","id":"13117","geometry":{"type":"Polygon","coordinates":[[[-86.5909845510626,36.05270598333],[-86.5905506253558,36.052658877806],[-86.5905464551113,36.052680937299],[-86.5904765989275,36.052673312237],[-86.5901147047239,36.0526313734677],[-86.5898098667091,36.0525960465068],[-86.5898161399144,36.0525481973679],[-86.5900361380905,36.0524906966254],[-86.5902536955892,36.0524338347249],[-86.5904416427252,36.0523282454566],[-86.5906275456986,36.0522238042277],[-86.5907808730611,36.0521277610198],[-86.5907507528455,36.0522981383995],[-86.5906999587174,36.0524707972969],[-86.5906508964603,36.0526375695133],[-86.5909956896195,36.0526708526006],[-86.5909886532417,36.0527064282761],[-86.5909845510626,36.05270598333]]]},"properties":{"id":"13117","parcel":"164080A05100CO","address":"853 PIN OAK DR","owner":"JERRY BUTLER BUILDERS, LLC","point":[-86.59053682664901,36.05238168632662]}},{"type":"Feature","id":"18897","geometry":{"type":"Polygon","coordinates":[[[-86.5899744141218,36.053336726979],[-86.5900017850407,36.0531956666943],[-86.5903661423757,36.0532422308411],[-86.5903387754237,36.053383292092],[-86.5899744141218,36.053336726979]]]},"properties":{"id":"18897","parcel":"164080C01100CO","address":"520 AERIE LNDG","owner":"WHITE, ALBERTA ELAINE","point":[-86.59017027895895,36.05328947907303]}},{"type":"Feature","id":"18899","geometry":{"type":"Polygon","coordinates":[[[-86.5899470442222,36.0534777881487],[-86.5899744141218,36.053336726979],[-86.5903387754237,36.053383292092],[-86.5903114039351,36.0535243533538],[-86.5899470442222,36.0534777881487]]]},"properties":{"id":"18899","parcel":"164080C01200CO","address":"516 AERIE LNDG","owner":"BABCOCK, DANIEL D. JR.","point":[-86.59014290956199,36.053430540280004]}},{"type":"Feature","id":"18901","geometry":{"type":"Polygon","coordinates":[[[-86.5899196742255,36.0536188493076],[-86.5899470442222,36.0534777881487],[-86.5903114039351,36.0535243533538],[-86.5902840334593,36.0536654145993],[-86.5899196742255,36.0536188493076]]]},"properties":{"id":"18901","parcel":"164080C01300CO","address":"512 AERIE LNDG","owner":"DEGEFA, WESENYELESH","point":[-86.59011553900741,36.053571601491]}},{"type":"Feature","id":"22361","geometry":{"type":"Polygon","coordinates":[[[-86.5900748684233,36.0530604247927],[-86.5900875695126,36.0530438889689],[-86.5900966344291,36.0530258432738],[-86.5901017995717,36.0530068108412],[-86.5901029158703,36.0529873430852],[-86.5900999497818,36.0529680043728],[-86.590092988698,36.0529493530709],[-86.5904453224043,36.0528347211111],[-86.590393511457,36.0531011704697],[-86.5900748684233,36.0530604247927]]]},"properties":{"id":"22361","parcel":"164080C00900CO","address":"528 AERIE LNDG","owner":"CONNOR, DENISE M. & MICHAEL B.","point":[-86.59025873625477,36.052959233419216]}},{"type":"Feature","id":"22362","geometry":{"type":"Polygon","coordinates":[[[-86.5899112067647,36.0536631193731],[-86.5899196742255,36.0536188493076],[-86.5902840334593,36.0536654145993],[-86.5902478622667,36.0538512964344],[-86.5898847675008,36.0537473104664],[-86.5899003596929,36.0537057526395],[-86.5899112067647,36.0536631193731]]]},"properties":{"id":"22362","parcel":"164080C01400CO","address":"508 AERIE LNDG","owner":"VU, THU NGOC & HUYNH, NHU K.","point":[-86.59008222589495,36.053727180205705]}},{"type":"Feature","id":"23528","geometry":{"type":"Polygon","coordinates":[[[-86.5900082669186,36.0528841121432],[-86.5901147047239,36.0526313734677],[-86.5904765989275,36.052673312237],[-86.5904453224043,36.0528347211111],[-86.590092988698,36.0529493530709],[-86.5900821872706,36.0529318877319],[-86.5900678395528,36.0529161963539],[-86.5900503752267,36.0529027473013],[-86.5900303167338,36.0528919453947],[-86.5900082669186,36.0528841121432]]]},"properties":{"id":"23528","parcel":"164080C00800CO","address":"532 AERIE LNDG","owner":"GREES, EMAD & EMAN","point":[-86.59026229384762,36.05275333785492]}},{"type":"Feature","id":"23530","geometry":{"type":"Polygon","coordinates":[[[-86.5900017850407,36.0531956666943],[-86.5900105897812,36.0531513922621],[-86.590017089006,36.0531298107856],[-86.5900276964029,36.0531093303916],[-86.5900421482984,36.0530904651996],[-86.5900600819141,36.0530736856512],[-86.5900748684233,36.0530604247927],[-86.590393511457,36.0531011704697],[-86.5903661423757,36.0532422308411],[-86.5900017850407,36.0531956666943]]]},"properties":{"id":"23530","parcel":"164080C01000CO","address":"524 AERIE LNDG","owner":"BOULES, ATA & GHALY, NESREEN","point":[-86.59019972686016,36.053141237077014]}},{"type":"Feature","id":"23532","geometry":{"type":"Polygon","coordinates":[[[-86.5898644312847,36.0537877919451],[-86.5898847675008,36.0537473104664],[-86.5902478622667,36.0538512964344],[-86.5902103930472,36.054044602158],[-86.5898088497564,36.0538655327665],[-86.5898400239967,36.0538266458004],[-86.5898644312847,36.0537877919451]]]},"properties":{"id":"23532","parcel":"164080C01500CO","address":"504 AERIE LNDG","owner":"JACKSON, MILTON & OLLIE","point":[-86.59011861230907,36.053955440314695]}},{"type":"Feature","id":"23550","geometry":{"type":"Polygon","coordinates":[[[-86.5904453224043,36.0528347211111],[-86.5904765989275,36.052673312237],[-86.5905464551113,36.052680937299],[-86.5905074748394,36.0528871524352],[-86.5904817783298,36.0530230889678],[-86.590445802844,36.0532133997374],[-86.5904197601443,36.0533511711495],[-86.5904143489144,36.0533797998508],[-86.5903824537157,36.0535485229121],[-86.5903560049711,36.0536884404378],[-86.5903200748068,36.0538785084705],[-86.5902944107771,36.0540142717232],[-86.5902584814281,36.0542043397176],[-86.5902367355068,36.0543193686913],[-86.5902336053179,36.0543359297565],[-86.5901603606717,36.054723389051],[-86.5901572700268,36.0547409449341],[-86.5901392399815,36.0548453773331],[-86.5900427399636,36.0549063321298],[-86.5900751644546,36.0547405583253],[-86.5900979700139,36.0546225959406],[-86.5901263229672,36.0544771371131],[-86.5901605424257,36.0543014259553],[-86.5901967036485,36.054114445554],[-86.5902103930472,36.054044602158],[-86.5902478622667,36.0538512964344],[-86.5902840334593,36.0536654145993],[-86.5903114039351,36.0535243533538],[-86.5903387754237,36.053383292092],[-86.5903661423757,36.0532422308411],[-86.590393511457,36.0531011704697],[-86.5904453224043,36.0528347211111]]]},"properties":{"id":"23550","parcel":"164080C04500CO","address":"0 PIN OAK DR","owner":"T.F. HOMES, LLC","point":[-86.59030215997976,36.0537698692226]}},{"type":"Feature","id":"28529","geometry":{"type":"Polygon","coordinates":[[[-86.5899230723513,36.0560185922234],[-86.5900017317338,36.055637751846],[-86.5900024983405,36.0556374038036],[-86.5900721478614,36.0556057901543],[-86.5902568976769,36.0555219297236],[-86.5903293736952,36.0555119382521],[-86.5905960849056,36.0555724225816],[-86.5908147776516,36.0555641639193],[-86.5909509620151,36.0555390841422],[-86.5909576812785,36.0555378461825],[-86.5911331742191,36.0554451828075],[-86.5911542028198,36.0554294703665],[-86.5911576241964,36.0555010135615],[-86.5911580624504,36.0555726101424],[-86.5911555202936,36.055644178079],[-86.5911523610459,36.0556914306555],[-86.5911462712482,36.0557384948167],[-86.5911372666454,36.0557852497131],[-86.5911253685392,36.0558315753692],[-86.5911106093637,36.055877356261],[-86.5907021332094,36.0557884862945],[-86.5906581370261,36.0559218203276],[-86.5906150178156,36.0560525011754],[-86.5905709160429,36.0561861538368],[-86.59052720935,36.0563186229612],[-86.590491349555,36.0564272958377],[-86.5903747780108,36.056374598453],[-86.5901620081579,36.0562784156302],[-86.589894394127,36.0561574389334],[-86.5899230723513,36.0560185922234]]]},"properties":{"id":"28529","parcel":"164010A00700CO","address":"0 HAMILTON CHURCH RD","owner":"SHREIMAN, AMNON & RUTH","point":[-86.59028754698322,36.05597019638976]}},{"type":"Feature","id":"28533","geometry":{"type":"Polygon","coordinates":[[[-86.5906581370261,36.0559218203276],[-86.5907021332094,36.0557884862945],[-86.5911106093637,36.055877356261],[-86.5910668320013,36.0560100296322],[-86.5906581370261,36.0559218203276]]]},"properties":{"id":"28533","parcel":"164010A00800CO","address":"7021 MARHADEN DR","owner":"HERNANDEZ - MARTINEZ, MARIA MAGDO","point":[-86.59088437326847,36.05589958850826]}},{"type":"Feature","id":"29536","geometry":{"type":"Polygon","coordinates":[[[-86.5905709160429,36.0561861538368],[-86.5906150178156,36.0560525011754],[-86.5910230544927,36.0561427029833],[-86.5909792790644,36.0562753772048],[-86.5905709160429,36.0561861538368]]]},"properties":{"id":"29536","parcel":"164010A01000CO","address":"7013 MARHADEN DR","owner":"DANNER, DANA & DAVID E.","point":[-86.590796985565,36.056164428624456]}},{"type":"Feature","id":"29540","geometry":{"type":"Polygon","coordinates":[[[-86.590491349555,36.0564272958377],[-86.59052720935,36.0563186229612],[-86.5909206048929,36.0564048104403],[-86.5908547697101,36.056532684381],[-86.5906041548872,36.0564781621352],[-86.590491349555,36.0564272958377]]]},"properties":{"id":"29540","parcel":"164010A01200CO","address":"7005 MARHADEN DR","owner":"MCCLAIN, COMA & BENJAMIN","point":[-86.5907048734861,36.05641604956292]}},{"type":"Feature","id":"29544","geometry":{"type":"Polygon","coordinates":[[[-86.5906676417996,36.0568303945156],[-86.5906675851468,36.0568303884843],[-86.5906560491105,36.0568281188111],[-86.5905736116476,36.0568053192862],[-86.5904551645657,36.0567708190324],[-86.5906041548872,36.0564781621352],[-86.5908547697101,36.056532684381],[-86.5908337203613,36.0565735705621],[-86.5907661009419,36.0567781540577],[-86.5907614811108,36.0567891786459],[-86.5907546910532,36.056799422546],[-86.5907546723655,36.0567994469721],[-86.5907458843686,36.0568086443625],[-86.5907353274864,36.056816550774],[-86.5907233129407,36.0568229258414],[-86.5907101757715,36.0568275975798],[-86.5906962791287,36.056830442536],[-86.5906962458646,36.0568304472055],[-86.5906830343152,36.0568313843947],[-86.5906820209317,36.0568313857561],[-86.5906819709853,36.0568313860009],[-86.590681928815,36.0568313871088],[-86.5906676417996,36.0568303945156]]]},"properties":{"id":"29544","parcel":"164010A01300CO","address":"3701 HAMILTON CHURCH RD","owner":"MCDANIEL, JASON LEE","point":[-86.59065328069995,36.05667222512755]}},{"type":"Feature","id":"29551","geometry":{"type":"Polygon","coordinates":[[[-86.5902145706839,36.0566944232534],[-86.5903747780108,36.056374598453],[-86.590491349555,36.0564272958377],[-86.5906041548872,36.0564781621352],[-86.5904551645657,36.0567708190324],[-86.5903344346975,36.0567335196478],[-86.5902145706839,36.0566944232534]]]},"properties":{"id":"29551","parcel":"164010A01400CO","address":"3705 HAMILTON CHURCH RD","owner":"POUK, MARY","point":[-86.59040891980905,36.05658629134086]}},{"type":"Feature","id":"29556","geometry":{"type":"Polygon","coordinates":[[[-86.5899887946129,36.0566152578265],[-86.5901620081579,36.0562784156302],[-86.5903747780108,36.056374598453],[-86.5902145706839,36.0566944232534],[-86.5900991900893,36.0566549028175],[-86.5899887946129,36.0566152578265]]]},"properties":{"id":"29556","parcel":"164010A01500CO","address":"3709 HAMILTON CHURCH RD","owner":"RIAD, METAOS","point":[-86.59018258856631,36.056494931039715]}},{"type":"Feature","id":"29808","geometry":{"type":"Polygon","coordinates":[[[-86.5906150178156,36.0560525011754],[-86.5906581370261,36.0559218203276],[-86.5910668320013,36.0560100296322],[-86.5910230544927,36.0561427029833],[-86.5906150178156,36.0560525011754]]]},"properties":{"id":"29808","parcel":"164010A00900CO","address":"7017 MARHADEN DR","owner":"CHRISTMUS, DIANA A.","point":[-86.59084092483978,36.05603126561665]}},{"type":"Feature","id":"29810","geometry":{"type":"Polygon","coordinates":[[[-86.59052720935,36.0563186229612],[-86.5905709160429,36.0561861538368],[-86.5909792790644,36.0562753772048],[-86.5909650656645,36.0563184506507],[-86.5909206048929,36.0564048104403],[-86.59052720935,36.0563186229612]]]},"properties":{"id":"29810","parcel":"164010A01100CO","address":"7009 MARHADEN DR","owner":"MCCULLOUGH, CAMELA & BORUM, CHARLES & ET AL","point":[-86.59075351846087,36.05629616769847]}},{"type":"Feature","id":"45954","geometry":{"type":"Polygon","coordinates":[[[-86.5978339170899,36.0520032923444],[-86.5978960202019,36.0516516082745],[-86.5993312180053,36.0518669271374],[-86.5991847270887,36.0526437935723],[-86.599177055939,36.052684489483],[-86.5991656017161,36.0526827195279],[-86.5991563954337,36.0526812953043],[-86.5983489792489,36.0525603131032],[-86.5981593748019,36.052532141052],[-86.5981593214676,36.0525321332051],[-86.598119245618,36.0525261456961],[-86.5977513895642,36.0524711718991],[-86.5978090025772,36.0521445451219],[-86.5978339170899,36.0520032923444]]]},"properties":{"id":"45954","parcel":"16400030900","address":"2034 HOBSON PIKE","owner":"METRO GOV'T","point":[-86.59851367160638,36.05231031706957]}},{"type":"Feature","id":"90502","geometry":{"type":"Polygon","coordinates":[[[-86.5908897877226,36.053852141811],[-86.5909154996824,36.0537162511054],[-86.5912998719768,36.0537649314576],[-86.5912743271108,36.0539000715603],[-86.5908897877226,36.053852141811]]]},"properties":{"id":"90502","parcel":"164010A02300CO","address":"820 PIN OAK DR","owner":"WAHBA, YOUSSEF","point":[-86.5910948339583,36.05380853682417]}},{"type":"Feature","id":"90505","geometry":{"type":"Polygon","coordinates":[[[-86.590445802844,36.0532133997374],[-86.5904817783298,36.0530230889678],[-86.5908911541308,36.0530914474786],[-86.5908434577015,36.0532798005664],[-86.590445802844,36.0532133997374]]]},"properties":{"id":"90505","parcel":"164010A03800CO","address":"833 PIN OAK DR","owner":"PAU, THAWNG C","point":[-86.59066649995619,36.05315241706025]}},{"type":"Feature","id":"90506","geometry":{"type":"Polygon","coordinates":[[[-86.5904197601443,36.0533511711495],[-86.590445802844,36.0532133997374],[-86.5908434577015,36.0532798005664],[-86.5908166758361,36.0533856874211],[-86.5908096829869,36.0534139994323],[-86.5904197601443,36.0533511711495]]]},"properties":{"id":"90506","parcel":"164010A03900CO","address":"829 PIN OAK DR","owner":"FAYEZ, MINA & MAKAR, RASHA","point":[-86.59063044740739,36.05331548207935]}},{"type":"Feature","id":"90507","geometry":{"type":"Polygon","coordinates":[[[-86.5902944107771,36.0540142717232],[-86.5903200748068,36.0538785084705],[-86.590704613979,36.0539264400373],[-86.5906789505839,36.0540622024691],[-86.5902944107771,36.0540142717232]]]},"properties":{"id":"90507","parcel":"164010A04300CO","address":"813 PIN OAK DR","owner":"BRIGHT FUTURE, LLC","point":[-86.59049951246087,36.0539703560565]}},{"type":"Feature","id":"90508","geometry":{"type":"Polygon","coordinates":[[[-86.5902336053179,36.0543359297565],[-86.5902367355068,36.0543193686913],[-86.5905930834704,36.0544235966601],[-86.5905705202177,36.0544696581872],[-86.5905705005545,36.0544697006438],[-86.5905442768571,36.0545144344877],[-86.5905442385066,36.0545145013705],[-86.590514449741,36.0545577484359],[-86.5905144113102,36.0545578045037],[-86.5904811892459,36.0545993739719],[-86.5904811474518,36.0545994255497],[-86.5904445909846,36.0546391835437],[-86.5904049412361,36.0546768675074],[-86.5904048993549,36.054676907369],[-86.590362308471,36.0547123795594],[-86.5903622433892,36.0547124339551],[-86.5903168812749,36.0547455565421],[-86.5903168084171,36.0547456100746],[-86.5902688384333,36.0547762605819],[-86.5902687887224,36.0547762923702],[-86.5902183919958,36.0548043491361],[-86.5901392399815,36.0548453773331],[-86.5901572700268,36.0547409449341],[-86.5901603606717,36.054723389051],[-86.5902336053179,36.0543359297565]]]},"properties":{"id":"90508","parcel":"164010A04600CO","address":"801 PIN OAK DR","owner":"YOUSSEF, HANAN M. & MIKHAEIL, MEDHAT S.","point":[-86.59034286695554,36.05457805991547]}},{"type":"Feature","id":"90795","geometry":{"type":"Polygon","coordinates":[[[-86.5907903741892,36.0543638985771],[-86.5911734005138,36.0544340022027],[-86.591139940963,36.0546110086735],[-86.5907442164113,36.0544876239035],[-86.5907619160877,36.0544469668371],[-86.5907773125293,36.0544056964692],[-86.5907903741892,36.0543638985771]]]},"properties":{"id":"90795","parcel":"164010A01900CO","address":"804 PIN OAK DR","owner":"TEREFE, WUBNESH & KELIFA, MEKUANINT","point":[-86.59095995324567,36.05446800143822]}},{"type":"Feature","id":"90796","geometry":{"type":"Polygon","coordinates":[[[-86.5908281967001,36.0541779733513],[-86.5908538598708,36.0540422099901],[-86.5912383990471,36.0540901398574],[-86.5912127365179,36.0542259032989],[-86.5908281967001,36.0541779733513]]]},"properties":{"id":"90796","parcel":"164010A02100CO","address":"812 PIN OAK DR","owner":"ATTALLA, AHMED","point":[-86.5910332979855,36.05413405678069]}},{"type":"Feature","id":"90797","geometry":{"type":"Polygon","coordinates":[[[-86.5908538598708,36.0540422099901],[-86.5908897877226,36.053852141811],[-86.5912743271108,36.0539000715603],[-86.5912383990471,36.0540901398574],[-86.5908538598708,36.0540422099901]]]},"properties":{"id":"90797","parcel":"164010A02200CO","address":"816 PIN OAK DR","owner":"UZOH, TEDDY & LOVETH IFEABUNIKE","point":[-86.59106409346845,36.05397114096047]}},{"type":"Feature","id":"90800","geometry":{"type":"Polygon","coordinates":[[[-86.5904817783298,36.0530230889678],[-86.5905074748394,36.0528871524352],[-86.5909252235017,36.0529569091527],[-86.5908911541308,36.0530914474786],[-86.5904817783298,36.0530230889678]]]},"properties":{"id":"90800","parcel":"164010A03700CO","address":"837 PIN OAK DR","owner":"NYIRAMAHORO, JACQUELINE & KAMANZI, JEAN ETAL","point":[-86.59070241609673,36.052989995562044]}},{"type":"Feature","id":"90801","geometry":{"type":"Polygon","coordinates":[[[-86.5903560049711,36.0536884404378],[-86.5903824537157,36.0535485229121],[-86.5907671296336,36.0536016215578],[-86.590747347381,36.0537004341622],[-86.5907405421353,36.0537363718975],[-86.5903560049711,36.0536884404378]]]},"properties":{"id":"90801","parcel":"164010A04100CO","address":"821 PIN OAK DR","owner":"ROGERS, DONALD","point":[-86.59056132129724,36.05364503033438]}},{"type":"Feature","id":"90802","geometry":{"type":"Polygon","coordinates":[[[-86.5903200748068,36.0538785084705],[-86.5903560049711,36.0536884404378],[-86.5907405421353,36.0537363718975],[-86.590704613979,36.0539264400373],[-86.5903200748068,36.0538785084705]]]},"properties":{"id":"90802","parcel":"164010A04200CO","address":"817 PIN OAK DR","owner":"GERGIES, EMAN","point":[-86.59053030886697,36.0538074403707]}},{"type":"Feature","id":"90803","geometry":{"type":"Polygon","coordinates":[[[-86.5901083409483,36.0550243474619],[-86.5902794346391,36.0549356607815],[-86.5904705680499,36.0551787871606],[-86.5904163444484,36.0552068942991],[-86.5902602422251,36.0552175703008],[-86.5901083409483,36.0550243474619]]]},"properties":{"id":"90803","parcel":"164010A04700CO","address":"752 PIN OAK DR","owner":"AHMAD, HALIDA & SABAH, ZHEEN","point":[-86.59028945431878,36.05510156744741]}},{"type":"Feature","id":"90804","geometry":{"type":"Polygon","coordinates":[[[-86.5905213661205,36.0548208429211],[-86.5905340569167,36.0548241064704],[-86.5905341047358,36.0548241188541],[-86.5905341403194,36.0548241276925],[-86.5905341837391,36.0548241455054],[-86.5905461027869,36.0548290054],[-86.5905569907722,36.054835367375],[-86.5907229335336,36.054949610903],[-86.5904990834957,36.0551640061302],[-86.5904705680499,36.0551787871606],[-86.5902794346391,36.0549356607815],[-86.5903094073091,36.0549201236926],[-86.5903567959207,36.0548941266329],[-86.5903568810008,36.0548940748431],[-86.5904024550541,36.0548661642191],[-86.5904025411905,36.0548661052138],[-86.5904462620589,36.0548363109589],[-86.5904569830932,36.0548297646994],[-86.5904687729217,36.0548247030218],[-86.5904688171767,36.054824683878],[-86.5904688504065,36.0548246747024],[-86.5904689102,36.0548246554825],[-86.5904816084197,36.0548212999863],[-86.5904947823324,36.0548195248093],[-86.5905081358992,36.0548193719593],[-86.5905213661205,36.0548208429211]]]},"properties":{"id":"90804","parcel":"164010A04800CO","address":"7045 MARHADEN DR","owner":"KHELA, NASR & SHOKR, AMAL H","point":[-86.5904925234545,36.055056403898526]}},{"type":"Feature","id":"90805","geometry":{"type":"Polygon","coordinates":[[[-86.5912998719768,36.0537649314576],[-86.5913275343354,36.0536185852274],[-86.5913366734217,36.0535824936031],[-86.5913523056261,36.0535207637881],[-86.5914624977284,36.0535353573985],[-86.591632603296,36.0535578855182],[-86.5917378548377,36.0535718244646],[-86.5918035967191,36.0535598219486],[-86.5920189879312,36.0535204992647],[-86.5921357810855,36.0535205302623],[-86.5921728000063,36.0533222690518],[-86.592237547913,36.0533322642732],[-86.5921713097922,36.0536875543823],[-86.592071798939,36.0536875286466],[-86.5918348087326,36.0537243735114],[-86.5916691967676,36.0538403353739],[-86.5914891393509,36.0540898495913],[-86.5914624416427,36.0542370896874],[-86.5915072174489,36.0545959208997],[-86.5914012284703,36.055079204621],[-86.591397182426,36.0550976547891],[-86.5913959449386,36.0551010974494],[-86.5913233452323,36.0553030821475],[-86.5912925436315,36.0553260969837],[-86.5912924690638,36.0553259206982],[-86.5912690711463,36.0552761900914],[-86.5912421757423,36.0552276392905],[-86.5912118739655,36.0551804300773],[-86.5911782668911,36.0551347205788],[-86.5911414655355,36.0550906625648],[-86.5911011867091,36.0550488315376],[-86.5910580563553,36.0550089206923],[-86.5910122130471,36.054971056427],[-86.5909638019893,36.0549353615024],[-86.5908692500115,36.0548702676363],[-86.591139940963,36.0546110086735],[-86.5911734005138,36.0544340022027],[-86.5912127365179,36.0542259032989],[-86.5912383990471,36.0540901398574],[-86.5912743271108,36.0539000715603],[-86.5912998719768,36.0537649314576]]]},"properties":{"id":"90805","parcel":"164010A90000CO","address":"7030 MARHADEN DR","owner":"SHREIMAN, AMNON & RUTH","point":[-86.5913334431483,36.05433559894668]}},{"type":"Feature","id":"92253","geometry":{"type":"Polygon","coordinates":[[[-86.5907442164113,36.0544876239035],[-86.591139940963,36.0546110086735],[-86.5908692500115,36.0548702676363],[-86.5906663784094,36.0547306007763],[-86.5906568680395,36.0547229197932],[-86.5906490090063,36.0547141608949],[-86.5906489781963,36.0547141222907],[-86.5906489518124,36.0547140818623],[-86.59064290427,36.0547044380399],[-86.5906387985593,36.0546941231601],[-86.5906387826324,36.0546940709637],[-86.5906387711315,36.0546940169432],[-86.5906367385312,36.0546833710473],[-86.5906367315771,36.0546833314249],[-86.590636732466,36.0546833016783],[-86.5906367299448,36.054683261133],[-86.5906369957836,36.0546724354334],[-86.5906391662081,36.0546617518157],[-86.5906431973397,36.0546514295061],[-86.5906432148233,36.0546513924678],[-86.5906432334771,36.0546513635354],[-86.5906432532207,36.0546513318938],[-86.5906494097791,36.0546417445281],[-86.5906847882102,36.0545919411481],[-86.5907164284374,36.0545405058317],[-86.5907442164113,36.0544876239035]]]},"properties":{"id":"92253","parcel":"164010A01800CO","address":"7046 MARHADEN DR","owner":"YOUSSEF, SAAD T. & NAZER, NAWALT","point":[-86.59085273933879,36.0546785852331]}},{"type":"Feature","id":"93100","geometry":{"type":"Polygon","coordinates":[[[-86.5908045539461,36.0543030466055],[-86.5908281967001,36.0541779733513],[-86.5912127365179,36.0542259032989],[-86.5911734005138,36.0544340022027],[-86.5907903741892,36.0543638985771],[-86.5907981135686,36.0543335730553],[-86.5908045539461,36.0543030466055]]]},"properties":{"id":"93100","parcel":"164010A02000CO","address":"808 PIN OAK DR","owner":"GERGES, HANY & HENDY, ENGY","point":[-86.59099817461185,36.05431898154025]}},{"type":"Feature","id":"93101","geometry":{"type":"Polygon","coordinates":[[[-86.5909513058861,36.0535443425231],[-86.5909556483851,36.0535251572661],[-86.5913366734217,36.0535824936031],[-86.5913275343354,36.0536185852274],[-86.5912998719768,36.0537649314576],[-86.5909154996824,36.0537162511054],[-86.590940659955,36.0535927530214],[-86.5909513058861,36.0535443425231]]]},"properties":{"id":"93101","parcel":"164010A02400CO","address":"824 PIN OAK DR","owner":"ELMI, MOHAMED","point":[-86.59112188086247,36.05366741958494]}},{"type":"Feature","id":"93103","geometry":{"type":"Polygon","coordinates":[[[-86.5905464551113,36.052680937299],[-86.5905506253558,36.052658877806],[-86.5909845510626,36.05270598333],[-86.5909886532417,36.0527064282761],[-86.5909252235017,36.0529569091527],[-86.5905074748394,36.0528871524352],[-86.5905464551113,36.052680937299]]]},"properties":{"id":"93103","parcel":"164010A03600CO","address":"841 PIN OAK DR","owner":"DIOUF, MOUSSA S.","point":[-86.5907451412806,36.05279678062125]}},{"type":"Feature","id":"93104","geometry":{"type":"Polygon","coordinates":[[[-86.5904143489144,36.0533797998508],[-86.5904197601443,36.0533511711495],[-86.5908096829869,36.0534139994323],[-86.5908010781924,36.0534497296875],[-86.5907954336529,36.0534736818947],[-86.5907724524629,36.0535764947564],[-86.5907671296336,36.0536016215578],[-86.5903824537157,36.0535485229121],[-86.5904143489144,36.0533797998508]]]},"properties":{"id":"93104","parcel":"164010A04000CO","address":"825 PIN OAK DR","owner":"ISHAK, TAMER & MARIAM BESHARA","point":[-86.59058828721787,36.053511100339804]}},{"type":"Feature","id":"93105","geometry":{"type":"Polygon","coordinates":[[[-86.5902584814281,36.0542043397176],[-86.5902944107771,36.0540142717232],[-86.5906789505839,36.0540622024691],[-86.5906430210298,36.0542522714827],[-86.5902584814281,36.0542043397176]]]},"properties":{"id":"93105","parcel":"164010A04400CO","address":"809 PIN OAK DR","owner":"MMTIAZ, SHERIF EZZET AZIZ","point":[-86.59046871601706,36.05413327127873]}},{"type":"Feature","id":"93106","geometry":{"type":"Polygon","coordinates":[[[-86.5902367355068,36.0543193686913],[-86.5902584814281,36.0542043397176],[-86.5906430210298,36.0542522714827],[-86.5906373620384,36.0542822082612],[-86.5906261243276,36.0543300348874],[-86.5906113467286,36.0543772209231],[-86.5905930834704,36.0544235966601],[-86.5902367355068,36.0543193686913]]]},"properties":{"id":"93106","parcel":"164010A04500CO","address":"805 PIN OAK DR","owner":"EWEDA, SALEH & SHENOUDA, NAGWA SAFA HABEB","point":[-86.59043660709389,36.05430078713486]}},{"type":"Feature","id":"97305","geometry":{"type":"Polygon","coordinates":[[[-86.5901083409483,36.0550243474619],[-86.5902602422251,36.0552175703008],[-86.5904163444484,36.0552068942991],[-86.5904705680499,36.0551787871606],[-86.5904990834957,36.0551640061302],[-86.5907229335336,36.054949610903],[-86.590854414469,36.0550401292672],[-86.5909013934986,36.0550751967534],[-86.5909455683984,36.0551125888572],[-86.5909867671517,36.055152159516],[-86.5910239259015,36.0551942843767],[-86.5910577561355,36.0552382200014],[-86.5910881233621,36.0552837922035],[-86.5911138924555,36.0553311967235],[-86.5911359490167,36.055379819954],[-86.5911542028198,36.0554294703665],[-86.5911331742191,36.0554451828075],[-86.5909576812785,36.0555378461825],[-86.5909509620151,36.0555390841422],[-86.5908147776516,36.0555641639193],[-86.5905960849056,36.0555724225816],[-86.5903293736952,36.0555119382521],[-86.5902568976769,36.0555219297236],[-86.5900721478614,36.0556057901543],[-86.5900024983405,36.0556374038036],[-86.5901083409483,36.0550243474619]]]},"properties":{"id":"97305","parcel":"164010A90200CO","address":"7031 MARHADEN DR","owner":"SHREIMAN, AMNON & RUTH","point":[-86.59058053908511,36.05530571811418]}},{"type":"Feature","id":"156658","geometry":{"type":"Polygon","coordinates":[[[-86.5976202676899,36.0504912652737],[-86.5976310574493,36.0503796301956],[-86.5980558599308,36.0504067046354],[-86.5980299966481,36.0505457964401],[-86.5976176853835,36.0505165527653],[-86.5976202676899,36.0504912652737]]]},"properties":{"id":"156658","parcel":"164070B03500CO","address":"1129 ALCOVE WAY","owner":"MIDTOWN REALTY, LLC","point":[-86.59783614536789,36.05044897871758]}},{"type":"Feature","id":"156659","geometry":{"type":"Polygon","coordinates":[[[-86.5976310574493,36.0503796301956],[-86.5976442928789,36.050242697482],[-86.5980811802498,36.050270542883],[-86.5980558599308,36.0504067046354],[-86.5976310574493,36.0503796301956]]]},"properties":{"id":"156659","parcel":"164070B03600CO","address":"1125 ALCOVE WAY","owner":"FOLTZ, NICHOLAS & RACKLIFF, COURTNEY","point":[-86.59785365207617,36.05032507847701]}},{"type":"Feature","id":"156660","geometry":{"type":"Polygon","coordinates":[[[-86.5976442928789,36.050242697482],[-86.5976575271598,36.0501057656694],[-86.5981064993723,36.0501343811265],[-86.5980811802498,36.050270542883],[-86.5976442928789,36.050242697482]]]},"properties":{"id":"156660","parcel":"164070B03700CO","address":"1121 ALCOVE WAY","owner":"GORGEY, STEPHAN","point":[-86.59787294567344,36.050188531308606]}},{"type":"Feature","id":"156661","geometry":{"type":"Polygon","coordinates":[[[-86.596411665002,36.0524448294622],[-86.5964149696815,36.0524264107164],[-86.596628449014,36.051236773707],[-86.5966332216335,36.0512101793542],[-86.5966780733026,36.0509602324908],[-86.5966781318874,36.0509599050349],[-86.5967338003344,36.0506496790364],[-86.5967864935829,36.0503880378744],[-86.5969353190361,36.0496491605868],[-86.5970544961499,36.0490585594187],[-86.5971144336187,36.0490672626776],[-86.5971555867565,36.0490731469386],[-86.5972739611723,36.0490896594795],[-86.597318060714,36.049095654361],[-86.5973188439709,36.049095762238],[-86.5972554733141,36.0494213684541],[-86.5974225392514,36.0494428101952],[-86.5976432043201,36.0494711312899],[-86.5976272378942,36.049524706148],[-86.5972582568954,36.0494773486966],[-86.5972234176878,36.0495905269722],[-86.5971823996842,36.0497237794933],[-86.5971365342119,36.0498789671142],[-86.5971214124617,36.0500354192059],[-86.597108176159,36.0501723509675],[-86.5970949398107,36.0503092827231],[-86.5970817034234,36.0504462153743],[-86.5970657411336,36.0505794536449],[-86.5970415438619,36.0507086012235],[-86.5970161011901,36.0508443920115],[-86.5969906595413,36.0509801827843],[-86.5969652166956,36.051115973553],[-86.5969372297952,36.0512653430252],[-86.5969117878768,36.051401133768],[-86.5968860481244,36.0515385104314],[-86.5968767749116,36.0515880016445],[-86.596877177439,36.051695388419],[-86.5968774540871,36.0517691678744],[-86.5969096281304,36.0518516976305],[-86.5969534903477,36.0519642002303],[-86.5970084121714,36.0520336270903],[-86.5970910248042,36.0521380586595],[-86.5971206962183,36.0521642831911],[-86.5972414245135,36.0522709845024],[-86.5972676066785,36.0522803957325],[-86.5974560303171,36.0523481260334],[-86.5976315567929,36.0524112198052],[-86.597681615843,36.0524192408324],[-86.5977374795721,36.0521188356744],[-86.5978090025772,36.0521445451219],[-86.5977513895642,36.0524711718991],[-86.597751375719,36.0524712494782],[-86.5977484057468,36.0524880875542],[-86.5966922017942,36.0524541093353],[-86.596411665002,36.0524448294622]]]},"properties":{"id":"156661","parcel":"164070B90000CO","address":"0 PIN HOOK RD","owner":"MIDTOWN REALTY, LLC","point":[-86.59687002889629,36.050775962777585]}},{"type":"Feature","id":"156662","geometry":{"type":"Polygon","coordinates":[[[-86.5979386219348,36.0510371742882],[-86.5979728070513,36.0508533411887],[-86.5980403402744,36.0508581307846],[-86.597990781823,36.051124640984],[-86.5979635386869,36.0512761340415],[-86.5978960202019,36.0516516082745],[-86.5978339170899,36.0520032923444],[-86.5977636618023,36.0519780389818],[-86.5978123457782,36.0517162415754],[-86.5978376007382,36.0515804281394],[-86.5978628567218,36.0514446146882],[-86.597888112619,36.0513088012275],[-86.5979133673201,36.0511729877626],[-86.5979386219348,36.0510371742882]]]},"properties":{"id":"156662","parcel":"164070B90100CO","address":"0 PIN HOOK RD","owner":"MIDTOWN REALTY, LLC","point":[-86.59791044793496,36.05137682522594]}},{"type":"Feature","id":"157136","geometry":{"type":"Polygon","coordinates":[[[-86.5976682520511,36.0500033762639],[-86.5976745691491,36.0499633477822],[-86.5981283761708,36.0500167280758],[-86.5981064993723,36.0501343811265],[-86.5976575271598,36.0501057656694],[-86.5976635141778,36.0500438331343],[-86.5976682298021,36.0500035169744],[-86.5976682520511,36.0500033762639]]]},"properties":{"id":"157136","parcel":"164070B03800CO","address":"1117 ALCOVE WAY","owner":"SALIH, MAHA","point":[-86.5978889069992,36.05007556562527]}},{"type":"Feature","id":"157530","geometry":{"type":"Polygon","coordinates":[[[-86.5976109718255,36.050572647677],[-86.5976176853835,36.0505165527653],[-86.5980299966481,36.0505457964401],[-86.5979960869779,36.0507281455926],[-86.5976794470904,36.0507056872094],[-86.5976660314797,36.0507038430203],[-86.5976532123655,36.0507002933476],[-86.5976531734399,36.0507002827253],[-86.5976531367002,36.0507002675856],[-86.5976530999672,36.0507002533473],[-86.597641205578,36.0506951065201],[-86.5976411632553,36.0506950869018],[-86.5976411298044,36.0506950663381],[-86.5976410974633,36.050695045769],[-86.5976303728509,36.0506884186405],[-86.5976303472027,36.0506884025446],[-86.5976303125878,36.0506883747765],[-86.597630289139,36.0506883559658],[-86.5976211206679,36.0506802655473],[-86.5976134974345,36.0506711805605],[-86.5976075795882,36.0506612921849],[-86.5976075604432,36.0506612553273],[-86.5976075491077,36.0506612238386],[-86.5976075366419,36.0506611896516],[-86.5976038637524,36.0506506682583],[-86.5976038512528,36.0506506295651],[-86.5976038465627,36.0506505962409],[-86.5976038407561,36.0506505620209],[-86.5976022870011,36.0506396488766],[-86.5976029088897,36.0506286267041],[-86.5976109718255,36.050572647677]]]},"properties":{"id":"157530","parcel":"164070B03400CO","address":"1133 ALCOVE WAY","owner":"MIDTOWN REALTY, LLC","point":[-86.59781324071623,36.05060132943207]}},{"type":"Feature","id":"159653","geometry":{"type":"Polygon","coordinates":[[[-86.5975367013111,36.0509878874128],[-86.5975553651913,36.0508882706806],[-86.5975588588902,36.0508771738838],[-86.5975643756421,36.050866633963],[-86.5975717885082,36.0508568912887],[-86.5975718171199,36.0508568587007],[-86.5975718446897,36.0508568351306],[-86.5975718722458,36.050856809758],[-86.5975812949754,36.0508483792999],[-86.597581317023,36.0508483593623],[-86.5975813556707,36.0508483330334],[-86.5975813799651,36.0508483166899],[-86.5975924013986,36.0508412788977],[-86.5975924411698,36.0508412543659],[-86.5975924765626,36.0508412379673],[-86.5975925185804,36.0508412170294],[-86.597604988968,36.0508358781804],[-86.5976183398101,36.0508322059431],[-86.5976322377247,36.0508302920988],[-86.5976463334601,36.0508301843447],[-86.5979728070513,36.0508533411887],[-86.5979386219348,36.0510371742882],[-86.5975367013111,36.0509878874128]]]},"properties":{"id":"159653","parcel":"164070B03300CO","address":"1141 ALCOVE WAY","owner":"MIDTOWN REALTY, LLC","point":[-86.59775141320681,36.05093876830797]}},{"type":"Feature","id":"202400","geometry":{"type":"Polygon","coordinates":[[[-86.5899377482569,36.0522062387365],[-86.5899933087303,36.0521923637005],[-86.5900479627269,36.0521762903423],[-86.5901015795676,36.0521580580582],[-86.5902536955892,36.0524338347249],[-86.5900361380905,36.0524906966254],[-86.5899377482569,36.0522062387365]]]},"properties":{"id":"202400","parcel":"164080A15900CO","address":"1221 LAKEWALK DR","owner":"AYOOB, AYOOB & FOUAD, KAREMA","point":[-86.59008403709716,36.05231999688323]}},{"type":"Feature","id":"204243","geometry":{"type":"Polygon","coordinates":[[[-86.5901015795676,36.0521580580582],[-86.590154030827,36.0521377107398],[-86.5902051881201,36.0521152976868],[-86.5902549297551,36.0520908726723],[-86.5904416427252,36.0523282454566],[-86.5902536955892,36.0524338347249],[-86.5901015795676,36.0521580580582]]]},"properties":{"id":"204243","parcel":"164080A16000CO","address":"1217 LAKEWALK DR","owner":"EZIRIM, ALVAN UGOCHUKWU & CHUKWU, OLUCHI ESTHER","point":[-86.59026163567948,36.05224311778532]}},{"type":"Feature","id":"204244","geometry":{"type":"Polygon","coordinates":[[[-86.5899414225732,36.0517386290701],[-86.5900465423669,36.0516351807781],[-86.590328393094,36.0518681673537],[-86.5903232548055,36.0518728674748],[-86.5902834898854,36.0519024882186],[-86.590232463442,36.051936221676],[-86.5901788537468,36.0519671990215],[-86.5901228840355,36.0519952902753],[-86.5899414225732,36.0517386290701]]]},"properties":{"id":"204244","parcel":"164080A16200CO","address":"1208 LAKEWALK DR","owner":"ESPINOZA, ERIK FLORES","point":[-86.59011868744336,36.051803342913594]}},{"type":"Feature","id":"270194","geometry":{"type":"Polygon","coordinates":[[[-86.5993074717701,36.059162725336],[-86.5993101824326,36.0591383015489],[-86.5995594973898,36.0568917478872],[-86.6004457718737,36.0569675571622],[-86.6007950084903,36.0570088322986],[-86.6007246797123,36.0572638274706],[-86.6007225470932,36.0572715602841],[-86.6006883786375,36.0573954486572],[-86.6006611319262,36.0574942360675],[-86.6005772036918,36.0577985377259],[-86.6005776426851,36.0577975828835],[-86.6005351423861,36.0579559993607],[-86.600116428253,36.0595173868859],[-86.5993074717701,36.059162725336]]]},"properties":{"id":"270194","parcel":"16400006001","address":"3511 HAMILTON CHURCH RD","owner":"STRIKE MANAGEMENT SERIES LLC","point":[-86.59987610037695,36.058546996659736]}},{"type":"Feature","id":"279162","geometry":{"type":"Polygon","coordinates":[[[-86.5978960202019,36.0516516082745],[-86.5979635386869,36.0512761340415],[-86.5994099616399,36.0514493261623],[-86.5993312180053,36.0518669271374],[-86.5978960202019,36.0516516082745]]]},"properties":{"id":"279162","parcel":"16400023200","address":"0 HOBSON PIKE","owner":"326 ETL PROPERTY TRUST, THE","point":[-86.59865253842429,36.05155046809719]}},{"type":"Feature","id":"281449","geometry":{"type":"Polygon","coordinates":[[[-86.5980636201028,36.0507329360769],[-86.5982374625019,36.0497980535038],[-86.5988052713233,36.0498568065509],[-86.5987401662581,36.0501955754648],[-86.599620678584,36.0503230591121],[-86.5994099616399,36.0514493261623],[-86.5979635386869,36.0512761340415],[-86.597990781823,36.051124640984],[-86.5980403402744,36.0508581307846],[-86.5980636201028,36.0507329360769]]]},"properties":{"id":"281449","parcel":"16400020300","address":"2018 HOBSON PIKE","owner":"KIRBY, FAYE H REVOCABLE LIVING TRUST","point":[-86.59884203129319,36.05052799973692]}}]}