{"type":"FeatureCollection","features":[{"type":"Feature","id":"64494","geometry":{"type":"Polygon","coordinates":[[[-86.6413898196835,36.128438781468],[-86.6414009207856,36.1284366233917],[-86.6414123120884,36.1284360076445],[-86.6414236671214,36.1284369530864],[-86.6414473558866,36.1284334735109],[-86.6414702088014,36.1284273315214],[-86.6414917735708,36.1284186484909],[-86.6415116216302,36.1284075952363],[-86.6415293614836,36.1283943928487],[-86.6415446419419,36.1283793009594],[-86.6415571610252,36.1283626194951],[-86.6418771954823,36.1284927790102],[-86.6417543603672,36.1286711680965],[-86.6413898196835,36.128438781468]]]},"properties":{"id":"64494","parcel":"108150A00900CO","address":"705 WOODCRAFT DR","owner":"YORK, CORYNN & RANDY","point":[-86.64171463547308,36.128581671091496]}},{"type":"Feature","id":"64495","geometry":{"type":"Polygon","coordinates":[[[-86.6404245971869,36.1285884052802],[-86.6405887612206,36.1284119954003],[-86.6409694135992,36.1286267177888],[-86.6409237812674,36.1286785443385],[-86.6408800606359,36.1287314449401],[-86.6408382924397,36.1287853734146],[-86.6404245971869,36.1285884052802]]]},"properties":{"id":"64495","parcel":"108150A01400CO","address":"720 WOODCRAFT DR","owner":"CAICEDO, ALEXANDER & EVELYN","point":[-86.64070004404542,36.12860757095862]}},{"type":"Feature","id":"64496","geometry":{"type":"Polygon","coordinates":[[[-86.6402658094044,36.1287595662444],[-86.6404245971869,36.1285884052802],[-86.6408382924397,36.1287853734146],[-86.6407823636706,36.1288635175666],[-86.6407301912998,36.128943352347],[-86.6402658094044,36.1287595662444]]]},"properties":{"id":"64496","parcel":"108150A01500CO","address":"724 WOODCRAFT DR","owner":"MILLER, MARK & VALLERI D.","point":[-86.64055465505952,36.12877247798575]}},{"type":"Feature","id":"64497","geometry":{"type":"Polygon","coordinates":[[[-86.6401885298054,36.128960513105],[-86.640198905032,36.1289033185293],[-86.6402197961091,36.1288065114726],[-86.6402658094044,36.1287595662444],[-86.6407301912998,36.128943352347],[-86.6406975729343,36.128997840528],[-86.640666856787,36.1290530513285],[-86.6406380669449,36.1291089404597],[-86.6401885298054,36.128960513105]]]},"properties":{"id":"64497","parcel":"108150A01600CO","address":"728 WOODCRAFT DR","owner":"ALEMU, MESFUN & ABRAHA, SHASHU","point":[-86.64043833871938,36.12892325706237]}},{"type":"Feature","id":"64653","geometry":{"type":"Polygon","coordinates":[[[-86.6406087873493,36.1296769184334],[-86.6406582936014,36.1295173230191],[-86.6411067445235,36.1296146596926],[-86.640991944841,36.1297817420804],[-86.6406087873493,36.1296769184334]]]},"properties":{"id":"64653","parcel":"108150A00100CO","address":"737 WOODCRAFT DR","owner":"AMAAR, YOUSEF G. & BENHAG, SALMA & AMAAR, AHMED","point":[-86.64085177708237,36.12964577136599]}},{"type":"Feature","id":"64659","geometry":{"type":"Polygon","coordinates":[[[-86.6409848541118,36.1288615108313],[-86.641027211154,36.1288063552553],[-86.6410715986597,36.1287522595803],[-86.6411179770483,36.1286992753869],[-86.6415609180956,36.1289532224405],[-86.6414631910434,36.1290957658111],[-86.6409848541118,36.1288615108313]]]},"properties":{"id":"64659","parcel":"108150A00600CO","address":"717 WOODCRAFT DR","owner":"PAMPO, MARILOU","point":[-86.64127966033622,36.12890738726881]}},{"type":"Feature","id":"65125","geometry":{"type":"Polygon","coordinates":[[[-86.6412560094622,36.1285578915757],[-86.6413477023237,36.1284648276328],[-86.641353960143,36.1284576455012],[-86.6413614857904,36.1284513155381],[-86.6413701071351,36.1284459837623],[-86.6413796251948,36.128441772903],[-86.6413898196835,36.128438781468],[-86.6417543603672,36.1286711680965],[-86.6416506105342,36.1288222597586],[-86.6412560094622,36.1285578915757]]]},"properties":{"id":"65125","parcel":"108150A00800CO","address":"709 WOODCRAFT DR","owner":"MCCLENDON, HANNAH & JUSTIN","point":[-86.64150303949701,36.128614523674266]}},{"type":"Feature","id":"65129","geometry":{"type":"Polygon","coordinates":[[[-86.6410869535561,36.127876966838],[-86.6415072208266,36.1278395697106],[-86.6414367095508,36.1281651963055],[-86.6414120910291,36.1281630424862],[-86.6413873507865,36.1281638364575],[-86.6413630185951,36.1281675591801],[-86.6413396204209,36.1281741330527],[-86.6413176616879,36.1281834129885],[-86.6410869535561,36.127876966838]]]},"properties":{"id":"65129","parcel":"108150A01000CO","address":"704 WOODCRAFT DR","owner":"GREER, ERIC & BROWN, KAYLA","point":[-86.64133126161298,36.12802024954692]}},{"type":"Feature","id":"65133","geometry":{"type":"Polygon","coordinates":[[[-86.6408794898601,36.128100032719],[-86.6410869535561,36.127876966838],[-86.6413176616879,36.1281834129885],[-86.641295695156,36.128196404386],[-86.6412765911274,36.1282120924805],[-86.6412608462449,36.1282300699635],[-86.6412488688809,36.1282498669075],[-86.6412409726174,36.1282709688245],[-86.6412373618764,36.1282928257564],[-86.6412381320654,36.1283148702984],[-86.6412402314315,36.1283219791615],[-86.6412411977979,36.1283292481639],[-86.6412410157542,36.1283365575189],[-86.6408794898601,36.128100032719]]]},"properties":{"id":"65133","parcel":"108150A01100CO","address":"708 WOODCRAFT DR","owner":"AH4R TN PROPERTIES THREE, LLC","point":[-86.64111459871819,36.12814177106032]}},{"type":"Feature","id":"65488","geometry":{"type":"Polygon","coordinates":[[[-86.6401478137841,36.1291604412294],[-86.6401650531384,36.1290727176228],[-86.6401833421829,36.1289891099416],[-86.6401885298054,36.128960513105],[-86.6406380669449,36.1291089404597],[-86.6406005736712,36.1291878220929],[-86.6405668833503,36.1292678245252],[-86.6401478137841,36.1291604412294]]]},"properties":{"id":"65488","parcel":"108150A01700CO","address":"732 WOODCRAFT DR","owner":"MOORE, PAULA MOORE","point":[-86.64038925571901,36.12913468003393]}},{"type":"Feature","id":"65502","geometry":{"type":"Polygon","coordinates":[[[-86.6417963367561,36.127663868043],[-86.641840796801,36.1275507268516],[-86.6420278219466,36.1276054967488],[-86.6419846930112,36.1277161587448],[-86.6417963367561,36.127663868043]]]},"properties":{"id":"65502","parcel":"10800024900","address":"0 ELM HILL PIKE","owner":"CEMETERY-- BLAIR-MANN","point":[-86.64191212686752,36.12763468259405]}},{"type":"Feature","id":"65567","geometry":{"type":"Polygon","coordinates":[[[-86.6411179770483,36.1286992753869],[-86.6411738161417,36.128639658928],[-86.6412321599794,36.1285816433003],[-86.6412560094622,36.1285578915757],[-86.6416506105342,36.1288222597586],[-86.6415609180956,36.1289532224405],[-86.6411179770483,36.1286992753869]]]},"properties":{"id":"65567","parcel":"108150A00700CO","address":"713 WOODCRAFT DR","owner":"GAU, VIOLET CHEN","point":[-86.64139200376647,36.12876079095048]}},{"type":"Feature","id":"65569","geometry":{"type":"Polygon","coordinates":[[[-86.6407341274888,36.1282562890284],[-86.6408794898601,36.128100032719],[-86.6412410157542,36.1283365575189],[-86.6412397236662,36.1283442558134],[-86.641236573045,36.1283530680409],[-86.6412319468489,36.1283614410822],[-86.641225933759,36.128369213139],[-86.6412186514346,36.1283762339748],[-86.6410983742808,36.1284941733296],[-86.6407341274888,36.1282562890284]]]},"properties":{"id":"65569","parcel":"108150A01200CO","address":"712 WOODCRAFT DR","owner":"PERFORMANCE REI PROPERTIES, LLC","point":[-86.64098762522086,36.12829642370222]}},{"type":"Feature","id":"65573","geometry":{"type":"Polygon","coordinates":[[[-86.6405887612206,36.1284119954003],[-86.6407341274888,36.1282562890284],[-86.6410983742808,36.1284941733296],[-86.6410324037084,36.1285594918424],[-86.6409694135992,36.1286267177888],[-86.6405887612206,36.1284119954003]]]},"properties":{"id":"65573","parcel":"108150A01300CO","address":"716 WOODCRAFT DR","owner":"PUGH, ADAM J.","point":[-86.64084848696085,36.128453099384956]}},{"type":"Feature","id":"65576","geometry":{"type":"Polygon","coordinates":[[[-86.6403057412294,36.1293862360478],[-86.6401129307759,36.1293279224607],[-86.6401363743753,36.1292113226509],[-86.6401468349411,36.1291651167962],[-86.6401478137841,36.1291604412294],[-86.6405668833503,36.1292678245252],[-86.6405441204287,36.1293288107464],[-86.6405235112743,36.1293903001511],[-86.6405040054372,36.1294489158575],[-86.6403057412294,36.1293862360478]]]},"properties":{"id":"65576","parcel":"108150A01800CO","address":"736 WOODCRAFT DR","owner":"YAMASA CO., LTD","point":[-86.64033732422622,36.12929766274308]}},{"type":"Feature","id":"65626","geometry":{"type":"Polygon","coordinates":[[[-86.6407102768088,36.1293706277949],[-86.6407162472243,36.1293554872231],[-86.6412044750672,36.1294723906036],[-86.6411067445235,36.1296146596926],[-86.6406582936014,36.1295173230191],[-86.6406647274976,36.1294997267368],[-86.6406901000973,36.1294303466427],[-86.6407102768088,36.1293706277949]]]},"properties":{"id":"65626","parcel":"108150A00200CO","address":"733 WOODCRAFT DR","owner":"ROBINSON, BILLY WAYNE","point":[-86.64093228331703,36.129486052026046]}},{"type":"Feature","id":"65630","geometry":{"type":"Polygon","coordinates":[[[-86.6407876918339,36.1291869869542],[-86.6408154930963,36.1291314058654],[-86.6408451948919,36.129076475303],[-86.6408767753483,36.1290222386428],[-86.6413785138983,36.1292192842381],[-86.6412921667497,36.1293450105727],[-86.6407876918339,36.1291869869542]]]},"properties":{"id":"65630","parcel":"108150A00400CO","address":"725 WOODCRAFT DR","owner":"STRACHAN, JOSEPH C.& LARRY","point":[-86.64101518165046,36.12915983670627]}},{"type":"Feature","id":"66689","geometry":{"type":"Polygon","coordinates":[[[-86.6407162472243,36.1293554872231],[-86.6407379176366,36.1292987319179],[-86.6407617401412,36.1292425473966],[-86.6407876918339,36.1291869869542],[-86.6412921667497,36.1293450105727],[-86.6412044750672,36.1294723906036],[-86.6407162472243,36.1293554872231]]]},"properties":{"id":"66689","parcel":"108150A00300CO","address":"729 WOODCRAFT DR","owner":"HODGE, MARIE K.","point":[-86.64097483470478,36.12932175106093]}},{"type":"Feature","id":"66690","geometry":{"type":"Polygon","coordinates":[[[-86.6408767753483,36.1290222386428],[-86.6409109832268,36.1289678663435],[-86.6409470182654,36.128914277442],[-86.6409848541118,36.1288615108313],[-86.6414631910434,36.1290957658111],[-86.6413785138983,36.1292192842381],[-86.6408767753483,36.1290222386428]]]},"properties":{"id":"66690","parcel":"108150A00500CO","address":"721 WOODCRAFT DR","owner":"MCMILLIAN, AARON & BOOKER, ALYXANDRA","point":[-86.64117915824902,36.129059030070025]}},{"type":"Feature","id":"70674","geometry":{"type":"Polygon","coordinates":[[[-86.6402135172207,36.1297075842246],[-86.6403057412294,36.1293862360478],[-86.6405040054372,36.1294489158575],[-86.6404353461995,36.1296690465319],[-86.6404324119094,36.1296830714231],[-86.6404255644238,36.1296960932472],[-86.6404160869642,36.1297079790138],[-86.640404252272,36.1297183838914],[-86.6403919449244,36.1297252853433],[-86.6403784002816,36.1297304385925],[-86.6403639893809,36.1297337019725],[-86.6403491125512,36.1297349841325],[-86.6403341783634,36.1297342513592],[-86.6403196002538,36.1297315221876],[-86.6403057799034,36.129726872896],[-86.640278301073,36.1297207008497],[-86.6402135172207,36.1297075842246]]]},"properties":{"id":"70674","parcel":"10815001200","address":"900 HAMMACK DR","owner":"HAMILTON, JILL REGENIA","point":[-86.64036301235772,36.129558661006506]}},{"type":"Feature","id":"70690","geometry":{"type":"Polygon","coordinates":[[[-86.640548167152,36.129886015505],[-86.6405613672615,36.1298373319095],[-86.6405771845522,36.1297891643607],[-86.641119996231,36.1299137445482],[-86.6411556716335,36.1300124502144],[-86.640548167152,36.129886015505]]]},"properties":{"id":"70690","parcel":"10815004400","address":"819 WOODCRAFT DR","owner":"TAM, KWOK KIT & CHIANG, PUI HU","point":[-86.64083707533061,36.12989988934391]}},{"type":"Feature","id":"72002","geometry":{"type":"Polygon","coordinates":[[[-86.6399484550886,36.1300957779347],[-86.639978674931,36.1298121201156],[-86.6400488115381,36.1298204119184],[-86.6401184670291,36.129831036913],[-86.6401875268308,36.1298439767815],[-86.6400977622285,36.1301345433825],[-86.6399484550886,36.1300957779347]]]},"properties":{"id":"72002","parcel":"10815004300","address":"903 HAMMACK DR","owner":"MIRKHUSAINOV, ASHLIER","point":[-86.64005522988174,36.129969839073986]}},{"type":"Feature","id":"72856","geometry":{"type":"Polygon","coordinates":[[[-86.6400155006069,36.12967566922],[-86.6401129307759,36.1293279224607],[-86.6403057412294,36.1293862360478],[-86.6402135172207,36.1297075842246],[-86.6401479698986,36.1296951259367],[-86.6400819395173,36.129684483528],[-86.6400155006069,36.12967566922]]]},"properties":{"id":"72856","parcel":"10815000200","address":"902 HAMMACK DR","owner":"HALL, BERNICE J.","point":[-86.64016012722183,36.12953095124117]}},{"type":"Feature","id":"73557","geometry":{"type":"Polygon","coordinates":[[[-86.6406087873493,36.1296769184334],[-86.640991944841,36.1297817420804],[-86.6410812026434,36.1298062653702],[-86.6411141184616,36.1298148814204],[-86.6413110907129,36.1299270139541],[-86.64115601047,36.1300124484136],[-86.6411556716335,36.1300124502144],[-86.641119996231,36.1299137445482],[-86.6405771845522,36.1297891643607],[-86.6405830974011,36.1297666066653],[-86.6405953554479,36.1297216521071],[-86.6406087873493,36.1296769184334]]]},"properties":{"id":"73557","parcel":"10815000300","address":"817 WOODCRAFT DR","owner":"HUDDLESTON, JAZPER ASHTON LEDBETTER & ETAL","point":[-86.64105159902326,36.12986411684883]}},{"type":"Feature","id":"73561","geometry":{"type":"Polygon","coordinates":[[[-86.6409915123346,36.1301056241332],[-86.6405085440602,36.1300114922494],[-86.6405286933434,36.1299487516356],[-86.640548167152,36.129886015505],[-86.6411556716335,36.1300124502144],[-86.64115601047,36.1300124484136],[-86.6409915123346,36.1301056241332]]]},"properties":{"id":"73561","parcel":"10815000400","address":"821 WOODCRAFT DR","owner":"TILTON, KENNETH & BRANDI","point":[-86.6407618773136,36.12998035911549]}},{"type":"Feature","id":"106232","geometry":{"type":"Polygon","coordinates":[[[-86.640991944841,36.1297817420804],[-86.6411067445235,36.1296146596926],[-86.6412044750672,36.1294723906036],[-86.6412921667497,36.1293450105727],[-86.6413785138983,36.1292192842381],[-86.6414631910434,36.1290957658111],[-86.6415609180956,36.1289532224405],[-86.6416506105342,36.1288222597586],[-86.6417543603672,36.1286711680965],[-86.6418771954823,36.1284927790102],[-86.6415571610252,36.1283626194951],[-86.6415671552824,36.12834296285],[-86.6415732974136,36.1283222929355],[-86.641575440299,36.1283011008244],[-86.6415735313852,36.128279894211],[-86.6415676192049,36.1282591793499],[-86.6415578421872,36.128239451202],[-86.6415444352206,36.1282211807822],[-86.6415277184566,36.1282048044033],[-86.6415080905635,36.1281907137984],[-86.6414860208481,36.128179243545],[-86.6414620359105,36.1281706693337],[-86.6414367095508,36.1281651963055],[-86.6415072208266,36.1278395697106],[-86.6410869535561,36.127876966838],[-86.6408794898601,36.128100032719],[-86.6407341274888,36.1282562890284],[-86.6405887612206,36.1284119954003],[-86.6404245971869,36.1285884052802],[-86.6402658094044,36.1287595662444],[-86.6402197961091,36.1288065114726],[-86.6401110811886,36.1285524367643],[-86.6400072134965,36.1283115181835],[-86.63991583522,36.1281916808754],[-86.6398022087582,36.1280422935327],[-86.6396906411323,36.1278961911016],[-86.6398849014304,36.1280509198982],[-86.6399711562204,36.1280812298585],[-86.6405165402866,36.128316781318],[-86.6412837467259,36.1276737365495],[-86.6421837920911,36.1282172643675],[-86.6410812026434,36.1298062653702],[-86.640991944841,36.1297817420804]]]},"properties":{"id":"106232","parcel":"108150A90000CO","address":"0 WOODCRAFT DR","owner":"PERCY PRIEST WOODS","point":[-86.64024424735084,36.12871307187699]}},{"type":"Feature","id":"107735","geometry":{"type":"Polygon","coordinates":[[[-86.6432137283725,36.1245205310622],[-86.6432756046868,36.1241334158274],[-86.647130428782,36.1244842022212],[-86.6470556362362,36.1249461121552],[-86.6432137283725,36.1245205310622]]]},"properties":{"id":"107735","parcel":"12100001601","address":"0 WAGGONER RD","owner":"METRO NASHVILLE AIRPORT AUTHORITY","point":[-86.64611191544167,36.12473622793389]}},{"type":"Feature","id":"107762","geometry":{"type":"Polygon","coordinates":[[[-86.64143211612,36.1256266524666],[-86.6416203012378,36.1251135973238],[-86.6419758407119,36.1251974137608],[-86.6422716815084,36.125268362346],[-86.6424173200657,36.1248544269022],[-86.6420944111019,36.1247858209516],[-86.641768775529,36.124715030448],[-86.6423678475969,36.1230921664243],[-86.6426226771853,36.1231171812032],[-86.642215084178,36.1242994952222],[-86.6431614087924,36.1244153245237],[-86.6431459456859,36.124512926144],[-86.6429345536633,36.1258384198027],[-86.64143211612,36.1256266524666]]]},"properties":{"id":"107762","parcel":"12100001900","address":"2540 PULLEY RD","owner":"FUQUA, ROBERT M. ET UX","point":[-86.64250824842726,36.12446220093353]}},{"type":"Feature","id":"107898","geometry":{"type":"Polygon","coordinates":[[[-86.6416203012378,36.1251135973238],[-86.641768775529,36.124715030448],[-86.6420944111019,36.1247858209516],[-86.6419758407119,36.1251974137608],[-86.6416203012378,36.1251135973238]]]},"properties":{"id":"107898","parcel":"12100002000","address":"2552 PULLEY RD","owner":"FUQUA, ROBERT M. & EMMA L.","point":[-86.64186429217179,36.12494973011237]}},{"type":"Feature","id":"107900","geometry":{"type":"Polygon","coordinates":[[[-86.6395344717186,36.125449926216],[-86.6404881291194,36.1227868199049],[-86.6405976833695,36.1228265889181],[-86.640708555217,36.1228638768479],[-86.6408206588788,36.1228986544045],[-86.6409339097182,36.1229308967986],[-86.6410482175223,36.1229605765671],[-86.6411634976897,36.1229876734274],[-86.6409177895952,36.1236580854414],[-86.6400590544926,36.126005349549],[-86.6395344717186,36.125449926216]]]},"properties":{"id":"107900","parcel":"12100002400","address":"2560 PULLEY RD","owner":"HAWKINS, CHARLES W., III, TR.","point":[-86.64022266695731,36.12455399751063]}},{"type":"Feature","id":"109569","geometry":{"type":"Polygon","coordinates":[[[-86.6419758407119,36.1251974137608],[-86.6420944111019,36.1247858209516],[-86.6424173200657,36.1248544269022],[-86.6422716815084,36.125268362346],[-86.6419758407119,36.1251974137608]]]},"properties":{"id":"109569","parcel":"12100016500","address":"0 PULLEY RD","owner":"FUQUA, ROBERT M. & EMMA L.","point":[-86.64219110261656,36.12502590417693]}},{"type":"Feature","id":"109857","geometry":{"type":"Polygon","coordinates":[[[-86.6409177895952,36.1236580854414],[-86.6411634976897,36.1229876734274],[-86.6412624489307,36.1230087121258],[-86.6413619847253,36.123027846857],[-86.6414620505484,36.1230450670944],[-86.6415528254733,36.1230615291244],[-86.6416444147384,36.1230746944158],[-86.6417366348325,36.1230845378061],[-86.6414983046087,36.1237604870147],[-86.6409177895952,36.1236580854414]]]},"properties":{"id":"109857","parcel":"12100018800","address":"2552 PULLEY RD","owner":"MINTON, SHERRY RENEA & KATELYN MACKENZIE","point":[-86.64132921238448,36.12337131832294]}},{"type":"Feature","id":"111035","geometry":{"type":"Polygon","coordinates":[[[-86.642215084178,36.1242994952222],[-86.6426226771853,36.1231171812032],[-86.643357354056,36.1231901831181],[-86.643253225811,36.1238412461725],[-86.6431614087924,36.1244153245237],[-86.642215084178,36.1242994952222]]]},"properties":{"id":"111035","parcel":"12100002100","address":"2536 PULLEY RD","owner":"FUQUA, ROBERT M. ET UX","point":[-86.64289570973347,36.123514494402286]}},{"type":"Feature","id":"111036","geometry":{"type":"Polygon","coordinates":[[[-86.6406686771644,36.126355936377],[-86.6416122300893,36.1237796603797],[-86.6414983046087,36.1237604870147],[-86.6417366348325,36.1230845378061],[-86.6418219818265,36.1230914894698],[-86.6419076219823,36.1230954022335],[-86.6419933919163,36.1230962670524],[-86.6420791260813,36.1230940821034],[-86.6421646600991,36.123088852768],[-86.6422068947864,36.1230859385354],[-86.6422485586693,36.1230796151193],[-86.6423678475969,36.1230921664243],[-86.641768775529,36.124715030448],[-86.6416203012378,36.1251135973238],[-86.64143211612,36.1256266524666],[-86.6411431423195,36.1264061596939],[-86.6406686771644,36.126355936377]]]},"properties":{"id":"111036","parcel":"12100002200","address":"2548 PULLEY RD","owner":"PULLEY, JERRY L. (LE) & MINTON, SHERRY RENEA & ET AL","point":[-86.64144587932351,36.1249135698938]}},{"type":"Feature","id":"111400","geometry":{"type":"Polygon","coordinates":[[[-86.6400590544926,36.126005349549],[-86.6409177895952,36.1236580854414],[-86.6414983046087,36.1237604870147],[-86.6416122300893,36.1237796603797],[-86.6406686771644,36.126355936377],[-86.6403568639551,36.1263202325666],[-86.6400590544926,36.126005349549]]]},"properties":{"id":"111400","parcel":"12100024100","address":"2560 PULLEY RD","owner":"HAWKINS, CHARLES W., III, TR.","point":[-86.64083542542193,36.12489250696376]}},{"type":"Feature","id":"111684","geometry":{"type":"Polygon","coordinates":[[[-86.6411431423195,36.1264061596939],[-86.64143211612,36.1256266524666],[-86.6429345536633,36.1258384198027],[-86.6428149812294,36.1265859865907],[-86.6411431423195,36.1264061596939]]]},"properties":{"id":"111684","parcel":"12100001800","address":"0 WAGGONER RD","owner":"PULK, STEVE & STEVENS, WILLIAM","point":[-86.64206899737427,36.12612238320257]}}]}