{"type":"FeatureCollection","features":[{"type":"Feature","id":"98054","geometry":{"type":"Polygon","coordinates":[[[-86.6395162925128,36.2501281007751],[-86.6395663073091,36.2500852453235],[-86.6396188517341,36.2501254760391],[-86.6395027648702,36.2502249464397],[-86.6394502204382,36.2501847156748],[-86.6395162925128,36.2501281007751]]]},"properties":{"id":"98054","parcel":"053080B00900CO","address":"228 22ND ST","owner":"LAROCHE, JEFF & KIRA","point":[-86.6395328301052,36.25015655761876]}},{"type":"Feature","id":"98055","geometry":{"type":"Polygon","coordinates":[[[-86.6393898366833,36.2501497887017],[-86.6394628782075,36.2500872022952],[-86.6395162925128,36.2501281007751],[-86.6394502204382,36.2501847156748],[-86.6394432509858,36.2501906863119],[-86.6393898366833,36.2501497887017]]]},"properties":{"id":"98055","parcel":"053080B01000CO","address":"2200 LAKESHORE DR","owner":"LYNCH, TIMOTHY & ELIZABETH FAMILY TRUST","point":[-86.63945306464072,36.25013894475527]}},{"type":"Feature","id":"98622","geometry":{"type":"Polygon","coordinates":[[[-86.6396095888296,36.2500148908607],[-86.6396543154593,36.2499773329047],[-86.6397281648885,36.250035030338],[-86.639683407166,36.2500725956952],[-86.6396825192134,36.2500719010353],[-86.6396095888296,36.2500148908607]]]},"properties":{"id":"98622","parcel":"053080B00700CO","address":"224 22ND ST","owner":"BUTTON, ROBERT & ASHLEE","point":[-86.63966887341041,36.25002496060364]}},{"type":"Feature","id":"101510","geometry":{"type":"Polygon","coordinates":[[[-86.6395627545812,36.2500542191728],[-86.6396095888296,36.2500148908607],[-86.6396825192134,36.2500719010353],[-86.6396356726414,36.2501112186254],[-86.6395627545812,36.2500542191728]]]},"properties":{"id":"101510","parcel":"053080B00800CO","address":"226 22ND ST","owner":"HOPE HERITAGE STAYS, LLC","point":[-86.63962263699965,36.25006306011934]}},{"type":"Feature","id":"117800","geometry":{"type":"Polygon","coordinates":[[[-86.6396872862404,36.2503733535207],[-86.6397318423658,36.2503340876959],[-86.639744440083,36.2503434668731],[-86.639825485731,36.2504038019169],[-86.6397809296056,36.2504430668743],[-86.6396872862404,36.2503733535207]]]},"properties":{"id":"117800","parcel":"053081A01100CO","address":"233 22ND ST","owner":"LANE, MACKENZIE KAY & COCKE, THOMAS LAURENCE, JR","point":[-86.6397563860011,36.25038857773879]}},{"type":"Feature","id":"117803","geometry":{"type":"Polygon","coordinates":[[[-86.6398505545332,36.2502497214473],[-86.6398957225732,36.2502099160826],[-86.6399914435183,36.2502811738105],[-86.639946275493,36.2503209801115],[-86.6399334583568,36.2503114380919],[-86.6398505545332,36.2502497214473]]]},"properties":{"id":"117803","parcel":"053081A01400CO","address":"227 22ND ST","owner":"SMITH, BRENNAN","point":[-86.63992099895142,36.25026544764939]}},{"type":"Feature","id":"120141","geometry":{"type":"Polygon","coordinates":[[[-86.6399076006971,36.2504988604577],[-86.6399555692505,36.2504583408815],[-86.6400491613425,36.250531032891],[-86.640001191673,36.2505715516083],[-86.6399903619548,36.2505631400357],[-86.6399076006971,36.2504988604577]]]},"properties":{"id":"120141","parcel":"053081A00200CO","address":"2101 DABBS AVE #9","owner":"FLANARY, LORRIN B & SUSAN R & BERTOTTI, ROBERT ET AL","point":[-86.6399783810493,36.250514946695354]}},{"type":"Feature","id":"120143","geometry":{"type":"Polygon","coordinates":[[[-86.639744440083,36.2503434668731],[-86.6397902335605,36.2503031111862],[-86.6398838220799,36.250372783295],[-86.6398380297297,36.2504131399117],[-86.639825485731,36.2504038019169],[-86.639744440083,36.2503434668731]]]},"properties":{"id":"120143","parcel":"053081A01200CO","address":"231 22ND ST","owner":"HOCKETT, HAROLD II","point":[-86.63981413099432,36.25035812510408]}},{"type":"Feature","id":"121661","geometry":{"type":"Polygon","coordinates":[[[-86.6398498867861,36.2505278777483],[-86.6398943569399,36.2504885744685],[-86.6399076006971,36.2504988604577],[-86.6399903619548,36.2505631400357],[-86.6399448180219,36.2506016099843],[-86.6398498867861,36.2505278777483]]]},"properties":{"id":"121661","parcel":"053081A00100CO","address":"2101 DABBS AVE #10","owner":"CUENCA, LYSUE","point":[-86.63992012430094,36.250545508912396]}},{"type":"Feature","id":"121667","geometry":{"type":"Polygon","coordinates":[[[-86.63979481889,36.2502820195605],[-86.6398402079301,36.2502420183794],[-86.6398505545332,36.2502497214473],[-86.6399334583568,36.2503114380919],[-86.6398880682114,36.2503514393132],[-86.63979481889,36.2502820195605]]]},"properties":{"id":"121667","parcel":"053081A01300CO","address":"229 22ND ST","owner":"RICE, TRACY L","point":[-86.63986413839814,36.25029672884559]}},{"type":"Feature","id":"121670","geometry":{"type":"Polygon","coordinates":[[[-86.6399018965189,36.2501904481813],[-86.6399473462248,36.2501503943651],[-86.6399587428183,36.2501588786438],[-86.6400408238755,36.2502199831271],[-86.6399953741769,36.2502600369776],[-86.6399018965189,36.2501904481813]]]},"properties":{"id":"121670","parcel":"053081A01500CO","address":"225 22ND ST","owner":"BUTTON, ROBERT & ASHLEE","point":[-86.6399713601589,36.250205215674235]}},{"type":"Feature","id":"151383","geometry":{"type":"Polygon","coordinates":[[[-86.6393429060146,36.2508530307643],[-86.6393526785376,36.2508452869866],[-86.6393533638945,36.2508461079929],[-86.639449040772,36.2507667631766],[-86.6395261697262,36.2508265135108],[-86.6394193695403,36.250914430347],[-86.6393429060146,36.2508530307643]]]},"properties":{"id":"151383","parcel":"053080A00200CO","address":"2103 LAKESHORE DR","owner":"BROWN, LEE R.,SR. & ROSIE M.","point":[-86.63944021592059,36.250835902666694]}},{"type":"Feature","id":"151386","geometry":{"type":"Polygon","coordinates":[[[-86.6391175085539,36.2506594620582],[-86.6392226130628,36.2505715517493],[-86.6393024775208,36.2506340356311],[-86.6391966965219,36.250722223563],[-86.6391175085539,36.2506594620582]]]},"properties":{"id":"151386","parcel":"053080A00500CO","address":"2119 LAKESHORE DR","owner":"CUNNINGHAM, COURTNEY EVELYN","point":[-86.63920996784663,36.250646748804485]}},{"type":"Feature","id":"151389","geometry":{"type":"Polygon","coordinates":[[[-86.6391346951339,36.2505195494566],[-86.6391444565696,36.2505104331678],[-86.6392226130628,36.2505715517493],[-86.6391175085539,36.2506594620582],[-86.6390410543424,36.2505991581387],[-86.6391346951339,36.2505195494566]]]},"properties":{"id":"151389","parcel":"053080A00600CO","address":"2121 LAKESHORE DR","owner":"WILSON, JEFFREY SCOTT & BRIDGETTE RENEE","point":[-86.63913169866291,36.250585354571136]}},{"type":"Feature","id":"151392","geometry":{"type":"Polygon","coordinates":[[[-86.6389541445895,36.2505460517741],[-86.6390575601329,36.2504589751705],[-86.6391346951339,36.2505195494566],[-86.6390410543424,36.2505991581387],[-86.6390316233798,36.2506071740617],[-86.6389541445895,36.2505460517741]]]},"properties":{"id":"151392","parcel":"053080A00700CO","address":"2127 LAKESHORE DR","owner":"BAKER, JOSHUA","point":[-86.63904449623953,36.25053280087993]}},{"type":"Feature","id":"151394","geometry":{"type":"Polygon","coordinates":[[[-86.6388746198316,36.2504835640637],[-86.6389776916203,36.250395942293],[-86.6390575601329,36.2504589751705],[-86.6389541445895,36.2505460517741],[-86.6388746198316,36.2504835640637]]]},"properties":{"id":"151394","parcel":"053080A00800CO","address":"2129 LAKESHORE DR","owner":"HEFFINGTON, LISA LYNNE & ALSUP, EDWARD C. JR. & ET AL","point":[-86.63896601939321,36.25047126943908]}},{"type":"Feature","id":"151398","geometry":{"type":"Polygon","coordinates":[[[-86.6392738341093,36.2507830735227],[-86.6393826825543,36.2506967916337],[-86.6394604956349,36.2507573630232],[-86.639449040772,36.2507667631766],[-86.6393533638945,36.2508461079929],[-86.6393526785376,36.2508452869866],[-86.6392738341093,36.2507830735227]]]},"properties":{"id":"151398","parcel":"053080A00900CO","address":"2115 LAKESHORE DR","owner":"GONON, ERIC C","point":[-86.63936167022196,36.250774919083526]}},{"type":"Feature","id":"151462","geometry":{"type":"Polygon","coordinates":[[[-86.6389541445895,36.2505460517741],[-86.6390575601329,36.2504589751705],[-86.6391346951339,36.2505195494566],[-86.6390410543424,36.2505991581387],[-86.6390316233798,36.2506071740617],[-86.6389541445895,36.2505460517741]]]},"properties":{"id":"151462","parcel":"053080A01500CO","address":"2131 LAKESHORE DR","owner":"HARRIS, EUGENE D.","point":[-86.63904449623953,36.25053280087993]}},{"type":"Feature","id":"155301","geometry":{"type":"Polygon","coordinates":[[[-86.6391346951339,36.2505195494566],[-86.6391444565696,36.2505104331678],[-86.6392226130628,36.2505715517493],[-86.6391175085539,36.2506594620582],[-86.6390410543424,36.2505991581387],[-86.6391346951339,36.2505195494566]]]},"properties":{"id":"155301","parcel":"053080A01200CO","address":"2125 LAKESHORE DR","owner":"ANDERTON, MERILEE ROSE TRUST","point":[-86.63913169866291,36.250585354571136]}},{"type":"Feature","id":"155303","geometry":{"type":"Polygon","coordinates":[[[-86.6384450267489,36.2502435531267],[-86.6388243839911,36.2499731682702],[-86.6390591377144,36.2501499313394],[-86.63902977777,36.2501888651025],[-86.6389972039272,36.250226083675],[-86.638961569451,36.2502614141072],[-86.6389230399117,36.2502946914956],[-86.6388817943046,36.250325759878],[-86.6388380261919,36.2503544758329],[-86.6387919403286,36.2503807039902],[-86.6387437504733,36.2504043215506],[-86.6386909834061,36.2504216311873],[-86.6384450267489,36.2502435531267]]]},"properties":{"id":"155303","parcel":"05308000300","address":"2209 LAKESHORE DR","owner":"DENSON, BOBBY DARRELL","point":[-86.63875566102456,36.250206696080596]}},{"type":"Feature","id":"156486","geometry":{"type":"Polygon","coordinates":[[[-86.6394193695403,36.250914430347],[-86.6395261697262,36.2508265135108],[-86.6396073909731,36.2508889891064],[-86.6394985668865,36.2509782929151],[-86.6394193695403,36.250914430347]]]},"properties":{"id":"156486","parcel":"053080A00100CO","address":"2101 LAKESHORE DR","owner":"HENDRIXSON, RADLEY & MARTIN, MELISSA","point":[-86.63951335576165,36.250901709689884]}},{"type":"Feature","id":"156487","geometry":{"type":"Polygon","coordinates":[[[-86.6391966965219,36.250722223563],[-86.6393024775208,36.2506340356311],[-86.6393826825543,36.2506967916337],[-86.6392738341093,36.2507830735227],[-86.6391966965219,36.250722223563]]]},"properties":{"id":"156487","parcel":"053080A00400CO","address":"2113 LAKESHORE DR","owner":"DENNING, DONALD R., SR. & DEBORAH H.","point":[-86.63928928931384,36.25070950642773]}},{"type":"Feature","id":"156488","geometry":{"type":"Polygon","coordinates":[[[-86.6391175085539,36.2506594620582],[-86.6392226130628,36.2505715517493],[-86.6393024775208,36.2506340356311],[-86.6391966965219,36.250722223563],[-86.6391175085539,36.2506594620582]]]},"properties":{"id":"156488","parcel":"053080A01100CO","address":"2123 LAKESHORE DR","owner":"HALL, MICHAEL","point":[-86.63920996784663,36.250646748804485]}},{"type":"Feature","id":"156512","geometry":{"type":"Polygon","coordinates":[[[-86.6392775021409,36.2512799823518],[-86.6390356380697,36.2508524581252],[-86.638876375431,36.2507013921489],[-86.6390474643917,36.250679061355],[-86.6387315674723,36.2504497110248],[-86.6387711463774,36.2504371404078],[-86.6388201433926,36.2504128895051],[-86.6388672196521,36.2503862604569],[-86.6389122001503,36.2503573524259],[-86.638954916631,36.2503262735513],[-86.6389952109107,36.2502931391294],[-86.6390329315549,36.2502580734331],[-86.6390679371947,36.2502212069908],[-86.6391000987661,36.2501826783768],[-86.6391581482249,36.2502263229023],[-86.6393293931127,36.2503550744545],[-86.6395006996744,36.2504860226545],[-86.6396152488352,36.2503914703514],[-86.6397442170667,36.250487480516],[-86.639629423702,36.2505844477473],[-86.6395700638014,36.2506342669831],[-86.6398106455639,36.2508181400397],[-86.6396233877149,36.2509801043125],[-86.6392775021409,36.2512799823518]],[[-86.6392226130628,36.2505715517493],[-86.6391444565696,36.2505104331678],[-86.6391346951339,36.2505195494566],[-86.6390575601329,36.2504589751705],[-86.6389776916203,36.250395942293],[-86.6388746198316,36.2504835640637],[-86.6389541445895,36.2505460517741],[-86.6390316233798,36.2506071740617],[-86.6390410543424,36.2505991581387],[-86.6391175085539,36.2506594620582],[-86.6391966965219,36.250722223563],[-86.6392738341093,36.2507830735227],[-86.6393526785376,36.2508452869866],[-86.6393429060146,36.2508530307643],[-86.6394193695403,36.250914430347],[-86.6394985668865,36.2509782929151],[-86.6396073909731,36.2508889891064],[-86.6395261697262,36.2508265135108],[-86.639449040772,36.2507667631766],[-86.6394604956349,36.2507573630232],[-86.6393826825543,36.2506967916337],[-86.6393024775208,36.2506340356311],[-86.6392226130628,36.2505715517493]]]},"properties":{"id":"156512","parcel":"053080A01700CO","address":"0 LAKESHORE DR","owner":"LUCCA PROPERTIES, L.L.C.","point":[-86.63906704751426,36.25073900451105]}},{"type":"Feature","id":"156513","geometry":{"type":"Polygon","coordinates":[[[-86.6374393548975,36.2508199603377],[-86.6382720710531,36.2501181060926],[-86.6384450267489,36.2502435531267],[-86.6386909834061,36.2504216311873],[-86.6387437504733,36.2504043215506],[-86.6387919403286,36.2503807039902],[-86.6388380261919,36.2503544758329],[-86.6388817943046,36.250325759878],[-86.6389230399117,36.2502946914956],[-86.638961569451,36.2502614141072],[-86.6389972039272,36.250226083675],[-86.63902977777,36.2501888651025],[-86.6390591377144,36.2501499313394],[-86.6391000987661,36.2501826783768],[-86.6390679371947,36.2502212069908],[-86.6390329315549,36.2502580734331],[-86.6389952109107,36.2502931391294],[-86.638954916631,36.2503262735513],[-86.6389122001503,36.2503573524259],[-86.6388672196521,36.2503862604569],[-86.6388201433926,36.2504128895051],[-86.6387711463774,36.2504371404078],[-86.6387315674723,36.2504497110248],[-86.6390474643917,36.250679061355],[-86.638876375431,36.2507013921489],[-86.6382081971566,36.2516202169622],[-86.6381506957583,36.2515706290425],[-86.6380959831966,36.2515190130019],[-86.6380441693288,36.2514654701039],[-86.6379953573791,36.2514101070543],[-86.6379496461559,36.2513530350886],[-86.6379071233554,36.251294367303],[-86.637735153465,36.2511230395144],[-86.6375864094053,36.2509719190457],[-86.6374393548975,36.2508199603377]]]},"properties":{"id":"156513","parcel":"05308000100","address":"2109 LAKESHORE DR","owner":"GO OUTDOORS BLUE TURTLE, LLC","point":[-86.63812254988893,36.250897785566025]}},{"type":"Feature","id":"156807","geometry":{"type":"Polygon","coordinates":[[[-86.6398106455639,36.2508181400397],[-86.6398689089032,36.2507675622456],[-86.6401457038371,36.250983656783],[-86.6399086554707,36.2511958805509],[-86.6396233877149,36.2509801043125],[-86.6398106455639,36.2508181400397]]]},"properties":{"id":"156807","parcel":"05308014500","address":"2011 LAKESHORE DR","owner":"GO OUTDOORS BLUE TURTLE, LLC","point":[-86.63988456630318,36.2509818808946]}},{"type":"Feature","id":"156808","geometry":{"type":"Polygon","coordinates":[[[-86.639629423702,36.2505844477473],[-86.6397442170667,36.250487480516],[-86.6398138215032,36.2505393044668],[-86.6399817324228,36.2506697211108],[-86.6398689089032,36.2507675622456],[-86.6398106455639,36.2508181400397],[-86.6395700638014,36.2506342669831],[-86.639629423702,36.2505844477473]]]},"properties":{"id":"156808","parcel":"05308014700","address":"0 LAKESHORE DR","owner":"GO OUTDOORS BLUE TURTLE, LLC","point":[-86.63977607841043,36.25065199476686]}},{"type":"Feature","id":"157545","geometry":{"type":"Polygon","coordinates":[[[-86.6392738341093,36.2507830735227],[-86.6393826825543,36.2506967916337],[-86.6394604956349,36.2507573630232],[-86.639449040772,36.2507667631766],[-86.6393533638945,36.2508461079929],[-86.6393526785376,36.2508452869866],[-86.6392738341093,36.2507830735227]]]},"properties":{"id":"157545","parcel":"053080A00300CO","address":"2111 LAKESHORE DR","owner":"VALLETT, PAUL","point":[-86.63936167022196,36.250774919083526]}},{"type":"Feature","id":"157549","geometry":{"type":"Polygon","coordinates":[[[-86.6391966965219,36.250722223563],[-86.6393024775208,36.2506340356311],[-86.6393826825543,36.2506967916337],[-86.6392738341093,36.2507830735227],[-86.6391966965219,36.250722223563]]]},"properties":{"id":"157549","parcel":"053080A01000CO","address":"2117 LAKESHORE DR","owner":"MEIER, NIKOLE","point":[-86.63928928931384,36.25070950642773]}},{"type":"Feature","id":"157605","geometry":{"type":"Polygon","coordinates":[[[-86.6394193695403,36.250914430347],[-86.6395261697262,36.2508265135108],[-86.6396073909731,36.2508889891064],[-86.6394985668865,36.2509782929151],[-86.6394193695403,36.250914430347]]]},"properties":{"id":"157605","parcel":"053080A01300CO","address":"2105 LAKESHORE DR","owner":"MANNING FAMILY TRUST, THE","point":[-86.63951335576165,36.250901709689884]}},{"type":"Feature","id":"157608","geometry":{"type":"Polygon","coordinates":[[[-86.6393429060146,36.2508530307643],[-86.6393526785376,36.2508452869866],[-86.6393533638945,36.2508461079929],[-86.639449040772,36.2507667631766],[-86.6395261697262,36.2508265135108],[-86.6394193695403,36.250914430347],[-86.6393429060146,36.2508530307643]]]},"properties":{"id":"157608","parcel":"053080A01400CO","address":"2107 LAKESHORE DR","owner":"MEIER, NIKOLE","point":[-86.63944021592059,36.250835902666694]}},{"type":"Feature","id":"157612","geometry":{"type":"Polygon","coordinates":[[[-86.6388746198316,36.2504835640637],[-86.6389776916203,36.250395942293],[-86.6390575601329,36.2504589751705],[-86.6389541445895,36.2505460517741],[-86.6388746198316,36.2504835640637]]]},"properties":{"id":"157612","parcel":"053080A01600CO","address":"2133 LAKESHORE DR","owner":"BRISEBOIS, DEBORAH MARIE","point":[-86.63896601939321,36.25047126943908]}},{"type":"Feature","id":"157615","geometry":{"type":"Polygon","coordinates":[[[-86.6382720710531,36.2501181060926],[-86.6386250938265,36.249820391219],[-86.6388243839911,36.2499731682702],[-86.6384450267489,36.2502435531267],[-86.6382720710531,36.2501181060926]]]},"properties":{"id":"157615","parcel":"05308000400","address":"2211 LAKESHORE DR","owner":"CIHI, JENNIFER","point":[-86.63854032694455,36.2500456136294]}}]}