{"type":"FeatureCollection","features":[{"type":"Feature","id":"12539","geometry":{"type":"Polygon","coordinates":[[[-86.6299924521681,36.2249984077841],[-86.6300017048621,36.22494204257],[-86.6300250620343,36.2247997611637],[-86.6300257834698,36.2247953638345],[-86.6304225179856,36.2248401242678],[-86.6304375657428,36.2248454865403],[-86.6304448498959,36.2248490742271],[-86.6304537553917,36.224854568595],[-86.6304618019351,36.2248608713557],[-86.6304688820603,36.2248678965506],[-86.6304705054341,36.2248697788878],[-86.630476275499,36.2248776743126],[-86.6304808593279,36.2248860653047],[-86.6304818347621,36.2248882952991],[-86.6304857151838,36.2249012493578],[-86.6304866207576,36.2249081229278],[-86.6304864543406,36.2249193686222],[-86.6304644474734,36.2250539897022],[-86.630405630242,36.2250450228883],[-86.6299924521681,36.2249984077841]]]},"properties":{"id":"12539","parcel":"06409028500","address":"4114 MAIN ST","owner":"AASEBY, SKYLAR & AMANDA T","point":[-86.63024408375979,36.22493070585453]}},{"type":"Feature","id":"12585","geometry":{"type":"Polygon","coordinates":[[[-86.6299620085768,36.2251838479686],[-86.6299924521681,36.2249984077841],[-86.630405630242,36.2250450228883],[-86.6304644474734,36.2250539897022],[-86.6304181779245,36.2251247247301],[-86.6303395163294,36.2252449809195],[-86.6303390404816,36.2252457089044],[-86.6300158397268,36.2252092445519],[-86.6299588122556,36.2252028105954],[-86.629958839886,36.2252026482273],[-86.6299620085768,36.2251838479686]]]},"properties":{"id":"12585","parcel":"06409028600","address":"4112 MAIN ST","owner":"AASEBY, SKYLAR & AMANDA T.","point":[-86.6302095344812,36.22508864116334]}},{"type":"Feature","id":"31362","geometry":{"type":"Polygon","coordinates":[[[-86.6307288548454,36.224903731848],[-86.6307341538139,36.2248793868019],[-86.630734586888,36.2248794350102],[-86.6315662641656,36.2249777869275],[-86.6314884048557,36.2251044096801],[-86.6306859577149,36.2250193025013],[-86.6307125521987,36.2249786193569],[-86.6307198751071,36.2249449836305],[-86.6307288548454,36.224903731848]]]},"properties":{"id":"31362","parcel":"06312006500","address":"4113 MAIN ST","owner":"MCH PROPERTY MANAGEMENT, LLC","point":[-86.63112544184705,36.22500027549904]}},{"type":"Feature","id":"31842","geometry":{"type":"Polygon","coordinates":[[[-86.6307636018568,36.2247441049462],[-86.630793049828,36.2246088266828],[-86.6307952439154,36.2246091829322],[-86.6317219809202,36.2247245403625],[-86.6316441221075,36.2248511632247],[-86.6307649224179,36.2247442755952],[-86.6307636018568,36.2247441049462]]]},"properties":{"id":"31842","parcel":"06312006700","address":"4117 MAIN ST","owner":"MCH PROPERTY MANAGEMENT, LLC","point":[-86.63124056103648,36.224734316740715]}},{"type":"Feature","id":"31843","geometry":{"type":"Polygon","coordinates":[[[-86.630793049828,36.2246088266828],[-86.6308224815882,36.2244736205908],[-86.6317998383719,36.2245979174513],[-86.6317333197562,36.224706100178],[-86.6317219809202,36.2247245403625],[-86.6307952439154,36.2246091829322],[-86.630793049828,36.2246088266828]]]},"properties":{"id":"31843","parcel":"06312006800","address":"4119 MAIN ST","owner":"HERMITAGE PROPERTIES, LLC","point":[-86.6312950563351,36.22460336884996]}},{"type":"Feature","id":"132231","geometry":{"type":"Polygon","coordinates":[[[-86.6315755809662,36.2234166059214],[-86.6316129401284,36.2232951796199],[-86.6316302351997,36.2232976964795],[-86.6321318862741,36.2233706964584],[-86.6321319798179,36.2233707103887],[-86.632095007668,36.2234906378592],[-86.6320949152363,36.223490623923],[-86.6315928188572,36.223419062702],[-86.6315755809662,36.2234166059214]]]},"properties":{"id":"132231","parcel":"06312010000","address":"0 UNIVERSITY AVE","owner":"HERMITAGE PROPERTIES, LLC","point":[-86.63185377304764,36.223393658456125]}},{"type":"Feature","id":"132232","geometry":{"type":"Polygon","coordinates":[[[-86.6309606046289,36.2238390880838],[-86.6309870108282,36.2237177786946],[-86.6314474019098,36.223779025822],[-86.6314634193098,36.2237811564425],[-86.6314265248342,36.2239010715657],[-86.6314105074038,36.2238989400392],[-86.6309606046289,36.2238390880838]]]},"properties":{"id":"132232","parcel":"06312009300","address":"4143 MAIN ST","owner":"HERMITAGE PROPERTIES, LLC","point":[-86.63121067587763,36.223810118409816]}},{"type":"Feature","id":"132233","geometry":{"type":"Polygon","coordinates":[[[-86.6300452844224,36.2241042031973],[-86.630049915441,36.2240353897486],[-86.6306535835731,36.2241034962461],[-86.6306388520723,36.2241711710105],[-86.6300452844224,36.2241042031973]]]},"properties":{"id":"132233","parcel":"06409031100","address":"4128 MAIN ST","owner":"HERMITAGE PROPERTIES, LLC","point":[-86.63034933685064,36.22410384980816]}},{"type":"Feature","id":"132234","geometry":{"type":"Polygon","coordinates":[[[-86.6300545453395,36.2239665763042],[-86.6300591774544,36.2238977628467],[-86.6306830465209,36.2239681494118],[-86.6306683161682,36.2240358223741],[-86.6300545453395,36.2239665763042]]]},"properties":{"id":"132234","parcel":"06312007000","address":"4132 MAIN ST","owner":"HERMITAGE PROPERTIES, LLC","point":[-86.63021399281651,36.223932471094884]}},{"type":"Feature","id":"132235","geometry":{"type":"Polygon","coordinates":[[[-86.6300730692946,36.2236913215868],[-86.6300777002723,36.2236225090301],[-86.6307419720932,36.2236974530022],[-86.630727240736,36.2237651268839],[-86.6300730692946,36.2236913215868]]]},"properties":{"id":"132235","parcel":"06312007400","address":"4140 MAIN ST","owner":"HERMITAGE PROPERTIES, LLC","point":[-86.63040752056448,36.223694387761476]}},{"type":"Feature","id":"132236","geometry":{"type":"Polygon","coordinates":[[[-86.6300777002723,36.2236225090301],[-86.6300823312347,36.2235536955707],[-86.6307567023129,36.2236297791231],[-86.6307419720932,36.2236974530022],[-86.6300777002723,36.2236225090301]]]},"properties":{"id":"132236","parcel":"06312007500","address":"4142 MAIN ST","owner":"HERMITAGE PROPERTIES, LLC","point":[-86.63041720129839,36.223626144558196]}},{"type":"Feature","id":"132237","geometry":{"type":"Polygon","coordinates":[[[-86.6301586862947,36.2231462942119],[-86.6307864359848,36.2231035717816],[-86.6307863680844,36.2231039849063],[-86.6308722824721,36.2230988082634],[-86.6308450886576,36.2232237348532],[-86.6301586862947,36.2231462942119]]]},"properties":{"id":"132237","parcel":"06312008200","address":"4156 MAIN ST","owner":"HERMITAGE PROPERTIES, LLC","point":[-86.63067758417667,36.223185557422056]}},{"type":"Feature","id":"132238","geometry":{"type":"Polygon","coordinates":[[[-86.6316813618732,36.2230185911527],[-86.6316984861742,36.2230171317017],[-86.6316854061807,36.2230596451393],[-86.6316479247297,36.2231814704623],[-86.6316129401284,36.2232951796199],[-86.6315969802499,36.2232928576548],[-86.6310953936301,36.2232198641335],[-86.6311289577655,36.2230656687166],[-86.6316813618732,36.2230185911527]]]},"properties":{"id":"132238","parcel":"06312010300","address":"4163 MAIN ST","owner":"HERMITAGE PROPERTIES, LLC","point":[-86.63139100647783,36.2231235777726]}},{"type":"Feature","id":"132761","geometry":{"type":"Polygon","coordinates":[[[-86.6300360223681,36.2242418309913],[-86.6300406533956,36.2241730166444],[-86.6306241216514,36.2242388448648],[-86.6306093900931,36.2243065187217],[-86.6300360223681,36.2242418309913]]]},"properties":{"id":"132761","parcel":"06409030900","address":"4124 MAIN ST","owner":"HERMITAGE PROPERTIES, LLC","point":[-86.63032989158627,36.224240337731985]}},{"type":"Feature","id":"132763","geometry":{"type":"Polygon","coordinates":[[[-86.630049915441,36.2240353897486],[-86.6300545453395,36.2239665763042],[-86.6306683161682,36.2240358223741],[-86.6306535835731,36.2241034962461],[-86.630049915441,36.2240353897486]]]},"properties":{"id":"132763","parcel":"06312006900","address":"4130 SOUTH ST","owner":"HERMITAGE PROPERTIES, LLC","point":[-86.63035906027943,36.22403560628932]}},{"type":"Feature","id":"132765","geometry":{"type":"Polygon","coordinates":[[[-86.6300684383232,36.2237601359443],[-86.6300730692946,36.2236913215868],[-86.630727240736,36.2237651268839],[-86.6307125093538,36.2238328007626],[-86.6300684383232,36.2237601359443]]]},"properties":{"id":"132765","parcel":"06312007300","address":"4138 MAIN ST","owner":"HERMITAGE PROPERTIES, LLC","point":[-86.63039783960254,36.22376263186769]}},{"type":"Feature","id":"132767","geometry":{"type":"Polygon","coordinates":[[[-86.6300869621819,36.2234848812086],[-86.6300915920232,36.2234160686531],[-86.6307861648943,36.2234944304428],[-86.6307714336126,36.2235621043339],[-86.6300869621819,36.2234848812086]]]},"properties":{"id":"132767","parcel":"06312007700","address":"4146 MAIN ST","owner":"HERMITAGE PROPERTIES, LLC","point":[-86.6304365632906,36.2234896563356]}},{"type":"Feature","id":"132769","geometry":{"type":"Polygon","coordinates":[[[-86.6300915920232,36.2234160686531],[-86.6300962229615,36.2233472551891],[-86.6308008961509,36.2234267565486],[-86.6307861648943,36.2234944304428],[-86.6300915920232,36.2234160686531]]]},"properties":{"id":"132769","parcel":"06312007800","address":"4148 MAIN ST","owner":"HERMITAGE PROPERTIES, LLC","point":[-86.63044624406896,36.22342141312632]}},{"type":"Feature","id":"132771","geometry":{"type":"Polygon","coordinates":[[[-86.6308224815882,36.2244736205908],[-86.6308519239262,36.2243383585533],[-86.63187769668,36.2244712935784],[-86.6318693809208,36.2244848169956],[-86.6317998383719,36.2245979174513],[-86.6308224815882,36.2244736205908]]]},"properties":{"id":"132771","parcel":"06312008400","address":"4123 MAIN ST","owner":"HERMITAGE PROPERTIES, LLC","point":[-86.63110130964161,36.22440401511066]}},{"type":"Feature","id":"132773","geometry":{"type":"Polygon","coordinates":[[[-86.6308519239262,36.2243383585533],[-86.6308813673119,36.2242031010038],[-86.6309549575025,36.2242128916603],[-86.6312997983018,36.2242587665445],[-86.6313158180264,36.2242608980738],[-86.6313325960264,36.2242631292807],[-86.6317386713332,36.2243171563345],[-86.6318361059787,36.2243301202958],[-86.6319547838938,36.22434592371],[-86.6319547685232,36.2243459490253],[-86.63187769668,36.2244712935784],[-86.6308519239262,36.2243383585533]]]},"properties":{"id":"132773","parcel":"06312008500","address":"4127 MAIN ST","owner":"HERMITAGE PROPERTIES, LLC","point":[-86.63136628735845,36.22433430905257]}},{"type":"Feature","id":"132775","geometry":{"type":"Polygon","coordinates":[[[-86.6313527257964,36.2241409342618],[-86.6313896259273,36.2240210029185],[-86.631406548637,36.2240232540873],[-86.6318155177666,36.2240776586955],[-86.6319101485851,36.2240902758638],[-86.6318827391267,36.2241791846443],[-86.6318730722012,36.2242100487694],[-86.6318730396521,36.2242101516815],[-86.6313695772672,36.2241431758944],[-86.6313527257964,36.2241409342618]]]},"properties":{"id":"132775","parcel":"06312008800","address":"0 UNIVERSITY AVE","owner":"HERMITAGE PROPERTIES, LLC","point":[-86.63163142921205,36.224115605363124]}},{"type":"Feature","id":"132777","geometry":{"type":"Polygon","coordinates":[[[-86.6313896259273,36.2240210029185],[-86.6314265248342,36.2239010715657],[-86.6314435210072,36.2239033322588],[-86.6319467892888,36.2239702808117],[-86.6319471277881,36.2239703259054],[-86.6319101485851,36.2240902758638],[-86.6318155177666,36.2240776586955],[-86.631406548637,36.2240232540873],[-86.6313896259273,36.2240210029185]]]},"properties":{"id":"132777","parcel":"06312009000","address":"0 UNIVERSITY AVE","owner":"HERMITAGE PROPERTIES, LLC","point":[-86.63166836872881,36.22399566471191]}},{"type":"Feature","id":"132779","geometry":{"type":"Polygon","coordinates":[[[-86.6314634193098,36.2237811564425],[-86.6315008351884,36.2236595460397],[-86.6315179598164,36.2236618808539],[-86.6318329411646,36.2237048298727],[-86.6319824825552,36.2237286307738],[-86.6320199643893,36.2237337411812],[-86.6320200601579,36.2237337551],[-86.6319840927791,36.2238504210676],[-86.6319839970175,36.2238504080499],[-86.6314804878335,36.2237834266658],[-86.6314634193098,36.2237811564425]]]},"properties":{"id":"132779","parcel":"06312009400","address":"0 UNIVERSITY AVE","owner":"HERMITAGE PROPERTIES, LLC","point":[-86.63174173208981,36.223757456071674]}},{"type":"Feature","id":"133459","geometry":{"type":"Polygon","coordinates":[[[-86.6309341940432,36.2239604155104],[-86.6309606046289,36.2238390880838],[-86.6314105074038,36.2238989400392],[-86.6314265248342,36.2239010715657],[-86.6313896259273,36.2240210029185],[-86.6313736073614,36.224018871393],[-86.6309341940432,36.2239604155104]]]},"properties":{"id":"133459","parcel":"06312009100","address":"4139 MAIN ST","owner":"HERMITAGE PROPERTIES, LLC","point":[-86.6311789924754,36.2239307395783]}},{"type":"Feature","id":"133462","geometry":{"type":"Polygon","coordinates":[[[-86.6321688583051,36.2232507680713],[-86.6316653527796,36.2231837883476],[-86.6316479247297,36.2231814704623],[-86.6316854061807,36.2230596451393],[-86.6317029065869,36.2230619734556],[-86.6322064124829,36.2231289530193],[-86.6322066025272,36.223129770355],[-86.6321700958307,36.2232490366116],[-86.632169441649,36.2232488778114],[-86.6321688583051,36.2232507680713]]]},"properties":{"id":"133462","parcel":"06312010400","address":"0 UNIVERSITY AVE","owner":"HERMITAGE PROPERTIES, LLC","point":[-86.63192728457356,36.223155620799425]}},{"type":"Feature","id":"133465","geometry":{"type":"Polygon","coordinates":[[[-86.6300591774544,36.2238977628467],[-86.6300638073367,36.2238289493992],[-86.6306977779463,36.2239004746381],[-86.6306830465209,36.2239681494118],[-86.6300591774544,36.2238977628467]]]},"properties":{"id":"133465","parcel":"06312007100","address":"4134 MAIN ST","owner":"HERMITAGE PROPERTIES, LLC","point":[-86.63021945832203,36.22386384438033]}},{"type":"Feature","id":"133468","geometry":{"type":"Polygon","coordinates":[[[-86.6300823312347,36.2235536955707],[-86.6300869621819,36.2234848812086],[-86.6307714336126,36.2235621043339],[-86.6307567023129,36.2236297791231],[-86.6300823312347,36.2235536955707]]]},"properties":{"id":"133468","parcel":"06312007600","address":"4144 MAIN ST","owner":"HERMITAGE PROPERTIES, LLC","point":[-86.63042688240617,36.22355790044826]}},{"type":"Feature","id":"133471","geometry":{"type":"Polygon","coordinates":[[[-86.6301008527795,36.2232784417294],[-86.6301054848069,36.2232096273553],[-86.6308303574764,36.2232914087567],[-86.6308156273824,36.2233590826513],[-86.6301008527795,36.2232784417294]]]},"properties":{"id":"133471","parcel":"06312008000","address":"4152 MAIN ST","owner":"HERMITAGE PROPERTIES, LLC","point":[-86.63046560546319,36.223284925799945]}},{"type":"Feature","id":"133474","geometry":{"type":"Polygon","coordinates":[[[-86.6307341538139,36.2248793868019],[-86.6307636018568,36.2247441049462],[-86.6307649224179,36.2247442755952],[-86.6316441221075,36.2248511632247],[-86.6316093510999,36.2249077142856],[-86.6315662641656,36.2249777869275],[-86.630734586888,36.2248794350102],[-86.6307341538139,36.2248793868019]]]},"properties":{"id":"133474","parcel":"06312008300","address":"4115 MAIN ST","owner":"MCH PROPERTY MANAGEMENT, LLC","point":[-86.6311860648678,36.22486526640672]}},{"type":"Feature","id":"133544","geometry":{"type":"Polygon","coordinates":[[[-86.6309870108282,36.2237177786946],[-86.6310141326782,36.2235931805192],[-86.6314848329817,36.223657364875],[-86.6315008351884,36.2236595460397],[-86.6314634193098,36.2237811564425],[-86.6314474019098,36.223779025822],[-86.6309870108282,36.2237177786946]]]},"properties":{"id":"133544","parcel":"06312009500","address":"4147 MAIN ST","owner":"HERMITAGE PROPERTIES, LLC","point":[-86.63124257938983,36.223688658502674]}},{"type":"Feature","id":"133547","geometry":{"type":"Polygon","coordinates":[[[-86.6310141326782,36.2235931805192],[-86.6310412201203,36.2234687420329],[-86.6315222238118,36.2235358330001],[-86.6315382130356,36.2235380628948],[-86.6315008351884,36.2236595460397],[-86.6314848329817,36.223657364875],[-86.6310141326782,36.2235931805192]]]},"properties":{"id":"133547","parcel":"06312009700","address":"4151 MAIN ST","owner":"HERMITAGE PROPERTIES, LLC","point":[-86.6312748984118,36.22356561806715]}},{"type":"Feature","id":"133550","geometry":{"type":"Polygon","coordinates":[[[-86.6310683063652,36.223344303542],[-86.6310953936301,36.2232198641335],[-86.6315969802499,36.2232928576548],[-86.6316129401284,36.2232951796199],[-86.6315755809662,36.2234166059214],[-86.631559606964,36.2234143290874],[-86.6310683063652,36.223344303542]]]},"properties":{"id":"133550","parcel":"06312010100","address":"4159 MAIN ST","owner":"HERMITAGE PROPERTIES, LLC","point":[-86.6313394821139,36.22331973837543]}},{"type":"Feature","id":"133553","geometry":{"type":"Polygon","coordinates":[[[-86.6313158180264,36.2242608980738],[-86.6313527257964,36.2241409342618],[-86.6313695772672,36.2241431758944],[-86.6318730396521,36.2242101516815],[-86.6318463709626,36.2242952983852],[-86.6318361059787,36.2243301202958],[-86.6317386713332,36.2243171563345],[-86.6313325960264,36.2242631292807],[-86.6313158180264,36.2242608980738]]]},"properties":{"id":"133553","parcel":"06312008600","address":"0 UNIVERSITY AVE","owner":"HERMITAGE PROPERTIES, LLC","point":[-86.63159435616862,36.22423552497857]}},{"type":"Feature","id":"133556","geometry":{"type":"Polygon","coordinates":[[[-86.6317172244245,36.2230155349291],[-86.6322555224489,36.2229696532648],[-86.6322066025272,36.223129770355],[-86.6322064124829,36.2231289530193],[-86.6317029065869,36.2230619734556],[-86.6316854061807,36.2230596451393],[-86.6316984861742,36.2230171317017],[-86.6317172244245,36.2230155349291]]]},"properties":{"id":"133556","parcel":"06312010500","address":"0 UNIVERSITY AVE","owner":"HERMITAGE PROPERTIES, LLC","point":[-86.63196297944852,36.22303922232942]}},{"type":"Feature","id":"133559","geometry":{"type":"Polygon","coordinates":[[[-86.6301095206992,36.223149639276],[-86.6301586862947,36.2231462942119],[-86.6308450886576,36.2232237348532],[-86.6308303574764,36.2232914087567],[-86.6301054848069,36.2232096273553],[-86.6301095206992,36.223149639276]]]},"properties":{"id":"133559","parcel":"06312008100","address":"4154 MAIN ST","owner":"HERMITAGE PROPERTIES, LLC","point":[-86.63047528657377,36.22321668167511]}},{"type":"Feature","id":"133562","geometry":{"type":"Polygon","coordinates":[[[-86.6300406533956,36.2241730166444],[-86.6300452844224,36.2241042031973],[-86.6306388520723,36.2241711710105],[-86.6306241216514,36.2242388448648],[-86.6300406533956,36.2241730166444]]]},"properties":{"id":"133562","parcel":"06409031000","address":"4126 MAIN ST","owner":"HERMITAGE PROPERTIES, LLC","point":[-86.6303396139975,36.22417209377268]}},{"type":"Feature","id":"133565","geometry":{"type":"Polygon","coordinates":[[[-86.6314265248342,36.2239010715657],[-86.6314634193098,36.2237811564425],[-86.6314804878335,36.2237834266658],[-86.6319839970175,36.2238504080499],[-86.6319840927791,36.2238504210676],[-86.6319471277881,36.2239703259054],[-86.6319467892888,36.2239702808117],[-86.6314435210072,36.2239033322588],[-86.6314265248342,36.2239010715657]]]},"properties":{"id":"133565","parcel":"06312009200","address":"0 UNIVERSITY AVE","owner":"HERMITAGE PROPERTIES, LLC","point":[-86.631705300776,36.22387574661699]}},{"type":"Feature","id":"133568","geometry":{"type":"Polygon","coordinates":[[[-86.6300638073367,36.2238289493992],[-86.6300684383232,36.2237601359443],[-86.6307125093538,36.2238328007626],[-86.6306977779463,36.2239004746381],[-86.6300638073367,36.2238289493992]]]},"properties":{"id":"133568","parcel":"06312007200","address":"4136 MAIN ST","owner":"HERMITAGE PROPERTIES, LLC","point":[-86.63038815833532,36.223830875520456]}},{"type":"Feature","id":"133571","geometry":{"type":"Polygon","coordinates":[[[-86.6300962229615,36.2233472551891],[-86.6301008527795,36.2232784417294],[-86.6308156273824,36.2233590826513],[-86.6308008961509,36.2234267565486],[-86.6300962229615,36.2233472551891]]]},"properties":{"id":"133571","parcel":"06312007900","address":"4150 MAIN ST","owner":"HERMITAGE PROPERTIES, LLC","point":[-86.6304559251152,36.22335316946061]}},{"type":"Feature","id":"133908","geometry":{"type":"Polygon","coordinates":[[[-86.6310412201203,36.2234687420329],[-86.6310683063652,36.223344303542],[-86.631559606964,36.2234143290874],[-86.6315755809662,36.2234166059214],[-86.6315382130356,36.2235380628948],[-86.6315222238118,36.2235358330001],[-86.6310412201203,36.2234687420329]]]},"properties":{"id":"133908","parcel":"06312009900","address":"4155 MAIN ST","owner":"HERMITAGE PROPERTIES, LLC","point":[-86.63130719244292,36.223442670553425]}},{"type":"Feature","id":"133911","geometry":{"type":"Polygon","coordinates":[[[-86.6315008351884,36.2236595460397],[-86.6315382130356,36.2235380628948],[-86.6315553937462,36.2235404595964],[-86.6320579418694,36.223610552285],[-86.632058037638,36.2236105662038],[-86.6320200601579,36.2237337551],[-86.6320199643893,36.2237337411812],[-86.6319824825552,36.2237286307738],[-86.6318329411646,36.2237048298727],[-86.6315179598164,36.2236618808539],[-86.6315008351884,36.2236595460397]]]},"properties":{"id":"133911","parcel":"06312009600","address":"0 UNIVERSITY AVE","owner":"HERMITAGE PROPERTIES, LLC","point":[-86.63177942873047,36.22363505642273]}},{"type":"Feature","id":"133914","geometry":{"type":"Polygon","coordinates":[[[-86.6315382130356,36.2235380628948],[-86.6315755809662,36.2234166059214],[-86.6315928188572,36.223419062702],[-86.6320949152363,36.223490623923],[-86.632095007668,36.2234906378592],[-86.632058037638,36.2236105662038],[-86.6320579418694,36.223610552285],[-86.6315553937462,36.2235404595964],[-86.6315382130356,36.2235380628948]]]},"properties":{"id":"133914","parcel":"06312009800","address":"0 UNIVERSITY AVE","owner":"HERMITAGE PROPERTIES, LLC","point":[-86.63181660294813,36.22351435067836]}},{"type":"Feature","id":"133917","geometry":{"type":"Polygon","coordinates":[[[-86.6316129401284,36.2232951796199],[-86.6316479247297,36.2231814704623],[-86.6316653527796,36.2231837883476],[-86.6321688583051,36.2232507680713],[-86.632169441649,36.2232488778114],[-86.6321700958307,36.2232490366116],[-86.6321319798179,36.2233707103887],[-86.6321318862741,36.2233706964584],[-86.6316302351997,36.2232976964795],[-86.6316129401284,36.2232951796199]]]},"properties":{"id":"133917","parcel":"06312010200","address":"708 UNIVERSITY AVE","owner":"HERMITAGE PROPERTIES, LLC","point":[-86.63189118203388,36.22327297503872]}},{"type":"Feature","id":"133920","geometry":{"type":"Polygon","coordinates":[[[-86.6308813673119,36.2242031010038],[-86.6309077833767,36.2240817429271],[-86.6313367083268,36.2241388036268],[-86.6313527257964,36.2241409342618],[-86.6313158180264,36.2242608980738],[-86.6312997983018,36.2242587665445],[-86.6309549575025,36.2242128916603],[-86.6308813673119,36.2242031010038]]]},"properties":{"id":"133920","parcel":"06312008700","address":"4131 MAIN ST","owner":"HERMITAGE PROPERTIES, LLC","point":[-86.63111561762983,36.224172013460205]}},{"type":"Feature","id":"133923","geometry":{"type":"Polygon","coordinates":[[[-86.6309077833767,36.2240817429271],[-86.6309341940432,36.2239604155104],[-86.6313736073614,36.224018871393],[-86.6313896259273,36.2240210029185],[-86.6313527257964,36.2241409342618],[-86.6313367083268,36.2241388036268],[-86.6309077833767,36.2240817429271]]]},"properties":{"id":"133923","parcel":"06312008900","address":"4135 MAIN ST","owner":"HERMITAGE PROPERTIES, LLC","point":[-86.63114730690819,36.224051368857126]}},{"type":"Feature","id":"184157","geometry":{"type":"Polygon","coordinates":[[[-86.6334708485578,36.2211343316034],[-86.6334272400174,36.2207681102695],[-86.6332342808931,36.2208031855583],[-86.6327075593247,36.2209020908068],[-86.6324664796003,36.2209487086384],[-86.6321731690067,36.2210038457732],[-86.6320407061571,36.2210289204114],[-86.6319419286375,36.2210476460322],[-86.6317110296625,36.221092865325],[-86.6314797036757,36.2211363136573],[-86.6312480921216,36.2211785715909],[-86.6309679703659,36.2212314936945],[-86.6309209145752,36.2212399777911],[-86.6299572847996,36.219898976843],[-86.6302780603095,36.2199082913086],[-86.6303404364361,36.2196947986575],[-86.6310582682309,36.2197127512788],[-86.6341419639746,36.219789819344],[-86.6347293273754,36.2198044894466],[-86.634729327736,36.219804534507],[-86.6347358966916,36.2200951013117],[-86.6347379700624,36.2201868309324],[-86.634599653462,36.2205352033955],[-86.6344837497847,36.2208271219588],[-86.6344838004886,36.2208273424976],[-86.6346418713572,36.2215226539148],[-86.6347057733485,36.2226563217789],[-86.6347086474267,36.2227073135479],[-86.6347086511313,36.2227073594919],[-86.6346678156955,36.2227108194563],[-86.6343682838222,36.2227362417522],[-86.6336666138775,36.2227957823314],[-86.6336665638555,36.2227957861989],[-86.6336665160652,36.2227957909558],[-86.6336664933267,36.2227955900974],[-86.6336403081126,36.222570673948],[-86.6335880440679,36.2221396689475],[-86.6335566989291,36.2218656826666],[-86.6335253638958,36.2215927949224],[-86.6335116028899,36.2214691603547],[-86.6334954144879,36.221323746398],[-86.6334819509222,36.2212199295472],[-86.6334708485578,36.2211343316034]]]},"properties":{"id":"184157","parcel":"06300024200","address":"0 SOUTHFORK BLVD","owner":"JO-MAC PROPERTIES, LLC","point":[-86.63403964162143,36.22128748411087]}},{"type":"Feature","id":"184210","geometry":{"type":"Polygon","coordinates":[[[-86.6314884048557,36.2251044096801],[-86.6315662641656,36.2249777869275],[-86.6316093510999,36.2249077142856],[-86.6316441221075,36.2248511632247],[-86.6317219809202,36.2247245403625],[-86.6317333197562,36.224706100178],[-86.6317998383719,36.2245979174513],[-86.6318693809208,36.2244848169956],[-86.63187769668,36.2244712935784],[-86.6319547685232,36.2243459490253],[-86.6319547910301,36.2243459119565],[-86.6319548135442,36.2243458757889],[-86.6319871320634,36.224293312839],[-86.6320549973234,36.2241829391936],[-86.6320573001357,36.2241827027334],[-86.632057850273,36.2241826457799],[-86.6320583722749,36.2241810126968],[-86.6323643537637,36.2241604570655],[-86.6323650563663,36.2241604101274],[-86.6326923737135,36.2241384324514],[-86.6328190335558,36.2241298614018],[-86.6328643021602,36.2241267979192],[-86.6330108881817,36.2241168821493],[-86.6333239738805,36.2240958191063],[-86.6336651946063,36.2240728781634],[-86.6336660083755,36.2240728234246],[-86.6338812018991,36.2240582747484],[-86.6340122761252,36.2240494125109],[-86.6340131910517,36.2240493500287],[-86.633665862945,36.2251465913585],[-86.6336098638599,36.2251221693956],[-86.6335524205761,36.2251000585628],[-86.6334936792438,36.2250803139686],[-86.6334238819379,36.2250613203825],[-86.6333800504085,36.2250509353754],[-86.6333358515589,36.2250416310682],[-86.6332706490404,36.2250309606277],[-86.633204941936,36.2250225675383],[-86.6332048495528,36.2250225599114],[-86.6331387231421,36.2250173738095],[-86.6330756967281,36.225015387064],[-86.6330126236791,36.2250157789141],[-86.632949641911,36.2250185486372],[-86.6328746475742,36.2250258361203],[-86.632852258199,36.2250286814964],[-86.6327781118939,36.2250403481293],[-86.6327169293712,36.2250533761829],[-86.6326565638105,36.2250687026059],[-86.6325971473228,36.2250862960652],[-86.6325415775625,36.2251058863354],[-86.632487144889,36.2251274695857],[-86.6324339568518,36.225151002896],[-86.6323835828366,36.2251764744463],[-86.6323346355051,36.2252037103528],[-86.6322872078627,36.2252326569571],[-86.632245998372,36.2252608058379],[-86.6322062030113,36.2252902604157],[-86.6321678848065,36.2253209734972],[-86.6321303342691,36.225354501641],[-86.6320942793331,36.2253890908217],[-86.632054011839,36.2254325910072],[-86.6320164295657,36.2254776407871],[-86.6320122376869,36.2254850961838],[-86.631987785014,36.2255285820893],[-86.6319789354734,36.2255396217694],[-86.6319750706737,36.2255447123908],[-86.6319064109118,36.2256700038877],[-86.6312915647985,36.2254245322791],[-86.6314884048557,36.2251044096801]]]},"properties":{"id":"184210","parcel":"06312000100","address":"0 HADLEYS BEND BLVD","owner":"GLOBAL OUTREACH DEVELOPMENTS INTERNATION","point":[-86.6326875525092,36.22488269979244]}},{"type":"Feature","id":"184212","geometry":{"type":"Polygon","coordinates":[[[-86.6314797036757,36.2211363136573],[-86.6317110296625,36.221092865325],[-86.6318038767224,36.2214796880707],[-86.6315719261048,36.2215205370402],[-86.6314797036757,36.2211363136573]]]},"properties":{"id":"184212","parcel":"06312001600","address":"4532 S TRACE BLVD","owner":"HENRY, DIANE C.","point":[-86.6316417899366,36.22130800097447]}},{"type":"Feature","id":"184224","geometry":{"type":"Polygon","coordinates":[[[-86.6334704300802,36.2211344374415],[-86.6334708485578,36.2211343316034],[-86.6334819509222,36.2212199295472],[-86.6334954144879,36.221323746398],[-86.6334927191528,36.2213232891836],[-86.6331498248957,36.2212651246],[-86.6331486178262,36.2212493501198],[-86.6331446258495,36.221233879538],[-86.6331379305104,36.2212190350729],[-86.6334704300802,36.2211344374415]]]},"properties":{"id":"184224","parcel":"06312002400","address":"708 COBBLESTONE CT","owner":"METRO GOV'T  P  PARKS","point":[-86.63331210571309,36.22122698089563]}},{"type":"Feature","id":"184900","geometry":{"type":"Polygon","coordinates":[[[-86.6328165671329,36.2229216636802],[-86.632995459343,36.2229075410718],[-86.6330340349749,36.2240874496581],[-86.6328517280324,36.2240988441038],[-86.6328165671329,36.2229216636802]]]},"properties":{"id":"184900","parcel":"06312001000","address":"0 SOUTH ST","owner":"GLOBAL OUTREACH DEVELOPMENTS INTERNATIONAL","point":[-86.63292447791059,36.223504554219645]}},{"type":"Feature","id":"184906","geometry":{"type":"Polygon","coordinates":[[[-86.6312480921216,36.2211785715909],[-86.6314797036757,36.2211363136573],[-86.6315719261048,36.2215205370402],[-86.6313400051346,36.2215615070758],[-86.6312480921216,36.2211785715909]]]},"properties":{"id":"184906","parcel":"06312001500","address":"4536 S TRACE BLVD","owner":"BARTUSKA, KATHLEEN","point":[-86.6314100089474,36.221349554426084]}},{"type":"Feature","id":"184911","geometry":{"type":"Polygon","coordinates":[[[-86.6317110296625,36.221092865325],[-86.6319419286375,36.2210476460322],[-86.6320354382341,36.2214372175473],[-86.6318038767224,36.2214796880707],[-86.6317110296625,36.221092865325]]]},"properties":{"id":"184911","parcel":"06312001700","address":"4528 S TRACE BLVD","owner":"DUNN, LISA A.","point":[-86.631873233235,36.2212650415454]}},{"type":"Feature","id":"184972","geometry":{"type":"Polygon","coordinates":[[[-86.6321731690067,36.2210038457732],[-86.6324664796003,36.2209487086384],[-86.6324684113756,36.2210626168519],[-86.632473695703,36.2213742957238],[-86.632459096669,36.2213742279718],[-86.632430644399,36.2213736072922],[-86.6324022885669,36.2213755952064],[-86.6323743915595,36.2213801654835],[-86.6322680199884,36.2213989996217],[-86.6321731690067,36.2210038457732]]]},"properties":{"id":"184972","parcel":"06312001900","address":"4520 S TRACE BLVD","owner":"MCCARTHY, JAMES PATRICK & VICTORIA HARRIS REV TR","point":[-86.63234774161724,36.221217799394175]}},{"type":"Feature","id":"184975","geometry":{"type":"Polygon","coordinates":[[[-86.632473695703,36.2213742957238],[-86.6324684113756,36.2210626168519],[-86.6328780143619,36.2212758887649],[-86.6328813582282,36.2212919656842],[-86.6328817830709,36.2213082660866],[-86.6328792816773,36.2213244439314],[-86.6328739046847,36.2213401546776],[-86.6328657662277,36.2213550660682],[-86.6328369064808,36.2213920277502],[-86.6328290182148,36.2214007994449],[-86.6328194465625,36.221408390315],[-86.6328084545782,36.2214145916955],[-86.6327963467708,36.2214192325564],[-86.63278345801,36.2214221831664],[-86.6327701435888,36.2214233641565],[-86.6327567714013,36.2214227420558],[-86.6327437119688,36.2214203338493],[-86.6327313250785,36.2214162052457],[-86.632681682863,36.2214014874966],[-86.6326307986013,36.2213898792205],[-86.6325789720288,36.2213814482421],[-86.6325265027291,36.221376243461],[-86.632473695703,36.2213742957238]]]},"properties":{"id":"184975","parcel":"06312002000","address":"4516 S TRACE BLVD","owner":"CHRISTOPHER, MICHAEL P. & NATASHA L.","point":[-86.63257171067184,36.221168941365065]}},{"type":"Feature","id":"184979","geometry":{"type":"Polygon","coordinates":[[[-86.6320335551941,36.2215784480363],[-86.6322654593389,36.2215376371774],[-86.6323695507504,36.2219338654715],[-86.6323467062378,36.2219372737183],[-86.6321360751794,36.2219687031798],[-86.6320335551941,36.2215784480363]]]},"properties":{"id":"184979","parcel":"06312002900","address":"4509 S TRACE BLVD","owner":"WATERS, RICHARD DAVIS","point":[-86.63220155234607,36.221756156871514]}},{"type":"Feature","id":"184983","geometry":{"type":"Polygon","coordinates":[[[-86.6318020637692,36.2216208325673],[-86.6320335551941,36.2215784480363],[-86.6321360751794,36.2219687031798],[-86.6321131262194,36.2219721272501],[-86.6319026005155,36.2220035404306],[-86.6318020637692,36.2216208325673]]]},"properties":{"id":"184983","parcel":"06312003000","address":"4513 S TRACE BLVD","owner":"SMITH, JERRY W. & TEENA D.","point":[-86.63196906923372,36.221794767990865]}},{"type":"Feature","id":"184989","geometry":{"type":"Polygon","coordinates":[[[-86.6315699928315,36.221661010731],[-86.6318020637692,36.2216208325673],[-86.6319026005155,36.2220035404306],[-86.6318795459956,36.2220069803298],[-86.631669124527,36.2220383763344],[-86.6315699928315,36.221661010731]]]},"properties":{"id":"184989","parcel":"06312003100","address":"4517 S TRACE BLVD","owner":"KIM, SOPHIA ALEXANDRA","point":[-86.63173629619257,36.22183227569635]}},{"type":"Feature","id":"184995","geometry":{"type":"Polygon","coordinates":[[[-86.6308747340926,36.22178518309],[-86.6311064237917,36.2217435527483],[-86.6312021730541,36.2221080476823],[-86.631178804071,36.222111534153],[-86.6309686964574,36.2221428831323],[-86.6308747340926,36.22178518309]]]},"properties":{"id":"184995","parcel":"06312003400","address":"4529 S TRACE BLVD","owner":"BLOWERS, EUGENE & GLORIA M.","point":[-86.63103845303833,36.22194661549777]}},{"type":"Feature","id":"184999","geometry":{"type":"Polygon","coordinates":[[[-86.6304517138886,36.222220015673],[-86.6306982913753,36.2221832274117],[-86.63075724245,36.2225190172716],[-86.6305644257551,36.2225389736273],[-86.6305065291094,36.2225476313125],[-86.6304490842524,36.2222204088231],[-86.6304517138886,36.222220015673]]]},"properties":{"id":"184999","parcel":"06312003600","address":"4451 S TRACE BLVD","owner":"MIRANDA-REINA, LEONARDO BAUTISTA & LORENZO, YADIRA M","point":[-86.63060316280925,36.222369713145945]}},{"type":"Feature","id":"185002","geometry":{"type":"Polygon","coordinates":[[[-86.6307185430424,36.2221802052316],[-86.6309418845947,36.2221468832274],[-86.6310029851791,36.2224949204821],[-86.63075724245,36.2225190172716],[-86.6306982913753,36.2221832274117],[-86.6307185430424,36.2221802052316]]]},"properties":{"id":"185002","parcel":"06312003700","address":"4453 S TRACE BLVD","owner":"PAUL, TRACY YVONNE & DAVIS, BRIANNA MORGAN","point":[-86.63085063835965,36.222339074045344]}},{"type":"Feature","id":"185007","geometry":{"type":"Polygon","coordinates":[[[-86.6312021730541,36.2221080476823],[-86.6314123849179,36.2220766833307],[-86.6314771530431,36.2224456028653],[-86.6312416988148,36.2224697901497],[-86.631178804071,36.222111534153],[-86.6312021730541,36.2221080476823]]]},"properties":{"id":"185007","parcel":"06312003900","address":"4461 S TRACE BLVD","owner":"LAMONT, JOHN D. & JOELLYN","point":[-86.631327978193,36.22227856860248]}},{"type":"Feature","id":"185012","geometry":{"type":"Polygon","coordinates":[[[-86.631669124527,36.2220383763344],[-86.6318795459956,36.2220069803298],[-86.6319480808817,36.2223973403724],[-86.63171260946,36.2224214286283],[-86.6316459655522,36.222041831155],[-86.631669124527,36.2220383763344]]]},"properties":{"id":"185012","parcel":"06312004100","address":"4469 S TRACE BLVD","owner":"ALUOCH, MERCY O. & ELIJAH","point":[-86.63179702281083,36.22221958585952]}},{"type":"Feature","id":"185018","geometry":{"type":"Polygon","coordinates":[[[-86.6319026005155,36.2220035404306],[-86.6321131262194,36.2219721272501],[-86.6321834297935,36.2223725520303],[-86.6319480808817,36.2223973403724],[-86.6318795459956,36.2220069803298],[-86.6319026005155,36.2220035404306]]]},"properties":{"id":"185018","parcel":"06312004200","address":"4473 S TRACE BLVD","owner":"WOODEN, CHARLES M.","point":[-86.63203148744073,36.22218976627696]}},{"type":"Feature","id":"185024","geometry":{"type":"Polygon","coordinates":[[[-86.6321360751794,36.2219687031798],[-86.6323467062378,36.2219372737183],[-86.632418891598,36.2223484088303],[-86.6321834297935,36.2223725520303],[-86.6321131262194,36.2219721272501],[-86.6321360751794,36.2219687031798]]]},"properties":{"id":"185024","parcel":"06312004300","address":"4479 S TRACE BLVD","owner":"WALLER, ANNA & CHASE EARLES","point":[-86.63226600851617,36.22216026813863]}},{"type":"Feature","id":"185029","geometry":{"type":"Polygon","coordinates":[[[-86.6331046621322,36.2217230110439],[-86.6334293048648,36.2216207686932],[-86.6335253638958,36.2215927949224],[-86.6335566989291,36.2218656826666],[-86.6331514046555,36.2218875866671],[-86.6331479845135,36.2218537475139],[-86.6331415590885,36.2218201962901],[-86.6331321620419,36.2217871085617],[-86.6331198414723,36.2217546571151],[-86.6331046621322,36.2217230110439]]]},"properties":{"id":"185029","parcel":"06312004600","address":"4508 S TRACE BLVD","owner":"MILLER, JAMES R.","point":[-86.63332726814599,36.2217394931257]}},{"type":"Feature","id":"185033","geometry":{"type":"Polygon","coordinates":[[[-86.6331384325326,36.2220458817928],[-86.6331466439088,36.2220066670251],[-86.6331515544986,36.2219670910363],[-86.6331531446355,36.2219273368829],[-86.6331514046555,36.2218875866671],[-86.6335566989291,36.2218656826666],[-86.6335880440679,36.2221396689475],[-86.6331384325326,36.2220458817928]]]},"properties":{"id":"185033","parcel":"06312004700","address":"4504 S TRACE BLVD","owner":"MONTPELIER ASSETS, LLC","point":[-86.63335990562061,36.22198752511341]}},{"type":"Feature","id":"185091","geometry":{"type":"Polygon","coordinates":[[[-86.6332299561411,36.2225541467903],[-86.633250823502,36.2225454890772],[-86.6332696732428,36.2225341931795],[-86.6332860016991,36.2225205627548],[-86.6332993757533,36.222504960573],[-86.633309436121,36.2224878021904],[-86.6336403081126,36.222570673948],[-86.6336664933267,36.2227955900974],[-86.6336665160652,36.2227957909558],[-86.6336664660432,36.2227957948232],[-86.633381927042,36.2228198084771],[-86.6332299561411,36.2225541467903]]]},"properties":{"id":"185091","parcel":"06312005000","address":"608 PEBBLESTONE CT","owner":"BAF ASSETS 6, LLC","point":[-86.63347826427206,36.22268259571521]}},{"type":"Feature","id":"185096","geometry":{"type":"Polygon","coordinates":[[[-86.632705227187,36.2224393346303],[-86.6327649476707,36.2224185508962],[-86.6328228219221,36.222394584595],[-86.6328785938588,36.2223675434181],[-86.6328889883368,36.2223618570717],[-86.6329004034339,36.2223576470234],[-86.6329125219655,36.2223550293931],[-86.6329250086132,36.2223540780374],[-86.6329375165406,36.2223548173048],[-86.6329497007908,36.2223572282743],[-86.6329612215793,36.2223612433309],[-86.6329717610211,36.222366751485],[-86.632981026481,36.2223736001575],[-86.6330205841426,36.2224025084689],[-86.6330298102569,36.2224109759802],[-86.6330370925128,36.2224206090749],[-86.6330422083564,36.2224311169166],[-86.6330450062153,36.2224421830615],[-86.6330454011212,36.2224534744946],[-86.6330475377798,36.2224713043447],[-86.6330531696324,36.2224886274006],[-86.6330621485147,36.2225049965198],[-86.6330742452774,36.2225199911198],[-86.6330891487241,36.2225332234929],[-86.6331064723995,36.2225443531907],[-86.6328452707324,36.2228649259197],[-86.632705227187,36.2224393346303]]]},"properties":{"id":"185096","parcel":"06312005200","address":"4496 S TRACE BLVD","owner":"PERRY, CHARLOTTE LIVERNOIS & ROBERT","point":[-86.6328841069355,36.22270435813665]}},{"type":"Feature","id":"185101","geometry":{"type":"Polygon","coordinates":[[[-86.6324841802296,36.2224789403694],[-86.6325193545675,36.2224756757171],[-86.6325798449967,36.2228879885629],[-86.6324582399017,36.222897633327],[-86.6323516873967,36.2229058869504],[-86.632284338862,36.2225000114439],[-86.6324841802296,36.2224789403694]]]},"properties":{"id":"185101","parcel":"06312005400","address":"4488 S TRACE BLVD","owner":"SHANNON, SALLY JANE & PARTAIN, JAMES T.","point":[-86.63243395388996,36.22269400581618]}},{"type":"Feature","id":"185106","geometry":{"type":"Polygon","coordinates":[[[-86.6313090484132,36.2226006810491],[-86.631561406644,36.2225754102739],[-86.6316265603428,36.2229677420087],[-86.6313735337623,36.2229889932472],[-86.6313090484132,36.2226006810491]]]},"properties":{"id":"185106","parcel":"06312005800","address":"4472 S TRACE BLVD","owner":"TURNER, LORI J.","point":[-86.63146780410706,36.2227842116352]}},{"type":"Feature","id":"185112","geometry":{"type":"Polygon","coordinates":[[[-86.6308046772375,36.2226532992847],[-86.6310603556124,36.2226274264093],[-86.6311236843485,36.2230087826579],[-86.6309673580539,36.2230214093103],[-86.6308671566166,36.2230295491348],[-86.6308046772375,36.2226532992847]]]},"properties":{"id":"185112","parcel":"06312006000","address":"4464 S TRACE BLVD","owner":"QUE, SARAH E. & ALLAN MELVIN","point":[-86.6309641803981,36.22283104107805]}},{"type":"Feature","id":"185187","geometry":{"type":"Polygon","coordinates":[[[-86.6331631909786,36.2228935803468],[-86.6333335824847,36.2228793972539],[-86.6333722157968,36.2240658989721],[-86.6332035217452,36.224076649374],[-86.6330340349749,36.2240874496581],[-86.632995459343,36.2229075410718],[-86.6331631909786,36.2228935803468]]]},"properties":{"id":"185187","parcel":"06312000900","address":"0 SOUTH ST","owner":"GLOBAL OUTREACH DEVELOPMENTS INTERNATIONAL","point":[-86.6331838759442,36.22348672031213]}},{"type":"Feature","id":"185266","geometry":{"type":"Polygon","coordinates":[[[-86.6327075593247,36.2209020908068],[-86.6332342808931,36.2208031855583],[-86.6330642317932,36.2211600878861],[-86.6330426598734,36.2211541499896],[-86.6330201494744,36.2211513109836],[-86.6329973708531,36.2211516556769],[-86.6329750068718,36.2211551759844],[-86.63295372515,36.2211617656657],[-86.6327075593247,36.2209020908068]]]},"properties":{"id":"185266","parcel":"06312002200","address":"711 COBBLESTONE CT","owner":"SCHNEIDER, CHRISTOPHER H.","point":[-86.6329764877537,36.221027046509356]}},{"type":"Feature","id":"185271","geometry":{"type":"Polygon","coordinates":[[[-86.6330642317932,36.2211600878861],[-86.6332342808931,36.2208031855583],[-86.6334272400174,36.2207681102695],[-86.6334708485578,36.2211343316034],[-86.6334704300802,36.2211344374415],[-86.6331379305104,36.2212190350729],[-86.6331311328947,36.2212055898763],[-86.6331217599402,36.2211932027226],[-86.6331100544695,36.2211821958853],[-86.6330963190696,36.2211728543738],[-86.6330809127117,36.2211654205435],[-86.6330642317932,36.2211600878861]]]},"properties":{"id":"185271","parcel":"06312002300","address":"712 COBBLESTONE CT","owner":"ANCHUNDIA, MILITZA ESTHER","point":[-86.63330342423247,36.22096860806628]}},{"type":"Feature","id":"185277","geometry":{"type":"Polygon","coordinates":[[[-86.6330901876375,36.2213538899442],[-86.633107156616,36.2213430545476],[-86.6331217487897,36.2213301434218],[-86.6331335797904,36.2213154947471],[-86.6331423412482,36.2212994922689],[-86.6331478040426,36.2212825544655],[-86.6331498248957,36.2212651246],[-86.6334927191528,36.2213232891836],[-86.6334954144879,36.221323746398],[-86.6335116028899,36.2214691603547],[-86.6335253638958,36.2215927949224],[-86.6334293048648,36.2216207686932],[-86.6330901876375,36.2213538899442]]]},"properties":{"id":"185277","parcel":"06312002500","address":"704 COBBLESTONE CT","owner":"KELLAR, BLAINE JOHN & SAVANNAH CHERISE","point":[-86.63333407110562,36.22141162699453]}},{"type":"Feature","id":"185282","geometry":{"type":"Polygon","coordinates":[[[-86.6326588442063,36.2215405620405],[-86.6327015506459,36.2215554504169],[-86.6327423811938,36.2215734669145],[-86.6327809853644,36.2215944565546],[-86.6328170369673,36.2216182426017],[-86.6328502285098,36.2216446220866],[-86.6328802745482,36.2216733675908],[-86.6329069217773,36.2217042371079],[-86.6329299411863,36.221736966874],[-86.6329491370011,36.2217712767284],[-86.6329643467195,36.2218068746198],[-86.6329754388942,36.2218434575188],[-86.6324790783877,36.221917522889],[-86.6326588442063,36.2215405620405]]]},"properties":{"id":"185282","parcel":"06312002700","address":"4501 S TRACE BLVD","owner":"YAMASA CO., LTD","point":[-86.63274596148115,36.22172007279573]}},{"type":"Feature","id":"185286","geometry":{"type":"Polygon","coordinates":[[[-86.6306263951686,36.2218294089819],[-86.6308747340926,36.22178518309],[-86.6309686964574,36.2221428831323],[-86.6309418845947,36.2221468832274],[-86.6307185430424,36.2221802052316],[-86.6306263951686,36.2218294089819]]]},"properties":{"id":"185286","parcel":"06312003500","address":"4533 S TRACE BLVD","owner":"ALTO ASSET COMPANY 2, LLC","point":[-86.63079754550462,36.221986146179674]}},{"type":"Feature","id":"185290","geometry":{"type":"Polygon","coordinates":[[[-86.6309686964574,36.2221428831323],[-86.631178804071,36.222111534153],[-86.6312416988148,36.2224697901497],[-86.6310029851791,36.2224949204821],[-86.6309418845947,36.2221468832274],[-86.6309686964574,36.2221428831323]]]},"properties":{"id":"185290","parcel":"06312003800","address":"4457 S TRACE BLVD","owner":"BAUGHMAN, JOY LEMKE & ROBERT ADAM","point":[-86.6310917916001,36.22230833678348]}},{"type":"Feature","id":"185345","geometry":{"type":"Polygon","coordinates":[[[-86.6325193545675,36.2224756757171],[-86.632569313355,36.2224693441957],[-86.6326188063059,36.2224609485385],[-86.6326677045553,36.2224505092484],[-86.632705227187,36.2224393346303],[-86.6328452707324,36.2228649259197],[-86.6328083239253,36.2228681359636],[-86.6327766457057,36.2228708885008],[-86.6325798449967,36.2228879885629],[-86.6325193545675,36.2224756757171]]]},"properties":{"id":"185345","parcel":"06312005300","address":"4492 S TRACE BLVD","owner":"FREEMAN, SHANNON & DEEL, CASEY","point":[-86.63266458766432,36.22267024652117]}},{"type":"Feature","id":"186061","geometry":{"type":"Polygon","coordinates":[[[-86.6324357586564,36.2229538760742],[-86.6327840437566,36.2229245810688],[-86.6327909340806,36.223142681402],[-86.6327952925791,36.2232806004123],[-86.6327994918445,36.2234134777862],[-86.6328038310302,36.2235507849417],[-86.6328081551961,36.2236876018931],[-86.6328122820459,36.2238182292226],[-86.632817038588,36.2239688023003],[-86.6328212384944,36.2241017508426],[-86.6320662785841,36.2241518530107],[-86.6321049985316,36.224025927656],[-86.6321531433026,36.2238703353524],[-86.6321942632159,36.2237350496861],[-86.6322367141243,36.2235977751956],[-86.6322813106229,36.2234528432913],[-86.6323232140546,36.2233168333665],[-86.632366103,36.2231755441763],[-86.6324357586564,36.2229538760742]]]},"properties":{"id":"186061","parcel":"06312001100","address":"0 MAIN ST","owner":"GLOBAL OUTREACH DEVELOPMENTS INTERNATIONAL","point":[-86.63253440575674,36.22350178932778]}},{"type":"Feature","id":"186080","geometry":{"type":"Polygon","coordinates":[[[-86.6320407061571,36.2210289204114],[-86.6321731690067,36.2210038457732],[-86.6322680199884,36.2213989996217],[-86.6320354382341,36.2214372175473],[-86.6319419286375,36.2210476460322],[-86.6320407061571,36.2210289204114]]]},"properties":{"id":"186080","parcel":"06312001800","address":"4524 S TRACE BLVD","owner":"PRUGAR, VANCE C.","point":[-86.63210497388593,36.221223322938314]}},{"type":"Feature","id":"186081","geometry":{"type":"Polygon","coordinates":[[[-86.6324684113756,36.2210626168519],[-86.6324664796003,36.2209487086384],[-86.6327075593247,36.2209020908068],[-86.63295372515,36.2211617656657],[-86.6329354769724,36.2211706358198],[-86.6329191157192,36.2211816626773],[-86.6329050286087,36.2211945864537],[-86.6328935457845,36.2212091035025],[-86.632884937029,36.2212248726414],[-86.6328794040356,36.2212415224022],[-86.6328770782772,36.2212586627584],[-86.6328780143619,36.2212758887649],[-86.6324684113756,36.2210626168519]]]},"properties":{"id":"186081","parcel":"06312002100","address":"705 COBBLESTONE CT","owner":"JACO, BILL WAYNE III","point":[-86.63273502425297,36.221112265030996]}},{"type":"Feature","id":"186082","geometry":{"type":"Polygon","coordinates":[[[-86.6330540069293,36.2213656173283],[-86.6330901876375,36.2213538899442],[-86.6334293048648,36.2216207686932],[-86.6331046621322,36.2217230110439],[-86.6330819465209,36.2216834816247],[-86.6330560136774,36.2216452740668],[-86.633026978433,36.2216085608054],[-86.6329949722441,36.2215735069785],[-86.6329601387358,36.2215402695492],[-86.632951171259,36.2215335346718],[-86.6329437086987,36.2215256869806],[-86.6329379574517,36.2215169443969],[-86.6329340785,36.2215075485123],[-86.6329321784924,36.2214977619317],[-86.6329323107554,36.2214878556506],[-86.6329344696895,36.2214781036771],[-86.6329385985185,36.2214687784845],[-86.6329445802913,36.2214601384418],[-86.632988208016,36.2214044201277],[-86.6330016416929,36.221391705251],[-86.6330173468575,36.2213808323297],[-86.6330349441193,36.2213720665151],[-86.6330540069293,36.2213656173283]]]},"properties":{"id":"186082","parcel":"06312002600","address":"4512 S TRACE BLVD","owner":"TEAM 9 REAL ESTATE SOLUTIONS, LLC","point":[-86.63313991378386,36.22153746714522]}},{"type":"Feature","id":"186083","geometry":{"type":"Polygon","coordinates":[[[-86.6322654593389,36.2215376371774],[-86.6323985233631,36.2215157414501],[-86.6324424735812,36.2215118432552],[-86.632486677591,36.2215111773836],[-86.6325307750811,36.2215137511294],[-86.6325744055031,36.2215195420476],[-86.6326172114506,36.2215285033432],[-86.6326588442063,36.2215405620405],[-86.6324790783877,36.221917522889],[-86.6323695507504,36.2219338654715],[-86.6322654593389,36.2215376371774]]]},"properties":{"id":"186083","parcel":"06312002800","address":"4505 S TRACE BLVD","owner":"ETHERIDGE, BRANDON G. & DEATHRIDGE, KATHERINE MARIE","point":[-86.63244224974237,36.221728653362646]}},{"type":"Feature","id":"186084","geometry":{"type":"Polygon","coordinates":[[[-86.631338156818,36.2217020857607],[-86.6315699928315,36.221661010731],[-86.631669124527,36.2220383763344],[-86.6316459655522,36.222041831155],[-86.6314356494456,36.2220732117806],[-86.631338156818,36.2217020857607]]]},"properties":{"id":"186084","parcel":"06312003200","address":"4521 S TRACE BLVD","owner":"PROCTOR, JENNIFER M.","point":[-86.63150364057594,36.22187023116309]}},{"type":"Feature","id":"186085","geometry":{"type":"Polygon","coordinates":[[[-86.6314356494456,36.2220732117806],[-86.6316459655522,36.222041831155],[-86.63171260946,36.2224214286283],[-86.6314771530431,36.2224456028653],[-86.6314123849179,36.2220766833307],[-86.6314356494456,36.2220732117806]]]},"properties":{"id":"186085","parcel":"06312004000","address":"4465 S TRACE BLVD","owner":"GROVES, MYKAR T & RALITHEA R","point":[-86.63156249685724,36.22224905607422]}},{"type":"Feature","id":"186086","geometry":{"type":"Polygon","coordinates":[[[-86.6323467062378,36.2219372737183],[-86.6323695507504,36.2219338654715],[-86.6324790783877,36.221917522889],[-86.6327937289072,36.2222512714085],[-86.6327868445092,36.2222559470865],[-86.632738798619,36.2222784018677],[-86.6326887831677,36.2222978288491],[-86.6326370886876,36.2223141165548],[-86.6325840125146,36.2223271696958],[-86.6325298665953,36.2223369118334],[-86.6324749619303,36.222343287263],[-86.632418891598,36.2223484088303],[-86.6323467062378,36.2219372737183]]]},"properties":{"id":"186086","parcel":"06312004400","address":"4481 S TRACE BLVD","owner":"ENGLAND, JERRY L. JR.","point":[-86.63251004927274,36.22209408800889]}},{"type":"Feature","id":"186087","geometry":{"type":"Polygon","coordinates":[[[-86.6324790783877,36.221917522889],[-86.6329754388942,36.2218434575188],[-86.6329824298293,36.2218809784764],[-86.6329852203401,36.2219188567097],[-86.63298378573,36.2219567859252],[-86.6329781390826,36.2219944551243],[-86.6329683257789,36.2220315585465],[-86.632954425723,36.2220677956574],[-86.6329365522151,36.2221028693522],[-86.6329148497992,36.2221364949795],[-86.6328894976005,36.2221684003238],[-86.6328606981809,36.2221983229604],[-86.6328286887555,36.2222260219128],[-86.6327937289072,36.2222512714085],[-86.6324790783877,36.221917522889]]]},"properties":{"id":"186087","parcel":"06312004500","address":"4485 S TRACE BLVD","owner":"FRUIN, WILLIAM DELBERT III & CHRISTINE MARIE","point":[-86.63278200390448,36.222049126786445]}},{"type":"Feature","id":"186088","geometry":{"type":"Polygon","coordinates":[[[-86.633309436121,36.2224878021904],[-86.6333140260842,36.2224683905379],[-86.633314446634,36.2224486276316],[-86.6333106835439,36.2224290993556],[-86.6333028493028,36.2224103810152],[-86.6332911752425,36.2223930265638],[-86.6332760058109,36.2223775479041],[-86.6335880440679,36.2221396689475],[-86.6336403081126,36.222570673948],[-86.633309436121,36.2224878021904]]]},"properties":{"id":"186088","parcel":"06312004900","address":"605 PEBBLESTONE CT","owner":"HERTZ, THOMAS WILLIAM IV","point":[-86.63351727761304,36.222258869656905]}},{"type":"Feature","id":"186108","geometry":{"type":"Polygon","coordinates":[[[-86.632012656427,36.2225292061294],[-86.632049085755,36.2225252807434],[-86.6321154739149,36.2229253853191],[-86.631879580439,36.2229468102152],[-86.6318134925878,36.222548511845],[-86.632012656427,36.2225292061294]]]},"properties":{"id":"186108","parcel":"06312005600","address":"4480 S TRACE BLVD","owner":"LEMARIE, RONALD J & ROXANNE","point":[-86.63196448302931,36.222736948678616]}},{"type":"Feature","id":"186109","geometry":{"type":"Polygon","coordinates":[[[-86.6310603556124,36.2226274264093],[-86.6313090484132,36.2226006810491],[-86.6313735337623,36.2229889932472],[-86.6311236843485,36.2230087826579],[-86.6310603556124,36.2226274264093]]]},"properties":{"id":"186109","parcel":"06312005900","address":"4468 S TRACE BLVD","owner":"ROBINSON, LISA G.","point":[-86.63121694426779,36.22280820993118]}},{"type":"Feature","id":"186110","geometry":{"type":"Polygon","coordinates":[[[-86.63056552663,36.2226774162279],[-86.6308046772375,36.2226532992847],[-86.6308671566166,36.2230295491348],[-86.6308649923842,36.2230297244653],[-86.6307804787631,36.223037038751],[-86.6305974500858,36.2230533597821],[-86.6305357522916,36.22268180301],[-86.63056552663,36.2226774162279]]]},"properties":{"id":"186110","parcel":"06312006100","address":"4460 S TRACE BLVD","owner":"FUSSELL, RICKY A. ET UX","point":[-86.63070145385834,36.222855676186825]}},{"type":"Feature","id":"188177","geometry":{"type":"Polygon","coordinates":[[[-86.6300254115289,36.2219277501667],[-86.6303604297131,36.2218725069704],[-86.6304517138886,36.222220015673],[-86.6304490842524,36.2222204088231],[-86.6302325402565,36.2222527156923],[-86.6301513710026,36.2221943951464],[-86.6300814902918,36.2221441845428],[-86.6300254115289,36.2219277501667]]]},"properties":{"id":"188177","parcel":"06409025800","address":"4541 S TRACE BLVD","owner":"CAMPBELL, DOROTHY","point":[-86.63022855139705,36.22203650856582]}},{"type":"Feature","id":"188180","geometry":{"type":"Polygon","coordinates":[[[-86.629870570152,36.222480374752],[-86.6301513710026,36.2221943951464],[-86.6302325402565,36.2222527156923],[-86.6302472769304,36.2225729286455],[-86.6301788929977,36.2225739496712],[-86.6301314333361,36.2225699325887],[-86.6300845652346,36.2225626733272],[-86.6300386228138,36.222552226022],[-86.6299939370144,36.2225386646522],[-86.6299508289454,36.2225220857805],[-86.6299096076664,36.2225026094646],[-86.629870570152,36.222480374752]]]},"properties":{"id":"188180","parcel":"06409026100","address":"4441 S TRACE BLVD","owner":"MONGOLD, JEFFREY L. & RITA L.","point":[-86.63011017669753,36.22236672658036]}},{"type":"Feature","id":"188181","geometry":{"type":"Polygon","coordinates":[[[-86.6302325402565,36.2222527156923],[-86.6304490842524,36.2222204088231],[-86.6305065291094,36.2225476313125],[-86.63042068653,36.2225596694034],[-86.6303341924462,36.2225681094583],[-86.6302472769304,36.2225729286455],[-86.6302325402565,36.2222527156923]]]},"properties":{"id":"188181","parcel":"06409026200","address":"4445 S TRACE BLVD","owner":"NEFF, MICHAEL W.","point":[-86.63036000532387,36.22240014414596]}},{"type":"Feature","id":"188182","geometry":{"type":"Polygon","coordinates":[[[-86.6300638499552,36.2227037658354],[-86.6301068848449,36.2227098599653],[-86.6301503196881,36.2227136547199],[-86.630193968594,36.2227151330439],[-86.6302376435404,36.2227142896095],[-86.6302671966408,36.2227131314135],[-86.6302919451533,36.223071114618],[-86.6302235561386,36.2230747691306],[-86.6301125007798,36.2230820619136],[-86.630078662549,36.2230842833624],[-86.6299590536605,36.2230921370373],[-86.6300638499552,36.2227037658354]]]},"properties":{"id":"188182","parcel":"06409026400","address":"4452 S TRACE BLVD","owner":"JONES, RICHLYN","point":[-86.6301462971679,36.22289282512451]}},{"type":"Feature","id":"188474","geometry":{"type":"Polygon","coordinates":[[[-86.6300313913252,36.2243106444354],[-86.6300360223681,36.2242418309913],[-86.6306093900931,36.2243065187217],[-86.6305946585096,36.2243741925755],[-86.6300313913252,36.2243106444354]]]},"properties":{"id":"188474","parcel":"06409007100","address":"4122 MAIN ST","owner":"HERMITAGE PROPERTIES, LLC","point":[-86.63032016865019,36.224308581241544]}},{"type":"Feature","id":"188532","geometry":{"type":"Polygon","coordinates":[[[-86.6311064237917,36.2217435527483],[-86.631338156818,36.2217020857607],[-86.6314356494456,36.2220732117806],[-86.6314123849179,36.2220766833307],[-86.6312021730541,36.2221080476823],[-86.6311064237917,36.2217435527483]]]},"properties":{"id":"188532","parcel":"06312003300","address":"4525 S TRACE BLVD","owner":"DONALDSON, DAKOTA","point":[-86.63127103619811,36.22190838237772]}},{"type":"Feature","id":"188533","geometry":{"type":"Polygon","coordinates":[[[-86.6331709814737,36.2223437610699],[-86.6331606077231,36.2223431250972],[-86.633150458983,36.2223412766706],[-86.6331407479997,36.2223382534284],[-86.6331316810621,36.2223341200804],[-86.6331234512991,36.2223289648376],[-86.6331162319775,36.2223228958426],[-86.6330718845437,36.2222885159726],[-86.6330631733687,36.2222811560995],[-86.6330561197146,36.222272709649],[-86.6330509290623,36.2222634188805],[-86.6330477481524,36.2222535524977],[-86.6330466704392,36.2222433921005],[-86.6330477249465,36.2222332295403],[-86.633050881757,36.2222233578786],[-86.6330560519187,36.222214059671],[-86.633063085185,36.2222056024736],[-86.6330862501371,36.2221670925164],[-86.6331065760295,36.22212754388],[-86.6331239894328,36.2220870930389],[-86.6331384325326,36.2220458817928],[-86.6335880440679,36.2221396689475],[-86.6332760058109,36.2223775479041],[-86.6332585159136,36.2223651014812],[-86.6332386631599,36.2223552540174],[-86.6332170271224,36.2223482935752],[-86.6331942445537,36.2223444259045],[-86.6331709814737,36.2223437610699]]]},"properties":{"id":"188533","parcel":"06312004800","address":"4500 S TRACE BLVD","owner":"DUNN, MARILYN E.","point":[-86.63327691505843,36.22221049735748]}},{"type":"Feature","id":"188547","geometry":{"type":"Polygon","coordinates":[[[-86.6331064723995,36.2225443531907],[-86.6331254649758,36.2225523378049],[-86.6331457328644,36.2225578940854],[-86.6331668078667,36.2225608920028],[-86.6331882000211,36.2225612620255],[-86.6332094131817,36.2225589959397],[-86.6332299561411,36.2225541467903],[-86.633381927042,36.2228198084771],[-86.6328452707324,36.2228649259197],[-86.6331064723995,36.2225443531907]]]},"properties":{"id":"188547","parcel":"06312005100","address":"604 PEBBLESTONE CT","owner":"PROPHATER, MASON ANDERSON & ANNETTE NICHOLE","point":[-86.63314806131976,36.2226901153584]}},{"type":"Feature","id":"188548","geometry":{"type":"Polygon","coordinates":[[[-86.632049085755,36.2225252807434],[-86.632284338862,36.2225000114439],[-86.6323516873967,36.2229058869504],[-86.632324373136,36.2229080027738],[-86.6322547755588,36.2229137835917],[-86.6321154739149,36.2229253853191],[-86.632049085755,36.2225252807434]]]},"properties":{"id":"188548","parcel":"06312005500","address":"4484 S TRACE BLVD","owner":"ROMERO, VICTOR & CRUZ, JOSSELINE","point":[-86.63220038583597,36.2227155839423]}},{"type":"Feature","id":"188549","geometry":{"type":"Polygon","coordinates":[[[-86.631561406644,36.2225754102739],[-86.6318134925878,36.222548511845],[-86.631879580439,36.2229468102152],[-86.6316265603428,36.2229677420087],[-86.631561406644,36.2225754102739]]]},"properties":{"id":"188549","parcel":"06312005700","address":"4476 S TRACE BLVD","owner":"HARRELL, CALVIN & MELISSA","point":[-86.63172050666498,36.222761110392554]}},{"type":"Feature","id":"189220","geometry":{"type":"Polygon","coordinates":[[[-86.6298332735783,36.2212242741304],[-86.6297613049219,36.2210056945631],[-86.6296967045539,36.2208095634996],[-86.6296413064287,36.220637416129],[-86.6296132037485,36.2205555501972],[-86.6295470415034,36.2203608331172],[-86.6294849587545,36.220171230027],[-86.6294247137553,36.2199831710664],[-86.6294246795452,36.2199830648978],[-86.62976213814,36.2199153778888],[-86.6297724056621,36.219914025657],[-86.6297828089252,36.2199139398677],[-86.6297931088143,36.2199151226691],[-86.6298030715459,36.2199175473417],[-86.6298124709003,36.219921159188],[-86.6298317426247,36.2199288418495],[-86.6298541196466,36.2199300707167],[-86.6298764488864,36.219928364472],[-86.6298981467592,36.2199237667152],[-86.629918648098,36.2199163993585],[-86.629937418303,36.2199064517485],[-86.6299539667232,36.2198941851027],[-86.629957218471,36.2198988879657],[-86.6299572847996,36.219898976843],[-86.6309209145752,36.2212399777911],[-86.6307299840621,36.2212750330584],[-86.630554644707,36.2213089179236],[-86.6304896602571,36.2213224423845],[-86.6302411969043,36.2213698891967],[-86.6299825631025,36.2214173876428],[-86.6299008545451,36.2214323274508],[-86.6298332735783,36.2212242741304]]]},"properties":{"id":"189220","parcel":"06400011800","address":"185 JONES LN","owner":"BOYLE, JOHN & TAMATHA","point":[-86.63011036655514,36.22072485490018]}},{"type":"Feature","id":"192307","geometry":{"type":"Polygon","coordinates":[[[-86.6302671966408,36.2227131314135],[-86.6303360951864,36.222708270152],[-86.6304046557993,36.2227009168702],[-86.6304727417825,36.2226910867022],[-86.6305357522916,36.22268180301],[-86.6305974500858,36.2230533597821],[-86.6305685365966,36.2230559377845],[-86.6305197398478,36.2230589395187],[-86.6302919451533,36.223071114618],[-86.6302671966408,36.2227131314135]]]},"properties":{"id":"192307","parcel":"06409026300","address":"4456 S TRACE BLVD","owner":"BOTTS, GINGER S.","point":[-86.6304240984111,36.222883220310706]}},{"type":"Feature","id":"192406","geometry":{"type":"Polygon","coordinates":[[[-86.6310627608531,36.2213518338332],[-86.6311494194218,36.2213354479094],[-86.6311725285514,36.2214276263841],[-86.6311760322935,36.2214418928122],[-86.6310914078661,36.2214582681256],[-86.6310627608531,36.2213518338332]]]},"properties":{"id":"192406","parcel":"064090A02700CO","address":"4542 S TRACE BLVD","owner":"4542 SOUTH TRACE BLVD LAND TRUST","point":[-86.63111799332863,36.22138973119598]}},{"type":"Feature","id":"192616","geometry":{"type":"Polygon","coordinates":[[[-86.6307551204586,36.2213661069136],[-86.6308431567613,36.221352461912],[-86.6308480599412,36.2213722150315],[-86.6308733078759,36.2214775676077],[-86.6307906957437,36.2214911843022],[-86.6307551204586,36.2213661069136]]]},"properties":{"id":"192616","parcel":"064090A02500CO","address":"4546 S TRACE BLVD","owner":"EDISON, IRENE C. REVOCABLE LIVING TRUST, THE","point":[-86.63081622306998,36.22142475415935]}},{"type":"Feature","id":"192939","geometry":{"type":"Polygon","coordinates":[[[-86.6303576003322,36.2214508083884],[-86.6304537967338,36.2214398653758],[-86.6304757152674,36.2215529275371],[-86.6303829240921,36.2215654984675],[-86.6303610755634,36.221461226671],[-86.6303576003322,36.2214508083884]]]},"properties":{"id":"192939","parcel":"064090A02200CO","address":"4552 S TRACE BLVD","owner":"MOODY, CONNIE R.","point":[-86.63041875374547,36.221507078224555]}},{"type":"Feature","id":"193394","geometry":{"type":"Polygon","coordinates":[[[-86.6302723810054,36.2214761824616],[-86.6303610755634,36.221461226671],[-86.6303829240921,36.2215654984675],[-86.6303864495345,36.2215825117993],[-86.6303069629286,36.2215940597133],[-86.6302923101301,36.2215961883143],[-86.6302635691925,36.2214776677324],[-86.6302723810054,36.2214761824616]]]},"properties":{"id":"193394","parcel":"064090A02100CO","address":"4554 S TRACE BLVD","owner":"WITHERS, LISA & MARK","point":[-86.63032396839546,36.221521585344604]}},{"type":"Feature","id":"193451","geometry":{"type":"Polygon","coordinates":[[[-86.6307536419006,36.2213663417489],[-86.6307551204586,36.2213661069136],[-86.6307906957437,36.2214911843022],[-86.6307862497373,36.2214918492084],[-86.6306992681211,36.2215048478743],[-86.6306740302582,36.2214005938291],[-86.630669118383,36.2213797421303],[-86.6307536419006,36.2213663417489]]]},"properties":{"id":"193451","parcel":"064090A02400CO","address":"4548 S TRACE BLVD","owner":"BROWN, ELIZABETH","point":[-86.63073140621793,36.221445886127434]}},{"type":"Feature","id":"193454","geometry":{"type":"Polygon","coordinates":[[[-86.6308480599412,36.2213722150315],[-86.6309327039576,36.2213585867814],[-86.6309592969144,36.2214622848382],[-86.6308733078759,36.2214775676077],[-86.6308480599412,36.2213722150315]]]},"properties":{"id":"193454","parcel":"064090A02600CO","address":"4544 S TRACE BLVD","owner":"BURKE, CHRISTINA","point":[-86.63090330112011,36.22141724878406]}},{"type":"Feature","id":"193459","geometry":{"type":"Polygon","coordinates":[[[-86.6311424819278,36.2213157063331],[-86.6312305181007,36.2213020601477],[-86.6312605648506,36.2214139810784],[-86.6311725285514,36.2214276263841],[-86.6311494194218,36.2213354479094],[-86.6311424819278,36.2213157063331]]]},"properties":{"id":"193459","parcel":"064090A02800CO","address":"4540 S TRACE BLVD","owner":"BOONE, SARAH","point":[-86.63120464432347,36.22137471343492]}},{"type":"Feature","id":"193754","geometry":{"type":"Polygon","coordinates":[[[-86.6301789215972,36.2214912955306],[-86.6302635691925,36.2214776677324],[-86.6302923101301,36.2215961883143],[-86.6302076635255,36.2216098161263],[-86.6301823858664,36.2215006170598],[-86.6301789215972,36.2214912955306]]]},"properties":{"id":"193754","parcel":"064090A02000CO","address":"4556 S TRACE BLVD","owner":"BRUSSEAU, WANDA S.","point":[-86.63023708535958,36.221548401888214]}},{"type":"Feature","id":"193774","geometry":{"type":"Polygon","coordinates":[[[-86.6305927652328,36.2214131047366],[-86.6306740302582,36.2214005938291],[-86.6306992681211,36.2215048478743],[-86.6306214017815,36.2215184396708],[-86.6305927652328,36.2214131047366]]]},"properties":{"id":"193774","parcel":"064090A02300CO","address":"4550 S TRACE BLVD","owner":"MCKISSACK, KORTNEY","point":[-86.63064669836274,36.22145897842148]}},{"type":"Feature","id":"193959","geometry":{"type":"Polygon","coordinates":[[[-86.6305947634919,36.2218350338759],[-86.6306263951686,36.2218294089819],[-86.6307185430424,36.2221802052316],[-86.6306982913753,36.2221832274117],[-86.6304517138886,36.222220015673],[-86.6303604297131,36.2218725069704],[-86.6305588689969,36.2218401655041],[-86.6305947634919,36.2218350338759]]]},"properties":{"id":"193959","parcel":"06409025700","address":"4537 S TRACE BLVD","owner":"BAKER, THOMAS E. & ROBIN D.","point":[-86.63053948626273,36.222026356235645]}},{"type":"Feature","id":"193967","geometry":{"type":"Polygon","coordinates":[[[-86.6301044976158,36.2215114616416],[-86.6301823858664,36.2215006170598],[-86.6302076635255,36.2216098161263],[-86.6301297751711,36.221620660724],[-86.6301044976158,36.2215114616416]]]},"properties":{"id":"193967","parcel":"064090A01900CO","address":"4558 S TRACE BLVD","owner":"HEDGES, MICHAEL & DONETTA","point":[-86.63015608053867,36.22156063889508]}},{"type":"Feature","id":"214451","geometry":{"type":"Polygon","coordinates":[[[-86.6300174992608,36.2245170847527],[-86.6300221303277,36.2244482713132],[-86.6305651963795,36.2245095402679],[-86.6305504647206,36.2245772141124],[-86.6300174992608,36.2245170847527]]]},"properties":{"id":"214451","parcel":"06409033000","address":"0 MAIN ST","owner":"BOTZUM, DOUG & TRESA","point":[-86.63029100085032,36.22451331175169]}},{"type":"Feature","id":"214706","geometry":{"type":"Polygon","coordinates":[[[-86.6300267613867,36.2243794578722],[-86.6300313913252,36.2243106444354],[-86.6305946585096,36.2243741925755],[-86.630579926901,36.2244418664262],[-86.6300267613867,36.2243794578722]]]},"properties":{"id":"214706","parcel":"06409033200","address":"0 MAIN ST","owner":"BOTZUM, DOUG & TRESA","point":[-86.63031044622437,36.22437682474601]}},{"type":"Feature","id":"214709","geometry":{"type":"Polygon","coordinates":[[[-86.6300128681859,36.2245858981906],[-86.6300174992608,36.2245170847527],[-86.6305504647206,36.2245772141124],[-86.6305357330366,36.2246448879538],[-86.6300128681859,36.2245858981906]]]},"properties":{"id":"214709","parcel":"06409032900","address":"0 MAIN ST","owner":"BOTZUM, DOUG & TRESA","point":[-86.6302812778462,36.22458155525277]}},{"type":"Feature","id":"214924","geometry":{"type":"Polygon","coordinates":[[[-86.6300221303277,36.2244482713132],[-86.6300267613867,36.2243794578722],[-86.630579926901,36.2244418664262],[-86.6305651963795,36.2245095402679],[-86.6300221303277,36.2244482713132]]]},"properties":{"id":"214924","parcel":"06409033100","address":"0 MAIN ST","owner":"BOTZUM, DOUG & TRESA","point":[-86.63030072331529,36.224445068251526]}},{"type":"Feature","id":"217006","geometry":{"type":"Polygon","coordinates":[[[-86.6300128681859,36.2245858981906],[-86.6305357330366,36.2246448879538],[-86.6305263711982,36.2246878946397],[-86.6305226102369,36.2247108067817],[-86.6305214091194,36.2247106895812],[-86.6304382958918,36.2247025624938],[-86.6300098616725,36.2246542263952],[-86.6300101592245,36.2246261573891],[-86.6300128681859,36.2245858981906]]]},"properties":{"id":"217006","parcel":"06409032800","address":"0 MAIN ST","owner":"BOTZUM, DOUG & TRESA","point":[-86.63027223017272,36.224649555710954]}}]}