{"type":"FeatureCollection","features":[{"type":"Feature","id":"3163","geometry":{"type":"Polygon","coordinates":[[[-86.62571401267,36.0384220157211],[-86.6254310072293,36.0382758351626],[-86.625455060287,36.038242582595],[-86.6254764830237,36.0382081629892],[-86.6254951910976,36.038172716484],[-86.62551111014,36.0381363813636],[-86.6260149741716,36.0382659574434],[-86.6259765561261,36.0385576252652],[-86.62571401267,36.0384220157211]]]},"properties":{"id":"3163","parcel":"17501000500","address":"704 ANSLEY CT","owner":"THOMPSON, RONALD E. SR.","point":[-86.62578818913079,36.03834959882584]}},{"type":"Feature","id":"4589","geometry":{"type":"Polygon","coordinates":[[[-86.6253877518712,36.0387584520922],[-86.6259765561261,36.0385576252652],[-86.6259467764546,36.0387837101718],[-86.6254453073202,36.0388943045269],[-86.625428709262,36.0388483159706],[-86.6254095109049,36.0388029988474],[-86.6253877518712,36.0387584520922]]]},"properties":{"id":"4589","parcel":"17501000100","address":"5609 MURPHYWOOD XING","owner":"ALRUBEAI, ADEL A.","point":[-86.62582268429402,36.038658477662075]}},{"type":"Feature","id":"4590","geometry":{"type":"Polygon","coordinates":[[[-86.6254310072293,36.0382758351626],[-86.62571401267,36.0384220157211],[-86.6253026425445,36.0386217511997],[-86.6252418367991,36.0385331069612],[-86.6252332287054,36.0385258998688],[-86.6252262312515,36.0385176218009],[-86.6252210438142,36.0385085078605],[-86.6252178104713,36.0384988168712],[-86.6252166254791,36.0384888223353],[-86.6252175221405,36.0384788079855],[-86.625220474939,36.0384690569586],[-86.6252254006136,36.0384598472828],[-86.6252321569494,36.0384514392665],[-86.6252709413103,36.0384267698688],[-86.6253076658499,36.0384001021781],[-86.6253421761084,36.0383715505598],[-86.6253743254371,36.0383412347471],[-86.62540397726,36.0383092852358],[-86.6254310072293,36.0382758351626]]]},"properties":{"id":"4590","parcel":"17501000400","address":"5601 MURPHYWOOD XING","owner":"MENJIVAR, MARIA M CARDOZA & BONILLA, JOS E REYES","point":[-86.62546381755003,36.03843976779393]}},{"type":"Feature","id":"4591","geometry":{"type":"Polygon","coordinates":[[[-86.6255457127866,36.0379850729516],[-86.6255673005336,36.0378211852258],[-86.6260678302141,36.0378646756941],[-86.6260462434944,36.0380285644092],[-86.6255457127866,36.0379850729516]]]},"properties":{"id":"4591","parcel":"17501000700","address":"712 ANSLEY CT","owner":"KHALIL, MAKRAM W. & MORKOS, SALWA","point":[-86.6258067717193,36.03792487460859]}},{"type":"Feature","id":"4804","geometry":{"type":"Polygon","coordinates":[[[-86.6255585548126,36.0360270318151],[-86.6241827562845,36.0351067350292],[-86.6243543363672,36.033870733454],[-86.6261615095112,36.0340221904611],[-86.6261655656425,36.0340154773166],[-86.6266715866537,36.034045316385],[-86.6293855602042,36.0342813537474],[-86.6293865762323,36.0342814421741],[-86.6293592571244,36.0344313186255],[-86.6321550619261,36.0358731038021],[-86.6322468586307,36.0362305742103],[-86.6322290431728,36.0362480616502],[-86.632214400508,36.0362673926991],[-86.6322032139547,36.0362881927383],[-86.6321957055444,36.0363100550243],[-86.6321920183676,36.0363325533988],[-86.6321922255157,36.0363552503541],[-86.6321963234582,36.0363777015736],[-86.6322042321644,36.0363994712532],[-86.6322153512605,36.036419717134],[-86.6322297636926,36.0364385433293],[-86.6322471992452,36.0364555997535],[-86.6322673335735,36.0364705672486],[-86.6322897916113,36.0364831674808],[-86.6323141520166,36.0364931638185],[-86.6323399639095,36.0365003729614],[-86.632366743486,36.0365046577477],[-86.6324815806791,36.0368669514808],[-86.6315930657968,36.0377636050169],[-86.6315417548657,36.0378188164647],[-86.6309283413244,36.038476671245],[-86.6303365337816,36.0391731443634],[-86.6301984766368,36.0390934211513],[-86.6300623953014,36.0390114883084],[-86.6299283410898,36.0389273789207],[-86.6297963686516,36.0388411269582],[-86.6296665281895,36.0387527655127],[-86.6291035909702,36.0383974800873],[-86.6255585548126,36.0360270318151]]]},"properties":{"id":"4804","parcel":"17400020000","address":"6050 DANA WAY","owner":"LEXINGTON ANTIOCH, LLC","point":[-86.62947029048574,36.03667671324975]}},{"type":"Feature","id":"5666","geometry":{"type":"Polygon","coordinates":[[[-86.6253026425445,36.0386217511997],[-86.62571401267,36.0384220157211],[-86.6259765561261,36.0385576252652],[-86.6253877518712,36.0387584520922],[-86.6253617659232,36.0387119237078],[-86.6253333781793,36.0386663297989],[-86.6253026425445,36.0386217511997]]]},"properties":{"id":"5666","parcel":"17501000200","address":"5605 MURPHYWOOD XING","owner":"LAYCOX, ROSE MARIE","point":[-86.62562537830875,36.03858964430584]}},{"type":"Feature","id":"5668","geometry":{"type":"Polygon","coordinates":[[[-86.62551111014,36.0381363813636],[-86.6255242258036,36.0380993082185],[-86.6255343893239,36.0380616294101],[-86.6255415630727,36.0380234983532],[-86.6255457127866,36.0379850729516],[-86.6260462434944,36.0380285644092],[-86.6260149741716,36.0382659574434],[-86.62551111014,36.0381363813636]]]},"properties":{"id":"5668","parcel":"17501000600","address":"708 ANSLEY CT","owner":"PHELPS, CRAIG T. & AURORA M.","point":[-86.62577596956514,36.03811865121912]}},{"type":"Feature","id":"15495","geometry":{"type":"Polygon","coordinates":[[[-86.629099514067,36.0399162518231],[-86.6291016351829,36.0399444879939],[-86.6290993817001,36.0399727172607],[-86.6290927900456,36.0400004950985],[-86.6290819643806,36.0400273820358],[-86.6290670744735,36.0400529553829],[-86.6290483546121,36.0400768119409],[-86.6290261014344,36.040098574323],[-86.6290006662255,36.0401178991056],[-86.6289724483159,36.0401344840738],[-86.6289418928343,36.0401480646275],[-86.6289094841631,36.0401584282374],[-86.6288757303743,36.0401654109198],[-86.6288411666008,36.0401689026279],[-86.6288063361862,36.0401688491522],[-86.6287717873403,36.040165250336],[-86.6287380665101,36.0401581637144],[-86.6287057072394,36.0401476991654],[-86.6286752157851,36.0401340243921],[-86.628647076573,36.0401173531775],[-86.6286217311423,36.0400979490996],[-86.6285995803001,36.0400761174083],[-86.6285809730182,36.0400522041817],[-86.6285662030105,36.0400265846274],[-86.6285555020832,36.0399996640183],[-86.6285490411514,36.0399718659699],[-86.628546920231,36.0399436297896],[-86.6285491739093,36.0399154005329],[-86.6285557657538,36.0398876236256],[-86.6285665915777,36.0398607367346],[-86.6285814827196,36.0398351634425],[-86.6286002015545,36.0398113069615],[-86.6286224547683,36.0397895446566],[-86.6286478899571,36.0397702190511],[-86.6286761089219,36.0397536350531],[-86.6287066631804,36.03974005367],[-86.6287390717146,36.0397296910149],[-86.6287728253232,36.0397227074689],[-86.6288073889056,36.03971921578],[-86.628842220233,36.0397192692496],[-86.6288767677786,36.0397228680518],[-86.6289104884435,36.0397299555365],[-86.6289428486737,36.0397404191245],[-86.6289733389205,36.0397540947384],[-86.6290014780724,36.0397707658782],[-86.6290268234915,36.0397901698776],[-86.6290489743642,36.0398120005906],[-86.6290675817379,36.0398359146475],[-86.6290823518646,36.0398615332401],[-86.6290930529517,36.0398884538034],[-86.629099514067,36.0399162518231]]]},"properties":{"id":"15495","parcel":"163160B00300CO","address":"0 MONROE XING","owner":"PROVINCETOWN HOMEOWNERS ASSOCIATION, INC","point":[-86.62882427770259,36.03994405921254]}},{"type":"Feature","id":"32334","geometry":{"type":"Polygon","coordinates":[[[-86.6272302778031,36.0400396529421],[-86.6272465396395,36.039920107188],[-86.6273066126373,36.0399261746831],[-86.6272886179785,36.0400450787369],[-86.6272302778031,36.0400396529421]]]},"properties":{"id":"32334","parcel":"163160A17300CO","address":"5961 MONROE XING","owner":"STRAUBE, TAYLOR & EMILE","point":[-86.62726801044232,36.039982912467494]}},{"type":"Feature","id":"32335","geometry":{"type":"Polygon","coordinates":[[[-86.6259682637018,36.039680176564],[-86.6260239010114,36.039664002342],[-86.6260687645844,36.0397789285177],[-86.6260121735631,36.0397954763407],[-86.6259682637018,36.039680176564]]]},"properties":{"id":"32335","parcel":"163160A17500CO","address":"5986 MONROE XING","owner":"PORTER, BRANDI & JUSTIN","point":[-86.62601827887438,36.03972955181769]}},{"type":"Feature","id":"32336","geometry":{"type":"Polygon","coordinates":[[[-86.6260239010114,36.039664002342],[-86.6260790865723,36.0396479602266],[-86.6261232342509,36.0397630027633],[-86.6260687645844,36.0397789285177],[-86.6260239010114,36.039664002342]]]},"properties":{"id":"32336","parcel":"163160A17600CO","address":"5984 MONROE XING","owner":"LINTZENICH, JOELLYN","point":[-86.62607373128844,36.039713503073415]}},{"type":"Feature","id":"32337","geometry":{"type":"Polygon","coordinates":[[[-86.6263544482691,36.0395679135409],[-86.6264115745832,36.0395513059914],[-86.6264577200363,36.0396652024031],[-86.6263967292753,36.039683036886],[-86.6263544482691,36.0395679135409]]]},"properties":{"id":"32337","parcel":"163160A18200CO","address":"5972 MONROE XING","owner":"TEMESGEN, KENNA ZELALEM","point":[-86.62640516350508,36.0396165551147]}},{"type":"Feature","id":"32338","geometry":{"type":"Polygon","coordinates":[[[-86.6262350504459,36.0391995047602],[-86.626367281483,36.0391792964996],[-86.6263759089672,36.0392221754588],[-86.6262436410042,36.0392420720748],[-86.6262350504459,36.0391995047602]]]},"properties":{"id":"32338","parcel":"163160A18700CO","address":"1629 CARDIGAN WAY","owner":"SHERRELL, RUBY J.","point":[-86.62630548307565,36.03921084014066]}},{"type":"Feature","id":"32339","geometry":{"type":"Polygon","coordinates":[[[-86.6258314183424,36.0396594772907],[-86.6258561515715,36.039471715266],[-86.6258817652609,36.0392772611031],[-86.6259091851101,36.0390690952733],[-86.6259176196496,36.0390050654724],[-86.62634872643,36.0389189749973],[-86.6263488302184,36.0389653808407],[-86.6263518753472,36.0390117218237],[-86.6263578541906,36.0390578745095],[-86.6263667491356,36.0391037155128],[-86.6264266614023,36.0393944657754],[-86.6264463830639,36.0394901781923],[-86.6264947232479,36.039659929468],[-86.6264943741581,36.0396668883186],[-86.6264925690378,36.0396736970142],[-86.6264893595812,36.0396801561013],[-86.6264848419408,36.0396860749083],[-86.6264791457087,36.0396912815167],[-86.6264724394652,36.0396956227324],[-86.6264649208411,36.0396989704464],[-86.6264568088069,36.0397012288849],[-86.6264483403014,36.0397023292194],[-86.6261738787664,36.0397852627667],[-86.6260264671382,36.0398277826254],[-86.6259718737264,36.0398405445593],[-86.6259165567765,36.039851054305],[-86.6258606581191,36.0398592840862],[-86.6258043185249,36.0398652124416],[-86.6258314183424,36.0396594772907]],[[-86.6260687645844,36.0397789285177],[-86.6261232342509,36.0397630027633],[-86.6261784069582,36.0397468723437],[-86.6262332707244,36.0397308300278],[-86.6262884267774,36.0397147041504],[-86.6263442017046,36.0396983956747],[-86.6263967292753,36.039683036886],[-86.6264577200363,36.0396652024031],[-86.6264115745832,36.0395513059914],[-86.6263544482691,36.0395679135409],[-86.6263016255427,36.039583267537],[-86.6262452343535,36.0395996612137],[-86.626190125257,36.0396156813775],[-86.626134791385,36.0396317675765],[-86.6260790865723,36.0396479602266],[-86.6260239010114,36.039664002342],[-86.6259682637018,36.039680176564],[-86.6260121735631,36.0397954763407],[-86.6260687645844,36.0397789285177]],[[-86.6264023227286,36.0393534494389],[-86.6263932204824,36.0393082052691],[-86.6263845456293,36.0392650913221],[-86.6263759089672,36.0392221754588],[-86.626367281483,36.0391792964996],[-86.6263581528026,36.0391339316904],[-86.626348946809,36.0390881896427],[-86.6262164061473,36.0391071097513],[-86.6262260625276,36.0391549539738],[-86.6262350504459,36.0391995047602],[-86.6262436410042,36.0392420720748],[-86.6262523735717,36.0392853380494],[-86.6262611374165,36.0393287696972],[-86.6262700986657,36.0393731701031],[-86.6262787816997,36.0394162019973],[-86.6264115056738,36.0393990753339],[-86.6264023227286,36.0393534494389]]]},"properties":{"id":"32339","parcel":"163160A21400CO","address":"0 CARDIGAN WAY","owner":"O.I.C PROVINCETOWN PHASE 3-A","point":[-86.62607006306814,36.0393829503413]}},{"type":"Feature","id":"32340","geometry":{"type":"Polygon","coordinates":[[[-86.6266122578762,36.0390913027735],[-86.6267501030558,36.0390714227073],[-86.6267598910628,36.0391184685651],[-86.6266218148369,36.0391359370973],[-86.6266122578762,36.0390913027735]]]},"properties":{"id":"32340","parcel":"163160A19000CO","address":"1630 CARDIGAN WAY","owner":"BELL, TRACY & TYCE AMARI & MICHAEL TYCE","point":[-86.6266861150106,36.039104885818226]}},{"type":"Feature","id":"32909","geometry":{"type":"Polygon","coordinates":[[[-86.626188993239,36.0369447940099],[-86.6261954453827,36.0368961116715],[-86.6277609223799,36.0379805294651],[-86.628363554122,36.0383806596112],[-86.6278020774324,36.0386457473553],[-86.627121105135,36.0387891379936],[-86.6268380234368,36.038836274656],[-86.6265524234372,36.0388838293249],[-86.6263720677628,36.0389138596342],[-86.62634872643,36.0389189749973],[-86.6259176196496,36.0390050654724],[-86.6259467764546,36.0387837101718],[-86.6259765561261,36.0385576252652],[-86.6260149741716,36.0382659574434],[-86.6260462434944,36.0380285644092],[-86.6260678302141,36.0378646756941],[-86.6260894168448,36.0377007869691],[-86.6261110044961,36.0375368982283],[-86.6261373289224,36.0373370352033],[-86.626188993239,36.0369447940099]]]},"properties":{"id":"32909","parcel":"16400029900","address":"0 OLD FRANKLIN RD","owner":"SHREIBMAN, AMNON","point":[-86.62687064500463,36.03792246949038]}},{"type":"Feature","id":"32945","geometry":{"type":"Polygon","coordinates":[[[-86.6271665759065,36.0400337250686],[-86.6271836157105,36.0399137516692],[-86.6272465396395,36.039920107188],[-86.6272302778031,36.0400396529421],[-86.6271665759065,36.0400337250686]]]},"properties":{"id":"32945","parcel":"163160A17400CO","address":"5963 MONROE XING","owner":"BUEHRING, THOMAS G & MELINDA L","point":[-86.62720672842052,36.03997691666587]}},{"type":"Feature","id":"32946","geometry":{"type":"Polygon","coordinates":[[[-86.626134791385,36.0396317675765],[-86.626190125257,36.0396156813775],[-86.6262332707244,36.0397308300278],[-86.6261784069582,36.0397468723437],[-86.626134791385,36.0396317675765]]]},"properties":{"id":"32946","parcel":"163160A17800CO","address":"5980 MONROE XING","owner":"HALEY, DOMMINIQUE R.","point":[-86.62618413564647,36.03968129913845]}},{"type":"Feature","id":"32947","geometry":{"type":"Polygon","coordinates":[[[-86.626190125257,36.0396156813775],[-86.6262452343535,36.0395996612137],[-86.6262884267774,36.0397147041504],[-86.6262332707244,36.0397308300278],[-86.626190125257,36.0396156813775]]]},"properties":{"id":"32947","parcel":"163160A17900CO","address":"5978 MONROE XING","owner":"ODWAR, MONICA","point":[-86.62623925738961,36.03966519271607]}},{"type":"Feature","id":"32948","geometry":{"type":"Polygon","coordinates":[[[-86.6263016255427,36.039583267537],[-86.6263544482691,36.0395679135409],[-86.6263967292753,36.039683036886],[-86.6263442017046,36.0396983956747],[-86.6263016255427,36.039583267537]]]},"properties":{"id":"32948","parcel":"163160A18100CO","address":"5974 MONROE XING","owner":"BOATMAN, SARAH LANE","point":[-86.6263492409161,36.03963315241896]}},{"type":"Feature","id":"32949","geometry":{"type":"Polygon","coordinates":[[[-86.6262611374165,36.0393287696972],[-86.6263932204824,36.0393082052691],[-86.6264023227286,36.0393534494389],[-86.6262700986657,36.0393731701031],[-86.6262611374165,36.0393287696972]]]},"properties":{"id":"32949","parcel":"163160A18400CO","address":"1623 CARDIGAN WAY","owner":"OWENS, MINYON","point":[-86.62633173400057,36.03934110960104]}},{"type":"Feature","id":"32950","geometry":{"type":"Polygon","coordinates":[[[-86.6262436410042,36.0392420720748],[-86.6263759089672,36.0392221754588],[-86.6263845456293,36.0392650913221],[-86.6262523735717,36.0392853380494],[-86.6262436410042,36.0392420720748]]]},"properties":{"id":"32950","parcel":"163160A18600CO","address":"1627 CARDIGAN WAY","owner":"PICKENS, ROSHELLE N.","point":[-86.62631409664002,36.03925358172948]}},{"type":"Feature","id":"32951","geometry":{"type":"Polygon","coordinates":[[[-86.6262164061473,36.0391071097513],[-86.626348946809,36.0390881896427],[-86.6263581528026,36.0391339316904],[-86.6262260625276,36.0391549539738],[-86.6262164061473,36.0391071097513]]]},"properties":{"id":"32951","parcel":"163160A18900CO","address":"1633 CARDIGAN WAY","owner":"AKISANMI, JAMES & ALEXANDRA","point":[-86.62628728324238,36.039120520753514]}},{"type":"Feature","id":"33083","geometry":{"type":"Polygon","coordinates":[[[-86.6266406406438,36.0392238462959],[-86.626777786786,36.0392045115088],[-86.6267869358686,36.0392484918033],[-86.6266498208614,36.039266717855],[-86.6266406406438,36.0392238462959]]]},"properties":{"id":"33083","parcel":"163160A19300CO","address":"1624 CARDIGAN WAY","owner":"HOLCOMBE, KIMBERLY","point":[-86.62671382523096,36.039236169187]}},{"type":"Feature","id":"33084","geometry":{"type":"Polygon","coordinates":[[[-86.6266498208614,36.039266717855],[-86.6267869358686,36.0392484918033],[-86.626795839426,36.039291309812],[-86.6266594078029,36.0393114899153],[-86.6266498208614,36.039266717855]]]},"properties":{"id":"33084","parcel":"163160A19400CO","address":"1622 CARDIGAN WAY","owner":"DOWNER, CHARLES","point":[-86.62672286753362,36.03927901397211]}},{"type":"Feature","id":"33085","geometry":{"type":"Polygon","coordinates":[[[-86.6266594078029,36.0393114899153],[-86.626795839426,36.039291309812],[-86.6268045501654,36.039333176162],[-86.6266690211943,36.0393563781028],[-86.6266594078029,36.0393114899153]]]},"properties":{"id":"33085","parcel":"163160A19500CO","address":"1620 CARDIGAN WAY","owner":"WILLIAMS, ERICA LASHAWN","point":[-86.62673201142108,36.03932233316157]}},{"type":"Feature","id":"33086","geometry":{"type":"Polygon","coordinates":[[[-86.6274595575123,36.039708718846],[-86.6274755432345,36.0395910789075],[-86.627535033199,36.0395965589808],[-86.6275208070149,36.0397139860736],[-86.6274595575123,36.039708718846]]]},"properties":{"id":"33086","parcel":"163160A20400CO","address":"5954 MONROE XING","owner":"RAMSEY, RICHARD N. & JENNIFER M.","point":[-86.62749770914155,36.03965264020516]}},{"type":"Feature","id":"33087","geometry":{"type":"Polygon","coordinates":[[[-86.6278216798124,36.039739844126],[-86.6278372939809,36.0396244043131],[-86.6278993304494,36.039630119694],[-86.6278844773584,36.0397452428029],[-86.6278216798124,36.039739844126]]]},"properties":{"id":"33087","parcel":"163160A21000CO","address":"5942 MONROE XING","owner":"CAMBRA, SCOTT J. 401 K PLAN & TRUST","point":[-86.62786067651133,36.0396849824485]}},{"type":"Feature","id":"33088","geometry":{"type":"Polygon","coordinates":[[[-86.6266624719066,36.0396480569919],[-86.6266317608727,36.0393730771469],[-86.6269127786399,36.0393847949665],[-86.6272030901131,36.0393968990791],[-86.6272032084507,36.0394118958835],[-86.6274179673524,36.0394239006066],[-86.6274221533633,36.0393695131613],[-86.6275653615477,36.0393818901546],[-86.6275611290127,36.0394306538147],[-86.6280139208664,36.039478911116],[-86.6279689228571,36.0397587177295],[-86.6279644717442,36.0397661612237],[-86.6279586505205,36.0397729530168],[-86.627951598805,36.0397789265442],[-86.6279434885539,36.039783934901],[-86.6279345185771,36.0397878589823],[-86.6279249045003,36.0397906012266],[-86.6279148832755,36.0397920946051],[-86.6271743638305,36.0397238760807],[-86.6267034143683,36.0396975031838],[-86.6266955416162,36.0396957667904],[-86.6266881060787,36.0396930430157],[-86.6266812925024,36.0396893993969],[-86.6266752736196,36.0396849278683],[-86.6266701990153,36.039679740313],[-86.6266661973325,36.0396739667488],[-86.6266633684909,36.0396677535658],[-86.6266617836147,36.0396612545145],[-86.6266614817259,36.0396546334262],[-86.6266624719066,36.0396480569919]],[[-86.627398132582,36.0397034389814],[-86.6274595575123,36.039708718846],[-86.6275208070149,36.0397139860736],[-86.6275821697626,36.0397192589892],[-86.6276421444244,36.0397244129236],[-86.6277021757515,36.0397295746445],[-86.6277614030529,36.039734661211],[-86.6278216798124,36.039739844126],[-86.6278844773584,36.0397452428029],[-86.6279451971948,36.0397504612015],[-86.627961206991,36.0396358178508],[-86.6278993304494,36.039630119694],[-86.6278372939809,36.0396244043131],[-86.6277773841894,36.0396188851168],[-86.6277186049326,36.0396134708598],[-86.6276567705934,36.0396077723588],[-86.6275965287989,36.0396022250595],[-86.627535033199,36.0395965589808],[-86.6274755432345,36.0395910789075],[-86.6274165507972,36.0395856448838],[-86.627398132582,36.0397034389814]],[[-86.6270945503573,36.0395396249241],[-86.6270336795969,36.0395373324614],[-86.6269724447669,36.0395350292443],[-86.6269115939877,36.039532736616],[-86.6268526258829,36.0395305179829],[-86.6267906528661,36.0395281851659],[-86.6267313495181,36.0395259519941],[-86.6267217726726,36.0396444624884],[-86.6267833501318,36.0396462989868],[-86.6268436621779,36.0396480933671],[-86.6269068613362,36.0396499790487],[-86.6269671556331,36.0396517734595],[-86.6270268394467,36.0396535502873],[-86.6270880306243,36.0396553724169],[-86.6271506603448,36.0396572375007],[-86.6271572371551,36.0395419845136],[-86.6270945503573,36.0395396249241]]]},"properties":{"id":"33088","parcel":"163160A21300CO","address":"0 MONROE XING","owner":"O.I.C. PROVINCETOWN PHASE 3-A","point":[-86.62757796269061,36.03956471917685]}},{"type":"Feature","id":"33505","geometry":{"type":"Polygon","coordinates":[[[-86.6273494135771,36.0400507332649],[-86.6273671076858,36.0399322859166],[-86.6274298206127,36.0399386181036],[-86.6274113385926,36.0400564909376],[-86.6273494135771,36.0400507332649]]]},"properties":{"id":"33505","parcel":"163160A17100CO","address":"5957 MONROE XING","owner":"NEGIA, DANIEL & MAHLET MENGESHA","point":[-86.62738940907244,36.03999467504489]}},{"type":"Feature","id":"33506","geometry":{"type":"Polygon","coordinates":[[[-86.6272886179785,36.0400450787369],[-86.6273066126373,36.0399261746831],[-86.6273671076858,36.0399322859166],[-86.6273494135771,36.0400507332649],[-86.6272886179785,36.0400450787369]]]},"properties":{"id":"33506","parcel":"163160A17200CO","address":"5959 MONROE XING","owner":"NAVARRO, NESTOR G CATALAN & RICARDO A CATALAN","point":[-86.62732791800248,36.03998868250499]}},{"type":"Feature","id":"33508","geometry":{"type":"Polygon","coordinates":[[[-86.6260790865723,36.0396479602266],[-86.626134791385,36.0396317675765],[-86.6261784069582,36.0397468723437],[-86.6261232342509,36.0397630027633],[-86.6260790865723,36.0396479602266]]]},"properties":{"id":"33508","parcel":"163160A17700CO","address":"5982 MONROE XING","owner":"WILKINS, NATASHA","point":[-86.62612886610393,36.039697416667664]}},{"type":"Feature","id":"33649","geometry":{"type":"Polygon","coordinates":[[[-86.6262452343535,36.0395996612137],[-86.6263016255427,36.039583267537],[-86.6263442017046,36.0396983956747],[-86.6262884267774,36.0397147041504],[-86.6262452343535,36.0395996612137]]]},"properties":{"id":"33649","parcel":"163160A18000CO","address":"5976 MONROE XING","owner":"MORRIS, MICHELLE BETHANY","point":[-86.6262948568893,36.03964902888731]}},{"type":"Feature","id":"33650","geometry":{"type":"Polygon","coordinates":[[[-86.6262523735717,36.0392853380494],[-86.6263845456293,36.0392650913221],[-86.6263932204824,36.0393082052691],[-86.6262611374165,36.0393287696972],[-86.6262523735717,36.0392853380494]]]},"properties":{"id":"33650","parcel":"163160A18500CO","address":"1625 CARDIGAN WAY","owner":"BODLEY, LARAE A","point":[-86.62632280026641,36.03929677169]}},{"type":"Feature","id":"33651","geometry":{"type":"Polygon","coordinates":[[[-86.6262260625276,36.0391549539738],[-86.6263581528026,36.0391339316904],[-86.626367281483,36.0391792964996],[-86.6262350504459,36.0391995047602],[-86.6262260625276,36.0391549539738]]]},"properties":{"id":"33651","parcel":"163160A18800CO","address":"1631 CARDIGAN WAY","owner":"BELL, MARCUS","point":[-86.62629667509876,36.03916712526711]}},{"type":"Feature","id":"33869","geometry":{"type":"Polygon","coordinates":[[[-86.6262700986657,36.0393731701031],[-86.6264023227286,36.0393534494389],[-86.6264115056738,36.0393990753339],[-86.6262787816997,36.0394162019973],[-86.6262700986657,36.0393731701031]]]},"properties":{"id":"33869","parcel":"163160A18300CO","address":"1621 CARDIGAN WAY","owner":"BUCHANAN, ANGEL","point":[-86.6263408054531,36.03938612274955]}},{"type":"Feature","id":"34281","geometry":{"type":"Polygon","coordinates":[[[-86.6266312737348,36.0391800960502],[-86.6267688798834,36.0391616890089],[-86.626777786786,36.0392045115088],[-86.6266406406438,36.0392238462959],[-86.6266312737348,36.0391800960502]]]},"properties":{"id":"34281","parcel":"163160A19200CO","address":"1626 CARDIGAN WAY","owner":"RESIDENTIAL HOME BUYER NASHVILLE, LLC","point":[-86.62670456686766,36.039192303915826]}},{"type":"Feature","id":"34282","geometry":{"type":"Polygon","coordinates":[[[-86.6268436621779,36.0396480933671],[-86.6268526258829,36.0395305179829],[-86.6269115939877,36.039532736616],[-86.6269068613362,36.0396499790487],[-86.6268436621779,36.0396480933671]]]},"properties":{"id":"34282","parcel":"163160A19800CO","address":"5966 MONROE XING","owner":"RYDEEN, DARCI L.","point":[-86.6268786641121,36.03959041822065]}},{"type":"Feature","id":"34283","geometry":{"type":"Polygon","coordinates":[[[-86.6270268394467,36.0396535502873],[-86.6270336795969,36.0395373324614],[-86.6270945503573,36.0395396249241],[-86.6270880306243,36.0396553724169],[-86.6270268394467,36.0396535502873]]]},"properties":{"id":"34283","parcel":"163160A20100CO","address":"5960 MONROE XING","owner":"LACHANCE, PATRICK T","point":[-86.62706076704353,36.0395965878352]}},{"type":"Feature","id":"34284","geometry":{"type":"Polygon","coordinates":[[[-86.6275821697626,36.0397192589892],[-86.6275965287989,36.0396022250595],[-86.6276567705934,36.0396077723588],[-86.6276421444244,36.0397244129236],[-86.6275821697626,36.0397192589892]]]},"properties":{"id":"34284","parcel":"163160A20600CO","address":"5950 MONROE XING","owner":"SHEN, JING WEN","point":[-86.62761939472004,36.039663515445795]}},{"type":"Feature","id":"34285","geometry":{"type":"Polygon","coordinates":[[[-86.6276421444244,36.0397244129236],[-86.6276567705934,36.0396077723588],[-86.6277186049326,36.0396134708598],[-86.6277021757515,36.0397295746445],[-86.6276421444244,36.0397244129236]]]},"properties":{"id":"34285","parcel":"163160A20700CO","address":"5948 MONROE XING","owner":"SANFORD, JAMES JEREMY","point":[-86.62767992730592,36.03966894050897]}},{"type":"Feature","id":"34286","geometry":{"type":"Polygon","coordinates":[[[-86.6278844773584,36.0397452428029],[-86.6278993304494,36.039630119694],[-86.627961206991,36.0396358178508],[-86.6279451971948,36.0397504612015],[-86.6278844773584,36.0397452428029]]]},"properties":{"id":"34286","parcel":"163160A21100CO","address":"5940 MONROE XING","owner":"BUNDY, SAUNDRA & TIMMIE","point":[-86.62792255100668,36.039690529429784]}},{"type":"Feature","id":"34517","geometry":{"type":"Polygon","coordinates":[[[-86.6178963018888,36.0386281320892],[-86.6178842524772,36.0386312465348],[-86.6178729054053,36.0386357751022],[-86.617862507364,36.0386416182864],[-86.6178532881682,36.0386486469263],[-86.617839460341,36.038660242583],[-86.6178776609766,36.0386174203444],[-86.6179059457438,36.03858908215],[-86.6179357444656,36.038561786184],[-86.6179453052501,36.0385533065164],[-86.6179530070745,36.0385436593007],[-86.6179586378273,36.038533109702],[-86.6179620422002,36.038521949633],[-86.6179631282482,36.0385104851014],[-86.6179619965619,36.0384996646466],[-86.6179587963142,36.0384891206799],[-86.6179353088847,36.0384433782435],[-86.6179130800064,36.0383972228679],[-86.617886602001,36.0383363514324],[-86.6178629378854,36.0382747201976],[-86.6178421204992,36.0382124146191],[-86.6187279563074,36.0375547146568],[-86.6187309484658,36.0375335280571],[-86.6200803477645,36.0365311944673],[-86.620154454051,36.0364751189276],[-86.6201278777846,36.0364327987568],[-86.6201043473364,36.0363893056521],[-86.6200839414946,36.0363447825143],[-86.6200667280067,36.0362993795115],[-86.620052764626,36.0362532459614],[-86.6199422309189,36.0358455981453],[-86.619927798347,36.0358134144162],[-86.6199153578249,36.0357806850717],[-86.6199049432929,36.0357474937576],[-86.6197125069198,36.0353496710668],[-86.6198699093095,36.0352994564354],[-86.6198838179345,36.0353282161743],[-86.6200170919218,36.0356038138893],[-86.621565235604,36.0344536374475],[-86.6219811443688,36.0341445954508],[-86.6219832260067,36.0341430281808],[-86.6241040015697,36.0355649359553],[-86.6239746036958,36.0366301234038],[-86.6239511513514,36.0368028279115],[-86.6239289042776,36.0369666583977],[-86.6239066560025,36.0371304888795],[-86.6238843269041,36.0372949200265],[-86.6238529768775,36.0375257849004],[-86.623819575712,36.0377717488245],[-86.6237815279754,36.0380519262133],[-86.6237347284896,36.0383965440469],[-86.6236946858689,36.0386914118573],[-86.6236389651308,36.0391017192208],[-86.6231866164005,36.0390674555201],[-86.6223036280341,36.0389617499924],[-86.6218080660909,36.0389202254056],[-86.621393311093,36.038868123694],[-86.620528011332,36.038781268021],[-86.6198177118274,36.0387128766659],[-86.618918437991,36.0386233866054],[-86.6187116034749,36.0386033631912],[-86.6186508991736,36.0390151321665],[-86.6186213431425,36.0392156156344],[-86.6185380971053,36.0391624795014],[-86.6184575480614,36.0391066688698],[-86.6183798243262,36.0390482732153],[-86.6183050553729,36.0389873883165],[-86.6182333584808,36.0389241118173],[-86.6181648509563,36.0388585449668],[-86.6180996446118,36.0387907962524],[-86.6180585326868,36.0387453497398],[-86.6180193055438,36.0386988192122],[-86.6179926731823,36.0386652188325],[-86.6179859569808,36.0386559096361],[-86.6179775404214,36.0386475627213],[-86.6179676292522,36.0386403789206],[-86.6179564634311,36.0386345345568],[-86.6179443126103,36.0386301715513],[-86.6179314761229,36.0386273956217],[-86.6179197469855,36.0386263147407],[-86.6179079471631,36.0386265618165],[-86.6178963018888,36.0386281320892]]]},"properties":{"id":"34517","parcel":"17500021300","address":"0 OLD HICKORY BLVD","owner":"METRO GOV'T","point":[-86.62190562920551,36.0367100064083]}},{"type":"Feature","id":"35267","geometry":{"type":"Polygon","coordinates":[[[-86.6266218148369,36.0391359370973],[-86.6267598910628,36.0391184685651],[-86.6267688798834,36.0391616890089],[-86.6266312737348,36.0391800960502],[-86.6266218148369,36.0391359370973]]]},"properties":{"id":"35267","parcel":"163160A19100CO","address":"1628 CARDIGAN WAY","owner":"NASSIWA, SARAH","point":[-86.62669538677476,36.03914881319833]}},{"type":"Feature","id":"35268","geometry":{"type":"Polygon","coordinates":[[[-86.6267217726726,36.0396444624884],[-86.6267313495181,36.0395259519941],[-86.6267906528661,36.0395281851659],[-86.6267833501318,36.0396462989868],[-86.6267217726726,36.0396444624884]]]},"properties":{"id":"35268","parcel":"163160A19600CO","address":"5970 MONROE XING","owner":"WHITE, DANIKA","point":[-86.6267567653435,36.03958632555252]}},{"type":"Feature","id":"35269","geometry":{"type":"Polygon","coordinates":[[[-86.6267833501318,36.0396462989868],[-86.6267906528661,36.0395281851659],[-86.6268526258829,36.0395305179829],[-86.6268436621779,36.0396480933671],[-86.6267833501318,36.0396462989868]]]},"properties":{"id":"35269","parcel":"163160A19700CO","address":"5968 MONROE XING","owner":"SARVER, FREDERICK L.","point":[-86.62681757031218,36.039588407190195]}},{"type":"Feature","id":"35270","geometry":{"type":"Polygon","coordinates":[[[-86.6269671556331,36.0396517734595],[-86.6269724447669,36.0395350292443],[-86.6270336795969,36.0395373324614],[-86.6270268394467,36.0396535502873],[-86.6269671556331,36.0396517734595]]]},"properties":{"id":"35270","parcel":"163160A20000CO","address":"5962 MONROE XING","owner":"HARDAWAY, ALLISON","point":[-86.62700002934535,36.039594551757574]}},{"type":"Feature","id":"35271","geometry":{"type":"Polygon","coordinates":[[[-86.6270880306243,36.0396553724169],[-86.6270945503573,36.0395396249241],[-86.6271572371551,36.0395419845136],[-86.6271506603448,36.0396572375007],[-86.6270880306243,36.0396553724169]]]},"properties":{"id":"35271","parcel":"163160A20200CO","address":"5958 MONROE XING","owner":"DIVINE SUPPORTS INC","point":[-86.62712261297062,36.03959867840553]}},{"type":"Feature","id":"35272","geometry":{"type":"Polygon","coordinates":[[[-86.6277021757515,36.0397295746445],[-86.6277186049326,36.0396134708598],[-86.6277773841894,36.0396188851168],[-86.6277614030529,36.039734661211],[-86.6277021757515,36.0397295746445]]]},"properties":{"id":"35272","parcel":"163160A20800CO","address":"5946 MONROE XING","owner":"SPARK RENTALS LLC","point":[-86.62773987610221,36.039674230185334]}},{"type":"Feature","id":"35574","geometry":{"type":"Polygon","coordinates":[[[-86.6269068613362,36.0396499790487],[-86.6269115939877,36.039532736616],[-86.6269724447669,36.0395350292443],[-86.6269671556331,36.0396517734595],[-86.6269068613362,36.0396499790487]]]},"properties":{"id":"35574","parcel":"163160A19900CO","address":"5964 MONROE XING","owner":"MARTINDALE, KEITH DARNELL","point":[-86.62693951090668,36.039592503709066]}},{"type":"Feature","id":"35575","geometry":{"type":"Polygon","coordinates":[[[-86.627398132582,36.0397034389814],[-86.6274165507972,36.0395856448838],[-86.6274755432345,36.0395910789075],[-86.6274595575123,36.039708718846],[-86.627398132582,36.0397034389814]]]},"properties":{"id":"35575","parcel":"163160A20300CO","address":"5956 MONROE XING","owner":"BOOTHE, ANDREANA","point":[-86.62743741369667,36.0396472607401]}},{"type":"Feature","id":"35576","geometry":{"type":"Polygon","coordinates":[[[-86.6275208070149,36.0397139860736],[-86.627535033199,36.0395965589808],[-86.6275965287989,36.0396022250595],[-86.6275821697626,36.0397192589892],[-86.6275208070149,36.0397139860736]]]},"properties":{"id":"35576","parcel":"163160A20500CO","address":"5952 MONROE XING","owner":"ROBERTS, MICHAEL S.","point":[-86.62755862476612,36.03965810543884]}},{"type":"Feature","id":"35577","geometry":{"type":"Polygon","coordinates":[[[-86.6277614030529,36.039734661211],[-86.6277773841894,36.0396188851168],[-86.6278372939809,36.0396244043131],[-86.6278216798124,36.039739844126],[-86.6277614030529,36.039734661211]]]},"properties":{"id":"35577","parcel":"163160A20900CO","address":"5944 MONROE XING","owner":"MASON, MICHAEL CHRISTIAN","point":[-86.62779942516045,36.0396795330063]}},{"type":"Feature","id":"52042","geometry":{"type":"Polygon","coordinates":[[[-86.6282931823282,36.0390725204533],[-86.6283026586976,36.0390304692461],[-86.6284444964001,36.0390412228113],[-86.6284351298738,36.0390862098516],[-86.6282931823282,36.0390725204533]]]},"properties":{"id":"52042","parcel":"163160A37700CO","address":"1408 PLEASANT RIDGE RD","owner":"BOHN, SAMUEL","point":[-86.628368975366,36.03905687207774]}},{"type":"Feature","id":"52402","geometry":{"type":"Polygon","coordinates":[[[-86.6270140678662,36.0391277309455],[-86.6271563797274,36.039108005627],[-86.6271627332319,36.0391540445647],[-86.627020609441,36.0391725810147],[-86.6270140678662,36.0391277309455]]]},"properties":{"id":"52402","parcel":"163160A34500CO","address":"1509 RUDDELL LN","owner":"RUDDELL W. LAND TRUST","point":[-86.62708845133528,36.039140887936064]}},{"type":"Feature","id":"52403","geometry":{"type":"Polygon","coordinates":[[[-86.6275104108509,36.0390265896329],[-86.6275191923198,36.0389867079013],[-86.627658659643,36.0390008545625],[-86.62765025525,36.0390419636964],[-86.6275104108509,36.0390265896329]]]},"properties":{"id":"52403","parcel":"163160A34800CO","address":"1514 RUDDELL LN","owner":"EDWARDS, GERALDINE B. & VINSON, JESSICA","point":[-86.62758463823482,36.03901372244052]}},{"type":"Feature","id":"52404","geometry":{"type":"Polygon","coordinates":[[[-86.6274609447596,36.0392512966133],[-86.6274712249498,36.0392045969564],[-86.6276144182135,36.0392172290323],[-86.6276049922239,36.0392633203903],[-86.6274609447596,36.0392512966133]]]},"properties":{"id":"52404","parcel":"163160A35300CO","address":"1504 RUDDELL LN","owner":"WADE MICHAEL & MORGAN, PAULA","point":[-86.62753781626964,36.0392342632661]}},{"type":"Feature","id":"52405","geometry":{"type":"Polygon","coordinates":[[[-86.6278254073598,36.0394394653129],[-86.6278356399547,36.0393935076334],[-86.6279769145907,36.0394059582037],[-86.6279670499638,36.0394494597727],[-86.6278254073598,36.0394394653129]]]},"properties":{"id":"52405","parcel":"163160A36500CO","address":"1401 PLEASANT RIDGE RD","owner":"CHASE, LELISA D","point":[-86.62790112609322,36.03942271167404]}},{"type":"Feature","id":"52406","geometry":{"type":"Polygon","coordinates":[[[-86.6278453087612,36.0393500737905],[-86.6278551383414,36.039305921684],[-86.6279966813263,36.0393187872272],[-86.6279869689756,36.0393616147435],[-86.6278453087612,36.0393500737905]]]},"properties":{"id":"52406","parcel":"163160A36700CO","address":"1405 PLEASANT RIDGE RD","owner":"STEVENSON, MICHAEL","point":[-86.6279209621559,36.039334430430735]}},{"type":"Feature","id":"52407","geometry":{"type":"Polygon","coordinates":[[[-86.6278753986225,36.0392149086702],[-86.6278848090821,36.0391726316187],[-86.6280267629087,36.0391861195772],[-86.6280175943022,36.0392265531481],[-86.6278753986225,36.0392149086702]]]},"properties":{"id":"52407","parcel":"163160A37000CO","address":"1411 PLEASANT RIDGE RD","owner":"TURNER, JAMES C.","point":[-86.62795105032785,36.03920051405319]}},{"type":"Feature","id":"52410","geometry":{"type":"Polygon","coordinates":[[[-86.6282527885158,36.0392517853232],[-86.6282624599141,36.0392088507439],[-86.6284073338918,36.0392197165062],[-86.6283980563197,36.0392643101162],[-86.6282527885158,36.0392517853232]]]},"properties":{"id":"52410","parcel":"163160A38100CO","address":"1400 PLEASANT RIDGE RD","owner":"JACKSON, DESHAUN MAURICE","point":[-86.62833020106832,36.0392357513732]}},{"type":"Feature","id":"52415","geometry":{"type":"Polygon","coordinates":[[[-86.6290706423473,36.0391843282913],[-86.629079311343,36.0391411284903],[-86.6292194434741,36.0391540936967],[-86.6292085187248,36.0391971818106],[-86.6290706423473,36.0391843282913]]]},"properties":{"id":"52415","parcel":"163160A38900CO","address":"5427 CEDAR ASH XING","owner":"CROMER, RYAN J.","point":[-86.62914463775431,36.03916920976401]}},{"type":"Feature","id":"52421","geometry":{"type":"Polygon","coordinates":[[[-86.6290521341539,36.0392765500067],[-86.6290609686281,36.0392325228636],[-86.6291964478488,36.0392447841472],[-86.6291854294009,36.0392882350648],[-86.6290521341539,36.0392765500067]]]},"properties":{"id":"52421","parcel":"163160A39100CO","address":"5431 CEDAR ASH XING","owner":"TONEY, KORTNEY","point":[-86.62912386539946,36.039260665782294]}},{"type":"Feature","id":"52428","geometry":{"type":"Polygon","coordinates":[[[-86.6290433124653,36.0393205112879],[-86.6290521341539,36.0392765500067],[-86.6291854294009,36.0392882350648],[-86.6291740203004,36.0393332256169],[-86.6290433124653,36.0393205112879]]]},"properties":{"id":"52428","parcel":"163160A39200CO","address":"5433 CEDAR ASH XING","owner":"KELLY, PATRICK","point":[-86.62911393871664,36.039304371860545]}},{"type":"Feature","id":"52432","geometry":{"type":"Polygon","coordinates":[[[-86.6280139208664,36.039478911116],[-86.6275611290127,36.0394306538147],[-86.6275653615477,36.0393818901546],[-86.6274221533633,36.0393695131613],[-86.6274179673524,36.0394239006066],[-86.6272032084507,36.0394118958835],[-86.6272030901131,36.0393968990791],[-86.6269127786399,36.0393847949665],[-86.6266317608727,36.0393730771469],[-86.6266264255027,36.0393500121103],[-86.6265735372538,36.0391213718804],[-86.6265639567295,36.0390786718379],[-86.6265552369696,36.0390302919123],[-86.626550396182,36.0389815547349],[-86.626549457063,36.0389326656816],[-86.6265524234372,36.0388838293249],[-86.6268380234368,36.038836274656],[-86.627121105135,36.0387891379936],[-86.6278020774324,36.0386457473553],[-86.628363554122,36.0383806596112],[-86.6295897899371,36.0391946991236],[-86.6294539250181,36.0392867535031],[-86.629349195695,36.0393577100094],[-86.6293483060297,36.0393583122096],[-86.6290053724722,36.039325580799],[-86.6289678743254,36.0395854878969],[-86.6289651186399,36.0395853166154],[-86.6287827592841,36.0395739738688],[-86.6287862361107,36.0395455056901],[-86.628822252892,36.0393231323818],[-86.6284000815449,36.0392828372334],[-86.6281797105814,36.0394220039983],[-86.628121930935,36.039742757895],[-86.6279689228571,36.0397587177295],[-86.6280139208664,36.039478911116]],[[-86.6279966813263,36.0393187872272],[-86.6280070649083,36.0392729927786],[-86.6280175943022,36.0392265531481],[-86.6280267629087,36.0391861195772],[-86.6280370370937,36.0391408096859],[-86.6280474367543,36.0390949493538],[-86.6280570460724,36.0390525730104],[-86.628067129339,36.03900810411],[-86.6279244614738,36.0389945144704],[-86.6279145805079,36.0390388948797],[-86.6279051293294,36.0390813515032],[-86.6278948368234,36.0391275816934],[-86.6278848090821,36.0391726316187],[-86.6278753986225,36.0392149086702],[-86.6278649700018,36.0392617533422],[-86.6278551383414,36.039305921684],[-86.6278453087612,36.0393500737905],[-86.6278356399547,36.0393935076334],[-86.6278254073598,36.0394394653129],[-86.6279670499638,36.0394494597727],[-86.6279769145907,36.0394059582037],[-86.6279869689756,36.0393616147435],[-86.6279966813263,36.0393187872272]],[[-86.627658659643,36.0390008545625],[-86.6275191923198,36.0389867079013],[-86.6275104108509,36.0390265896329],[-86.6275002860021,36.0390725782719],[-86.6274902565512,36.0391181419065],[-86.6274806502186,36.0391617790879],[-86.6274712249498,36.0392045969564],[-86.6274609447596,36.0392512966133],[-86.6274509194817,36.0392968322809],[-86.6274413773742,36.0393401762043],[-86.6275866115531,36.039353217687],[-86.6275955812892,36.0393093521836],[-86.6276049922239,36.0392633203903],[-86.6276144182135,36.0392172290323],[-86.6276232735393,36.0391739157091],[-86.6276320390947,36.0391310399767],[-86.6276413347047,36.0390855865043],[-86.62765025525,36.0390419636964],[-86.627658659643,36.0390008545625]],[[-86.6266690211943,36.0393563781028],[-86.6268045501654,36.039333176162],[-86.626795839426,36.039291309812],[-86.6267869358686,36.0392484918033],[-86.626777786786,36.0392045115088],[-86.6267688798834,36.0391616890089],[-86.6267598910628,36.0391184685651],[-86.6267501030558,36.0390714227073],[-86.6266122578762,36.0390913027735],[-86.6266218148369,36.0391359370973],[-86.6266312737348,36.0391800960502],[-86.6266406406438,36.0392238462959],[-86.6266498208614,36.039266717855],[-86.6266594078029,36.0393114899153],[-86.6266690211943,36.0393563781028]],[[-86.6270395962713,36.0393027894311],[-86.6270461883849,36.0393479934403],[-86.6271866798956,36.0393276043],[-86.6271802521089,36.0392810150654],[-86.6271743622912,36.039238331913],[-86.627168233549,36.0391939177292],[-86.6271627332319,36.0391540445647],[-86.6271563797274,36.039108005627],[-86.6271499732658,36.0390615830158],[-86.6271439551599,36.0390179667939],[-86.6270009657544,36.0390378749806],[-86.6270071930879,36.0390805924381],[-86.6270140678662,36.0391277309455],[-86.627020609441,36.0391725810147],[-86.6270266700509,36.039214136677],[-86.6270330709784,36.0392580366185],[-86.6270395962713,36.0393027894311]],[[-86.6283125306536,36.0389866611683],[-86.6283026586976,36.0390304692461],[-86.6282931823282,36.0390725204533],[-86.6282829737543,36.0391178282233],[-86.6282724434805,36.0391645562956],[-86.6282624599141,36.0392088507439],[-86.6282527885158,36.0392517853232],[-86.6283980563197,36.0392643101162],[-86.6284073338918,36.0392197165062],[-86.6284164823423,36.0391757761004],[-86.6284253976959,36.0391329527028],[-86.6284351298738,36.0390862098516],[-86.6284444964001,36.0390412228113],[-86.6284535635886,36.0389976766871],[-86.6284620565954,36.0389568806805],[-86.6283226654052,36.0389417052814],[-86.6283125306536,36.0389866611683]],[[-86.6286669762749,36.0392523695559],[-86.6286579024655,36.0392975930245],[-86.6287976419759,36.0393076144618],[-86.6288063617264,36.0392657600397],[-86.6288159046356,36.0392199473731],[-86.6288250775698,36.0391759040605],[-86.6288348919749,36.0391287831078],[-86.6288437880793,36.0390860805506],[-86.6288532871745,36.0390404862191],[-86.628710774914,36.0390341078984],[-86.6287028670192,36.0390735228012],[-86.6286940290923,36.039117557147],[-86.6286847982942,36.0391635529402],[-86.6286757949562,36.0392084236402],[-86.6286669762749,36.0392523695559]],[[-86.6290521341539,36.0392765500067],[-86.6290433124653,36.0393205112879],[-86.6291740203004,36.0393332256169],[-86.6291854294009,36.0392882350648],[-86.6291964478488,36.0392447841472],[-86.6292085187248,36.0391971818106],[-86.6292194434741,36.0391540936967],[-86.6292305243194,36.0391103991011],[-86.6290876878496,36.0390993921035],[-86.629079311343,36.0391411284903],[-86.6290706423473,36.0391843282913],[-86.6290609686281,36.0392325228636],[-86.6290521341539,36.0392765500067]]]},"properties":{"id":"52432","parcel":"163160A90000CO","address":"1400 A PLEASANT RIDGE RD","owner":"O.I.C PROVINCETOWN PHASE 3-B","point":[-86.62912610728283,36.03907127212271]}},{"type":"Feature","id":"52530","geometry":{"type":"Polygon","coordinates":[[[-86.6270266700509,36.039214136677],[-86.627168233549,36.0391939177292],[-86.6271743622912,36.039238331913],[-86.6270330709784,36.0392580366185],[-86.6270266700509,36.039214136677]]]},"properties":{"id":"52530","parcel":"163160A34300CO","address":"1505 RUDDELL LN","owner":"RAMSEY, RICHARD N & JENNIFFER","point":[-86.62710056259431,36.03922623446209]}},{"type":"Feature","id":"52537","geometry":{"type":"Polygon","coordinates":[[[-86.6275002860021,36.0390725782719],[-86.6275104108509,36.0390265896329],[-86.62765025525,36.0390419636964],[-86.6276413347047,36.0390855865043],[-86.6275002860021,36.0390725782719]]]},"properties":{"id":"52537","parcel":"163160A34900CO","address":"1512 RUDDELL LN","owner":"URBICK, PAM","point":[-86.6275753922009,36.03905727138527]}},{"type":"Feature","id":"52541","geometry":{"type":"Polygon","coordinates":[[[-86.6274806502186,36.0391617790879],[-86.6274902565512,36.0391181419065],[-86.6276320390947,36.0391310399767],[-86.6276232735393,36.0391739157091],[-86.6274806502186,36.0391617790879]]]},"properties":{"id":"52541","parcel":"163160A35100CO","address":"1508 RUDDELL LN","owner":"TATE, FRANEICA MARCHELLE","point":[-86.62755646699269,36.03914640993624]}},{"type":"Feature","id":"52543","geometry":{"type":"Polygon","coordinates":[[[-86.6278649700018,36.0392617533422],[-86.6278753986225,36.0392149086702],[-86.6280175943022,36.0392265531481],[-86.6280070649083,36.0392729927786],[-86.6278649700018,36.0392617533422]]]},"properties":{"id":"52543","parcel":"163160A36900CO","address":"1409 PLEASANT RIDGE RD","owner":"SMITH, TYLAR & WHITTAKER, VESTA","point":[-86.62794124553399,36.039244153155884]}},{"type":"Feature","id":"52549","geometry":{"type":"Polygon","coordinates":[[[-86.6278948368234,36.0391275816934],[-86.6279051293294,36.0390813515032],[-86.6280474367543,36.0390949493538],[-86.6280370370937,36.0391408096859],[-86.6278948368234,36.0391275816934]]]},"properties":{"id":"52549","parcel":"163160A37200CO","address":"1415 PLEASANT RIDGE RD","owner":"ATKINS, TOBY","point":[-86.62797110263807,36.03911126544198]}},{"type":"Feature","id":"52555","geometry":{"type":"Polygon","coordinates":[[[-86.6282724434805,36.0391645562956],[-86.6282829737543,36.0391178282233],[-86.6284253976959,36.0391329527028],[-86.6284164823423,36.0391757761004],[-86.6282724434805,36.0391645562956]]]},"properties":{"id":"52555","parcel":"163160A37900CO","address":"1404 PLEASANT RIDGE RD","owner":"HOLT, JORDAN","point":[-86.62834905804402,36.0391487549497]}},{"type":"Feature","id":"52559","geometry":{"type":"Polygon","coordinates":[[[-86.6286579024655,36.0392975930245],[-86.6286669762749,36.0392523695559],[-86.6288063617264,36.0392657600397],[-86.6287976419759,36.0393076144618],[-86.6286579024655,36.0392975930245]]]},"properties":{"id":"52559","parcel":"163160A38200CO","address":"5434 CEDAR ASH XING","owner":"ELIAS, ELHAM","point":[-86.62873207008089,36.03928167636312]}},{"type":"Feature","id":"52564","geometry":{"type":"Polygon","coordinates":[[[-86.6287028670192,36.0390735228012],[-86.628710774914,36.0390341078984],[-86.6288532871745,36.0390404862191],[-86.6288437880793,36.0390860805506],[-86.6287028670192,36.0390735228012]]]},"properties":{"id":"52564","parcel":"163160A38700CO","address":"5424 CEDAR ASH XING","owner":"THOMPSON, HERMAN JR","point":[-86.62877801262592,36.03905700433422]}},{"type":"Feature","id":"52962","geometry":{"type":"Polygon","coordinates":[[[-86.627020609441,36.0391725810147],[-86.6271627332319,36.0391540445647],[-86.627168233549,36.0391939177292],[-86.6270266700509,36.039214136677],[-86.627020609441,36.0391725810147]]]},"properties":{"id":"52962","parcel":"163160A34400CO","address":"1507 RUDDELL LN","owner":"DUGAS, SYREETA LATOYA","point":[-86.62709446275258,36.039183249522964]}},{"type":"Feature","id":"52965","geometry":{"type":"Polygon","coordinates":[[[-86.6270071930879,36.0390805924381],[-86.6271499732658,36.0390615830158],[-86.6271563797274,36.039108005627],[-86.6270140678662,36.0391277309455],[-86.6270071930879,36.0390805924381]]]},"properties":{"id":"52965","parcel":"163160A34600CO","address":"1511 RUDDELL LN","owner":"WALKER, IVAN JEVON","point":[-86.62708183926726,36.03909429922013]}},{"type":"Feature","id":"52968","geometry":{"type":"Polygon","coordinates":[[[-86.6270009657544,36.0390378749806],[-86.6271439551599,36.0390179667939],[-86.6271499732658,36.0390615830158],[-86.6270071930879,36.0390805924381],[-86.6270009657544,36.0390378749806]]]},"properties":{"id":"52968","parcel":"163160A34700CO","address":"1513 RUDDELL LN","owner":"KOLSHI, QENDRIM","point":[-86.62707551488187,36.03904972916244]}},{"type":"Feature","id":"52972","geometry":{"type":"Polygon","coordinates":[[[-86.6274509194817,36.0392968322809],[-86.6274609447596,36.0392512966133],[-86.6276049922239,36.0392633203903],[-86.6275955812892,36.0393093521836],[-86.6274509194817,36.0392968322809]]]},"properties":{"id":"52972","parcel":"163160A35400CO","address":"1502 RUDDELL LN","owner":"BARNEY, JAZMIN R.","point":[-86.62752808925107,36.039280076774794]}},{"type":"Feature","id":"52975","geometry":{"type":"Polygon","coordinates":[[[-86.6278356399547,36.0393935076334],[-86.6278453087612,36.0393500737905],[-86.6279869689756,36.0393616147435],[-86.6279769145907,36.0394059582037],[-86.6278356399547,36.0393935076334]]]},"properties":{"id":"52975","parcel":"163160A36600CO","address":"1403 PLEASANT RIDGE RD","owner":"BELL, KRISTEN L.","point":[-86.62791127110694,36.03937756110887]}},{"type":"Feature","id":"52978","geometry":{"type":"Polygon","coordinates":[[[-86.6278848090821,36.0391726316187],[-86.6278948368234,36.0391275816934],[-86.6280370370937,36.0391408096859],[-86.6280267629087,36.0391861195772],[-86.6278848090821,36.0391726316187]]]},"properties":{"id":"52978","parcel":"163160A37100CO","address":"1413 PLEASANT RIDGE RD","owner":"FINCH, TIENIKANASHA","point":[-86.62796088953341,36.03915672057241]}},{"type":"Feature","id":"52981","geometry":{"type":"Polygon","coordinates":[[[-86.6279051293294,36.0390813515032],[-86.6279145805079,36.0390388948797],[-86.6280570460724,36.0390525730104],[-86.6280474367543,36.0390949493538],[-86.6279051293294,36.0390813515032]]]},"properties":{"id":"52981","parcel":"163160A37300CO","address":"1417 PLEASANT RIDGE RD","owner":"REYNOLDS, DAVID TODD","point":[-86.62798105737116,36.03906696218681]}},{"type":"Feature","id":"52985","geometry":{"type":"Polygon","coordinates":[[[-86.6279145805079,36.0390388948797],[-86.6279244614738,36.0389945144704],[-86.628067129339,36.03900810411],[-86.6280570460724,36.0390525730104],[-86.6279145805079,36.0390388948797]]]},"properties":{"id":"52985","parcel":"163160A37400CO","address":"1419 PLEASANT RIDGE RD","owner":"WOODWARD-SMITH, IAN & AMBER SANTIAGO","point":[-86.62799082287435,36.039023499419734]}},{"type":"Feature","id":"52988","geometry":{"type":"Polygon","coordinates":[[[-86.6282624599141,36.0392088507439],[-86.6282724434805,36.0391645562956],[-86.6284164823423,36.0391757761004],[-86.6284073338918,36.0392197165062],[-86.6282624599141,36.0392088507439]]]},"properties":{"id":"52988","parcel":"163160A38000CO","address":"1402 PLEASANT RIDGE RD","owner":"NELSON, MELANIE","point":[-86.62833961512159,36.039192313893274]}},{"type":"Feature","id":"52992","geometry":{"type":"Polygon","coordinates":[[[-86.6286757949562,36.0392084236402],[-86.6286847982942,36.0391635529402],[-86.6288250775698,36.0391759040605],[-86.6288159046356,36.0392199473731],[-86.6286757949562,36.0392084236402]]]},"properties":{"id":"52992","parcel":"163160A38400CO","address":"5430 CEDAR ASH XING","owner":"CROWDER-WOODS FAMILY TRUST","point":[-86.62875037351222,36.03919216367936]}},{"type":"Feature","id":"52995","geometry":{"type":"Polygon","coordinates":[[[-86.6290609686281,36.0392325228636],[-86.6290706423473,36.0391843282913],[-86.6292085187248,36.0391971818106],[-86.6291964478488,36.0392447841472],[-86.6290609686281,36.0392325228636]]]},"properties":{"id":"52995","parcel":"163160A39000CO","address":"5429 CEDAR ASH XING","owner":"COLEMAN, STEPHEN C.","point":[-86.62913427132095,36.03921485089888]}},{"type":"Feature","id":"53288","geometry":{"type":"Polygon","coordinates":[[[-86.6270395962713,36.0393027894311],[-86.6271802521089,36.0392810150654],[-86.6271866798956,36.0393276043],[-86.6270461883849,36.0393479934403],[-86.6270395962713,36.0393027894311]]]},"properties":{"id":"53288","parcel":"163160A34100CO","address":"1501 RUDDELL LN","owner":"RICE, SUSAN L. REVOCABLE LIVING TRUST","point":[-86.62711318600591,36.03931519703711]}},{"type":"Feature","id":"53290","geometry":{"type":"Polygon","coordinates":[[[-86.6270330709784,36.0392580366185],[-86.6271743622912,36.039238331913],[-86.6271802521089,36.0392810150654],[-86.6270395962713,36.0393027894311],[-86.6270330709784,36.0392580366185]]]},"properties":{"id":"53290","parcel":"163160A34200CO","address":"1503 RUDDELL LN","owner":"RUCKER, TRACY LASHONDA","point":[-86.62710670559923,36.039269526001526]}},{"type":"Feature","id":"53294","geometry":{"type":"Polygon","coordinates":[[[-86.6274902565512,36.0391181419065],[-86.6275002860021,36.0390725782719],[-86.6276413347047,36.0390855865043],[-86.6276320390947,36.0391310399767],[-86.6274902565512,36.0391181419065]]]},"properties":{"id":"53294","parcel":"163160A35000CO","address":"1510 RUDDELL LN","owner":"WIEMANN, DAVID","point":[-86.62756592434884,36.03910186462908]}},{"type":"Feature","id":"53299","geometry":{"type":"Polygon","coordinates":[[[-86.6274712249498,36.0392045969564],[-86.6274806502186,36.0391617790879],[-86.6276232735393,36.0391739157091],[-86.6276144182135,36.0392172290323],[-86.6274712249498,36.0392045969564]]]},"properties":{"id":"53299","parcel":"163160A35200CO","address":"1506 RUDDELL LN","owner":"BLACKSTOCK, SHARRON","point":[-86.62754737117929,36.039189256735675]}},{"type":"Feature","id":"53302","geometry":{"type":"Polygon","coordinates":[[[-86.6274413773742,36.0393401762043],[-86.6274509194817,36.0392968322809],[-86.6275955812892,36.0393093521836],[-86.6275866115531,36.039353217687],[-86.6274413773742,36.0393401762043]]]},"properties":{"id":"53302","parcel":"163160A35500CO","address":"1500 RUDDELL LN","owner":"ZYMERI, MISRETE & QEHAJA, FATMIR","point":[-86.62751860176881,36.039324764599144]}},{"type":"Feature","id":"53305","geometry":{"type":"Polygon","coordinates":[[[-86.6278551383414,36.039305921684],[-86.6278649700018,36.0392617533422],[-86.6280070649083,36.0392729927786],[-86.6279966813263,36.0393187872272],[-86.6278551383414,36.039305921684]]]},"properties":{"id":"53305","parcel":"163160A36800CO","address":"1407 PLEASANT RIDGE RD","owner":"WHITESELL, JAMES F. & MARY A.","point":[-86.62793106703693,36.039289457148094]}},{"type":"Feature","id":"53308","geometry":{"type":"Polygon","coordinates":[[[-86.6283125306536,36.0389866611683],[-86.6283226654052,36.0389417052814],[-86.6284620565954,36.0389568806805],[-86.6284535635886,36.0389976766871],[-86.6283125306536,36.0389866611683]]]},"properties":{"id":"53308","parcel":"163160A37500CO","address":"1412 PLEASANT RIDGE RD","owner":"WARD, ANGELA","point":[-86.62838742391727,36.03897177135158]}},{"type":"Feature","id":"53309","geometry":{"type":"Polygon","coordinates":[[[-86.6283026586976,36.0390304692461],[-86.6283125306536,36.0389866611683],[-86.6284535635886,36.0389976766871],[-86.6284444964001,36.0390412228113],[-86.6283026586976,36.0390304692461]]]},"properties":{"id":"53309","parcel":"163160A37600CO","address":"1410 PLEASANT RIDGE RD","owner":"HALL, REGINA SHAMELLE STOKES","point":[-86.62837825334974,36.03901407343115]}},{"type":"Feature","id":"53313","geometry":{"type":"Polygon","coordinates":[[[-86.6282829737543,36.0391178282233],[-86.6282931823282,36.0390725204533],[-86.6284351298738,36.0390862098516],[-86.6284253976959,36.0391329527028],[-86.6282829737543,36.0391178282233]]]},"properties":{"id":"53313","parcel":"163160A37800CO","address":"1406 PLEASANT RIDGE RD","owner":"WOLUGBOMS, EMMA O.","point":[-86.62835918889049,36.039102019486506]}},{"type":"Feature","id":"53315","geometry":{"type":"Polygon","coordinates":[[[-86.6286669762749,36.0392523695559],[-86.6286757949562,36.0392084236402],[-86.6288159046356,36.0392199473731],[-86.6288063617264,36.0392657600397],[-86.6286669762749,36.0392523695559]]]},"properties":{"id":"53315","parcel":"163160A38300CO","address":"5432 CEDAR ASH XING","owner":"JONES, MELISSA L.","point":[-86.62874137779687,36.039236158293676]}},{"type":"Feature","id":"53319","geometry":{"type":"Polygon","coordinates":[[[-86.6286847982942,36.0391635529402],[-86.6286940290923,36.039117557147],[-86.6288348919749,36.0391287831078],[-86.6288250775698,36.0391759040605],[-86.6286847982942,36.0391635529402]]]},"properties":{"id":"53319","parcel":"163160A38500CO","address":"5428 CEDAR ASH XING","owner":"ELEEH, PRINCE & NICOLE","point":[-86.62875977833353,36.03914616784074]}},{"type":"Feature","id":"53323","geometry":{"type":"Polygon","coordinates":[[[-86.6286940290923,36.039117557147],[-86.6287028670192,36.0390735228012],[-86.6288437880793,36.0390860805506],[-86.6288348919749,36.0391287831078],[-86.6286940290923,36.039117557147]]]},"properties":{"id":"53323","parcel":"163160A38600CO","address":"5426 CEDAR ASH XING","owner":"WEIDMANN, KARL H.","point":[-86.62876884780184,36.03910181868405]}},{"type":"Feature","id":"53325","geometry":{"type":"Polygon","coordinates":[[[-86.629079311343,36.0391411284903],[-86.6290876878496,36.0390993921035],[-86.6292305243194,36.0391103991011],[-86.6292194434741,36.0391540936967],[-86.629079311343,36.0391411284903]]]},"properties":{"id":"53325","parcel":"163160A38800CO","address":"5425 CEDAR ASH XING","owner":"PITTS, ANDREA","point":[-86.62915450585062,36.03912576254541]}},{"type":"Feature","id":"116169","geometry":{"type":"Polygon","coordinates":[[[-86.6282110506542,36.0397722421874],[-86.6282243021021,36.0396645801313],[-86.6282813407435,36.039669210986],[-86.6282680904817,36.0397768730425],[-86.6282110506542,36.0397722421874]]]},"properties":{"id":"116169","parcel":"163160D02600CO","address":"5902 MONROE XING","owner":"MINUSKIN,TOMER","point":[-86.62824619598743,36.03972072659304]}},{"type":"Feature","id":"116170","geometry":{"type":"Polygon","coordinates":[[[-86.628151843266,36.0397674360383],[-86.6281650947861,36.0396597730873],[-86.6282243021021,36.0396645801313],[-86.6282110506542,36.0397722421874],[-86.628151843266,36.0397674360383]]]},"properties":{"id":"116170","parcel":"163160D02700CO","address":"5904 MONROE XING","owner":"MINUSKIN,TOMER","point":[-86.62818807267938,36.03971600809053]}},{"type":"Feature","id":"116658","geometry":{"type":"Polygon","coordinates":[[[-86.6294703464681,36.0398918028777],[-86.6294882979527,36.0397785128211],[-86.6295417876879,36.0397841034644],[-86.6295238362782,36.0398973935288],[-86.6294703464681,36.0398918028777]]]},"properties":{"id":"116658","parcel":"163160D00500CO","address":"5866 MONROE XING","owner":"AMMONS, CEDEIDRA & POLK, MARVIN","point":[-86.62950606710234,36.03983795317675]}},{"type":"Feature","id":"116659","geometry":{"type":"Polygon","coordinates":[[[-86.6292103062175,36.0397647582035],[-86.6293098488395,36.0396986426914],[-86.6293441951943,36.039732751888],[-86.6292397798482,36.0398021032584],[-86.6292054335083,36.0397679940325],[-86.6292103062175,36.0397647582035]]]},"properties":{"id":"116659","parcel":"163160D00900CO","address":"5874 MONROE XING","owner":"LIN, SALAI EZRA","point":[-86.62927725061729,36.03974875506423]}},{"type":"Feature","id":"116660","geometry":{"type":"Polygon","coordinates":[[[-86.6292076991507,36.0395971954621],[-86.6292134739706,36.0395935286134],[-86.6292482094812,36.0396280242606],[-86.6291429927504,36.0396979087895],[-86.629108155461,36.0396633108972],[-86.6292076991507,36.0395971954621]]]},"properties":{"id":"116660","parcel":"163160D01200CO","address":"5880 MONROE XING","owner":"MINUSKIN,TOMER","point":[-86.62917818269985,36.03964566760013]}},{"type":"Feature","id":"116661","geometry":{"type":"Polygon","coordinates":[[[-86.62899456217,36.0395191751735],[-86.6290009872028,36.0394752507433],[-86.6291349184551,36.0394881736112],[-86.6291284923926,36.0395320989555],[-86.62899456217,36.0395191751735]]]},"properties":{"id":"116661","parcel":"163160D01500CO","address":"5439 CEDAR ASH XING","owner":"MINUSKIN, TOMER","point":[-86.62906474015269,36.039503674412444]}},{"type":"Feature","id":"116662","geometry":{"type":"Polygon","coordinates":[[[-86.628622928575,36.0395636300158],[-86.6286295725758,36.039518601289],[-86.6287624663511,36.0395315371935],[-86.6287705413535,36.0395323233411],[-86.6287638974242,36.0395773511743],[-86.628622928575,36.0395636300158]]]},"properties":{"id":"116662","parcel":"163160D02000CO","address":"5444 CEDAR ASH XING","owner":"BESHIR, KAYO K.","point":[-86.62869673495392,36.039547976701186]}},{"type":"Feature","id":"116663","geometry":{"type":"Polygon","coordinates":[[[-86.6284949948699,36.0395610346937],[-86.628538644087,36.0395333159565],[-86.6286224887507,36.0396204107077],[-86.6285788395079,36.0396481285735],[-86.6285712129873,36.0396402063845],[-86.6284949948699,36.0395610346937]]]},"properties":{"id":"116663","parcel":"163160D02100CO","address":"5888 MONROE XING","owner":"KHASTAR, BITA & RAVANGARD, NASIR","point":[-86.62855874195591,36.0395907227181]}},{"type":"Feature","id":"116664","geometry":{"type":"Polygon","coordinates":[[[-86.6284014294932,36.0396082994823],[-86.6284452885671,36.0395804480971],[-86.628528766168,36.0396671608783],[-86.6284849070685,36.039695011392],[-86.6284014294932,36.0396082994823]]]},"properties":{"id":"116664","parcel":"163160D02300CO","address":"5892 MONROE XING","owner":"MINUSKIN,TOMER","point":[-86.62846509795291,36.03963773019759]}},{"type":"Feature","id":"116665","geometry":{"type":"Polygon","coordinates":[[[-86.6283581037052,36.0396358118902],[-86.6284014294932,36.0396082994823],[-86.6284849070685,36.039695011392],[-86.628441581262,36.0397225238294],[-86.6283581037052,36.0396358118902]]]},"properties":{"id":"116665","parcel":"163160D02400CO","address":"5894 MONROE XING","owner":"HANCOCK, CAROLYN","point":[-86.62842150536312,36.03966541165778]}},{"type":"Feature","id":"116666","geometry":{"type":"Polygon","coordinates":[[[-86.6282680904817,36.0397768730425],[-86.6282813407435,36.039669210986],[-86.6283394931531,36.0396739315424],[-86.6283262429765,36.0397815945065],[-86.6282680904817,36.0397768730425]]]},"properties":{"id":"116666","parcel":"163160D02500CO","address":"5900 MONROE XING","owner":"MINUSKIN,TOMER","point":[-86.62830379186893,36.03972540229822]}},{"type":"Feature","id":"116674","geometry":{"type":"Polygon","coordinates":[[[-86.6295241492364,36.0399116872119],[-86.6292692793765,36.0398879915048],[-86.6292589624031,36.0398852072275],[-86.6292521199366,36.0398819965223],[-86.6292460526818,36.0398778831851],[-86.6292409413702,36.0398729879462],[-86.6292369358476,36.0398674551303],[-86.6292341528191,36.0398614481624],[-86.6292326746825,36.0398551423635],[-86.6292194429556,36.0398221405218],[-86.629202209417,36.0397903808187],[-86.6291811474866,36.0397601814028],[-86.6291564682126,36.0397318476077],[-86.62912841909,36.0397056629462],[-86.6290972829584,36.0396818900162],[-86.6290633724389,36.0396607687285],[-86.6290270287891,36.0396425118058],[-86.6289886174426,36.0396273021021],[-86.6289828537462,36.0396242425746],[-86.6289777790453,36.0396204638282],[-86.6289735261831,36.0396160652127],[-86.6289702103974,36.0396111650964],[-86.6289679170507,36.0396058928192],[-86.6289667082804,36.0396003877566],[-86.6289666174221,36.0395947957428],[-86.6289678743254,36.0395854878969],[-86.6290053724722,36.039325580799],[-86.6293483060297,36.0393583122096],[-86.6293711613192,36.0393604938245],[-86.629373074813,36.0393606767057],[-86.6294513269832,36.0394411549053],[-86.6294767199256,36.039472584441],[-86.6295056784023,36.0395019097656],[-86.6295379395356,36.0395288663699],[-86.6295732095253,36.0395532088336],[-86.6296111703638,36.0395747180004],[-86.6296514775889,36.0395931973844],[-86.6296734743561,36.039603404886],[-86.6296294167864,36.0396918819509],[-86.6296064417403,36.0397400198832],[-86.6295872371802,36.0397892367798],[-86.62957188257,36.0398393366479],[-86.6295594846048,36.0398840169474],[-86.6295569734058,36.0398901957738],[-86.6295532292611,36.0398959493251],[-86.629548358539,36.0399011166162],[-86.6295424954711,36.0399055518386],[-86.629535805553,36.0399091333549],[-86.6295284755285,36.0399117601465],[-86.6295241492364,36.0399116872119]],[[-86.62938230142,36.0397674335825],[-86.6293273956325,36.0397616943413],[-86.6293094439295,36.0398749852756],[-86.6293643497868,36.0398807236236],[-86.6294176407778,36.0398862937294],[-86.6294703464681,36.0398918028777],[-86.6295238362782,36.0398973935288],[-86.6295417876879,36.0397841034644],[-86.6294882979527,36.0397785128211],[-86.6294355923364,36.0397730036804],[-86.62938230142,36.0397674335825]],[[-86.6292397798482,36.0398021032584],[-86.6293441951943,36.039732751888],[-86.6293098488395,36.0396986426914],[-86.6293155218751,36.0396948745239],[-86.6292815189241,36.0396611051135],[-86.6292482094812,36.0396280242606],[-86.6292134739706,36.0395935286134],[-86.6292076991507,36.0395971954621],[-86.6291738428177,36.0395635721653],[-86.6290694275452,36.0396329233907],[-86.6291032849732,36.0396665467106],[-86.629108155461,36.0396633108972],[-86.6291429927504,36.0396979087895],[-86.6291763032884,36.0397309896652],[-86.6292103062175,36.0397647582035],[-86.6292054335083,36.0397679940325],[-86.6292397798482,36.0398021032584]],[[-86.6291221263503,36.0395756166036],[-86.6291284923926,36.0395320989555],[-86.6291349184551,36.0394881736112],[-86.6291410602428,36.0394461884195],[-86.6290071290531,36.0394332646571],[-86.6290009872028,36.0394752507433],[-86.62899456217,36.0395191751735],[-86.6289881960625,36.039562693716],[-86.6291221263503,36.0395756166036]]]},"properties":{"id":"116674","parcel":"163160D90100CO","address":"5866 B MONROE XING","owner":"CENTERVIEW AT PROVINCETOWN OWNERS ASS","point":[-86.62945210824536,36.039619737884294]}},{"type":"Feature","id":"119016","geometry":{"type":"Polygon","coordinates":[[[-86.6294176407778,36.0398862937294],[-86.6294355923364,36.0397730036804],[-86.6294882979527,36.0397785128211],[-86.6294703464681,36.0398918028777],[-86.6294176407778,36.0398862937294]]]},"properties":{"id":"119016","parcel":"163160D00600CO","address":"5868 MONROE XING","owner":"HALLIBURTON-SMARTT, GAIL A.","point":[-86.62945296938939,36.03983240328083]}},{"type":"Feature","id":"119020","geometry":{"type":"Polygon","coordinates":[[[-86.6293643497868,36.0398807236236],[-86.62938230142,36.0397674335825],[-86.6294355923364,36.0397730036804],[-86.6294176407778,36.0398862937294],[-86.6293643497868,36.0398807236236]]]},"properties":{"id":"119020","parcel":"163160D00700CO","address":"5870 MONROE XING","owner":"BILLS, MIRANDA","point":[-86.62939997108589,36.039826863657666]}},{"type":"Feature","id":"119024","geometry":{"type":"Polygon","coordinates":[[[-86.6293094439295,36.0398749852756],[-86.6293273956325,36.0397616943413],[-86.62938230142,36.0397674335825],[-86.6293643497868,36.0398807236236],[-86.6293094439295,36.0398749852756]]]},"properties":{"id":"119024","parcel":"163160D00800CO","address":"5872 MONROE XING","owner":"RUMPH, ALBERT CHARLES JR.","point":[-86.62934587266392,36.03982120943486]}},{"type":"Feature","id":"119026","geometry":{"type":"Polygon","coordinates":[[[-86.6291763032884,36.0397309896652],[-86.6292815189241,36.0396611051135],[-86.6293155218751,36.0396948745239],[-86.6293098488395,36.0396986426914],[-86.6292103062175,36.0397647582035],[-86.6291763032884,36.0397309896652]]]},"properties":{"id":"119026","parcel":"163160D01000CO","address":"5876 MONROE XING","owner":"HENDERSON, TIFFANY","point":[-86.62924307588919,36.0397148161964]}},{"type":"Feature","id":"119031","geometry":{"type":"Polygon","coordinates":[[[-86.6289881960625,36.039562693716],[-86.62899456217,36.0395191751735],[-86.6291284923926,36.0395320989555],[-86.6291221263503,36.0395756166036],[-86.6289881960625,36.039562693716]]]},"properties":{"id":"119031","parcel":"163160D01400CO","address":"5441 CEDAR ASH XING","owner":"ADAMS, KEMI MATARI","point":[-86.62905834421615,36.039547396356284]}},{"type":"Feature","id":"119034","geometry":{"type":"Polygon","coordinates":[[[-86.6290009872028,36.0394752507433],[-86.6290071290531,36.0394332646571],[-86.6291410602428,36.0394461884195],[-86.6291349184551,36.0394881736112],[-86.6290009872028,36.0394752507433]]]},"properties":{"id":"119034","parcel":"163160D01600CO","address":"5437 CEDAR ASH XING","owner":"ALI, DAWAN & BRWA YOUNAS","point":[-86.62907102371106,36.03946071960187]}},{"type":"Feature","id":"119038","geometry":{"type":"Polygon","coordinates":[[[-86.6286422276767,36.0394328507816],[-86.6286483124138,36.0393916175871],[-86.6287892809624,36.0394053387165],[-86.6287831963045,36.0394465728192],[-86.6287751202011,36.0394457866782],[-86.6286422276767,36.0394328507816]]]},"properties":{"id":"119038","parcel":"163160D01700CO","address":"5438 CEDAR ASH XING","owner":"THOMPSON, THOMAS THEODORE JR. & EMILIE","point":[-86.62871575435582,36.03941909477175]}},{"type":"Feature","id":"119042","geometry":{"type":"Polygon","coordinates":[[[-86.6286302050968,36.0394748206604],[-86.6286364815612,36.0394322913169],[-86.6286422276767,36.0394328507816],[-86.6287751202011,36.0394457866782],[-86.6287688438098,36.0394883160288],[-86.6286302050968,36.0394748206604]]]},"properties":{"id":"119042","parcel":"163160D01800CO","address":"5440 CEDAR ASH XING","owner":"LIZZIO, LINDSEY","point":[-86.62870266266202,36.039460303691286]}},{"type":"Feature","id":"119045","geometry":{"type":"Polygon","coordinates":[[[-86.6286238264542,36.0395180418237],[-86.6286302050968,36.0394748206604],[-86.6287688438098,36.0394883160288],[-86.6287624663511,36.0395315371935],[-86.6286295725758,36.039518601289],[-86.6286238264542,36.0395180418237]]]},"properties":{"id":"119045","parcel":"163160D01900CO","address":"5442 CEDAR ASH XING","owner":"MINUSKIN, TOMER","point":[-86.62869633533873,36.03950317894885]}},{"type":"Feature","id":"119049","geometry":{"type":"Polygon","coordinates":[[[-86.6284452885671,36.0395804480971],[-86.6284877353683,36.0395534936322],[-86.6284949948699,36.0395610346937],[-86.6285712129873,36.0396402063845],[-86.628528766168,36.0396671608783],[-86.6284452885671,36.0395804480971]]]},"properties":{"id":"119049","parcel":"163160D02200CO","address":"5890 MONROE XING","owner":"POLANCO-SERER, JORGE & OIZ-BASSABE, ZENAIDA","point":[-86.62850825071499,36.039610327257144]}},{"type":"Feature","id":"119892","geometry":{"type":"Polygon","coordinates":[[[-86.6291429927504,36.0396979087895],[-86.6292482094812,36.0396280242606],[-86.6292815189241,36.0396611051135],[-86.6291763032884,36.0397309896652],[-86.6291429927504,36.0396979087895]]]},"properties":{"id":"119892","parcel":"163160D01100CO","address":"5878 MONROE XING","owner":"BHATT, PANKAJ SHIRISH & PARULBEN HIMANSHU JOSHI","point":[-86.62921225599852,36.039679506972085]}},{"type":"Feature","id":"119896","geometry":{"type":"Polygon","coordinates":[[[-86.6290694275452,36.0396329233907],[-86.6291738428177,36.0395635721653],[-86.6292076991507,36.0395971954621],[-86.629108155461,36.0396633108972],[-86.6291032849732,36.0396665467106],[-86.6290694275452,36.0396329233907]]]},"properties":{"id":"119896","parcel":"163160D01300CO","address":"5882 MONROE XING","owner":"OSKIN, JOSEPH LOGAN & BRADLEY J","point":[-86.62913856332813,36.03961505944634]}},{"type":"Feature","id":"119927","geometry":{"type":"Polygon","coordinates":[[[-86.628121930935,36.039742757895],[-86.6281797105814,36.0394220039983],[-86.6284000815449,36.0392828372334],[-86.628822252892,36.0393231323818],[-86.6287862361107,36.0395455056901],[-86.6287827592841,36.0395739738688],[-86.6287815761076,36.0395799790112],[-86.6287791458352,36.039585732893],[-86.628775542577,36.0395910647839],[-86.6287708705259,36.0395958191188],[-86.6287652672793,36.0395998545789],[-86.628758897252,36.0396030531385],[-86.6287519483621,36.0396053218859],[-86.6287446253724,36.0396065930572],[-86.6287027582402,36.0396149303012],[-86.6286621554759,36.039626685826],[-86.6286232355776,36.0396417366771],[-86.6285864056912,36.0396599275135],[-86.6285520460675,36.039681069787],[-86.6285205156109,36.0397049417134],[-86.6284921419641,36.0397312973374],[-86.628467218143,36.0397598620427],[-86.6284460048129,36.0397903397512],[-86.6284420390584,36.0397953030932],[-86.6284370829132,36.0397996397979],[-86.6284312851862,36.0398032229087],[-86.628424817037,36.0398059451812],[-86.6284178698205,36.0398077272052],[-86.6284106484071,36.0398085147363],[-86.6284033690136,36.0398082850161],[-86.6282252673447,36.0397918999516],[-86.6281474200746,36.0397847295622],[-86.6281451068754,36.0397838196036],[-86.6281387736557,36.0397805872537],[-86.6281331842549,36.0397765506831],[-86.6281284904727,36.0397718208602],[-86.6281248209475,36.0397665268999],[-86.6281222778068,36.0397608133772],[-86.6281209299942,36.0397548385593],[-86.6281208131913,36.039748764492],[-86.628121930935,36.039742757895]],[[-86.6283262429765,36.0397815945065],[-86.6283394931531,36.0396739315424],[-86.6282813407435,36.039669210986],[-86.6282243021021,36.0396645801313],[-86.6281650947861,36.0396597730873],[-86.628151843266,36.0397674360383],[-86.6282110506542,36.0397722421874],[-86.6282680904817,36.0397768730425],[-86.6283262429765,36.0397815945065]],[[-86.6283581037052,36.0396358118902],[-86.628441581262,36.0397225238294],[-86.6284849070685,36.039695011392],[-86.628528766168,36.0396671608783],[-86.6285712129873,36.0396402063845],[-86.6285788395079,36.0396481285735],[-86.6286224887507,36.0396204107077],[-86.628538644087,36.0395333159565],[-86.6284949948699,36.0395610346937],[-86.6284877353683,36.0395534936322],[-86.6284452885671,36.0395804480971],[-86.6284014294932,36.0396082994823],[-86.6283581037052,36.0396358118902]],[[-86.628622928575,36.0395636300158],[-86.6287638974242,36.0395773511743],[-86.6287705413535,36.0395323233411],[-86.6287624663511,36.0395315371935],[-86.6287688438098,36.0394883160288],[-86.6287751202011,36.0394457866782],[-86.6287831963045,36.0394465728192],[-86.6287892809624,36.0394053387165],[-86.6286483124138,36.0393916175871],[-86.6286422276767,36.0394328507816],[-86.6286364815612,36.0394322913169],[-86.6286302050968,36.0394748206604],[-86.6286238264542,36.0395180418237],[-86.6286295725758,36.039518601289],[-86.628622928575,36.0395636300158]]]},"properties":{"id":"119927","parcel":"163160D90200CO","address":"5438 B CEDAR ASH XING","owner":"CENTERVIEW AT PROVINCETOWN OWNERS ASS","point":[-86.6283353860692,36.03954856527498]}},{"type":"Feature","id":"137216","geometry":{"type":"Polygon","coordinates":[[[-86.6208514126252,36.0397311070121],[-86.6209224829753,36.0394065506307],[-86.6211431006699,36.0394527041289],[-86.6210122647223,36.0397647559726],[-86.6210084201535,36.0397636996496],[-86.6209814931801,36.0397566587666],[-86.6209607266211,36.0397516491775],[-86.6209063941793,36.0397402376589],[-86.6208514126252,36.0397311070121]]]},"properties":{"id":"137216","parcel":"164130C01800CO","address":"4121 TREEHAVEN PL","owner":"KHALIL, REMON & MONA EISA","point":[-86.62098329775826,36.039591861538504]}},{"type":"Feature","id":"137219","geometry":{"type":"Polygon","coordinates":[[[-86.6210122647223,36.0397647559726],[-86.6211431006699,36.0394527041289],[-86.6213061056549,36.0394973445101],[-86.6211991280578,36.0398153364953],[-86.6211236842187,36.0397969768298],[-86.6210494323668,36.0397756484439],[-86.6210122647223,36.0397647559726]]]},"properties":{"id":"137219","parcel":"164130C01900CO","address":"4125 TREEHAVEN PL","owner":"HORENBURG, JACOB D","point":[-86.62116473072302,36.03963106785466]}},{"type":"Feature","id":"138055","geometry":{"type":"Polygon","coordinates":[[[-86.6214178620011,36.039850891959],[-86.6214698110178,36.0395239544196],[-86.6216526529682,36.0395317501608],[-86.6216621640323,36.0398613089191],[-86.6215805483153,36.0398611855716],[-86.6214990451008,36.0398577097028],[-86.6214178620011,36.039850891959]]]},"properties":{"id":"138055","parcel":"164130C02100CO","address":"4133 TREEHAVEN PL","owner":"CHEN, TIAN LING","point":[-86.62155026631612,36.03969136849288]}},{"type":"Feature","id":"138056","geometry":{"type":"Polygon","coordinates":[[[-86.6218441436382,36.0395237392869],[-86.6218389132018,36.039441285004],[-86.62201408193,36.0394130016198],[-86.6220349653278,36.0397422141507],[-86.6220055903275,36.0397451138084],[-86.6219769922556,36.0397512910342],[-86.6219497228191,36.0397606267151],[-86.6219243099362,36.0397729396726],[-86.6219012422568,36.0397879939524],[-86.6218809647173,36.0398054979465],[-86.6218638686383,36.0398251152596],[-86.6218633073666,36.0398258563101],[-86.6218441436382,36.0395237392869]]]},"properties":{"id":"138056","parcel":"164130C02300CO","address":"4141 TREEHAVEN PL","owner":"MARTIN, LYDIA E. & ANAWUGA, YSAHAK M.","point":[-86.62193955430673,36.03963297675683]}},{"type":"Feature","id":"138057","geometry":{"type":"Polygon","coordinates":[[[-86.6220349653278,36.0397422141507],[-86.62201408193,36.0394130016198],[-86.6223920520003,36.0395171314329],[-86.6221688802261,36.0397736996347],[-86.6221446585352,36.0397616816561],[-86.6221186837004,36.0397523846961],[-86.6220914186651,36.0397459749042],[-86.6220633470329,36.0397425642466],[-86.6220349653278,36.0397422141507]]]},"properties":{"id":"138057","parcel":"164130C02400CO","address":"4145 TREEHAVEN PL","owner":"BLANCO, TERESA GIRON & LINARES, JOSE DANIEL","point":[-86.62216086429203,36.03962950704689]}},{"type":"Feature","id":"138058","geometry":{"type":"Polygon","coordinates":[[[-86.6221981969857,36.0397939804359],[-86.6224745818216,36.0395742243626],[-86.6226764502497,36.0398593922644],[-86.6222577705221,36.0398963501215],[-86.6222528309681,36.0398736487789],[-86.622244219538,36.039851682019],[-86.6222320902062,36.039830839303],[-86.6222166578375,36.0398114917519],[-86.6221981969857,36.0397939804359]]]},"properties":{"id":"138058","parcel":"164130C02500CO","address":"4149 TREEHAVEN PL","owner":"INSTAFANOUS, GERGES M & YOUSSEF, FAYZA","point":[-86.62244461783787,36.03968444331914]}},{"type":"Feature","id":"138685","geometry":{"type":"Polygon","coordinates":[[[-86.6211991280578,36.0398153364953],[-86.6213061056549,36.0394973445101],[-86.6214698110178,36.0395239544196],[-86.6214178620011,36.039850891959],[-86.6213443036286,36.03984177622],[-86.6212713408332,36.0398299165523],[-86.6211991280578,36.0398153364953]]]},"properties":{"id":"138685","parcel":"164130C02000CO","address":"4129 TREEHAVEN PL","owner":"KHALIL, MARIAM & FRANCIS, MICHAEL","point":[-86.6213474188352,36.039669686430265]}},{"type":"Feature","id":"138686","geometry":{"type":"Polygon","coordinates":[[[-86.6216526529682,36.0395317501608],[-86.6218441436382,36.0395237392869],[-86.6218633073666,36.0398258563101],[-86.6218550492272,36.0398348478049],[-86.6218450970513,36.0398426286001],[-86.6218337199721,36.0398489891093],[-86.6218212185115,36.0398537601418],[-86.6218079279234,36.0398568146884],[-86.6217942015761,36.0398580716124],[-86.6216621640323,36.0398613089191],[-86.6216526529682,36.0395317501608]]]},"properties":{"id":"138686","parcel":"164130C02200CO","address":"4137 TREEHAVEN PL","owner":"MANKARIOUS, ABANOUB","point":[-86.62175544323783,36.03967879528011]}},{"type":"Feature","id":"138692","geometry":{"type":"Polygon","coordinates":[[[-86.6221704517273,36.0404934889249],[-86.6219936870477,36.0404337016066],[-86.6218833463544,36.0404589609549],[-86.6218252969413,36.0404792005913],[-86.621778703745,36.0404436058581],[-86.6216509661735,36.0404030923294],[-86.6215380965966,36.0403961704455],[-86.6213245598131,36.0405539216092],[-86.6211727033372,36.0403973957342],[-86.6210201548225,36.0403408403508],[-86.6208277416786,36.0403327369456],[-86.6206052777334,36.0403075247601],[-86.6204350065525,36.0403444070762],[-86.6202714690122,36.0403593820649],[-86.620064844707,36.0404134465389],[-86.6200369357224,36.0403409969155],[-86.6202976168332,36.0402723958776],[-86.6204531948127,36.040205765833],[-86.620604228208,36.0401758071119],[-86.6207618390766,36.0401813998212],[-86.6209216951097,36.040222952912],[-86.6211220311146,36.0402699211725],[-86.6213269835405,36.0403010927796],[-86.621534670135,36.0403161799932],[-86.6217534966349,36.0403581226947],[-86.6219483869958,36.0404114834706],[-86.6221991765204,36.0404128800363],[-86.6225116748354,36.0402018583815],[-86.6226764502497,36.0398593922644],[-86.6224745818216,36.0395742243626],[-86.6221981969857,36.0397939804359],[-86.6221841042269,36.03978330085],[-86.6221688802261,36.0397736996347],[-86.6223920520003,36.0395171314329],[-86.62201408193,36.0394130016198],[-86.6218389132018,36.039441285004],[-86.6218441436382,36.0395237392869],[-86.6216526529682,36.0395317501608],[-86.6214698110178,36.0395239544196],[-86.6213061056549,36.0394973445101],[-86.6211431006699,36.0394527041289],[-86.6209224829753,36.0394065506307],[-86.6206957997149,36.0393880947775],[-86.6204682907473,36.0393977629008],[-86.6202452493014,36.0394354268047],[-86.6200862212546,36.0394863874561],[-86.6200271808064,36.0395053064403],[-86.6202039615958,36.0397984397093],[-86.6201795445156,36.0398078504362],[-86.6200617808216,36.0396071657871],[-86.6199789663469,36.0395207574234],[-86.6199269201813,36.0394677924896],[-86.6197761567485,36.0393368287253],[-86.6196269645966,36.0392270017825],[-86.6194879745587,36.0391345576001],[-86.61940797974,36.0389883222419],[-86.6193175349684,36.0388524710874],[-86.619220690429,36.0387229806855],[-86.618918437991,36.0386233866054],[-86.6198177118274,36.0387128766659],[-86.620528011332,36.038781268021],[-86.621393311093,36.038868123694],[-86.6218080660909,36.0389202254056],[-86.6223036280341,36.0389617499924],[-86.6231866164005,36.0390674555201],[-86.6236389651308,36.0391017192208],[-86.6236333870354,36.0391427927056],[-86.6236125843016,36.0392959749685],[-86.6235625626988,36.0396646096763],[-86.6235440215897,36.0398011352362],[-86.6234921065847,36.0401834062229],[-86.6234734215483,36.0403209960176],[-86.6230593934074,36.0402320291142],[-86.6226737241006,36.0403866952166],[-86.6226272915113,36.040443895567],[-86.6224383411465,36.0406766655537],[-86.6224335532669,36.0406727787005],[-86.6224228226987,36.0406640673114],[-86.6222155627061,36.0404957931217],[-86.6221887067991,36.0404956082292],[-86.6221704517273,36.0404934889249]]]},"properties":{"id":"138692","parcel":"164130C90000CO","address":"4103 TREEHAVEN PL","owner":"SUMMERFIELD HOMEOWNERS ASSOCIATION, INC","point":[-86.62304276495271,36.03963977557447]}},{"type":"Feature","id":"265310","geometry":{"type":"Polygon","coordinates":[[[-86.625420930497,36.0397619767502],[-86.6254214696728,36.0397502518117],[-86.6254240888366,36.0397387143607],[-86.6254279940494,36.039709955651],[-86.6254396131334,36.0396243857288],[-86.6258314183424,36.0396594772907],[-86.6258043185249,36.0398652124416],[-86.6254957204517,36.0398375733613],[-86.625480611499,36.0398333373272],[-86.6254665284706,36.0398271951517],[-86.625453835495,36.039819305374],[-86.6254428570848,36.0398098691],[-86.6254338770279,36.0397991300072],[-86.6254271227656,36.0397873636107],[-86.6254227697899,36.0397748718324],[-86.625420930497,36.0397619767502]]]},"properties":{"id":"265310","parcel":"16413012700","address":"5629 MURPHYWOOD XING","owner":"KITTLE, TIGIST W","point":[-86.62562141854801,36.03974510346388]}},{"type":"Feature","id":"265312","geometry":{"type":"Polygon","coordinates":[[[-86.6247597938196,36.0389173258242],[-86.6251781170778,36.038731152973],[-86.6252055377022,36.0387747087172],[-86.6252302567337,36.0388193185582],[-86.625252215587,36.0388648710419],[-86.6252713578958,36.0389112547029],[-86.6248148374455,36.039023868194],[-86.6247597938196,36.0389173258242]]]},"properties":{"id":"265312","parcel":"16413013200","address":"5604 MURPHYWOOD XING","owner":"BROWN, GEORGE P.","point":[-86.62504518873426,36.03888738574822]}},{"type":"Feature","id":"265314","geometry":{"type":"Polygon","coordinates":[[[-86.6248201158535,36.0394248685516],[-86.6248336299832,36.0393253414404],[-86.6253043056813,36.0393674991837],[-86.6252744599739,36.0395873049459],[-86.6248037829972,36.0395451479894],[-86.6248201158535,36.0394248685516]]]},"properties":{"id":"265314","parcel":"16413013500","address":"5616 MURPHYWOOD XING","owner":"GARCIA, GLENDA A NAJARRO & ORLANDO A JAIME BENITEZ","point":[-86.62505004864556,36.039485753059175]}},{"type":"Feature","id":"266031","geometry":{"type":"Polygon","coordinates":[[[-86.6254650857637,36.0394366902502],[-86.6254887233444,36.0392548455253],[-86.6258817652609,36.0392772611031],[-86.6258561515715,36.039471715266],[-86.6254650857637,36.0394366902502]]]},"properties":{"id":"266031","parcel":"16413012900","address":"5621 MURPHYWOOD XING","owner":"BAMIDELE, TOLA","point":[-86.6256733559326,36.03935697564155]}},{"type":"Feature","id":"266032","geometry":{"type":"Polygon","coordinates":[[[-86.6248336299832,36.0393253414404],[-86.6248419807773,36.0391514470531],[-86.6253194225117,36.0391268861113],[-86.625321316319,36.0391815555764],[-86.6253197489781,36.0392362321867],[-86.6253147237861,36.0392907717191],[-86.6253043056813,36.0393674991837],[-86.6248336299832,36.0393253414404]]]},"properties":{"id":"266032","parcel":"16413013400","address":"5612 MURPHYWOOD XING","owner":"MOURA, NAGY & RIZK, MARSIH","point":[-86.62507695409583,36.03926275087129]}},{"type":"Feature","id":"266033","geometry":{"type":"Polygon","coordinates":[[[-86.6245711593884,36.0397549433184],[-86.6246212142267,36.0393863242266],[-86.6247809020206,36.0394006271696],[-86.6248201158535,36.0394248685516],[-86.6248037829972,36.0395451479894],[-86.6247728417119,36.0397730086862],[-86.6245711593884,36.0397549433184]]]},"properties":{"id":"266033","parcel":"16413013700","address":"6004 MONROE XING","owner":"ELLIS, CHRISTA E.","point":[-86.62468747121515,36.039650045711724]}},{"type":"Feature","id":"266034","geometry":{"type":"Polygon","coordinates":[[[-86.6243694405088,36.0397368741978],[-86.6244194962713,36.0393682551882],[-86.6244511988298,36.0393710948933],[-86.6246212142267,36.0393863242266],[-86.6245711593884,36.0397549433184],[-86.6243694405088,36.0397368741978]]]},"properties":{"id":"266034","parcel":"16413013800","address":"6008 MONROE XING","owner":"JARMON, STELLA LOUISE","point":[-86.62449532764697,36.03956159928249]}},{"type":"Feature","id":"266035","geometry":{"type":"Polygon","coordinates":[[[-86.6237642822152,36.0396826666234],[-86.6238143418596,36.0393140478549],[-86.6240160595683,36.0393321215115],[-86.6239660019576,36.0397007403566],[-86.6237642822152,36.0396826666234]]]},"properties":{"id":"266035","parcel":"16413014100","address":"6020 MONROE XING","owner":"BEKENNA, MERID K. & ESHETE, RAHLE","point":[-86.62389017143494,36.03950739413859]}},{"type":"Feature","id":"267539","geometry":{"type":"Polygon","coordinates":[[[-86.6254396131334,36.0396243857288],[-86.6254650857637,36.0394366902502],[-86.6258561515715,36.039471715266],[-86.6258314183424,36.0396594772907],[-86.6254396131334,36.0396243857288]]]},"properties":{"id":"267539","parcel":"16413012800","address":"5625 MURPHYWOOD XING","owner":"HANNA, SEHAM S.","point":[-86.62564803566869,36.03954805115801]}},{"type":"Feature","id":"267542","geometry":{"type":"Polygon","coordinates":[[[-86.6254887233444,36.0392548455253],[-86.625490376557,36.0391751361153],[-86.6254880459814,36.0390954383703],[-86.6259091851101,36.0390690952733],[-86.6258817652609,36.0392772611031],[-86.6254887233444,36.0392548455253]]]},"properties":{"id":"267542","parcel":"16413013000","address":"5617 MURPHYWOOD XING","owner":"DARDEN, JOHNNY L.","point":[-86.6256947542348,36.03913592905755]}},{"type":"Feature","id":"267545","geometry":{"type":"Polygon","coordinates":[[[-86.6254453073202,36.0388943045269],[-86.6259467764546,36.0387837101718],[-86.6259176196496,36.0390050654724],[-86.6259091851101,36.0390690952733],[-86.6254880459814,36.0390954383703],[-86.6254820981249,36.0390445573306],[-86.6254729756222,36.038993988391],[-86.6254607016866,36.0389438603144],[-86.6254453073202,36.0388943045269]]]},"properties":{"id":"267545","parcel":"16413013100","address":"5613 MURPHYWOOD XING","owner":"SCOTT, JONATHAN A.","point":[-86.62569087709191,36.038919825223836]}},{"type":"Feature","id":"267548","geometry":{"type":"Polygon","coordinates":[[[-86.6248148374455,36.039023868194],[-86.6252713578958,36.0389112547029],[-86.6252890617773,36.0389642351357],[-86.6253030028775,36.0390179507137],[-86.6253131332076,36.0390722268375],[-86.6253194225117,36.0391268861113],[-86.6248419807773,36.0391514470531],[-86.6248148374455,36.039023868194]]]},"properties":{"id":"267548","parcel":"16413013300","address":"5608 MURPHYWOOD XING","owner":"ADEWOLE, GEORGE O.& KATRINA D.","point":[-86.62506429122668,36.03904804873096]}},{"type":"Feature","id":"267553","geometry":{"type":"Polygon","coordinates":[[[-86.6241677206184,36.0397188056464],[-86.6242177784146,36.0393501867133],[-86.6244194962713,36.0393682551882],[-86.6243694405088,36.0397368741978],[-86.6241677206184,36.0397188056464]]]},"properties":{"id":"267553","parcel":"16413013900","address":"6012 MONROE XING","owner":"MAHAT, CHANDRA & SUBBA, NIRMALA","point":[-86.62429360898803,36.03954353048843]}},{"type":"Feature","id":"267557","geometry":{"type":"Polygon","coordinates":[[[-86.6236125843016,36.0392959749685],[-86.6238143418596,36.0393140478549],[-86.6237642822152,36.0396826666234],[-86.6235625626988,36.0396646096763],[-86.6236125843016,36.0392959749685]]]},"properties":{"id":"267557","parcel":"16413014200","address":"6024 MONROE XING","owner":"YAMASA CO. LTD","point":[-86.62368844276357,36.03948932880516]}},{"type":"Feature","id":"268704","geometry":{"type":"Polygon","coordinates":[[[-86.6296026473478,36.0394648370159],[-86.6296312755678,36.0394279491541],[-86.6297465881385,36.0394866954441],[-86.6297170447408,36.0395246029652],[-86.6296026473478,36.0394648370159]]]},"properties":{"id":"268704","parcel":"163160A03500CO","address":"1202 PARKSTONE LN","owner":"GREEN, DESMOND L. & RALIE JOYCE","point":[-86.62967435332207,36.0394757654349]}},{"type":"Feature","id":"268705","geometry":{"type":"Polygon","coordinates":[[[-86.6297395101874,36.0399313897651],[-86.6298151657815,36.0398119216863],[-86.6298727614971,36.0398309496462],[-86.629798439423,36.0399510624219],[-86.6297395101874,36.0399313897651]]]},"properties":{"id":"268705","parcel":"163160A03700CO","address":"5864 MONROE XING","owner":"THORNTON, GABRIELLE","point":[-86.6298065000747,36.039881170849014]}},{"type":"Feature","id":"268706","geometry":{"type":"Polygon","coordinates":[[[-86.629798439423,36.0399510624219],[-86.6298727614971,36.0398309496462],[-86.6299327594747,36.0398507770802],[-86.629856170347,36.0399703357343],[-86.629798439423,36.0399510624219]]]},"properties":{"id":"268706","parcel":"163160A03800CO","address":"5862 MONROE XING","owner":"ACCRINO, KENNETH C.","point":[-86.6298650520401,36.03990091808038]}},{"type":"Feature","id":"268707","geometry":{"type":"Polygon","coordinates":[[[-86.62991374777,36.0399895602507],[-86.6299897766843,36.039869615133],[-86.6300493307576,36.0398892934136],[-86.6299715065706,36.0400088432764],[-86.62991374777,36.0399895602507]]]},"properties":{"id":"268707","parcel":"163160A04000CO","address":"5858 MONROE XING","owner":"NADRYAN, ARMEN & DANIELYAN, SHUSHANIK","point":[-86.6299811102431,36.03993942552772]}},{"type":"Feature","id":"268951","geometry":{"type":"Polygon","coordinates":[[[-86.6236389651308,36.0391017192208],[-86.6236946858689,36.0386914118573],[-86.6240905341232,36.0387765663548],[-86.624086700431,36.038792300153],[-86.6240857953035,36.0388083216161],[-86.6240878403598,36.0388242746234],[-86.6240927906252,36.0388398015969],[-86.6241005335199,36.0388545561237],[-86.6241108966762,36.0388682092249],[-86.6236333870354,36.0391427927056],[-86.6236389651308,36.0391017192208]]]},"properties":{"id":"268951","parcel":"16413020700","address":"616 BRIDGETTE CT","owner":"CULLOM, JYJJASPA M. & TARYN L.","point":[-86.62378129611217,36.03898467070251]}},{"type":"Feature","id":"268952","geometry":{"type":"Polygon","coordinates":[[[-86.6240160595683,36.0393321215115],[-86.6238143418596,36.0393140478549],[-86.6236125843016,36.0392959749685],[-86.6236333870354,36.0391427927056],[-86.6241108966762,36.0388682092249],[-86.6241233675267,36.0388806346706],[-86.624137958458,36.0388914313233],[-86.6241543502298,36.0389003619947],[-86.6241721850887,36.0389072311553],[-86.6241910723442,36.0389118885106],[-86.6242105972823,36.0389142334619],[-86.6241681546325,36.0393457417527],[-86.6240160595683,36.0393321215115]]]},"properties":{"id":"268952","parcel":"16413020800","address":"617 BRIDGETTE CT","owner":"HUDSON, EARLE F., III & HANNAH M.","point":[-86.6240159410925,36.03902880806332]}},{"type":"Feature","id":"269068","geometry":{"type":"Polygon","coordinates":[[[-86.6244194962713,36.0393682551882],[-86.6242177784146,36.0393501867133],[-86.6241681546325,36.0393457417527],[-86.6242105972823,36.0389142334619],[-86.6242257952618,36.0389159888513],[-86.6242411433648,36.0389158056935],[-86.6242562698727,36.0389136886182],[-86.6242708089838,36.0389096890913],[-86.6242844063466,36.038903903584],[-86.6242967323772,36.0388964735037],[-86.6243051376884,36.0388864869554],[-86.6243152394792,36.038877596595],[-86.6243268206104,36.0388699901135],[-86.6243396382085,36.0388638282967],[-86.6243534214251,36.0388592423332],[-86.6243678780522,36.0388563283716],[-86.6244511988298,36.0393710948933],[-86.6244194962713,36.0393682551882]]]},"properties":{"id":"269068","parcel":"16413020900","address":"613 BRIDGETTE CT","owner":"SOUFFRANT, PATRICIA","point":[-86.62430085807284,36.0391311908516]}},{"type":"Feature","id":"269468","geometry":{"type":"Polygon","coordinates":[[[-86.6246212142267,36.0393863242266],[-86.6244511988298,36.0393710948933],[-86.6243678780522,36.0388563283716],[-86.6244082185783,36.0388511388254],[-86.6244481146267,36.0388440381362],[-86.6244874298899,36.0388350504444],[-86.6247809020206,36.0394006271696],[-86.6246212142267,36.0393863242266]]]},"properties":{"id":"269468","parcel":"16413021000","address":"609 BRIDGETTE CT","owner":"MORGAN, CHARLINE E.","point":[-86.6245209621258,36.03911406061588]}},{"type":"Feature","id":"269705","geometry":{"type":"Polygon","coordinates":[[[-86.6247728417119,36.0397730086862],[-86.6248037829972,36.0395451479894],[-86.6252744599739,36.0395873049459],[-86.6252527896881,36.0397469037501],[-86.6252494001765,36.0397584190571],[-86.6252437264913,36.0397693243278],[-86.6252359216687,36.0397793240472],[-86.6252261999617,36.0397881458155],[-86.6252148247049,36.0397955494252],[-86.625202105035,36.0398013331858],[-86.6251883881724,36.0398053402744],[-86.6251740461269,36.0398074615072],[-86.6251594701696,36.039807638073],[-86.6247728417119,36.0397730086862]]]},"properties":{"id":"269705","parcel":"16413013600","address":"5620 MURPHYWOOD XING","owner":"YOUSSEF, MARY MILAD","point":[-86.62502552478831,36.03966635998102]}},{"type":"Feature","id":"269709","geometry":{"type":"Polygon","coordinates":[[[-86.6239660019576,36.0397007403566],[-86.6240160595683,36.0393321215115],[-86.6241681546325,36.0393457417527],[-86.6242177784146,36.0393501867133],[-86.6241677206184,36.0397188056464],[-86.6240460924414,36.0397057693827],[-86.6239660019576,36.0397007403566]]]},"properties":{"id":"269709","parcel":"16413014000","address":"6016 MONROE XING","owner":"COWAN, DOROTHY R.","point":[-86.62409189020131,36.039525463604434]}},{"type":"Feature","id":"269796","geometry":{"type":"Polygon","coordinates":[[[-86.6296600454383,36.0393908748797],[-86.6296896490418,36.0393527255116],[-86.6298038150672,36.0394132749061],[-86.6297749517001,36.0394503064418],[-86.6296600454383,36.0393908748797]]]},"properties":{"id":"269796","parcel":"163160A03300CO","address":"1206 PARKSTONE LN","owner":"JOSEPH, CHARLES & NONA","point":[-86.62973219640304,36.039402075736305]}},{"type":"Feature","id":"269800","geometry":{"type":"Polygon","coordinates":[[[-86.62957383567,36.0395019637689],[-86.6296026473478,36.0394648370159],[-86.6297170447408,36.0395246029652],[-86.6296878044796,36.0395621168345],[-86.62957383567,36.0395019637689]]]},"properties":{"id":"269800","parcel":"163160A03600CO","address":"1200 PARKSTONE LN","owner":"CRAIG, LOMAN","point":[-86.62964533102272,36.03951328305117]}},{"type":"Feature","id":"271099","geometry":{"type":"Polygon","coordinates":[[[-86.6296312755678,36.0394279491541],[-86.6296600454383,36.0393908748797],[-86.6297749517001,36.0394503064418],[-86.6297465881385,36.0394866954441],[-86.6296312755678,36.0394279491541]]]},"properties":{"id":"271099","parcel":"163160A03400CO","address":"1204 PARKSTONE LN","owner":"MILLER, MELISSA & DENNIS & LORI","point":[-86.62970327703196,36.039439128324055]}},{"type":"Feature","id":"271103","geometry":{"type":"Polygon","coordinates":[[[-86.629856170347,36.0399703357343],[-86.6299327594747,36.0398507770802],[-86.6299897766843,36.039869615133],[-86.62991374777,36.0399895602507],[-86.629856170347,36.0399703357343]]]},"properties":{"id":"271103","parcel":"163160A03900CO","address":"5860 MONROE XING","owner":"SARKAR, SUBHANKAR","point":[-86.62992314314354,36.03991997597614]}},{"type":"Feature","id":"271236","geometry":{"type":"Polygon","coordinates":[[[-86.6247809020206,36.0394006271696],[-86.6244874298899,36.0388350504444],[-86.6245419870413,36.0388216864045],[-86.6245950901689,36.0388048968736],[-86.6246464138185,36.0387847844846],[-86.6247597938196,36.0389173258242],[-86.6248148374455,36.039023868194],[-86.6248419807773,36.0391514470531],[-86.6248336299832,36.0393253414404],[-86.6248201158535,36.0394248685516],[-86.6247809020206,36.0394006271696]]]},"properties":{"id":"271236","parcel":"16413021100","address":"605 BRIDGETTE CT","owner":"YAMASA CO., LTD","point":[-86.62472328616768,36.03908732865944]}}]}