{"type":"FeatureCollection","features":[{"type":"Feature","id":"108588","geometry":{"type":"Polygon","coordinates":[[[-86.6028672537665,36.2299949335013],[-86.6033467463863,36.2296484932414],[-86.603410781535,36.2297139613092],[-86.6034779577652,36.2297773317819],[-86.6035481675192,36.2298385033516],[-86.6036213032998,36.229897382821],[-86.6036972498293,36.2299538779334],[-86.6037758907438,36.2300079000422],[-86.6038571008138,36.2300593650515],[-86.6039146498046,36.2300920411572],[-86.6029121252047,36.2300116177377],[-86.6028999704766,36.2300093171513],[-86.602888303147,36.230005722652],[-86.602877332844,36.2300008998857],[-86.6028672537665,36.2299949335013]]]},"properties":{"id":"108588","parcel":"064030A90800CO","address":"0 SHUTE LN","owner":"BRANDYWINE POINTE COMMUNITY ASSOCIATION ","point":[-86.6033151130618,36.2298670495153]}},{"type":"Feature","id":"182803","geometry":{"type":"Polygon","coordinates":[[[-86.610286615374,36.2308077478951],[-86.6051967598842,36.2302879333398],[-86.605082747889,36.2302762872678],[-86.6049825150019,36.2302652128615],[-86.6048829802842,36.2302505812809],[-86.6047843341801,36.2302324204139],[-86.6046867694059,36.2302107644466],[-86.6045904731912,36.2301856575064],[-86.6044956305609,36.2301571464362],[-86.6044024266006,36.2301252861904],[-86.6043110408885,36.2300901389611],[-86.6042216486001,36.2300517732719],[-86.6041344238252,36.2300102612569],[-86.604049535166,36.229965684992],[-86.6039671456824,36.2299181292844],[-86.6038874151579,36.2298676870697],[-86.6038104967278,36.2298144549216],[-86.6037365402373,36.2297585357392],[-86.6036656866792,36.2297000387746],[-86.6035980748343,36.2296390750937],[-86.6035338346447,36.2295757639177],[-86.6034730893978,36.2295102272047],[-86.6034159579647,36.229442591441],[-86.6033625492313,36.229372986768],[-86.6033129665552,36.2293015478603],[-86.6032673066457,36.2292284130308],[-86.603225656221,36.2291537233456],[-86.603188097576,36.2290776234978],[-86.6031547030073,36.2290002600323],[-86.603125533708,36.2289217822531],[-86.603100650884,36.2288423412662],[-86.603080099083,36.2287620918652],[-86.6030639195082,36.2286811879589],[-86.6030521433788,36.2285997871103],[-86.6030447930013,36.2285180451243],[-86.6030418818041,36.2284361205528],[-86.6030428496361,36.2283719220662],[-86.603046427536,36.2283077853509],[-86.6030526137869,36.2282437780083],[-86.6033289050701,36.2261453267143],[-86.6033637978183,36.2259006210024],[-86.6043540240448,36.225682570843],[-86.6125604330291,36.2238842544497],[-86.6123529583689,36.2256422839487],[-86.6117233275637,36.2309548607915],[-86.610286615374,36.2308077478951]]]},"properties":{"id":"182803","parcel":"06400002201","address":"480 SHUTE LN","owner":"ANDREW JACKSON FOUNDATION","point":[-86.60767813404001,36.22720934963957]}},{"type":"Feature","id":"182808","geometry":{"type":"Polygon","coordinates":[[[-86.6038270526703,36.222938212411],[-86.604175283039,36.2205564740358],[-86.612877052207,36.2212482780666],[-86.6125604330291,36.2238842544497],[-86.6043540240448,36.225682570843],[-86.6033637978183,36.2259006210024],[-86.6033942045483,36.2256873694085],[-86.6034644874404,36.2251944630501],[-86.60380063677,36.2231188815225],[-86.6038270526703,36.222938212411]]]},"properties":{"id":"182808","parcel":"06400002300","address":"0 SHUTE LN","owner":"ANDREW JACKSON FOUNDATION","point":[-86.60817283633337,36.22350162289029]}},{"type":"Feature","id":"184172","geometry":{"type":"Polygon","coordinates":[[[-86.6010387255612,36.2201834834498],[-86.601054032895,36.2200950736588],[-86.6013457819433,36.2201197475894],[-86.6015411182284,36.2201458788864],[-86.6018197040929,36.2201831454233],[-86.6021286297884,36.2202244697783],[-86.6023676155211,36.2202564384842],[-86.6025955967882,36.2202869340135],[-86.6028290972641,36.2203181676235],[-86.6030871825256,36.2203526901361],[-86.6034703967322,36.2204039485264],[-86.6039687744495,36.2204706080288],[-86.6038081726977,36.2216752384015],[-86.6008737961249,36.2213086407533],[-86.6008887156621,36.2212034950469],[-86.6009023248536,36.2211075881941],[-86.6009172338076,36.2210025236423],[-86.6009309812751,36.220905645453],[-86.600944728709,36.2208087672595],[-86.6009614652493,36.2206908220367],[-86.6009777096897,36.2205763418345],[-86.6009949561317,36.2204548053088],[-86.6010095237791,36.2203521415342],[-86.6010387255612,36.2201834834498]]]},"properties":{"id":"184172","parcel":"06400006000","address":"563 SHUTE LN","owner":"TULIP GROVE BAPTIST CHURCH, TRS.","point":[-86.60242688455627,36.22086216277592]}},{"type":"Feature","id":"184681","geometry":{"type":"Polygon","coordinates":[[[-86.6018312376181,36.2247408115128],[-86.6018944522824,36.2244290937114],[-86.6033518581569,36.2246223787468],[-86.6032647165171,36.2251594022371],[-86.6030963684378,36.225143316684],[-86.6029145527188,36.2251259435538],[-86.6027327382055,36.2251085719468],[-86.602550923765,36.2250911991647],[-86.6023691071796,36.22507382612],[-86.6022532176422,36.2250627527431],[-86.6020868902892,36.2250468584888],[-86.6017752114665,36.2250170746007],[-86.6017999490857,36.2248950988365],[-86.6018312376181,36.2247408115128]]]},"properties":{"id":"184681","parcel":"06400004800","address":"509 SHUTE LN","owner":"CHURCH OF GOD AT PATHWAY CH.OF GOD, TRS.","point":[-86.60256745269092,36.22482045474214]}},{"type":"Feature","id":"184821","geometry":{"type":"Polygon","coordinates":[[[-86.5978954875253,36.2241454524296],[-86.5978901940621,36.2241231746788],[-86.5978564012405,36.2239719611157],[-86.5978262297431,36.2238202456461],[-86.5978261949351,36.2238200547549],[-86.5977967750745,36.2236383358832],[-86.5977713343827,36.2234562223853],[-86.5977498810599,36.223273772804],[-86.5977324210613,36.2230910429886],[-86.597723027849,36.2229685736062],[-86.5977145898726,36.2228327908365],[-86.5977083647679,36.2226969286161],[-86.597704352714,36.2225610121791],[-86.5976757885248,36.2209157419691],[-86.5988033454485,36.2210429273613],[-86.5999702951091,36.221201938565],[-86.6003922760366,36.2212517469947],[-86.6004097699519,36.2212538374373],[-86.6008737961249,36.2213086407533],[-86.6038081726977,36.2216752384015],[-86.603622498812,36.2229392348503],[-86.6035988522864,36.223100208725],[-86.6033518581569,36.2246223787468],[-86.6018944522824,36.2244290937114],[-86.6016457504882,36.224396108976],[-86.6014657639795,36.224372236513],[-86.6012850950645,36.2243482752525],[-86.6011044262587,36.2243243137216],[-86.6009237575552,36.2243003510191],[-86.6007430889541,36.224276387145],[-86.6005624204691,36.2242524239017],[-86.6003652567499,36.2242262730497],[-86.6001678282783,36.2242002484647],[-86.5999871311937,36.2241764278018],[-86.599806433119,36.2241526086763],[-86.5996257362584,36.2241287883737],[-86.5994120457776,36.2241006181162],[-86.5991983877451,36.2240724527276],[-86.5989476668043,36.2240395652892],[-86.5989458484615,36.2240397482458],[-86.5987203027927,36.2240624467169],[-86.5985386262251,36.2240807302988],[-86.5983569484616,36.2240990136129],[-86.5980637079608,36.2241285243206],[-86.5978954875253,36.2241454524296]]]},"properties":{"id":"184821","parcel":"06400003200","address":"535 SHUTE LN","owner":"NATIONAL HERITAGE OF TENN. INC.","point":[-86.6006783405127,36.222774797179845]}},{"type":"Feature","id":"186052","geometry":{"type":"Polygon","coordinates":[[[-86.5991153585334,36.2258979320609],[-86.6000786525108,36.2260260537501],[-86.600078646666,36.2260252814145],[-86.6006409872197,36.226100070744],[-86.6006409930768,36.2261008439807],[-86.603101461372,36.2264280458353],[-86.6028504183504,36.2282277556265],[-86.602843494091,36.2282974228354],[-86.6028396166464,36.2283672451714],[-86.6028387875779,36.2284371343053],[-86.6028412305415,36.2285163160348],[-86.6028474912248,36.2285953615478],[-86.6028575586892,36.2286741474282],[-86.6028714186938,36.2287525547824],[-86.6028890491972,36.2288304629526],[-86.6029104248413,36.2289077540012],[-86.6029355124675,36.2289843082268],[-86.6009016706768,36.2294377429254],[-86.6008396008754,36.2288773821127],[-86.5987344278615,36.2285937987896],[-86.5991153585334,36.2258979320609]]]},"properties":{"id":"186052","parcel":"06400008500","address":"0 SAUNDERSVILLE RD","owner":"GUY, KAREN LOUISE","point":[-86.60094557955989,36.227321146809196]}},{"type":"Feature","id":"190103","geometry":{"type":"Polygon","coordinates":[[[-86.6027996966987,36.225835685681],[-86.6028310701131,36.2256156637801],[-86.6028331255083,36.2256074468072],[-86.6028368635581,36.2255996306004],[-86.6028421780562,36.2255924373954],[-86.6028489159781,36.2255860761428],[-86.6028568840378,36.2255807271543],[-86.6028658520596,36.2255765465921],[-86.6028737597069,36.2255740782751],[-86.6028820124144,36.2255725193917],[-86.6028904513728,36.225571903179],[-86.602898915377,36.2255722403554],[-86.6030333582032,36.2255852167419],[-86.602984995127,36.2259243785517],[-86.6027996966987,36.225835685681]]]},"properties":{"id":"190103","parcel":"064110A00100CO","address":"101 CHADDS CT","owner":"GARR, ANN MARIE REVOCABLE TRUST","point":[-86.60291430966396,36.22572600306083]}},{"type":"Feature","id":"190104","geometry":{"type":"Polygon","coordinates":[[[-86.6025051151992,36.2261806378643],[-86.6025701019284,36.2258607907965],[-86.6027507575526,36.2258848385317],[-86.6026857704132,36.2262046847989],[-86.6025051151992,36.2261806378643]]]},"properties":{"id":"190104","parcel":"064110A00300CO","address":"103 CHADDS CT","owner":"COLVARD, MARGARET K.","point":[-86.6026279363052,36.22603273826329]}},{"type":"Feature","id":"190105","geometry":{"type":"Polygon","coordinates":[[[-86.6023825735077,36.2258705871783],[-86.6024435769123,36.2258439477272],[-86.6025701019284,36.2258607907965],[-86.6025051151992,36.2261806378643],[-86.602324460081,36.2261565888569],[-86.6023825735077,36.2258705871783]]]},"properties":{"id":"190105","parcel":"064110A00400CO","address":"104 CHADDS CT","owner":"MULLICAN, LOVELL DAVIS, III","point":[-86.60244622412138,36.22601389607227]}},{"type":"Feature","id":"190106","geometry":{"type":"Polygon","coordinates":[[[-86.6022306988417,36.2257908004547],[-86.6022856329528,36.2255126581587],[-86.6023105454039,36.2255154107013],[-86.60242760201,36.2255267206385],[-86.6024379910939,36.2255284767154],[-86.6024478482448,36.225531664815],[-86.6024568746258,36.2255361881929],[-86.6024647966876,36.2255419112245],[-86.6024713761797,36.2255486593563],[-86.6024764124422,36.2255562281059],[-86.6024797535849,36.2255643902168],[-86.6024812998366,36.225572897444],[-86.6024810025363,36.2255814940771],[-86.6024513674896,36.2257893179094],[-86.6022272583668,36.2258082224032],[-86.6022306988417,36.2257908004547]]]},"properties":{"id":"190106","parcel":"064110A00600CO","address":"106 CHADDS CT","owner":"MORENO, JESUS ROMAN & ORTEGA, VANIA DESIREE ROMERO","point":[-86.60235892025568,36.22568504958685]}},{"type":"Feature","id":"190107","geometry":{"type":"Polygon","coordinates":[[[-86.601830621946,36.225762375773],[-86.601841616265,36.2257081635301],[-86.6020478581739,36.2257774867181],[-86.6021569498861,36.2258141534204],[-86.6020936216207,36.2261258618876],[-86.6018627844379,36.226095132669],[-86.6019207682079,36.2258091282566],[-86.601830621946,36.225762375773]]]},"properties":{"id":"190107","parcel":"064110A00900CO","address":"202 CAMERON CT","owner":"OREL, BOBBI J","point":[-86.60200983710483,36.22595464303753]}},{"type":"Feature","id":"190108","geometry":{"type":"Polygon","coordinates":[[[-86.6012197043878,36.2253525544486],[-86.6012493868773,36.2252061818975],[-86.6015772431491,36.2252498098703],[-86.6015475601361,36.2253961825057],[-86.6012197043878,36.2253525544486]]]},"properties":{"id":"190108","parcel":"064110A01600CO","address":"209 CAMERON CT","owner":"KING, CHARLES B. SR. & VALERIE HAWKINS","point":[-86.60139847368636,36.22530118229329]}},{"type":"Feature","id":"190109","geometry":{"type":"Polygon","coordinates":[[[-86.6008621702682,36.225455298839],[-86.6008918534561,36.2253089263801],[-86.6012197043878,36.2253525544486],[-86.6011900217819,36.225498926085],[-86.6008621702682,36.225455298839]]]},"properties":{"id":"190109","parcel":"064110A02100CO","address":"404 N CAMERON CT","owner":"BRUST, VALERIE","point":[-86.6010409374093,36.22540392677817]}},{"type":"Feature","id":"190110","geometry":{"type":"Polygon","coordinates":[[[-86.6006784890575,36.2259374731753],[-86.6007433529207,36.2256176412332],[-86.6008269894755,36.2256287773611],[-86.6009171349869,36.2256755296943],[-86.6008591431841,36.2259615255471],[-86.6006784890575,36.2259374731753]]]},"properties":{"id":"190110","parcel":"064110A02400CO","address":"407 N CAMERON CT","owner":"MITCHELL, BILLIE C.","point":[-86.60079781434668,36.22580650150406]}},{"type":"Feature","id":"190717","geometry":{"type":"Polygon","coordinates":[[[-86.6022272583668,36.2258082224032],[-86.6024513674896,36.2257893179094],[-86.6024435769123,36.2258439477272],[-86.6023825735077,36.2258705871783],[-86.602324460081,36.2261565888569],[-86.6020936216207,36.2261258618876],[-86.6021569498861,36.2258141534204],[-86.6022272583668,36.2258082224032]]]},"properties":{"id":"190717","parcel":"064110A00500CO","address":"105 CHADDS CT","owner":"MOORE, RONALD W. & ROBIN G.","point":[-86.60223809585277,36.22599822461652]}},{"type":"Feature","id":"190722","geometry":{"type":"Polygon","coordinates":[[[-86.601841616265,36.2257081635301],[-86.6018905242114,36.2254669753471],[-86.6018931035221,36.2254587476684],[-86.6018973805342,36.2254509991021],[-86.6019032301713,36.2254439573844],[-86.6019104804842,36.2254378297563],[-86.6019189170589,36.2254327975348],[-86.6019283162687,36.2254290006253],[-86.6019383798619,36.2254265657866],[-86.6019488091765,36.2254255657052],[-86.6019592963101,36.2254260280514],[-86.6019695297295,36.2254279417604],[-86.6019792075493,36.2254312479535],[-86.6020211935086,36.2254481352691],[-86.602064143374,36.2254633459606],[-86.602107956778,36.2254768462801],[-86.6020478581739,36.2257774867181],[-86.601841616265,36.2257081635301]]]},"properties":{"id":"190722","parcel":"064110A00800CO","address":"909 CHASE BLVD","owner":"JENKINS, KEITH K.","point":[-86.60197495336756,36.225592505535886]}},{"type":"Feature","id":"190727","geometry":{"type":"Polygon","coordinates":[[[-86.6015014728795,36.2260470342748],[-86.60156633122,36.2257271928999],[-86.6017469862354,36.2257512421373],[-86.6016821286107,36.2260710845083],[-86.6015014728795,36.2260470342748]]]},"properties":{"id":"190727","parcel":"064110A01100CO","address":"204 CAMERON CT","owner":"STANLEY, CASANDRA","point":[-86.60162422983177,36.22589913827243]}},{"type":"Feature","id":"190733","geometry":{"type":"Polygon","coordinates":[[[-86.6012493868773,36.2252061818975],[-86.6012790681449,36.2250598093385],[-86.6013674961367,36.2249316224733],[-86.6014070603521,36.2249527840365],[-86.601444418821,36.2249764322837],[-86.6014793323631,36.2250024160976],[-86.6015115806103,36.2250305716505],[-86.6015409586491,36.2250607197165],[-86.6015672781463,36.2250926674683],[-86.601590372945,36.2251262129559],[-86.6015940315766,36.2251334263045],[-86.6015962437182,36.225141016367],[-86.6015969556565,36.2251487941498],[-86.6015961503493,36.2251565659708],[-86.6015772431491,36.2252498098703],[-86.6012493868773,36.2252061818975]]]},"properties":{"id":"190733","parcel":"064110A01700CO","address":"210 CAMERON CT","owner":"SITLER, LOWELL J.","point":[-86.60141497537124,36.22507623018695]}},{"type":"Feature","id":"190737","geometry":{"type":"Polygon","coordinates":[[[-86.6027507575526,36.2258848385317],[-86.6027996966987,36.225835685681],[-86.602984995127,36.2259243785517],[-86.6029400610272,36.2262385344426],[-86.6026857704132,36.2262046847989],[-86.6027507575526,36.2258848385317]]]},"properties":{"id":"190737","parcel":"064110A00200CO","address":"102 CHADDS CT","owner":"MYLOTT, JESSICA & ANTHONY","point":[-86.60283960808873,36.22606454579575]}},{"type":"Feature","id":"190739","geometry":{"type":"Polygon","coordinates":[[[-86.6009512172787,36.225016181433],[-86.6009739359553,36.2249041529906],[-86.6009760009501,36.2248971797156],[-86.6009792896501,36.2248905211943],[-86.6009837341596,36.2248843183583],[-86.6009892375821,36.2248787014686],[-86.6009956862552,36.2248737900546],[-86.6010036401546,36.2248693542168],[-86.6010123574339,36.2248659897624],[-86.6010216207237,36.2248637815886],[-86.6010311979762,36.2248627858257],[-86.6010810531587,36.224862519713],[-86.6011307615928,36.2248656384764],[-86.6011799727418,36.2248721204282],[-86.6012283403404,36.2248819204282],[-86.6012755246184,36.2248949698717],[-86.601321194512,36.2249111748767],[-86.6013650277179,36.2249304234928],[-86.6013674961367,36.2249316224733],[-86.6012790681449,36.2250598093385],[-86.6009512172787,36.225016181433]]]},"properties":{"id":"190739","parcel":"064110A01800CO","address":"401 N CAMERON CT","owner":"DAVIS, MCKAYLA & SMEDLEY, GABRIELLE","point":[-86.60114892286632,36.2249738673567]}},{"type":"Feature","id":"190740","geometry":{"type":"Polygon","coordinates":[[[-86.6016821286107,36.2260710845083],[-86.6017469862354,36.2257512421373],[-86.601830621946,36.225762375773],[-86.6019207682079,36.2258091282566],[-86.6018627844379,36.226095132669],[-86.6016821286107,36.2260710845083]]]},"properties":{"id":"190740","parcel":"064110A01000CO","address":"203 CAMERON CT","owner":"BROWN, JANA B & SMITH, NOAH J","point":[-86.60180145126111,36.22594010645345]}},{"type":"Feature","id":"190744","geometry":{"type":"Polygon","coordinates":[[[-86.6003751715692,36.2256033810508],[-86.6004927462928,36.2255842778609],[-86.6005627007386,36.2255935904827],[-86.6004978339487,36.2259134232422],[-86.6003171767181,36.2258893721487],[-86.6003751715692,36.2256033810508]]]},"properties":{"id":"190744","parcel":"064110A02600CO","address":"409 N CAMERON CT","owner":"LEONARDO, TAMI R.","point":[-86.6004388810803,36.225746686207486]}},{"type":"Feature","id":"190842","geometry":{"type":"Polygon","coordinates":[[[-86.6001495611025,36.2255469227558],[-86.600498248822,36.2255293269879],[-86.6004927462928,36.2255842778609],[-86.6003751715692,36.2256033810508],[-86.6003171767181,36.2258893721487],[-86.6000863431436,36.2258586404232],[-86.6001495611025,36.2255469227558]]]},"properties":{"id":"190842","parcel":"064110A02700CO","address":"410 N CAMERON CT","owner":"BRYANT, RICHARD IAN & NGUYEN, HANH THI-HONG","point":[-86.6002307586664,36.22573101083056]}},{"type":"Feature","id":"190847","geometry":{"type":"Polygon","coordinates":[[[-86.6001495611025,36.2255469227558],[-86.6001863892078,36.2253653133504],[-86.6005103508914,36.2254084471574],[-86.600498248822,36.2255293269879],[-86.6001495611025,36.2255469227558]]]},"properties":{"id":"190847","parcel":"064110A02800CO","address":"411 N CAMERON CT","owner":"NAIL, AMY B","point":[-86.60033495751759,36.22546832158068]}},{"type":"Feature","id":"190853","geometry":{"type":"Polygon","coordinates":[[[-86.6001863892078,36.2253653133504],[-86.6002171695691,36.2252135470787],[-86.6005257517727,36.2252546294323],[-86.6005103508914,36.2254084471574],[-86.6001863892078,36.2253653133504]]]},"properties":{"id":"190853","parcel":"064110A02900CO","address":"412 N CAMERON CT","owner":"KEMPF, LAURA","point":[-86.60035893822592,36.22530998109009]}},{"type":"Feature","id":"190859","geometry":{"type":"Polygon","coordinates":[[[-86.5998068334608,36.2254929581121],[-86.5998178995597,36.2254380580514],[-86.6001495611025,36.2255469227558],[-86.6000863431436,36.2258586404232],[-86.6000773768422,36.2258574863159],[-86.599855290389,36.225828907021],[-86.599911692741,36.2255490696294],[-86.5998068334608,36.2254929581121]]]},"properties":{"id":"190859","parcel":"064110A03100CO","address":"502 N CLUB CT","owner":"GILLIE, GEORGE W. ET UX","point":[-86.60000204020378,36.22568938467848]}},{"type":"Feature","id":"191246","geometry":{"type":"Polygon","coordinates":[[[-86.6009215365345,36.2251625539078],[-86.6009512172787,36.225016181433],[-86.6012790681449,36.2250598093385],[-86.6012493868773,36.2252061818975],[-86.6009215365345,36.2251625539078]]]},"properties":{"id":"191246","parcel":"064110A01900CO","address":"402 N CAMERON CT","owner":"LAWSON, MARY RUTH","point":[-86.60110030225762,36.22511118175697]}},{"type":"Feature","id":"191250","geometry":{"type":"Polygon","coordinates":[[[-86.6008379833498,36.225574565213],[-86.6008621702682,36.225455298839],[-86.6011900217819,36.225498926085],[-86.6011531936954,36.2256805367018],[-86.6008379833498,36.225574565213]]]},"properties":{"id":"191250","parcel":"064110A02200CO","address":"405 N CAMERON CT","owner":"STANLEY, ROBERT  C & GARTON, CARA L","point":[-86.60101400279308,36.2255367457796]}},{"type":"Feature","id":"191252","geometry":{"type":"Polygon","coordinates":[[[-86.6008269894755,36.2256287773611],[-86.6008379833498,36.225574565213],[-86.6011531936954,36.2256805367018],[-86.6010899806808,36.2259922539758],[-86.6008591431841,36.2259615255471],[-86.6009171349869,36.2256755296943],[-86.6008269894755,36.2256287773611]]]},"properties":{"id":"191252","parcel":"064110A02300CO","address":"406 N CAMERON CT","owner":"GARTON, JOSHUA D.","point":[-86.60100616721766,36.22582103121311]}},{"type":"Feature","id":"191324","geometry":{"type":"Polygon","coordinates":[[[-86.5998178995597,36.2254380580514],[-86.599869009414,36.2253230535394],[-86.600073538541,36.2253502870567],[-86.6001863892078,36.2253653133504],[-86.6001495611025,36.2255469227558],[-86.5998178995597,36.2254380580514]]]},"properties":{"id":"191324","parcel":"064110A03000CO","address":"501 N CLUB CT","owner":"ARREDONDO, JOE FAUSTO & MOBERG, STAR JEANIE RLT","point":[-86.60000660344943,36.22540170074893]}},{"type":"Feature","id":"191563","geometry":{"type":"Polygon","coordinates":[[[-86.5999919576724,36.2245718961713],[-86.600298444435,36.2245570701041],[-86.6003132882687,36.2247094424304],[-86.6000111792114,36.2247382647134],[-86.5999919576724,36.2245718961713]]]},"properties":{"id":"191563","parcel":"064110A06600CO","address":"602 S CLUB CT","owner":"MARTIN, BETTY SWINK","point":[-86.60015324154445,36.22464067147568]}},{"type":"Feature","id":"191566","geometry":{"type":"Polygon","coordinates":[[[-86.6000700940082,36.2248951154043],[-86.6000612083145,36.2248926928471],[-86.6000528862271,36.2248891968132],[-86.6000453230142,36.2248847083456],[-86.6000386974577,36.2248793347055],[-86.6000331640127,36.224873202201],[-86.6000288583616,36.2248664552582],[-86.6000258773737,36.2248592538172],[-86.6000242924035,36.2248517669572],[-86.6000111792114,36.2247382647134],[-86.6003132882687,36.2247094424304],[-86.6003283878493,36.2248644405996],[-86.6000950484691,36.2248959593624],[-86.6000867088054,36.2248966082328],[-86.6000783387253,36.2248963244677],[-86.6000700940082,36.2248951154043]]]},"properties":{"id":"191566","parcel":"064110A06700CO","address":"601 S CLUB CT","owner":"HAMRICK, BILLY, JR. & TONYA","point":[-86.60016972969274,36.22479552380595]}},{"type":"Feature","id":"191569","geometry":{"type":"Polygon","coordinates":[[[-86.6014006499555,36.2246895115941],[-86.6014657639795,36.224372236513],[-86.6016457504882,36.224396108976],[-86.6015876412135,36.2246837452467],[-86.601487346328,36.2247036773274],[-86.6014006499555,36.2246895115941]]]},"properties":{"id":"191569","parcel":"064110A07500CO","address":"303 S CAMERON CT","owner":"CANTRELL, STEPHEN E. ET UX","point":[-86.60152408578709,36.224539618753624]}},{"type":"Feature","id":"191572","geometry":{"type":"Polygon","coordinates":[[[-86.6014763919955,36.2247578956627],[-86.6018312376181,36.2247408115128],[-86.6017999490857,36.2248950988365],[-86.6015422125634,36.2249293870964],[-86.6015118772682,36.224909995622],[-86.6014829034447,36.2248892824472],[-86.6014758139568,36.2248842022971],[-86.6014697782436,36.2248782967683],[-86.6014649430652,36.2248717039217],[-86.6014614231036,36.2248645854099],[-86.6014593041966,36.2248571129431],[-86.6014586377359,36.2248494629089],[-86.6014594373779,36.2248418226978],[-86.6014763919955,36.2247578956627]]]},"properties":{"id":"191572","parcel":"064110A07700CO","address":"301 S CAMERON CT","owner":"HAMBRICK, DEBBIE","point":[-86.60164347038446,36.22480044375062]}},{"type":"Feature","id":"191574","geometry":{"type":"Polygon","coordinates":[[[-86.6020835070455,36.2253744743442],[-86.6022532176422,36.2250627527431],[-86.6023691071796,36.22507382612],[-86.6023176240775,36.2254275294872],[-86.6022574879909,36.2254193847024],[-86.6021982233261,36.2254077855865],[-86.6021401308572,36.2253927901235],[-86.6020835070455,36.2253744743442]]]},"properties":{"id":"191574","parcel":"064110A07900CO","address":"908 CHASE BLVD","owner":"STRAIN, SANDRA REVOCABLE TRUST","point":[-86.6022563133434,36.22522425006404]}},{"type":"Feature","id":"191578","geometry":{"type":"Polygon","coordinates":[[[-86.602862976426,36.2254802415442],[-86.6029145527188,36.2251259435538],[-86.6030963684378,36.225143316684],[-86.6030458084055,36.2254978953744],[-86.602862976426,36.2254802415442]]]},"properties":{"id":"191578","parcel":"064110A08300CO","address":"900 CHASE BLVD","owner":"VAUGHN, GEORGE T., JR. (LE) & GEORGE T., III","point":[-86.60297992394719,36.2253117800086]}},{"type":"Feature","id":"191974","geometry":{"type":"Polygon","coordinates":[[[-86.6020478581739,36.2257774867181],[-86.602107956778,36.2254768462801],[-86.6021303076574,36.2254829840784],[-86.6021813814034,36.2254951918461],[-86.6022332084873,36.2255050931613],[-86.6022856329528,36.2255126581587],[-86.6022306988417,36.2257908004547],[-86.6022272583668,36.2258082224032],[-86.6021569498861,36.2258141534204],[-86.6020478581739,36.2257774867181]]]},"properties":{"id":"191974","parcel":"064110A00700CO","address":"907 CHASE BLVD","owner":"GRIFFIS, EMILY J. & WEILAND, SUSAN D.","point":[-86.60216690466143,36.22564507302847]}},{"type":"Feature","id":"191976","geometry":{"type":"Polygon","coordinates":[[[-86.6013788252096,36.2257369840082],[-86.6014826944713,36.2257160590868],[-86.60156633122,36.2257271928999],[-86.6015014728795,36.2260470342748],[-86.6013208172714,36.2260229855735],[-86.6013788252096,36.2257369840082]]]},"properties":{"id":"191976","parcel":"064110A01200CO","address":"205 CAMERON CT","owner":"GAMMON, ANN S.","point":[-86.60144252189116,36.225880293600476]}},{"type":"Feature","id":"191978","geometry":{"type":"Polygon","coordinates":[[[-86.6011531936954,36.2256805367018],[-86.6014936879095,36.2256618468804],[-86.6014826944713,36.2257160590868],[-86.6013788252096,36.2257369840082],[-86.6013208172714,36.2260229855735],[-86.6010899806808,36.2259922539758],[-86.6011531936954,36.2256805367018]]]},"properties":{"id":"191978","parcel":"064110A01300CO","address":"206 CAMERON CT","owner":"MEANS, ADAM S.","point":[-86.60123440080444,36.22586461907407]}},{"type":"Feature","id":"191980","geometry":{"type":"Polygon","coordinates":[[[-86.6011531936954,36.2256805367018],[-86.6011900217819,36.225498926085],[-86.6015178792314,36.2255425542153],[-86.6014936879095,36.2256618468804],[-86.6011531936954,36.2256805367018]]]},"properties":{"id":"191980","parcel":"064110A01400CO","address":"207 CAMERON CT","owner":"ROBINSON, PHYLLIS JEAN","point":[-86.60133754504784,36.22560164015044]}},{"type":"Feature","id":"191982","geometry":{"type":"Polygon","coordinates":[[[-86.6011900217819,36.225498926085],[-86.6012197043878,36.2253525544486],[-86.6015475601361,36.2253961825057],[-86.6015178792314,36.2255425542153],[-86.6011900217819,36.225498926085]]]},"properties":{"id":"191982","parcel":"064110A01500CO","address":"208 CAMERON CT","owner":"HEADD, GINEAN R","point":[-86.6013687912709,36.225447554430495]}},{"type":"Feature","id":"191984","geometry":{"type":"Polygon","coordinates":[[[-86.6008918534561,36.2253089263801],[-86.6009215365345,36.2251625539078],[-86.6012493868773,36.2252061818975],[-86.6012197043878,36.2253525544486],[-86.6008918534561,36.2253089263801]]]},"properties":{"id":"191984","parcel":"064110A02000CO","address":"403 N CAMERON CT","owner":"BURGESS, AMANDA L","point":[-86.6010706202816,36.22525755427329]}},{"type":"Feature","id":"191986","geometry":{"type":"Polygon","coordinates":[[[-86.6004978339487,36.2259134232422],[-86.6005627007386,36.2255935904827],[-86.6007433529207,36.2256176412332],[-86.6006784890575,36.2259374731753],[-86.6004978339487,36.2259134232422]]]},"properties":{"id":"191986","parcel":"064110A02500CO","address":"408 N CAMERON CT","owner":"STURM, TANYA","point":[-86.60062059413576,36.22576553230551]}},{"type":"Feature","id":"192783","geometry":{"type":"Polygon","coordinates":[[[-86.6008586402957,36.2246176240177],[-86.6009237575552,36.2243003510191],[-86.6011044262587,36.2243243137216],[-86.6010393097023,36.2246415868154],[-86.6008586402957,36.2246176240177]]]},"properties":{"id":"192783","parcel":"064110A07200CO","address":"306 S CAMERON CT","owner":"RICHARDSON, CYNTHIA LEIGH","point":[-86.6009815335059,36.22447096893598]}},{"type":"Feature","id":"192786","geometry":{"type":"Polygon","coordinates":[[[-86.6010393097023,36.2246415868154],[-86.6011044262587,36.2243243137216],[-86.6012850950645,36.2243482752525],[-86.6012199792182,36.2246655493427],[-86.6010393097023,36.2246415868154]]]},"properties":{"id":"192786","parcel":"064110A07300CO","address":"305 S CAMERON CT","owner":"CAMERON, MAUREEN P. & PRIEBE, THELMA B.","point":[-86.60116220265652,36.224494931100416]}},{"type":"Feature","id":"192789","geometry":{"type":"Polygon","coordinates":[[[-86.6018550906934,36.2252544099937],[-86.6020868902892,36.2250468584888],[-86.6022532176422,36.2250627527431],[-86.6020835070455,36.2253744743442],[-86.6020342125328,36.2253553054819],[-86.6019865307213,36.2253336213051],[-86.6019406602769,36.2253095100487],[-86.6018967865925,36.2252830699277],[-86.6018550906934,36.2252544099937]]]},"properties":{"id":"192789","parcel":"064110A07800CO","address":"910 CHASE BLVD","owner":"MAYO, GARY & ELVIRA CLARO","point":[-86.60208161793076,36.225158672867806]}},{"type":"Feature","id":"192792","geometry":{"type":"Polygon","coordinates":[[[-86.6024993953739,36.2254451317531],[-86.602550923765,36.2250911991647],[-86.6027327382055,36.2251085719468],[-86.6026811864158,36.2254626867827],[-86.6024993953739,36.2254451317531]]]},"properties":{"id":"192792","parcel":"064110A08100CO","address":"904 CHASE BLVD","owner":"HUFFINE, FAYE","point":[-86.60261606759181,36.225276851912575]}},{"type":"Feature","id":"193250","geometry":{"type":"Polygon","coordinates":[[[-86.6001083256457,36.2244965581882],[-86.6001678282783,36.2242002484647],[-86.6003652567499,36.2242262730497],[-86.6002984372087,36.2245569971394],[-86.600298444435,36.2245570701041],[-86.5999919576724,36.2245718961713],[-86.5999856374362,36.2245171969007],[-86.6001083256457,36.2244965581882]]]},"properties":{"id":"193250","parcel":"064110A06500CO","address":"603 S CLUB CT","owner":"KENNEDY FAMILY LIVING TRUST, THE","point":[-86.60023670813652,36.224361415412595]}},{"type":"Feature","id":"193254","geometry":{"type":"Polygon","coordinates":[[[-86.6005032159504,36.2245403210421],[-86.6005624204691,36.2242524239017],[-86.6007430889541,36.224276387145],[-86.6006779709982,36.2245936609495],[-86.6005924553058,36.2245823186675],[-86.6005032159504,36.2245403210421]]]},"properties":{"id":"193254","parcel":"064110A07000CO","address":"308 S CAMERON CT","owner":"NICHOLS, LINDA S.","point":[-86.60062317911321,36.22440835424468]}},{"type":"Feature","id":"193257","geometry":{"type":"Polygon","coordinates":[[[-86.6006779709982,36.2245936609495],[-86.6007430889541,36.224276387145],[-86.6009237575552,36.2243003510191],[-86.6008586402957,36.2246176240177],[-86.6006779709982,36.2245936609495]]]},"properties":{"id":"193257","parcel":"064110A07100CO","address":"307 S CAMERON CT","owner":"HEAD, BILLY C. & PATSY B.","point":[-86.60080086446105,36.22444700605048]}},{"type":"Feature","id":"193261","geometry":{"type":"Polygon","coordinates":[[[-86.6012199792182,36.2246655493427],[-86.6012850950645,36.2243482752525],[-86.6014657639795,36.224372236513],[-86.6014006499555,36.2246895115941],[-86.6012199792182,36.2246655493427]]]},"properties":{"id":"193261","parcel":"064110A07400CO","address":"304 S CAMERON CT","owner":"HENDERSON, JUDY C.","point":[-86.60134287212914,36.22451889299518]}},{"type":"Feature","id":"193264","geometry":{"type":"Polygon","coordinates":[[[-86.6023176240775,36.2254275294872],[-86.6023691071796,36.22507382612],[-86.602550923765,36.2250911991647],[-86.6024993953739,36.2254451317531],[-86.6023271684978,36.2254285011982],[-86.6023176240775,36.2254275294872]]]},"properties":{"id":"193264","parcel":"064110A08000CO","address":"906 CHASE BLVD","owner":"WINECOFF, TIM M & KIM A","point":[-86.6024342711408,36.225259364376655]}},{"type":"Feature","id":"193587","geometry":{"type":"Polygon","coordinates":[[[-86.599922898024,36.2244963617733],[-86.5999871311937,36.2241764278018],[-86.6001678282783,36.2242002484647],[-86.6001083256457,36.2244965581882],[-86.5999856374362,36.2245171969007],[-86.599922898024,36.2244963617733]]]},"properties":{"id":"193587","parcel":"064110A06400CO","address":"604 S CLUB CT","owner":"DOUBLEDAY, GEORGE G.","point":[-86.60004540255927,36.224348093610196]}},{"type":"Feature","id":"193593","geometry":{"type":"Polygon","coordinates":[[[-86.6003132882687,36.2247094424304],[-86.600298444435,36.2245570701041],[-86.6002984372087,36.2245569971394],[-86.600587463949,36.2246396841514],[-86.6005720270667,36.2247938571812],[-86.6005716447451,36.2247966889841],[-86.6005695603733,36.2248043391819],[-86.600566011666,36.2248116253484],[-86.6005610862392,36.2248183667995],[-86.6005549084961,36.2248243934828],[-86.6005476341201,36.2248295532154],[-86.6005394445612,36.2248337180196],[-86.6005305459103,36.2248367823265],[-86.6005211622728,36.2248386693173],[-86.6003283878493,36.2248644405996],[-86.6003132882687,36.2247094424304]]]},"properties":{"id":"193593","parcel":"064110A06800CO","address":"914 CHASE BLVD","owner":"BARKLEY, DONNA M.","point":[-86.60044678388613,36.22475166365357]}},{"type":"Feature","id":"193599","geometry":{"type":"Polygon","coordinates":[[[-86.6002984372087,36.2245569971394],[-86.6003652567499,36.2242262730497],[-86.6005624204691,36.2242524239017],[-86.6005032159504,36.2245403210421],[-86.6005924553058,36.2245823186675],[-86.600587463949,36.2246396841514],[-86.6002984372087,36.2245569971394]]]},"properties":{"id":"193599","parcel":"064110A06900CO","address":"309 S CAMERON CT","owner":"PARSONS, SAVANNAH INEZ","point":[-86.60043192215721,36.2243960356076]}},{"type":"Feature","id":"193605","geometry":{"type":"Polygon","coordinates":[[[-86.6015876412135,36.2246837452467],[-86.6016457504882,36.224396108976],[-86.6018944522824,36.2244290937114],[-86.6018312376181,36.2247408115128],[-86.6014763919955,36.2247578956627],[-86.601487346328,36.2247036773274],[-86.6015876412135,36.2246837452467]]]},"properties":{"id":"193605","parcel":"064110A07600CO","address":"302 S CAMERON CT","owner":"SANDERS, LAKIN & HENRY II","point":[-86.60174099758024,36.22455641941581]}},{"type":"Feature","id":"193611","geometry":{"type":"Polygon","coordinates":[[[-86.6026811864158,36.2254626867827],[-86.6027327382055,36.2251085719468],[-86.6029145527188,36.2251259435538],[-86.602862976426,36.2254802415442],[-86.6026811864158,36.2254626867827]]]},"properties":{"id":"193611","parcel":"064110A08200CO","address":"902 CHASE BLVD","owner":"REGISTER, NORIKO MURAKOSHI","point":[-86.60279787013772,36.22529431523012]}},{"type":"Feature","id":"241832","geometry":{"type":"Polygon","coordinates":[[[-86.6009016706768,36.2294377429254],[-86.6029355124675,36.2289843082268],[-86.6029649240586,36.2290616105223],[-86.6029981200831,36.2291378998479],[-86.6030350473527,36.2292130556998],[-86.6030756482221,36.2292869566948],[-86.6031198561876,36.2293594869013],[-86.6031676025133,36.2294305294972],[-86.6032188095907,36.2294999713096],[-86.6032597851542,36.2295504137528],[-86.6033024412322,36.2295999339294],[-86.6033467463863,36.2296484932414],[-86.6028672537665,36.2299949335013],[-86.6027265511825,36.2300965927053],[-86.6025781536803,36.2301973510329],[-86.6009756070675,36.2301052283103],[-86.6009016706768,36.2294377429254]]]},"properties":{"id":"241832","parcel":"06400012100","address":"455 SHUTE LN","owner":"ARANGO, DANIKA JOYCE 2025 TRUST","point":[-86.60209856768306,36.229571247176374]}}]}