{"type":"FeatureCollection","features":[{"type":"Feature","id":"267730","geometry":{"type":"Polygon","coordinates":[[[-86.6488371125212,36.1848267276974],[-86.6491066817567,36.1846406753012],[-86.6493762666444,36.1844568248716],[-86.6496215799972,36.184288485264],[-86.64977522997,36.184182172685],[-86.6499073196904,36.18409135861],[-86.6498306190916,36.183663234246],[-86.649807817442,36.1835271042071],[-86.6497429906388,36.1835354824198],[-86.6496789411332,36.1835471441962],[-86.6496159220357,36.1835620458164],[-86.6495541818702,36.1835801264619],[-86.6494939646339,36.1836013154251],[-86.6492549467719,36.1832136208517],[-86.6489040246962,36.1833957128646],[-86.6486250883482,36.1830983373774],[-86.6486763000823,36.1827310554307],[-86.6488536644218,36.1825411070501],[-86.6490336977577,36.1823467477173],[-86.6492377015201,36.1824313557116],[-86.6495287543864,36.1825528593109],[-86.6497939471156,36.1821646499431],[-86.6500360826117,36.1822710329797],[-86.6500585970305,36.1822840439508],[-86.6500791234633,36.1822990610044],[-86.6500973901425,36.1823158864274],[-86.6501131584507,36.1823342979942],[-86.6501262196297,36.1823540543921],[-86.650142690473,36.1823792387174],[-86.6501652340564,36.182401093539],[-86.6501928264514,36.1824188006204],[-86.6502241080303,36.1824318184163],[-86.65025805259,36.1824390520175],[-86.6502933072629,36.182440785395],[-86.650328173339,36.1824364770311],[-86.6503613013,36.1824266839629],[-86.6503909969811,36.1824116902021],[-86.6504165867278,36.1823917733626],[-86.6504363842831,36.1823683169484],[-86.6504500651248,36.1823421464589],[-86.6504569545563,36.1823140892799],[-86.6504563779514,36.1822855234633],[-86.6504490346944,36.182257817854],[-86.65043459027,36.1822317989029],[-86.6504140686444,36.1822085597219],[-86.6503881591757,36.1821894674049],[-86.6503578813752,36.1821748012531],[-86.6507916602987,36.1815197655517],[-86.6516963734352,36.1817654152872],[-86.652136462083,36.18187950988],[-86.6526542226105,36.1822085562372],[-86.6513291627217,36.183263980942],[-86.6525174051531,36.1837014851083],[-86.6524771163153,36.1837484663404],[-86.6524396280101,36.1837969474343],[-86.652405026056,36.1838468188769],[-86.6523733884604,36.183897967592],[-86.652344786539,36.1839502778358],[-86.652319284916,36.1840036311968],[-86.6522993841062,36.1840519667382],[-86.6522753996978,36.18409906889],[-86.6522474454264,36.1841447090175],[-86.6522156562401,36.1841886691863],[-86.6521801860385,36.1842307376681],[-86.6521326871037,36.1842963902913],[-86.6520880895234,36.18436336739],[-86.6520460233995,36.1844264310639],[-86.652001469806,36.1844883617584],[-86.6519544748971,36.1845490943312],[-86.651905085969,36.1846085672388],[-86.6517774135052,36.1847831439883],[-86.6517176981707,36.1848565392856],[-86.6516745978804,36.1848894595945],[-86.6515954495973,36.1849901533146],[-86.6515659149327,36.1850661308558],[-86.6514365023723,36.1851940171442],[-86.651257767294,36.1853817793163],[-86.651174715632,36.1854607924657],[-86.6510256725549,36.1855918060851],[-86.6509027017533,36.1856790004991],[-86.6507498862693,36.1858045400514],[-86.6506405128806,36.1858971549482],[-86.6505463098959,36.185980073403],[-86.6488371125212,36.1848267276974]]]},"properties":{"id":"267730","parcel":"08507014200","address":"300 DANYACREST DR","owner":"DONELSON CHRISTIAN SCHOOL INC.","point":[-86.65115362059515,36.18376891193829]}},{"type":"Feature","id":"267830","geometry":{"type":"Polygon","coordinates":[[[-86.6508431110928,36.1805217655298],[-86.6508522258561,36.1805023835288],[-86.6508575923955,36.1804821033553],[-86.6508590878454,36.1804613961282],[-86.650856675048,36.1804407460228],[-86.6508504135438,36.1804206348903],[-86.6512481406452,36.1803283867326],[-86.6514117614595,36.1799669651123],[-86.6529395933214,36.1803214479709],[-86.6537109164444,36.180499676245],[-86.6537031118161,36.18053955046],[-86.6536852678796,36.1805945886094],[-86.6536588856904,36.1806826382617],[-86.6536458439133,36.1807447901571],[-86.6536284588713,36.1808143838119],[-86.6536204026146,36.1809059041011],[-86.6536117651497,36.1809680339443],[-86.653598483437,36.1810010702247],[-86.6535851112,36.1810231188705],[-86.6535760528118,36.1810341560364],[-86.6535583372908,36.181063645537],[-86.6535270978886,36.1810967790283],[-86.6535137256155,36.1811188276656],[-86.6534870692831,36.1811736376969],[-86.6534830868831,36.1812250290873],[-86.6534605950808,36.1812507005668],[-86.6534022783308,36.1812875495689],[-86.6533797864624,36.1813132183293],[-86.6533623716585,36.1813792413151],[-86.6533402504807,36.1814087546246],[-86.6533178490345,36.1814454110044],[-86.6533046870033,36.181493006401],[-86.653273447326,36.1815261398228],[-86.6532422653157,36.181566415383],[-86.6532053386155,36.1816495758705],[-86.6508431110928,36.1805217655298]]]},"properties":{"id":"267830","parcel":"08510001700","address":"308 MYRICK DR","owner":"DONELSON CHRISTIAN ACADEMY, IN.C","point":[-86.6525032369947,36.1807763010075]}},{"type":"Feature","id":"268167","geometry":{"type":"Polygon","coordinates":[[[-86.6498362750545,36.1803821458851],[-86.6498525963972,36.1803626719919],[-86.649871207056,36.1803445980413],[-86.6500568726679,36.1801765783801],[-86.6500677093447,36.1801685637295],[-86.6500800778636,36.1801621693998],[-86.6500936129121,36.1801575839179],[-86.6501079153931,36.1801549428188],[-86.6501225646236,36.1801543249747],[-86.6501371282798,36.1801557453312],[-86.6501511780415,36.1801591647376],[-86.6501642984258,36.1801644826883],[-86.6501761046029,36.1801715408328],[-86.6504706568382,36.1803897173895],[-86.6502068846784,36.1806196917017],[-86.6498362750545,36.1803821458851]]]},"properties":{"id":"268167","parcel":"08511001000","address":"3046 EDGEMONT DR","owner":"ROBERTS, TRACEY G.","point":[-86.65015376882192,36.180385932942556]}},{"type":"Feature","id":"268338","geometry":{"type":"Polygon","coordinates":[[[-86.6512058686613,36.1897102816718],[-86.6512122511373,36.1897278280175],[-86.6512641162375,36.1898703934853],[-86.6513107067761,36.1899316762039],[-86.651413417321,36.1898937623692],[-86.6513528428244,36.189727069603],[-86.6512747303819,36.189512123607],[-86.6512400444658,36.1894202430505],[-86.6512016786523,36.1893293277469],[-86.6511596771178,36.1892394756915],[-86.6511140806807,36.1891507821932],[-86.6510649401569,36.189063341606],[-86.6510123085707,36.1889772464689],[-86.6509562400495,36.1888925884138],[-86.6508967953832,36.1888094581347],[-86.6508340364506,36.1887279436165],[-86.6507680317922,36.1886481319061],[-86.650698851045,36.1885701082426],[-86.6506265671579,36.1884939551426],[-86.6505594192785,36.1884274817384],[-86.6504899386759,36.1883626025671],[-86.6519444386973,36.1872119899393],[-86.6513769963575,36.1861184396802],[-86.6514280875213,36.1860676189001],[-86.6514706959884,36.1860254860109],[-86.6515165172086,36.1859856276605],[-86.6515653624016,36.185948206189],[-86.6516027067948,36.1859149078287],[-86.6516367742047,36.1858793749071],[-86.6516673651513,36.1858418202985],[-86.6516942935776,36.1858024667189],[-86.6517068018192,36.1857837567268],[-86.6517218609493,36.1857663253631],[-86.6517392738349,36.1857504008075],[-86.6517588142614,36.1857361897664],[-86.6518095080845,36.1856941708212],[-86.6518569746227,36.1856497440009],[-86.6519010417821,36.1856030724646],[-86.6519415475351,36.185554326527],[-86.6519783454858,36.1855036845295],[-86.652011299312,36.1854513328704],[-86.6520406636298,36.18541066554],[-86.6520735347797,36.1853718006981],[-86.6521097442964,36.185334937528],[-86.6521491080554,36.1853002635815],[-86.6521914240647,36.1852679565928],[-86.6522361634763,36.1852377886945],[-86.6522786254511,36.1852055295534],[-86.6523186586029,36.1851712917456],[-86.6523561238272,36.1851351940898],[-86.6523908909806,36.1850973634671],[-86.6524228366353,36.1850579321303],[-86.6524464036295,36.1850215589645],[-86.6524731043596,36.1849866379037],[-86.6525028012974,36.1849533445331],[-86.6525353468732,36.1849218499853],[-86.6525705745077,36.1848923119771],[-86.6525983331513,36.1848653189232],[-86.6526228591453,36.1848363416489],[-86.6526439388961,36.1848056336625],[-86.6526613856113,36.1847734627472],[-86.652675048192,36.1847401109133],[-86.6526880918966,36.1847135623988],[-86.6527046440158,36.1846883323778],[-86.6527245091552,36.1846647247274],[-86.6527474439548,36.1846430237561],[-86.6527783416183,36.1846142228903],[-86.6528058047332,36.1845832207951],[-86.6528295975774,36.1845502837167],[-86.6528495123857,36.1845156975778],[-86.6528653793027,36.1844797616144],[-86.6528777126042,36.1844516054731],[-86.6528930579951,36.1844244397434],[-86.6529112949138,36.1843984750687],[-86.6529322804917,36.1843739132005],[-86.6529907586914,36.1842980256949],[-86.6530458178153,36.1842204758117],[-86.6530973864406,36.1841413648826],[-86.6531453953764,36.1840607951283],[-86.6531897832366,36.1839788714307],[-86.6532304908892,36.1838957022646],[-86.6532674669773,36.183811395161],[-86.6533006623907,36.1837260603423],[-86.6533300324738,36.1836398089078],[-86.6533555414799,36.1835527537108],[-86.6533771547824,36.1834650084994],[-86.6533948444322,36.1833766878866],[-86.6534085869278,36.1832879064608],[-86.6534109527271,36.183218796142],[-86.6534172476101,36.1831498484117],[-86.6534274583097,36.1830812084432],[-86.6534415637995,36.1830130241554],[-86.6534518804449,36.1829773641825],[-86.6534578615822,36.182941058944],[-86.6534594511484,36.1829044548264],[-86.6534566342204,36.1828678988946],[-86.6534565136051,36.1828378669822],[-86.6534593409005,36.1828079227572],[-86.6534650987637,36.182778255577],[-86.6534737509459,36.182749054],[-86.6534852422701,36.1827205030818],[-86.6534985437079,36.182701023423],[-86.653509018948,36.182680441504],[-86.6535165312374,36.1826590257389],[-86.653520983933,36.1826370551398],[-86.6535223171442,36.1826148166306],[-86.6535294948714,36.182578969054],[-86.6535400701644,36.1825436789861],[-86.6535539802863,36.1825091585612],[-86.6535757880296,36.1824641065546],[-86.6535945846084,36.1824181722935],[-86.6536103166317,36.1823714867506],[-86.653622937409,36.1823241844671],[-86.6536333037303,36.1822899869413],[-86.6536465615284,36.1822564524044],[-86.6536626487562,36.1822237416151],[-86.6536814866479,36.1821920100147],[-86.6537052907322,36.1821546312833],[-86.6537257279166,36.1821159657598],[-86.653742693111,36.1820762113901],[-86.6537561001917,36.1820355741286],[-86.6537871010409,36.1819733231811],[-86.6537956099381,36.1819367419592],[-86.6538135740777,36.1818962629644],[-86.6538398891047,36.1818411798372],[-86.653857735487,36.1817864174559],[-86.6538931699931,36.1817277132405],[-86.6539289729405,36.1816725786979],[-86.6539464779013,36.1816175432666],[-86.65395809201,36.1815466073278],[-86.6539695588163,36.1814671093443],[-86.6539850280874,36.1813880574272],[-86.6540044753355,36.1813095841923],[-86.6540278649641,36.1812318232164],[-86.6540551602209,36.181154902675],[-86.6541034494901,36.1810394973635],[-86.6541476231072,36.1809230138957],[-86.6541876407453,36.1808055480277],[-86.6542234720977,36.1806871972636],[-86.6542550868511,36.1805680582062],[-86.6542824591764,36.1804482319393],[-86.654291662659,36.1803782391059],[-86.6543043275441,36.1803086033333],[-86.6543204325042,36.1802394355907],[-86.6543399528919,36.1801708486674],[-86.6543628551447,36.1801029526969],[-86.6543891045889,36.1800358578188],[-86.6544186576285,36.1799696706154],[-86.6544514662511,36.1799045012981],[-86.6544824812616,36.1798635404491],[-86.6545103001373,36.1798210963276],[-86.6545348141907,36.1797773344548],[-86.6545559303272,36.1797324238729],[-86.6545735654804,36.1796865362726],[-86.654587652199,36.1796398495692],[-86.6545981363869,36.1795925434072],[-86.6546049784368,36.179544801859],[-86.6546081498431,36.1794968071336],[-86.6546076399235,36.1794487458497],[-86.6546104947877,36.1794063108931],[-86.6546171149673,36.1793641529323],[-86.6546274689145,36.1793224911433],[-86.6546414995066,36.1792815439393],[-86.6546529338749,36.1792463365004],[-86.6546609002203,36.1792105061725],[-86.6546653492716,36.1791742785379],[-86.6546684780143,36.1791558795255],[-86.6546745790282,36.179137977209],[-86.6546835459673,36.1791208867034],[-86.6546954604328,36.1790884957879],[-86.6547041766874,36.1790554417672],[-86.6547096430948,36.1790219331127],[-86.65471182247,36.1789881782166],[-86.6547107021211,36.178954389845],[-86.6547062904622,36.1789207788464],[-86.6547036141799,36.1788909464201],[-86.6547043746039,36.1788610430817],[-86.65470856718,36.1788313257138],[-86.6547161540278,36.1788020540838],[-86.654724777453,36.1787566776695],[-86.6547299963587,36.1787109619202],[-86.654731794333,36.1786650727566],[-86.6547301638947,36.1786191805573],[-86.6547251097601,36.1785734520291],[-86.6547230411212,36.1784896787478],[-86.6547252668665,36.1784059074082],[-86.6547317848598,36.1783222849264],[-86.6547425806852,36.1782389519763],[-86.6547576377631,36.1781560564526],[-86.6547769283387,36.1780737391006],[-86.6548004213303,36.1779921415841],[-86.6548280745482,36.1779114065284],[-86.654843472383,36.1778777637698],[-86.6548551615174,36.1778431542509],[-86.6548630529983,36.1778078443266],[-86.6548670835145,36.1777721092244],[-86.6548672242221,36.1777362248863],[-86.6548634729785,36.1777004698124],[-86.6548558587509,36.1776651205315],[-86.6548431946043,36.1776319652681],[-86.6548338195442,36.1775980990937],[-86.6548277931327,36.177563735284],[-86.6548251549674,36.1775290926302],[-86.6548259190716,36.1774943891608],[-86.6548300828092,36.1774598447969],[-86.6548376190741,36.1774256777896],[-86.6548498842184,36.177384631964],[-86.6548578404372,36.1773428939136],[-86.6548614323885,36.1773007613546],[-86.6548606347513,36.1772585327411],[-86.6548629057527,36.1772348155381],[-86.6548687295694,36.1772115008494],[-86.6548780190227,36.1771889361318],[-86.6548896723318,36.1771621217759],[-86.6548976266299,36.1771344325378],[-86.654901784629,36.1771062024115],[-86.6549020957957,36.1770777732481],[-86.6548985551869,36.177049488454],[-86.6548912078666,36.1770216893609],[-86.654880142206,36.176994711658],[-86.6548725289109,36.1769624311497],[-86.6548682561311,36.1769297485824],[-86.6548673568619,36.1768968908944],[-86.6548698340998,36.176864086989],[-86.6548756730413,36.1768315640634],[-86.6548848321972,36.1767995485578],[-86.6548972478095,36.1767682625268],[-86.6549116070872,36.1767478143908],[-86.6549221289682,36.1767258846758],[-86.6549285872387,36.1767029450669],[-86.6549308425459,36.1766794857037],[-86.6549288490378,36.1766560115397],[-86.6549278270257,36.1766358946982],[-86.6549296577947,36.1766158155529],[-86.6549343201862,36.1765960391882],[-86.6549417485485,36.1765768273248],[-86.654947102008,36.1765412499599],[-86.6549491464766,36.1765054472085],[-86.654947870286,36.1764696210158],[-86.6549432806649,36.1764339732245],[-86.6549430781768,36.1764097115561],[-86.6549470672258,36.1763856650774],[-86.6549551694636,36.1763623082751],[-86.6549672241659,36.1763401016619],[-86.6549829948131,36.1763194809264],[-86.6550030489288,36.1762917647737],[-86.6550195066008,36.1762625323894],[-86.6550321969467,36.1762320902284],[-86.6550409869834,36.1762007571579],[-86.6550457849238,36.1761688599321],[-86.6550465401696,36.1761367322916],[-86.6550508023969,36.176112118335],[-86.6550583204221,36.1760880220573],[-86.6550690020793,36.1760647251506],[-86.6550827239891,36.176042498661],[-86.6550993271207,36.1760216039142],[-86.6551186167315,36.1760022853054],[-86.6551582586019,36.1759676817497],[-86.6551949027409,36.175930969285],[-86.6552283782691,36.1758923200805],[-86.655258529922,36.1758519125294],[-86.6552852191842,36.1758099339467],[-86.6553083220665,36.1757665805806],[-86.6553277301649,36.1757220512987],[-86.6553513907754,36.1756639962748],[-86.6553789013165,36.1756070667431],[-86.6554101820357,36.1755514325704],[-86.6554451397753,36.1754972555851],[-86.6554805166369,36.1754522394056],[-86.6555125619496,36.1754056118319],[-86.6555411636624,36.1753575338992],[-86.6555662209002,36.1753081737918],[-86.6555876483731,36.1752577023129],[-86.655605370841,36.1752062956184],[-86.6556246351978,36.1751484428572],[-86.6556479673626,36.1750915828141],[-86.6556752910741,36.175035904264],[-86.6557065155694,36.1749815897513],[-86.6557267835,36.1748100639016],[-86.6557710268721,36.1745878625104],[-86.6558265832801,36.1744227385152],[-86.6560462040029,36.1741028879746],[-86.6562500880608,36.1738468568679],[-86.6562608965948,36.1738227164713],[-86.6562752347135,36.1737998168433],[-86.6562928906655,36.1737784953033],[-86.6563182183638,36.1737491829452],[-86.6563405842048,36.1737183275089],[-86.6563598441879,36.1736861244508],[-86.6563758777378,36.1736527790138],[-86.6563855343481,36.1736265936033],[-86.656397955249,36.173601184465],[-86.6564130464407,36.1735767449786],[-86.6564306949452,36.173553458713],[-86.6564507688219,36.173531501229],[-86.6565128813254,36.1734718227372],[-86.6565721481175,36.1734102715536],[-86.6566284843572,36.1733469382698],[-86.6566818085321,36.173281912558],[-86.6567659585272,36.1732017500916],[-86.6568534383528,36.17312396499],[-86.6569441420376,36.1730486470477],[-86.657037964716,36.1729758851515],[-86.6571347992634,36.1729057636947],[-86.6572345307535,36.1728383644093],[-86.6573370431271,36.1727737663298],[-86.6574422158507,36.1727120449103],[-86.6575499283699,36.1726532729016],[-86.6576600534096,36.1725975167823],[-86.6577156513855,36.1725733611213],[-86.6577697992812,36.172547128724],[-86.6578223797568,36.1725188788136],[-86.6578732777039,36.1724886715026],[-86.657967680323,36.1724415248971],[-86.658063891845,36.1723968477189],[-86.6581618148272,36.1723546846566],[-86.6582613496124,36.1723150813126],[-86.6583623942535,36.1722780751909],[-86.6584648445964,36.17224370561],[-86.6585568795478,36.1722191362814],[-86.6586476361164,36.17219161953],[-86.6587369712432,36.172161196696],[-86.6588247430484,36.1721279172247],[-86.6589108130103,36.1720918332475],[-86.6589778151904,36.1720642160942],[-86.6590463404708,36.1720391763002],[-86.6591162392572,36.1720167696567],[-86.6591873552347,36.171997045683],[-86.6592595353636,36.1719800466708],[-86.6592982110583,36.1719733003952],[-86.6593357345534,36.1719631374177],[-86.6593716466915,36.1719496828191],[-86.6594055108614,36.1719330994099],[-86.6594183910218,36.1719259172073],[-86.6594324779036,36.1719204200746],[-86.6594474357791,36.1719167378244],[-86.6594629129998,36.171914957096],[-86.659478544205,36.1719151195409],[-86.6595015627169,36.1719144530193],[-86.6595242752971,36.1719113493571],[-86.6595462911215,36.1719058629628],[-86.6595672319225,36.1718980878324],[-86.659586738651,36.1718881566109],[-86.6596163474776,36.1718736927245],[-86.6596477995173,36.1718620649349],[-86.6596806825147,36.1718534233003],[-86.6597145683616,36.1718478828167],[-86.6597490119102,36.1718455144123],[-86.6597910173682,36.171843932921],[-86.6598326236152,36.1718389909983],[-86.6598734231067,36.1718307377382],[-86.6599130174533,36.1718192537291],[-86.6599510152048,36.1718046519673],[-86.6599870473901,36.1717870750681],[-86.6600227709814,36.1717720900652],[-86.6600599293162,36.1717596099171],[-86.6600982574707,36.1717497234937],[-86.6601374792566,36.1717425017013],[-86.6601773138824,36.1717379965454],[-86.6602174770649,36.1717362411244],[-86.6602576787837,36.1717372469383],[-86.6603128972979,36.1717383201993],[-86.6603680702923,36.1717361942128],[-86.6604229144119,36.1717308813444],[-86.660477150861,36.171722407454],[-86.6605305032094,36.1717108155129],[-86.6605826996087,36.1716961646909],[-86.6606334716881,36.1716785312625],[-86.6606825622979,36.1716580040593],[-86.6607238990236,36.1716381997312],[-86.6607672645342,36.1716214882205],[-86.6608123075998,36.1716080057356],[-86.6608586623018,36.1715978597256],[-86.6609059547389,36.1715911333494],[-86.6609538018856,36.1715878818778],[-86.6610018149037,36.1715881299711],[-86.6610631304983,36.1715861592922],[-86.6611242776008,36.1715819769128],[-86.6611851340065,36.1715755916137],[-86.661245579764,36.171567015769],[-86.6613085308413,36.1715558882207],[-86.6613722504086,36.1715481442636],[-86.6614364597679,36.1715438196716],[-86.6615008811755,36.1715429312874],[-86.6615652345595,36.1715454833496],[-86.6617063177188,36.1715564714421],[-86.6618476981522,36.1715645809191],[-86.6619892846548,36.1715698068721],[-86.6620167965768,36.1715718721797],[-86.6620437520476,36.1715767885135],[-86.6620697046514,36.1715844745053],[-86.6621407132059,36.1716004978362],[-86.6622124041917,36.171614377791],[-86.6622846796391,36.1716260968808],[-86.6623574404817,36.1716356394256],[-86.6624315930735,36.1716494480618],[-86.6625049359516,36.1716658576259],[-86.6625773288,36.1716848364442],[-86.6626486357184,36.1717063492141],[-86.6627187229765,36.1717303543125],[-86.662831125159,36.1717783880189],[-86.6629452507981,36.1718236732269],[-86.6630609961669,36.1718661690437],[-86.6631782575602,36.1719058372801],[-86.663265909788,36.171935768672],[-86.6633520171963,36.1719685168153],[-86.6634364404075,36.1720040293048],[-86.6635190455625,36.1720422491995],[-86.6635997020985,36.1720831150337],[-86.6636782783176,36.1721265626447],[-86.6637546502491,36.1721725215189],[-86.6638286961215,36.1722209184267],[-86.6638955139405,36.1722689720093],[-86.663965035759,36.1723144348808],[-86.6640371084505,36.1723572069382],[-86.6641115733824,36.1723971944173],[-86.6641882664086,36.1724343089923],[-86.6642571905605,36.1724772550623],[-86.6643235232361,36.1725228028716],[-86.6643871168623,36.1725708513946],[-86.6644478282432,36.1726212914699],[-86.6645055219246,36.1726740093877],[-86.6645600646288,36.1727288860183],[-86.6646113352813,36.1727857994613],[-86.6646688258414,36.1728483457518],[-86.6647295761983,36.1729088318086],[-86.6647934742721,36.1729671473894],[-86.6648604035433,36.1730231831773],[-86.6649302386588,36.1730768371145],[-86.6650028531684,36.1731280089514],[-86.6650781095654,36.1731766057099],[-86.6651185820737,36.1732067704684],[-86.6651567143171,36.173238877706],[-86.6651923619018,36.1732728083528],[-86.6652253959418,36.1733084369451],[-86.6652556908244,36.1733456307908],[-86.6652831364451,36.1733842508037],[-86.6652986137044,36.1734222283867],[-86.6653178352604,36.1734590632616],[-86.665340674599,36.1734945145864],[-86.6653669830348,36.1735283488513],[-86.6653965864067,36.1735603435017],[-86.6654292895312,36.1735902878155],[-86.6654648784408,36.1736179846927],[-86.665503118176,36.1736432524704],[-86.6655437583431,36.1736659248927],[-86.6655865308982,36.1736858520236],[-86.6656154201986,36.1736963113603],[-86.6656427758604,36.1737091990287],[-86.6656682876496,36.1737243707366],[-86.6656916673284,36.173741654132],[-86.6657126486927,36.1737608533082],[-86.6657309964867,36.1737817514593],[-86.6657972407796,36.1738500512325],[-86.665866493157,36.1739163606171],[-86.6659386639482,36.1739805908782],[-86.6660263215154,36.1740782994425],[-86.6661103384639,36.1741780883107],[-86.6661906406672,36.1742798677735],[-86.6662671539973,36.1743835481213],[-86.6663398131799,36.1744890350892],[-86.6664085518427,36.1745962362206],[-86.6664733069093,36.1747050545343],[-86.6664897614779,36.1747413691441],[-86.6665090595244,36.1747767514701],[-86.6665311231199,36.1748110550363],[-86.6665558577071,36.1748441388654],[-86.6665831643121,36.17487586561],[-86.666604719872,36.1748949424911],[-86.6666238900694,36.1749156259677],[-86.6666404931718,36.174937719669],[-86.6666543740249,36.1749610153606],[-86.6666654007262,36.1749852938649],[-86.6666842241739,36.1750324420161],[-86.6667066593589,36.1750785391752],[-86.6667326158464,36.1751234055876],[-86.6667619932045,36.1751668624556],[-86.6667946755141,36.1752087400789],[-86.6668220640045,36.175254416904],[-86.6668459915264,36.1753013547771],[-86.6668663710293,36.1753493811396],[-86.6668831265553,36.1753983206671],[-86.6668961965433,36.1754479916472],[-86.6669055327779,36.175498213194],[-86.6669046794669,36.1755285497795],[-86.6669068405269,36.1755588435743],[-86.6669120031941,36.1755888981742],[-86.6669201358156,36.1756185181807],[-86.6669311823064,36.1756475110335],[-86.6669391448997,36.1756699940068],[-86.6669442162866,36.175693021993],[-86.6669463466065,36.1757163501254],[-86.6669455104455,36.1757397325007],[-86.6669421358902,36.1757618599285],[-86.666942505592,36.1757841541303],[-86.6669466127349,36.1758062005648],[-86.6669543805033,36.1758275886819],[-86.6669690681386,36.1758620644984],[-86.6669811245818,36.1758972046592],[-86.6669905042604,36.1759328778329],[-86.6669943961166,36.1759461057351],[-86.6669961005999,36.175959635929],[-86.6669955867928,36.1759732288508],[-86.6669929546772,36.1759952079747],[-86.6669940183504,36.1760172730258],[-86.6669987566287,36.1760390194557],[-86.667007083864,36.1760600439733],[-86.6670188467451,36.176079960785],[-86.6670325553181,36.1761319165096],[-86.667042638975,36.1761844140922],[-86.6670490652057,36.1762372896838],[-86.6670518147932,36.1762903739548],[-86.6670508785397,36.1763434993221],[-86.6670477658019,36.1763917446831],[-86.6670488666654,36.1764400487737],[-86.6670541746461,36.1764881682898],[-86.6670636643928,36.1765358636361],[-86.6670772872105,36.176582895346],[-86.667090667539,36.1766552934194],[-86.6670995784401,36.1767281433864],[-86.6671039972432,36.1768012624178],[-86.6671039135127,36.1768744685175],[-86.6670993279362,36.1769475805285],[-86.667091309578,36.1769860500027],[-86.6670877214646,36.1770249564378],[-86.6670885963623,36.1770639652861],[-86.6670939258935,36.1771027404243],[-86.667103663909,36.1771409486413],[-86.667110690363,36.177194331012],[-86.6671135791579,36.1772479651679],[-86.6671123185081,36.1773016402799],[-86.6671069144282,36.1773551472226],[-86.6670973873614,36.1774082740867],[-86.6670837733437,36.1774608124814],[-86.667066128443,36.1775125566084],[-86.6670512187659,36.1775466506924],[-86.6670399774195,36.177581656405],[-86.6670324867159,36.177617314631],[-86.6670288022736,36.1776533646003],[-86.6670289518535,36.1776895375847],[-86.6670329343222,36.1777255659168],[-86.667040718548,36.1777611838969],[-86.6670522489589,36.1777961277629],[-86.6670566147247,36.1778268383529],[-86.667056731216,36.1778577517745],[-86.6670525974309,36.1778884849979],[-86.6670442656947,36.1779186510941],[-86.6670318384764,36.1779478772761],[-86.6670177427814,36.1779797641781],[-86.6670064478884,36.1780123764366],[-86.666998009129,36.1780455515201],[-86.666992469592,36.1780791251623],[-86.6669898556776,36.178112931386],[-86.6669826607839,36.1781626286727],[-86.6669713707396,36.1782118240525],[-86.6669560359042,36.1782602937341],[-86.6669367255961,36.1783078210308],[-86.6669135280466,36.1783541909539],[-86.6668865448802,36.178399194749],[-86.6668734593698,36.1784171723374],[-86.6668635886177,36.178436451607],[-86.6668571240151,36.1784566574792],[-86.6668541923134,36.1784773954045],[-86.6668548490527,36.1784982631151],[-86.6668478735296,36.1785415377111],[-86.6668364582964,36.1785841870243],[-86.6668206831139,36.178625914099],[-86.666807949312,36.1786448739099],[-86.6667987994701,36.1786651495872],[-86.666793435506,36.178686295696],[-86.666791973615,36.1787078519533],[-86.6667944454185,36.1787293477278],[-86.6667949158863,36.1787533176956],[-86.6667921182656,36.1787771822428],[-86.6667860856864,36.1788006509811],[-86.6667768924319,36.1788234359983],[-86.6667646506563,36.1788452581854],[-86.6667495104079,36.1788658499404],[-86.6667289489945,36.1788995948552],[-86.6667115621893,36.1789344929671],[-86.6666974461751,36.1789703481732],[-86.6666866804234,36.1790069599564],[-86.6666793254627,36.1790441224964],[-86.666675424006,36.1790816264662],[-86.6666643646373,36.1791379386657],[-86.6666495663569,36.1791936829897],[-86.6666310711477,36.1792486969788],[-86.6666089343477,36.1793028199016],[-86.6665832179806,36.1793558927923],[-86.6665540007827,36.1794077610986],[-86.6665213659529,36.1794582720462],[-86.6664912086265,36.1794957668565],[-86.6664642025466,36.1795348088447],[-86.6664404674308,36.1795752243107],[-86.6664201084855,36.1796168324238],[-86.6664032164289,36.179659447927],[-86.6663898686099,36.179702882032],[-86.6663801223306,36.1797469415544],[-86.6663729370829,36.1797768047437],[-86.6663625983751,36.179806053558],[-86.6663491821791,36.1798344685712],[-86.6663327867606,36.1798618374444],[-86.6663135382598,36.1798879575983],[-86.6662925523703,36.1799182042844],[-86.6662745227529,36.1799496792869],[-86.6662595578806,36.1799821936458],[-86.6662477483728,36.1800155503877],[-86.6662391659288,36.1800495499398],[-86.666233861074,36.1800839865374],[-86.6662291076586,36.1801112794253],[-86.6662205381604,36.180137952579],[-86.666208266377,36.1801636574842],[-86.6661924517822,36.1801880570904],[-86.6661733018099,36.1802108330088],[-86.6661510685196,36.1802316855307],[-86.666128014765,36.1802652467052],[-86.6661089019482,36.1803003975781],[-86.6660938953892,36.1803368344163],[-86.6660831258646,36.1803742437634],[-86.6660766840418,36.1804123015687],[-86.6660764152661,36.1804311357332],[-86.6660726926432,36.1804497275899],[-86.6660656005253,36.1804676638971],[-86.6660552945315,36.1804845454395],[-86.6660420060697,36.1804999960165],[-86.666026030185,36.1805136715213],[-86.6660026368817,36.1805352721485],[-86.6659825952647,36.1805589839522],[-86.6659661926381,36.1805844673774],[-86.6659536627288,36.1806113570281],[-86.6659451868508,36.1806392679693],[-86.6659408861617,36.1806678002766],[-86.6659408206031,36.18069654535],[-86.6659349897119,36.180730316096],[-86.6659257572401,36.1807635837778],[-86.6659131824406,36.1807961236544],[-86.6658973535154,36.1808277162326],[-86.6658783753944,36.1808581482357],[-86.6658563786292,36.180887212554],[-86.6658315094333,36.1809147137079],[-86.6657967553571,36.18095908594],[-86.6657658854804,36.1810053068493],[-86.6657390480207,36.1810531539121],[-86.6657163733267,36.181102394789],[-86.6656979683812,36.1811527945654],[-86.6656881029975,36.1811921329801],[-86.665673982547,36.1812306098222],[-86.6656557156565,36.18126792257],[-86.6656334488254,36.1813037775052],[-86.6656073542434,36.1813378951876],[-86.6655847004364,36.1813608885988],[-86.6655651500549,36.1813856836328],[-86.6655489186944,36.1814120060216],[-86.6655361851156,36.1814395636746],[-86.6655270901853,36.1814680529941],[-86.6655217346533,36.1814971588865],[-86.6655201780849,36.1815265601763],[-86.6655224377578,36.1815559305131],[-86.6655200870379,36.1815835625059],[-86.6655145120199,36.1816108896237],[-86.6655057628697,36.1816376637435],[-86.6654939187246,36.181663644694],[-86.6654790876635,36.1816885966502],[-86.6654614012014,36.1817122944731],[-86.6654391534677,36.1817529700873],[-86.6654210557832,36.1817949765099],[-86.6654072292277,36.1818380363893],[-86.6653977636949,36.1818818653354],[-86.6653940775161,36.1819050948319],[-86.6653870552406,36.181927813678],[-86.6653767942929,36.1819497086002],[-86.6653634355285,36.1819704750972],[-86.6653471644361,36.18198982825],[-86.6653280889723,36.1820179904236],[-86.6653121601829,36.1820474087285],[-86.6652995051123,36.1820778544477],[-86.6652902206992,36.1821090882149],[-86.6652769620002,36.1821490860784],[-86.6652595120042,36.1821880111083],[-86.665237997256,36.1822255760059],[-86.6652123700644,36.1822791644809],[-86.6651905374059,36.1823338450936],[-86.6651725667379,36.1823894417293],[-86.6651585188328,36.1824457765073],[-86.6651316978927,36.1825182393572],[-86.6651012614315,36.1825897568726],[-86.6650672584761,36.1826602107159],[-86.6650297469628,36.1827294843027],[-86.6649887881786,36.1827974628327],[-86.6649444500966,36.1828640332707],[-86.6648968051598,36.1829290852608],[-86.6648459336169,36.1829925111075],[-86.6648323557219,36.1830110454301],[-86.6648210941107,36.1830305746005],[-86.6648122583515,36.1830509069494],[-86.6648059346225,36.1830718455288],[-86.6647725898202,36.1831343952341],[-86.664736016467,36.1831957478121],[-86.6646962792252,36.1832557929503],[-86.6646534483541,36.183314424812],[-86.6646296366343,36.1833548321793],[-86.6646088913474,36.1833963357121],[-86.6645912890394,36.1834387826781],[-86.6645768951173,36.1834820177024],[-86.6645657616034,36.1835258800762],[-86.6645598887764,36.1835803546287],[-86.6645509207487,36.1836345506064],[-86.6645388754539,36.1836883534501],[-86.6645237786079,36.1837416485576],[-86.664505662597,36.1837943212901],[-86.6644927756784,36.1838312689484],[-86.6644829300158,36.1838688253374],[-86.6644761676105,36.1839068280005],[-86.6644725204213,36.1839451100298],[-86.664472002605,36.1839835028128],[-86.6644781737291,36.1840053847064],[-86.664480546721,36.1840277480476],[-86.6644790768444,36.184050163183],[-86.6644737904812,36.184072196463],[-86.6644647908035,36.1840934237285],[-86.6644504902295,36.1841195523628],[-86.6644400862168,36.1841468636281],[-86.664433724574,36.1841749790965],[-86.6644314920692,36.1842035062444],[-86.6644334209528,36.1842320474402],[-86.6644391744548,36.1842550374749],[-86.6644414092808,36.1842784263045],[-86.664440092453,36.1843018608181],[-86.6644352421321,36.1843249876229],[-86.6644269332204,36.1843474584212],[-86.6644171065418,36.1843689732274],[-86.6644097377071,36.1843911243119],[-86.6644048907763,36.1844137283674],[-86.6644026041879,36.1844365959187],[-86.6643954461003,36.1844752848023],[-86.6643855686873,36.1845135785788],[-86.6643730031278,36.1845513508998],[-86.6643577906367,36.1845884789669],[-86.6643457835407,36.1846127554985],[-86.664336896607,36.1846378989915],[-86.6643312221369,36.1846636466728],[-86.6643288179165,36.1846897296505],[-86.6643248035518,36.1847360880446],[-86.664316916419,36.1847821189627],[-86.6643051914171,36.1848276095153],[-86.6642896834708,36.1848723485051],[-86.6642715986426,36.1849383551023],[-86.6642568502726,36.1850049048201],[-86.66424546301,36.1850718866698],[-86.6642374570499,36.1851391887854],[-86.66423284259,36.1852067002568],[-86.6642308127792,36.1852598477014],[-86.6642254497393,36.185312843147],[-86.6642167689775,36.1853655477144],[-86.6642047904856,36.1854178270058],[-86.6641898037852,36.1854640267472],[-86.664179106099,36.1855110041067],[-86.6641727563834,36.1855584964955],[-86.6641707902412,36.1856062405516],[-86.6641732188029,36.1856539712448],[-86.6641745623938,36.1856997233399],[-86.6641722903175,36.1857454520657],[-86.6641702461914,36.1858007472735],[-86.6641642759427,36.1858558549884],[-86.6641543980425,36.1859105921529],[-86.664140646534,36.1859647765252],[-86.6641230666081,36.1860182294065],[-86.6641128649897,36.1860426681117],[-86.6641063891224,36.1860679280942],[-86.664103732629,36.1860936384232],[-86.664104936806,36.1861194194428],[-86.664106299007,36.1861437575832],[-86.6641032087956,36.1861679922372],[-86.6640957350755,36.1861915894821],[-86.6640840413983,36.1862140328986],[-86.6640679203703,36.1862586274072],[-86.6640552775272,36.1863039535277],[-86.6640461602895,36.1863498316503],[-86.6640406060799,36.1863960831215],[-86.6640386356153,36.1864425257739],[-86.6640402562647,36.1864889766123],[-86.6640447817302,36.1865142761158],[-86.6640455048458,36.1865398335637],[-86.6640424157995,36.1865652740877],[-86.6640355603959,36.1865902261179],[-86.6640250389751,36.1866143249943],[-86.6640161587336,36.1866349936749],[-86.6640114494995,36.186656545176],[-86.6640110300768,36.1866784290788],[-86.6640149135952,36.1867000883346],[-86.664015211038,36.1867425331546],[-86.6640118622203,36.1867848916808],[-86.664004884316,36.186826958332],[-86.6639943100785,36.1868685292434],[-86.6639801900644,36.1869094022548],[-86.6639625948718,36.1869493787003],[-86.6639416095975,36.1869882652417],[-86.6639173338366,36.1870258738682],[-86.6639000375618,36.1870593289737],[-86.6638858321654,36.1870937287195],[-86.6638747949928,36.1871288825165],[-86.6638669856101,36.1871646007744],[-86.6638605666447,36.1871973453525],[-86.6638513433808,36.1872296484133],[-86.663839361166,36.1872613492832],[-86.6638246787642,36.1872922962274],[-86.6638071114588,36.1873236663994],[-86.6637926914053,36.1873560737336],[-86.6637815102663,36.1873893113395],[-86.6637736385294,36.187423166134],[-86.6637691288793,36.1874574233294],[-86.6637645806866,36.1874937184756],[-86.6637564523936,36.1875296007017],[-86.6637447965331,36.1875648380953],[-86.663729690142,36.1875992040166],[-86.663711228076,36.1876324753327],[-86.6636895308364,36.1876644377821],[-86.6636708163662,36.1876861473672],[-86.6636551063713,36.1877093680619],[-86.6636425820373,36.187733829396],[-86.6636333921742,36.1877592448543],[-86.6636235687974,36.187781629266],[-86.6636105040761,36.1878028968124],[-86.663594386681,36.1878227418311],[-86.6635754498964,36.187840875538],[-86.6635525999928,36.1878645094828],[-86.6635330164822,36.187889997379],[-86.6635169237059,36.1879170441858],[-86.6635045080407,36.1879453352432],[-86.6634959146243,36.1879745435004],[-86.6634851246965,36.1880071246104],[-86.663470954339,36.1880388428684],[-86.6634535061385,36.1880694687902],[-86.6634329060967,36.1880987808748],[-86.6634142293429,36.1881212986356],[-86.663399394503,36.1881456221276],[-86.6633886637314,36.1881713245189],[-86.6633822255815,36.1881979523443],[-86.6633759152006,36.188223905328],[-86.6633665232597,36.1882492371541],[-86.6633541378262,36.1882737103081],[-86.6633388770229,36.1882970916159],[-86.6633208857533,36.1883191594728],[-86.6633006843134,36.1883517454062],[-86.6632836835999,36.1883855106187],[-86.6632699864031,36.1884202490606],[-86.6632596765615,36.1884557484775],[-86.663245951792,36.1884978304976],[-86.6632288758887,36.1885390990662],[-86.6632085207534,36.188579378042],[-86.6631849716753,36.1886184966176],[-86.6631583306657,36.1886562893011],[-86.6631397694919,36.1886820184546],[-86.6631245432122,36.1887091478639],[-86.6631128095648,36.1887373945709],[-86.6631046928454,36.188766464986],[-86.6630973098635,36.188799918682],[-86.6630865619279,36.1888327680909],[-86.6630725216697,36.1888647911043],[-86.6630552862244,36.188895770886],[-86.6630349694724,36.1889254986195],[-86.6630117098212,36.1889537734642],[-86.6629890228692,36.1889827292121],[-86.6629700480343,36.1890133886726],[-86.6629549795185,36.1890454416507],[-86.6629439680232,36.1890785610656],[-86.6629371263826,36.1891124119331],[-86.6629313802513,36.1891504323007],[-86.6629214789736,36.1891878869634],[-86.662907502337,36.189224478969],[-86.6628895601774,36.1892599148051],[-86.66287256311,36.189293894428],[-86.6628589074147,36.1893288497874],[-86.6628486780213,36.1893645659194],[-86.662841937587,36.1894008234759],[-86.6628389894117,36.1894266831579],[-86.6628329362715,36.1894521858653],[-86.6628238372703,36.1894770870332],[-86.6628117804711,36.1895011482459],[-86.6627968795682,36.189524138157],[-86.6627759711208,36.1895524081538],[-86.662758667961,36.1895822346509],[-86.6627451454912,36.1896133192728],[-86.6627355378354,36.1896453467463],[-86.6627283558752,36.1896766732457],[-86.6627171491993,36.1897072125096],[-86.6627020428567,36.1897366285834],[-86.6626832042126,36.1897645933916],[-86.6626608430384,36.1897907975517],[-86.6626435828401,36.18981060454],[-86.6626299453538,36.1898321887456],[-86.662620203808,36.1898551169688],[-86.662614553397,36.1898789312031],[-86.6626131068638,36.1899031522635],[-86.6626158946427,36.1899272969107],[-86.6626204240101,36.189954691839],[-86.6626216375834,36.1899823140565],[-86.6626195231475,36.1900098995625],[-86.6626141007593,36.1900371877839],[-86.662607189194,36.1900698817948],[-86.6626047428809,36.1901029929139],[-86.6626067940676,36.1901361217085],[-86.6626059087225,36.1901604424302],[-86.6626016347491,36.1901845248915],[-86.662594028502,36.1902080614548],[-86.662583185286,36.1902307487746],[-86.6625708350341,36.1902519122301],[-86.6625626627065,36.1902743667863],[-86.6625588672916,36.1902975760066],[-86.6625595386355,36.1903209815215],[-86.6625606640527,36.1903292641882],[-86.662560080894,36.1903375841702],[-86.6625578061398,36.1903457115541],[-86.6625539012721,36.1903534197875],[-86.6625484768268,36.1903604982713],[-86.6625416790372,36.1903667506303],[-86.6625336988045,36.1903720036771],[-86.6625247550647,36.1903761129103],[-86.6624931774394,36.1903839162143],[-86.6624607262254,36.1903888285709],[-86.6624278034028,36.1903907891924],[-86.6623948145875,36.1903897733215],[-86.6623621690551,36.1903857949356],[-86.6623834208053,36.1903954010822],[-86.6624027356806,36.1904073962638],[-86.6624197102059,36.1904215285411],[-86.6624339872239,36.1904375006581],[-86.6624452659613,36.1904549771965],[-86.6624533109833,36.190473591737],[-86.6624579533585,36.1904929531613],[-86.6624575409172,36.1905218514625],[-86.662460290948,36.1905506657181],[-86.6624661837616,36.1905791680187],[-86.6624751730236,36.1906071351067],[-86.6624804536322,36.1906280972612],[-86.6624820317742,36.190649452851],[-86.6624798760921,36.1906707757546],[-86.6624740285991,36.1906916385465],[-86.6624646081045,36.1907116232931],[-86.6624518013953,36.1907303306141],[-86.6624363012915,36.1907617586039],[-86.6624250581643,36.1907943555952],[-86.6624182056155,36.1908277432301],[-86.6624158215829,36.1908615344436],[-86.662417935048,36.1908953379323],[-86.6624204602183,36.190922655534],[-86.6624187106971,36.1909500137129],[-86.6624127150573,36.1909769734009],[-86.6624025686546,36.1910031041757],[-86.6623899784644,36.1910312383276],[-86.6623813455843,36.1910603367399],[-86.6623767759342,36.1910900347253],[-86.6623763297828,36.1911199597355],[-86.6623800106903,36.1911497386314],[-86.6623877732903,36.1911789976409],[-86.6623963731834,36.1912030716432],[-86.6624016727199,36.1912277630864],[-86.6624036060563,36.1912527767208],[-86.6624021506637,36.1912778116507],[-86.6623973159906,36.1912972088454],[-86.6623955528523,36.1913169460852],[-86.6623968897249,36.191336705071],[-86.6624013028303,36.1913561677901],[-86.6624087239483,36.1913750200786],[-86.6624191639472,36.1914084110682],[-86.6624252146997,36.1914425065861],[-86.6624312564513,36.1914812490224],[-86.6624401659537,36.1915196260366],[-86.6624519109141,36.1915574981108],[-86.6624664479439,36.1915947284916],[-86.6624837247676,36.1916311813753],[-86.6624992011221,36.1916605305323],[-86.6625109310054,36.191690999776],[-86.662518793936,36.1917222752308],[-86.6625227071655,36.1917540347021],[-86.662524001831,36.1917781875325],[-86.6625296259568,36.1918019290656],[-86.6625394630017,36.1918247507313],[-86.6625532987737,36.1918461670267],[-86.6625651897265,36.1918605047237],[-86.6625743360962,36.1918761102253],[-86.6625805348816,36.191892640367],[-86.6625836529514,36.1919097308715],[-86.6625897705362,36.1919389024561],[-86.6625990778028,36.1919675130786],[-86.662611498374,36.1919953369426],[-86.6626269358824,36.1920221510647],[-86.6626452651207,36.1920477407315],[-86.6626663387278,36.1920719012641],[-86.6626855745316,36.1920982015448],[-86.6627016750605,36.1921258510859],[-86.662714498169,36.1921546046262],[-86.6627239305424,36.1921842077336],[-86.6627298888246,36.1922143986014],[-86.6627327961093,36.1922533664106],[-86.66273877799,36.1922921037452],[-86.6627478097829,36.1923304503167],[-86.662759853485,36.1923682486137],[-86.6627748622284,36.1924053447781],[-86.6627791188257,36.1924165699697],[-86.6627818303123,36.1924281064646],[-86.6626084970284,36.1924943285102],[-86.662433343083,36.1925573247897],[-86.6622564605029,36.1926170623457],[-86.6620779402193,36.1926735100294],[-86.6618978765218,36.192726639378],[-86.6617163636941,36.1927764210281],[-86.6615334938416,36.1928228310361],[-86.6613493657193,36.1928658427187],[-86.6611640725687,36.1929054348309],[-86.6609777132064,36.1929415879004],[-86.6607903830988,36.192974280671],[-86.6606021811012,36.1930034981776],[-86.6604132049499,36.1930292245604],[-86.6601004748012,36.1930833652057],[-86.6597886686274,36.1931408995194],[-86.6594778407949,36.1932018181988],[-86.6591680501029,36.1932661101151],[-86.6588593497847,36.1933337632691],[-86.6585517964098,36.1934047656438],[-86.6582454454364,36.193479105229],[-86.657940351189,36.1935567673174],[-86.6576365680082,36.1936377390046],[-86.657528073619,36.1936544398174],[-86.6574203581965,36.1936741762204],[-86.6573135504997,36.1936969231807],[-86.6572077781685,36.1937226547706],[-86.6571031676794,36.1937513387606],[-86.6569271157857,36.1937409959512],[-86.6567542855071,36.1937308417485],[-86.6515423775222,36.1941274153613],[-86.651350730935,36.1918346009853],[-86.6512937183362,36.1911646341766],[-86.6512058686613,36.1897102816718]]]},"properties":{"id":"268338","parcel":"08500000600","address":"1266 STONES RIVER RD","owner":"METRO GOV'T  P  PARK BOARD","point":[-86.65920523220555,36.18283612524368]}},{"type":"Feature","id":"268998","geometry":{"type":"Polygon","coordinates":[[[-86.6500360826117,36.1822710329797],[-86.6501164131143,36.1821497284133],[-86.6501398381309,36.1821584129417],[-86.6501644660965,36.1821645278139],[-86.6501898714797,36.1821679689727],[-86.6502156146594,36.1821686765988],[-86.6502412486092,36.1821666368774],[-86.6502646873297,36.1821630200603],[-86.6502885156015,36.1821620355125],[-86.6503122866471,36.1821636991592],[-86.650335554431,36.1821679818596],[-86.6503578813752,36.1821748012531],[-86.6503881591757,36.1821894674049],[-86.6504140686444,36.1822085597219],[-86.65043459027,36.1822317989029],[-86.6504490346944,36.182257817854],[-86.6504563779514,36.1822855234633],[-86.6504569545563,36.1823140892799],[-86.6504500651248,36.1823421464589],[-86.6504363842831,36.1823683169484],[-86.6504165867278,36.1823917733626],[-86.6503909969811,36.1824116902021],[-86.6503613013,36.1824266839629],[-86.650328173339,36.1824364770311],[-86.6502933072629,36.182440785395],[-86.65025805259,36.1824390520175],[-86.6502241080303,36.1824318184163],[-86.6501928264514,36.1824188006204],[-86.6501652340564,36.182401093539],[-86.650142690473,36.1823792387174],[-86.6501262196297,36.1823540543921],[-86.6501131584507,36.1823342979942],[-86.6500973901425,36.1823158864274],[-86.6500791234633,36.1822990610044],[-86.6500585970305,36.1822840439508],[-86.6500360826117,36.1822710329797]]]},"properties":{"id":"268998","parcel":"08507014300","address":"0 DANYACREST DR","owner":"DONELSON CHRISTIAN ACADEMY","point":[-86.65026280187803,36.18229227792507]}},{"type":"Feature","id":"269047","geometry":{"type":"Polygon","coordinates":[[[-86.6526542226105,36.1822085562372],[-86.652136462083,36.18187950988],[-86.6516963734352,36.1817654152872],[-86.6507332112834,36.1810036380863],[-86.6507001143998,36.1806038486888],[-86.6507255365797,36.1805995009825],[-86.650749996767,36.1805923970061],[-86.6507730424721,36.1805826689803],[-86.650794247173,36.180570497654],[-86.6508132191571,36.1805561059481],[-86.6508296082129,36.1805397616223],[-86.6508431110928,36.1805217655298],[-86.6532053386155,36.1816495758705],[-86.6532062897782,36.181680711844],[-86.6532036440246,36.1817117834629],[-86.6531974257895,36.1817425184155],[-86.6531876873218,36.1817726469427],[-86.6531745176076,36.1818019053952],[-86.6531580290381,36.1818300372069],[-86.6531407977279,36.1818619375833],[-86.6531268533979,36.1818948764462],[-86.6531162909419,36.1819286315742],[-86.6531091796406,36.1819629754767],[-86.6531055676244,36.1819976771723],[-86.6531054796415,36.1820325012995],[-86.6531023771882,36.1820745445768],[-86.6530963636496,36.1821163791898],[-86.6530874590673,36.1821578743472],[-86.6530756912495,36.1821988974134],[-86.6530610980472,36.1822393202042],[-86.653048568819,36.1822898150848],[-86.6530375344999,36.182340538907],[-86.6527931908057,36.1822957097984],[-86.6526542226105,36.1822085562372]]]},"properties":{"id":"269047","parcel":"08510001600","address":"309 MYRICK DR","owner":"DONELSON CHRISTIAN ACADEMY, INC.","point":[-86.65183540108944,36.1813262240933]}},{"type":"Feature","id":"269546","geometry":{"type":"Polygon","coordinates":[[[-86.6506625661984,36.1803227544213],[-86.6506491063539,36.1803224114893],[-86.6506358728263,36.1803203846895],[-86.6506231861763,36.1803167218636],[-86.6506113528453,36.1803115114856],[-86.6506006562329,36.1803048791057],[-86.6505913544519,36.1802969846582],[-86.6505836725015,36.1802880170959],[-86.6508635773337,36.1800425713935],[-86.6511253535389,36.1799005113524],[-86.6514117614595,36.1799669651123],[-86.6512481406452,36.1803283867326],[-86.6508504135438,36.1804206348903],[-86.65084199162,36.1804021008883],[-86.650830399795,36.1803847294731],[-86.6508158733166,36.1803688744707],[-86.6507987094249,36.1803548578288],[-86.6507792551025,36.1803429669793],[-86.6507579125435,36.1803334439934],[-86.6507351124595,36.1803264839238],[-86.6507111904616,36.1803227500879],[-86.6506868775055,36.1803214995145],[-86.6506625661984,36.1803227544213]]]},"properties":{"id":"269546","parcel":"08510001800","address":"304 MYRICK DR","owner":"CM HOLDINGS REVOCABLE LIVING TRUST, THE","point":[-86.65102240584554,36.1801661656452]}},{"type":"Feature","id":"270688","geometry":{"type":"Polygon","coordinates":[[[-86.650559126263,36.1802698385463],[-86.6502891225636,36.1800698416981],[-86.6502798488869,36.1800621138075],[-86.650272211508,36.1800532874823],[-86.6502664045941,36.1800435878925],[-86.6502625769124,36.1800332620824],[-86.6502608262345,36.1800225744953],[-86.6502611981442,36.180011797065],[-86.6502636804496,36.180001205642],[-86.6502682119874,36.17999106913],[-86.6502746770431,36.179981646813],[-86.6502829086122,36.1799731793244],[-86.6503448344276,36.1799200627139],[-86.6504086041349,36.1798683997768],[-86.6504741669461,36.1798182331432],[-86.6505414687312,36.1797696045596],[-86.6508635773337,36.1800425713935],[-86.6505836725015,36.1802880170959],[-86.650559126263,36.1802698385463]]]},"properties":{"id":"270688","parcel":"08511004600","address":"3044 EDGEMONT DR","owner":"NORMAN, HAYWOOD P., III & VIRGINIA R.","point":[-86.65055500411518,36.180028774766576]}},{"type":"Feature","id":"270732","geometry":{"type":"Polygon","coordinates":[[[-86.6502412486092,36.1821666368774],[-86.6502156146594,36.1821686765988],[-86.6501898714797,36.1821679689727],[-86.6501644660965,36.1821645278139],[-86.6501398381309,36.1821584129417],[-86.6501164131143,36.1821497284133],[-86.6498658406618,36.1820408530164],[-86.6498416425316,36.18203033854],[-86.6501308132239,36.1815914532149],[-86.6502994431383,36.1813290273477],[-86.6507916602987,36.1815197655517],[-86.6503578813752,36.1821748012531],[-86.650335554431,36.1821679818596],[-86.6503122866471,36.1821636991592],[-86.6502885156015,36.1821620355125],[-86.6502646873297,36.1821630200603],[-86.6502412486092,36.1821666368774]]]},"properties":{"id":"270732","parcel":"08507008000","address":"244 DANYACREST DR","owner":"CARTER, TREBA J. & ELDON E.","point":[-86.6502919569298,36.18181178943954]}},{"type":"Feature","id":"273717","geometry":{"type":"Polygon","coordinates":[[[-86.6507916602987,36.1815197655517],[-86.6502994431383,36.1813290273477],[-86.6501443768014,36.1812617356909],[-86.6498587481778,36.1811402070572],[-86.6499311294532,36.1810409261111],[-86.6500839208741,36.1808313264118],[-86.6502068846784,36.1806196917017],[-86.6504706568382,36.1803897173895],[-86.6504859352432,36.1804040047007],[-86.6504980063583,36.1804201830057],[-86.6505065228496,36.1804377864246],[-86.6505112381796,36.180456304373],[-86.6505120167824,36.1804752022353],[-86.6505169266268,36.1804969699681],[-86.6505256264112,36.1805179449005],[-86.6505379391675,36.1805376944806],[-86.6505540132315,36.1805554635561],[-86.6505615174855,36.1805614669428],[-86.6505734553617,36.1805710172144],[-86.6505957936149,36.1805836063493],[-86.6506200932296,36.1805935234979],[-86.6506458723171,36.180600569375],[-86.650673008003,36.1806039947962],[-86.6507001143998,36.1806038486888],[-86.6507332112834,36.1810036380863],[-86.6516963734352,36.1817654152872],[-86.6507916602987,36.1815197655517]]]},"properties":{"id":"273717","parcel":"08511010600","address":"305 MYRICK DR","owner":"DONELSON CHRISTIAN ACADEMY, INC.","point":[-86.65037078593184,36.18109195723038]}}]}