{"type":"FeatureCollection","features":[{"type":"Feature","id":"224891","geometry":{"type":"Polygon","coordinates":[[[-86.6692494196486,36.2112909419508],[-86.6686009059816,36.210141800696],[-86.6693894510738,36.2098399584216],[-86.6706370487095,36.2093775480409],[-86.6756794770401,36.2076182690364],[-86.6756966082159,36.2076881932169],[-86.6757161879446,36.2077576936234],[-86.6757382012923,36.2078267135594],[-86.6757459925945,36.207874233509],[-86.6757511269288,36.2079219891319],[-86.6757535934683,36.2079698849565],[-86.6757533880274,36.2080178218687],[-86.6757593856893,36.2080584383519],[-86.6757620735511,36.2080992869525],[-86.6757614400865,36.2081401901883],[-86.6757574893458,36.2081809713914],[-86.6757540558372,36.2082258125409],[-86.675753782485,36.2082707387488],[-86.6757566725064,36.2083156048956],[-86.6757627157512,36.2083602632327],[-86.6757718920992,36.2084045705735],[-86.6757841736304,36.2084483819718],[-86.6757858433301,36.2085618554919],[-86.6757915302993,36.2086752443412],[-86.6757935995317,36.2087191849841],[-86.6757985093781,36.2087874399091],[-86.6758061313456,36.2088555309487],[-86.675816454834,36.2089233878641],[-86.675829472571,36.2089909394965],[-86.6758302857936,36.2090228167068],[-86.6758348350061,36.2090544864497],[-86.6758430799536,36.209085661451],[-86.6758549448493,36.2091160609437],[-86.6758615160745,36.2091457969997],[-86.6758644928791,36.2091759100675],[-86.6758638472398,36.2092061137061],[-86.675851072618,36.2093090891549],[-86.6758420679954,36.2094123264935],[-86.6758368426118,36.2095157337434],[-86.6758354001775,36.2096192225619],[-86.6758377421327,36.2097226992109],[-86.6758525288129,36.2098335117899],[-86.6758717812632,36.2099438739801],[-86.6758954784634,36.2100536660308],[-86.6759119522053,36.2101101750912],[-86.675924379195,36.2101673602057],[-86.6759327177541,36.2102250296421],[-86.6759369395714,36.2102829942972],[-86.6759370329626,36.210341058665],[-86.6759329940586,36.2103990308009],[-86.6759367041891,36.2104935179024],[-86.6759368581745,36.2105880519432],[-86.6759334552646,36.2106825464074],[-86.6759265013666,36.2107769129389],[-86.6759160001709,36.2108710640951],[-86.675928612472,36.2109764677776],[-86.6759376502645,36.2110821122693],[-86.6759431050739,36.2111879183082],[-86.6759438520379,36.2112554655674],[-86.6759477746222,36.2113229400746],[-86.6759548664527,36.2113902454312],[-86.6759651178036,36.2114572834549],[-86.6759785133806,36.211523955093],[-86.6759770263999,36.2115496526626],[-86.67597941815,36.2115753050886],[-86.6759856564563,36.2116005295194],[-86.6759956446888,36.2116249488714],[-86.6760057810172,36.2116732658539],[-86.6760121585906,36.2117220031296],[-86.6760147535169,36.2117709679648],[-86.6760135563681,36.2118199684463],[-86.6760085710538,36.2118688116844],[-86.6760189730894,36.2119545588115],[-86.6760317255337,36.2120400963059],[-86.6730915289575,36.2122938617],[-86.6711710754584,36.2129641757925],[-86.670041644504,36.2109836613621],[-86.6692494196486,36.2112909419508]]]},"properties":{"id":"224891","parcel":"07300001800","address":"0 NEELYS BEND RD","owner":"FORKUM, JAMES & PATRICIA L.","point":[-86.6723113754341,36.21030215423368]}}]}