{"type":"FeatureCollection","features":[{"type":"Feature","id":"62216","geometry":{"type":"Polygon","coordinates":[[[-86.6422287237679,36.0406578946278],[-86.6418476970676,36.0400142862352],[-86.641817406781,36.0399591472441],[-86.641790636076,36.0399028448636],[-86.6417906112264,36.0399027909186],[-86.6417674347036,36.0398454941958],[-86.6417674040728,36.0398454114405],[-86.6417478727597,36.0397872562001],[-86.6417478465458,36.0397871707173],[-86.6417319980657,36.0397282820399],[-86.6417319751008,36.0397281866256],[-86.6417198540403,36.0396687274081],[-86.6417198389233,36.0396686418662],[-86.641711471881,36.0396087462599],[-86.6417114635603,36.0396086778064],[-86.6417068728194,36.0395484953072],[-86.6417068712586,36.0395484394356],[-86.6417060692099,36.0394881313086],[-86.6417070396328,36.0394590559934],[-86.6420459595732,36.0390364644093],[-86.6420713688033,36.0390478763249],[-86.6420714133356,36.0390478941134],[-86.6420714478372,36.0390479065476],[-86.6420714934646,36.0390479225276],[-86.6420986801219,36.0390562695995],[-86.6421270357081,36.0390613685022],[-86.6421270845917,36.039061375452],[-86.6421271234665,36.0390613797513],[-86.6421271734452,36.0390613848927],[-86.6421561799928,36.0390631320339],[-86.6421852312845,36.0390614891846],[-86.6422136318533,36.0390564970041],[-86.6422136805985,36.0390564868302],[-86.64221371494,36.0390564794369],[-86.6422137625538,36.039056466565],[-86.6422409805349,36.0390482243264],[-86.6422664790766,36.039036900729],[-86.6422665210765,36.0390368797754],[-86.6422665553306,36.0390368615671],[-86.6422665962062,36.039036838817],[-86.6422898124591,36.039022681111],[-86.6423103245829,36.0390059457096],[-86.6423103576399,36.0390059166921],[-86.6423103818632,36.0390058931295],[-86.642310412679,36.0390058614202],[-86.6423277443926,36.0389869339111],[-86.6423415745584,36.0389661729178],[-86.6423415964531,36.0389661358482],[-86.6423416117699,36.038966108728],[-86.6423416303356,36.0389660716762],[-86.6423516485469,36.0389439276961],[-86.6423576696811,36.0389208370392],[-86.642357678238,36.0389207973369],[-86.6423576835241,36.0389207648624],[-86.642357687686,36.0389207305912],[-86.6423595696478,36.03889723569],[-86.6423595704297,36.0388971951278],[-86.6423595701966,36.0388971662878],[-86.6423595687592,36.0388971257375],[-86.6423572846868,36.0388736097828],[-86.6423508786541,36.0388505826686],[-86.6423508661346,36.0388505439799],[-86.6423508547831,36.0388505124954],[-86.6423508389345,36.0388504738244],[-86.642340889574,36.0388292294195],[-86.6423404516436,36.0388284557447],[-86.6423311152611,36.0388083608191],[-86.6423310943172,36.0388083095573],[-86.6423310733295,36.038808252888],[-86.6423257267371,36.0387872426157],[-86.6423244787946,36.0387657427263],[-86.6423273798602,36.0387443550122],[-86.6423343564345,36.0387235972042],[-86.6423452143421,36.0387040219252],[-86.6423452373537,36.038703985751],[-86.6423452549044,36.0387039604214],[-86.6423452801499,36.0387039260379],[-86.6423597578281,36.0386859862268],[-86.6424245328733,36.0386181758643],[-86.6430669745863,36.0379456306755],[-86.6431515013141,36.0378571407783],[-86.6431676299716,36.0378431883662],[-86.6431676652544,36.0378431602379],[-86.6431676917329,36.0378431411695],[-86.6431677292422,36.0378431139307],[-86.6431863015742,36.03783137105],[-86.6432069510515,36.0378220712875],[-86.6432291293817,36.0378154762388],[-86.6432522752503,36.0378117466249],[-86.6432758689339,36.0378109717438],[-86.6432993157573,36.0378131664866],[-86.6433220715713,36.0378182814838],[-86.6433435137339,36.0378261668413],[-86.6433435582731,36.0378261855305],[-86.64334358946,36.0378261997846],[-86.6433436317946,36.0378262202883],[-86.6433633340202,36.0378367187545],[-86.6435838527185,36.0379752030196],[-86.6437156983022,36.0380602752821],[-86.6437158901991,36.03806040224],[-86.6438453748652,36.0381478339282],[-86.6438455623531,36.0381479645145],[-86.6439726537646,36.0382377359804],[-86.6439728066856,36.0382378460217],[-86.6440975584962,36.0383300047542],[-86.6442260499609,36.0384293771051],[-86.6442262297774,36.0384295194486],[-86.6443518740154,36.0385313511815],[-86.6443519991376,36.0385314541606],[-86.6444747023825,36.0386356772878],[-86.6444747906815,36.0386357552276],[-86.6445943785827,36.0387422174716],[-86.6445945395802,36.038742365323],[-86.6447111820766,36.0388512226078],[-86.6448244990208,36.0389621245725],[-86.6448246478202,36.0389622733901],[-86.6449347800568,36.0390753463716],[-86.6449348807898,36.0390754521844],[-86.6450417265222,36.0391905966931],[-86.6450418172319,36.0391906980531],[-86.6451452488106,36.03930777418],[-86.6451453978087,36.039307947331],[-86.6452455709341,36.0394271345086],[-86.6435887441287,36.0401599502664],[-86.6435843409504,36.0401618980337],[-86.642545251812,36.0400380561512],[-86.6424849104404,36.0401262156263],[-86.6422300131174,36.0406600715766],[-86.6422287237679,36.0406578946278]]]},"properties":{"id":"62216","parcel":"16300042400","address":"5501 CROSSINGS CIR","owner":"PAPERMOON, LLC","point":[-86.64348825245193,36.03924447392698]}}]}