{"type":"FeatureCollection","features":[{"type":"Feature","id":"59913","geometry":{"type":"Polygon","coordinates":[[[-86.6256177431771,36.11768233485],[-86.6258869126634,36.1157990597727],[-86.6297211173657,36.1163433679259],[-86.6313082274105,36.1165642223264],[-86.6311632031257,36.1173226876257],[-86.6310366600014,36.117723870724],[-86.6309091092257,36.118404527519],[-86.6256177431771,36.11768233485]]]},"properties":{"id":"59913","parcel":"12100026900","address":"100 HERON POINTE DR","owner":"HERON POINTE VILLAGE, LLC","point":[-86.6284807533853,36.116934943212826]}},{"type":"Feature","id":"106537","geometry":{"type":"Polygon","coordinates":[[[-86.6289042053589,36.119941891264],[-86.6289331921897,36.1199252577074],[-86.6290063333184,36.1200075425976],[-86.6290182590235,36.120020961603],[-86.6289522011481,36.1200594901551],[-86.6288790887959,36.1199769103679],[-86.6289009958759,36.119964159448],[-86.6288962125807,36.119958690246],[-86.6289113786794,36.1199498201878],[-86.6289042053589,36.119941891264]]]},"properties":{"id":"106537","parcel":"122010A43600CO","address":"145 ANTLER RIDGE CIR","owner":"SHERRARD, MARK D.","point":[-86.62894268427127,36.11999222641666]}},{"type":"Feature","id":"106554","geometry":{"type":"Polygon","coordinates":[[[-86.629482013267,36.1200072792],[-86.6294980119517,36.1198898954371],[-86.6295335891714,36.1198930039067],[-86.6295323102445,36.1199026280322],[-86.6295509469207,36.1199044540763],[-86.62954998392,36.1199110518914],[-86.6295767526227,36.1199136592499],[-86.6295639764197,36.1200104231756],[-86.6295633292799,36.1200145471589],[-86.629482013267,36.1200072792]]]},"properties":{"id":"106554","parcel":"122010A46200CO","address":"133 ANTLER RIDGE CIR","owner":"ABRAHAMS, DENNIS J. & REBECCA B.","point":[-86.62952948286201,36.11996046954357]}},{"type":"Feature","id":"106919","geometry":{"type":"Polygon","coordinates":[[[-86.6295474802551,36.1196380054143],[-86.629587910689,36.1195273617899],[-86.6296659342504,36.1195461867233],[-86.6296612881445,36.1195580212178],[-86.6296258317957,36.1196554524227],[-86.6296178827624,36.1196777453679],[-86.6295836215828,36.1196696829839],[-86.6295879288928,36.1196578475572],[-86.6295651996124,36.119652198062],[-86.6295685134377,36.119643114892],[-86.6295474802551,36.1196380054143]]]},"properties":{"id":"106919","parcel":"122010A50000CO","address":"148 ANTLER RIDGE CIR","owner":"KNIGHT, LARRY A. & GEORGIA RICE IRREVOCABLE TRUST","point":[-86.62960441426212,36.11959801342273]}},{"type":"Feature","id":"106934","geometry":{"type":"Polygon","coordinates":[[[-86.624326068199,36.1191953937075],[-86.6244314816744,36.11916682758],[-86.6244839310674,36.1191538661739],[-86.6245371707863,36.119143233139],[-86.6245910422336,36.1191349599386],[-86.6246535353976,36.1194609887983],[-86.6244561738765,36.1195081610994],[-86.624326068199,36.1191953937075]]]},"properties":{"id":"106934","parcel":"122010A11000CO","address":"1832 WOODLAND POINTE DR","owner":"BALFOUR, ERIN RASHAD & CYNTHIA ALISE","point":[-86.62450466586031,36.119328237956275]}},{"type":"Feature","id":"106947","geometry":{"type":"Polygon","coordinates":[[[-86.6255794596129,36.1194048197191],[-86.62560310698,36.1194084679885],[-86.6256271526063,36.1194093698213],[-86.6256511153673,36.119407508786],[-86.6256745123147,36.1194029189323],[-86.6256968765272,36.1193956946119],[-86.6258923900995,36.1197155395184],[-86.6254653774027,36.1197512681636],[-86.6255794596129,36.1194048197191]]]},"properties":{"id":"106947","parcel":"122010A11500CO","address":"1852 WOODLAND POINTE DR","owner":"ABED, KHALED Y.","point":[-86.6256633391067,36.11956215345841]}},{"type":"Feature","id":"106948","geometry":{"type":"Polygon","coordinates":[[[-86.6247750961429,36.1189886887201],[-86.6247908788538,36.1185845100183],[-86.6251021316425,36.1186403110001],[-86.6249980569546,36.1190108810611],[-86.6249428673337,36.1190021092489],[-86.6248872280111,36.1189954766519],[-86.6248312613036,36.11899099976],[-86.6247750961429,36.1189886887201]]]},"properties":{"id":"106948","parcel":"122010A12200CO","address":"1853 WOODLAND POINTE DR","owner":"FIRMIN, PAMELA & MARK G.","point":[-86.62491751364499,36.11881443391365]}},{"type":"Feature","id":"107701","geometry":{"type":"Polygon","coordinates":[[[-86.6290723590754,36.1199690349116],[-86.6289989089917,36.1198864560551],[-86.6290285581336,36.1198678957116],[-86.6290552056341,36.1198979745226],[-86.629070032917,36.1198891071123],[-86.6290621743992,36.119880082222],[-86.6290830726868,36.1198681611913],[-86.6290851260999,36.1198708975527],[-86.6291541349784,36.1199485542546],[-86.6290880772292,36.1199870828818],[-86.6290723590754,36.1199690349116]]]},"properties":{"id":"107701","parcel":"122010A43400CO","address":"141 ANTLER RIDGE CIR","owner":"STOOKSBURY, KRISTA LEANN","point":[-86.62908159123263,36.119923192943396]}},{"type":"Feature","id":"107703","geometry":{"type":"Polygon","coordinates":[[[-86.6289212311764,36.1199115847194],[-86.6289502180369,36.119894676271],[-86.6289570525642,36.1199026069587],[-86.6289722186525,36.1198937377939],[-86.628977001949,36.119899206993],[-86.6289989089917,36.1198864560551],[-86.6290723590754,36.1199690349116],[-86.6290063333184,36.1200075425976],[-86.6289331921897,36.1199252577074],[-86.6289212311764,36.1199115847194]]]},"properties":{"id":"107703","parcel":"122010A43500CO","address":"143 ANTLER RIDGE CIR","owner":"GARMENDIA, TERRIE","point":[-86.62900276933397,36.11994714631018]}},{"type":"Feature","id":"107743","geometry":{"type":"Polygon","coordinates":[[[-86.6293204029636,36.1199943871112],[-86.6293357494021,36.1198797538442],[-86.6293577739604,36.1198818371296],[-86.6293590518188,36.1198722157154],[-86.6293824304316,36.1198742910302],[-86.6293840253066,36.119861920891],[-86.6294196025307,36.119865032098],[-86.6294154377812,36.1198949967185],[-86.6294010469145,36.1200016586857],[-86.6293204029636,36.1199943871112]]]},"properties":{"id":"107743","parcel":"122010A46400CO","address":"137 ANTLER RIDGE CIR","owner":"SHRUM, MICHAEL T. & SHRUM, TRAVIS ET UX","point":[-86.62936789432885,36.11994469184399]}},{"type":"Feature","id":"107813","geometry":{"type":"Polygon","coordinates":[[[-86.6292004873495,36.1196024555709],[-86.6291818529303,36.1196009043485],[-86.6291805859381,36.1196118992401],[-86.6291551735866,36.1196095596069],[-86.6291676005484,36.1195114240031],[-86.6292485740302,36.1195178692969],[-86.6292374185086,36.1196055597687],[-86.6292329693325,36.1196423935451],[-86.6291957004748,36.1196392911075],[-86.6292004873495,36.1196024555709]]]},"properties":{"id":"107813","parcel":"122010A50400CO","address":"156 ANTLER RIDGE CIR","owner":"BUCHANAN, SALLY A.","point":[-86.62920241468497,36.11955934721353]}},{"type":"Feature","id":"107835","geometry":{"type":"Polygon","coordinates":[[[-86.624451581949,36.1207325568098],[-86.6242956837785,36.1206707300472],[-86.6241743778744,36.1205730130931],[-86.6240474345542,36.1204039004808],[-86.6239791808956,36.1202498679165],[-86.6239701183983,36.1200875628154],[-86.6239823660729,36.1199226743886],[-86.6240347740399,36.119784226032],[-86.624138802588,36.1196655629061],[-86.6242792612783,36.1195725343261],[-86.6244561738765,36.1195081610994],[-86.6246535353976,36.1194609887983],[-86.6248299239182,36.1194592514707],[-86.6249907505906,36.1195020965113],[-86.6251678571733,36.1195918320407],[-86.6254653774027,36.1197512681636],[-86.6258923900995,36.1197155395184],[-86.6261815939043,36.1194646040347],[-86.6262056295004,36.1191205447838],[-86.6262539987804,36.1189428327278],[-86.6263566948836,36.1189578734441],[-86.6265780563794,36.1189900482293],[-86.6263297808694,36.1197506286193],[-86.6260592744825,36.1199253741003],[-86.6258231067998,36.120032361811],[-86.6257496337003,36.1200570907815],[-86.6256746468565,36.1200786262491],[-86.6255983590816,36.1200969076234],[-86.6255209854821,36.1201118833156],[-86.6254427423539,36.1201235116449],[-86.625363849397,36.1201317599263],[-86.6252845286041,36.1201366044761],[-86.6252050031645,36.1201380324202],[-86.6251505525344,36.1201468938151],[-86.6250971424015,36.1201592377064],[-86.6250451098331,36.1201749848396],[-86.624994783973,36.1201940370754],[-86.624946482673,36.1202162729],[-86.6249005125296,36.120241551932],[-86.6248571622182,36.1202697149564],[-86.6248167091591,36.1203005838902],[-86.6247794050832,36.1203339627582],[-86.6247454871618,36.120369640339],[-86.624715172467,36.1204073919964],[-86.6246886501884,36.1204469788183],[-86.6246660872086,36.120488150291],[-86.624647628117,36.1205306461026],[-86.6246333896631,36.120574197072],[-86.6246234607844,36.1206185287545],[-86.6246179048136,36.1206633596268],[-86.6246167573065,36.1207084074083],[-86.6246200249098,36.1207533863623],[-86.624451581949,36.1207325568098]]]},"properties":{"id":"107835","parcel":"122010A09800CO","address":"0 WOODLAND POINTE DR","owner":"WOODLAND POINT SING FAM HMOWNERS ASC,INC","point":[-86.62508620294034,36.11985492695925]}},{"type":"Feature","id":"107843","geometry":{"type":"Polygon","coordinates":[[[-86.6245910422336,36.1191349599386],[-86.6246276802763,36.1191309326125],[-86.6246644579294,36.1191278490828],[-86.6247207436774,36.1191254260813],[-86.6247771090427,36.1191256397564],[-86.6248333651757,36.1191284883827],[-86.6248893253985,36.1191339639145],[-86.6248299239182,36.1194592514707],[-86.6246535353976,36.1194609887983],[-86.6245910422336,36.1191349599386]]]},"properties":{"id":"107843","parcel":"122010A11100CO","address":"1836 WOODLAND POINTE DR","owner":"BAILEY, PHILLIP","point":[-86.62474075886313,36.11929720060613]}},{"type":"Feature","id":"107859","geometry":{"type":"Polygon","coordinates":[[[-86.6256968765272,36.1193956946119],[-86.625717994252,36.1193859171472],[-86.6257371392261,36.11937375614],[-86.6257539058053,36.1193594696562],[-86.6257679397905,36.1193433596571],[-86.6257789428432,36.1193257683714],[-86.6261815939043,36.1194646040347],[-86.6258923900995,36.1197155395184],[-86.6256968765272,36.1193956946119]]]},"properties":{"id":"107859","parcel":"122010A11600CO","address":"1856 WOODLAND POINTE DR","owner":"LANGE, GAREY A. & LEE, LINDA G. JOINT REVC. LIVING TR","point":[-86.62592613176218,36.11958972575164]}},{"type":"Feature","id":"107860","geometry":{"type":"Polygon","coordinates":[[[-86.6296580555189,36.1199190039031],[-86.6296602996165,36.1199030586387],[-86.6296955369655,36.1199061715386],[-86.6296939399583,36.1199182668058],[-86.629717657387,36.119920340287],[-86.6297163795714,36.1199299617048],[-86.629738060944,36.1199317700226],[-86.6297233993021,36.1200466764571],[-86.6296424219939,36.1200396817253],[-86.629645292478,36.1200174152904],[-86.6296580555189,36.1199190039031]]]},"properties":{"id":"107860","parcel":"122010A46000CO","address":"129 ANTLER RIDGE CIR","owner":"JITPUKDEE, SUMPUN & KLINSUKON, PHATTAYA","point":[-86.6296917216722,36.11997459280469]}},{"type":"Feature","id":"107862","geometry":{"type":"Polygon","coordinates":[[[-86.6295639764197,36.1200104231756],[-86.6295767526227,36.1199136592499],[-86.6295805981197,36.1198861684731],[-86.6296178671013,36.1198892698904],[-86.6296130848041,36.1199263803051],[-86.6296313760712,36.1199279332524],[-86.6296329840213,36.119916936577],[-86.6296580555189,36.1199190039031],[-86.629645292478,36.1200174152904],[-86.6295639764197,36.1200104231756]]]},"properties":{"id":"107862","parcel":"122010A46100CO","address":"131 ANTLER RIDGE CIR","owner":"INGRAM, MARKEISHIA","point":[-86.6296104802557,36.119969217807]}},{"type":"Feature","id":"107876","geometry":{"type":"Polygon","coordinates":[[[-86.6294010469145,36.1200016586857],[-86.6294154377812,36.1198949967185],[-86.6294374656711,36.1198970790708],[-86.6294387401877,36.1198874576731],[-86.629462119925,36.1198895338679],[-86.6294640524705,36.1198771619656],[-86.629499290904,36.1198802740157],[-86.6294980119517,36.1198898954371],[-86.629482013267,36.1200072792],[-86.6294807354213,36.1200169006151],[-86.6294000969661,36.1200099048538],[-86.6294010469145,36.1200016586857]]]},"properties":{"id":"107876","parcel":"122010A46300CO","address":"135 ANTLER RIDGE CIR","owner":"THOMAS, MICHAEL W.","point":[-86.62944899142623,36.119949460858635]}},{"type":"Feature","id":"108171","geometry":{"type":"Polygon","coordinates":[[[-86.6278326064756,36.11977358348],[-86.6278971433587,36.1197570400203],[-86.6279348141936,36.119853815144],[-86.6278702771989,36.1198706344123],[-86.6278326064756,36.11977358348]]]},"properties":{"id":"108171","parcel":"122010A33800CO","address":"240 BUCK RUN DR","owner":"POST, JOSHUA D","point":[-86.6278836881474,36.119813699254046]}},{"type":"Feature","id":"108172","geometry":{"type":"Polygon","coordinates":[[[-86.6277680672957,36.1197904018043],[-86.6278326064756,36.11977358348],[-86.6278702771989,36.1198706344123],[-86.6278057380105,36.1198871796712],[-86.6277680672957,36.1197904018043]]]},"properties":{"id":"108172","parcel":"122010A33900CO","address":"238 BUCK RUN DR","owner":"WINKELSPECHT, MARK FRANCIS","point":[-86.62781919416969,36.11983051818738]}},{"type":"Feature","id":"108202","geometry":{"type":"Polygon","coordinates":[[[-86.6270673063086,36.1197187772353],[-86.6271302661666,36.1196308176556],[-86.627189057483,36.1196585324582],[-86.6271257622005,36.1197464929109],[-86.6270673063086,36.1197187772353]]]},"properties":{"id":"108202","parcel":"122010A37700CO","address":"309 DOE RIDGE CT","owner":"HALEY, NITANIA LYSE","point":[-86.62712812447744,36.119688654683635]}},{"type":"Feature","id":"108203","geometry":{"type":"Polygon","coordinates":[[[-86.6268575025954,36.1197767324418],[-86.626925561868,36.1196914935411],[-86.6269823421935,36.1197214161914],[-86.6269142829562,36.1198066551236],[-86.6268575025954,36.1197767324418]]]},"properties":{"id":"108203","parcel":"122010A37800CO","address":"311 DOE RIDGE CT","owner":"PROGRESS RESIDENTIAL  BORROWER 23, LLC","point":[-86.62691992241623,36.11974907433304]}},{"type":"Feature","id":"108204","geometry":{"type":"Polygon","coordinates":[[[-86.6268003856471,36.1197470854683],[-86.6268684439034,36.1196615726187],[-86.626925561868,36.1196914935411],[-86.6268575025954,36.1197767324418],[-86.6268003856471,36.1197470854683]]]},"properties":{"id":"108204","parcel":"122010A37900CO","address":"313 DOE RIDGE CT","owner":"KENT, MELISSA ANN","point":[-86.62686293798183,36.11971928940974]}},{"type":"Feature","id":"108205","geometry":{"type":"Polygon","coordinates":[[[-86.6264930552181,36.1194599648088],[-86.6265238182529,36.1194109066347],[-86.6266355715599,36.1194564774517],[-86.6266051473614,36.1195055329926],[-86.6264930552181,36.1194599648088]]]},"properties":{"id":"108205","parcel":"122010A38400CO","address":"330 DOE RIDGE CT","owner":"DORRIS/JAKUBOVITZ, RACHELLE TRUST, THE","point":[-86.62656432011885,36.11945822117242]}},{"type":"Feature","id":"108206","geometry":{"type":"Polygon","coordinates":[[[-86.6266150874905,36.1192634642736],[-86.626645511583,36.1192144078259],[-86.6267572679638,36.1192602534026],[-86.6267268439156,36.1193093089767],[-86.6266150874905,36.1192634642736]]]},"properties":{"id":"108206","parcel":"122010A38800CO","address":"322 DOE RIDGE CT","owner":"HARVILLE, JOSEPH C. & FRANCES J.","point":[-86.62668617771791,36.11926185885917]}},{"type":"Feature","id":"108227","geometry":{"type":"Polygon","coordinates":[[[-86.6270568488428,36.1192949571952],[-86.6270797611824,36.1191951197818],[-86.6271462032846,36.1192052155632],[-86.6271232910113,36.1193050511865],[-86.6270568488428,36.1192949571952]]]},"properties":{"id":"108227","parcel":"122010A39300CO","address":"312 DOE RIDGE CT","owner":"SHELTON, LAVERNE","point":[-86.62710152599273,36.119250086387545]}},{"type":"Feature","id":"108228","geometry":{"type":"Polygon","coordinates":[[[-86.6273558800718,36.1194313056143],[-86.6274174777156,36.1193425301008],[-86.6274762679068,36.1193696949962],[-86.6274150058238,36.1194581948079],[-86.6273558800718,36.1194313056143]]]},"properties":{"id":"108228","parcel":"122010A39700CO","address":"304 DOE RIDGE CT","owner":"PRIMM, RICHARD","point":[-86.6274160991531,36.11940050039877]}},{"type":"Feature","id":"108229","geometry":{"type":"Polygon","coordinates":[[[-86.6277280371979,36.1193524514878],[-86.6277953720751,36.1193468818007],[-86.6278080212565,36.1194479087048],[-86.6277406862946,36.1194534783989],[-86.6277280371979,36.1193524514878]]]},"properties":{"id":"108229","parcel":"122010A40100CO","address":"255 BUCK RUN DR","owner":"DUNN, KERRY D. & JOHNSON, JASON A.","point":[-86.62776802920324,36.11940018010302]}},{"type":"Feature","id":"108230","geometry":{"type":"Polygon","coordinates":[[[-86.6277953720751,36.1193468818007],[-86.627862705832,36.1193413120818],[-86.6278753550911,36.1194423380778],[-86.6278080212565,36.1194479087048],[-86.6277953720751,36.1193468818007]]]},"properties":{"id":"108230","parcel":"122010A40200CO","address":"257 BUCK RUN DR","owner":"SLADE, JENNIFER","point":[-86.62783536353419,36.1193946099459]}},{"type":"Feature","id":"108231","geometry":{"type":"Polygon","coordinates":[[[-86.6282886304988,36.1194679317535],[-86.6283084900892,36.1193675602296],[-86.628375598073,36.1193762756274],[-86.6283557385724,36.1194766480633],[-86.6282886304988,36.1194679317535]]]},"properties":{"id":"108231","parcel":"122010A40800CO","address":"269 BUCK RUN DR","owner":"MILES, SYD","point":[-86.62833211435351,36.11942210369879]}},{"type":"Feature","id":"108232","geometry":{"type":"Polygon","coordinates":[[[-86.6283557385724,36.1194766480633],[-86.628375598073,36.1193762756274],[-86.6284423683981,36.1193849936482],[-86.6284225056403,36.1194853652111],[-86.6283557385724,36.1194766480633]]]},"properties":{"id":"108232","parcel":"122010A40900CO","address":"271 BUCK RUN DR","owner":"FERRONETTI, RHIANNON PAIGE","point":[-86.62839905270673,36.11943082086141]}},{"type":"Feature","id":"108255","geometry":{"type":"Polygon","coordinates":[[[-86.6283013070989,36.1198291063985],[-86.6283277577555,36.1197058993237],[-86.6283643664342,36.1197112054682],[-86.6283565278855,36.1197475052882],[-86.6283748322241,36.1197501570056],[-86.628377456677,36.1197394299393],[-86.6284022001771,36.1197428745725],[-86.6283826141662,36.1198350007623],[-86.6283813014135,36.1198402277557],[-86.6283013070989,36.1198291063985]]]},"properties":{"id":"108255","parcel":"122010A42900CO","address":"250 BUCK RUN DR","owner":"GARCIA, FIDEL GONZALEZ","point":[-86.6283510122262,36.11978967186034]}},{"type":"Feature","id":"108385","geometry":{"type":"Polygon","coordinates":[[[-86.6273231986146,36.1199232020736],[-86.6274421287914,36.1198912670797],[-86.6274635297683,36.1199433500908],[-86.6273446028616,36.1199752859893],[-86.6273231986146,36.1199232020736]]]},"properties":{"id":"108385","parcel":"122010A37200CO","address":"251 BUCK RUN DR","owner":"COFFEE, TAYLOR D","point":[-86.62739336446471,36.11993327610358]}},{"type":"Feature","id":"108386","geometry":{"type":"Polygon","coordinates":[[[-86.6273014656532,36.119829365838],[-86.6273644264004,36.1197416810203],[-86.627422880248,36.119769122577],[-86.6273599205974,36.1198570814052],[-86.6273014656532,36.119829365838]]]},"properties":{"id":"108386","parcel":"122010A37300CO","address":"301 DOE RIDGE CT","owner":"NORIEGA, SARA","point":[-86.62736220689975,36.119799244328604]}},{"type":"Feature","id":"108387","geometry":{"type":"Polygon","coordinates":[[[-86.6271842148583,36.1197739345889],[-86.6272475156017,36.1196862489649],[-86.6273059682001,36.1197139645707],[-86.6272430096318,36.119801649347],[-86.6271842148583,36.1197739345889]]]},"properties":{"id":"108387","parcel":"122010A37500CO","address":"305 DOE RIDGE CT","owner":"NAVA, MARIA LOURDES MORALES & MORALES, IGOR ACOSTA","point":[-86.62724515004881,36.11974394977749]}},{"type":"Feature","id":"108388","geometry":{"type":"Polygon","coordinates":[[[-86.6267436064826,36.1197171627267],[-86.6268116658334,36.1196319247902],[-86.6268684439034,36.1196615726187],[-86.6268003856471,36.1197470854683],[-86.6267436064826,36.1197171627267]]]},"properties":{"id":"108388","parcel":"122010A38000CO","address":"315 DOE RIDGE CT","owner":"PONNAZHAGAN, SRIDEVI","point":[-86.62680606112941,36.11968936780106]}},{"type":"Feature","id":"108389","geometry":{"type":"Polygon","coordinates":[[[-86.6266868262501,36.1196872399639],[-86.626754886747,36.119602002053],[-86.6268116658334,36.1196319247902],[-86.6267436064826,36.1197171627267],[-86.6266868262501,36.1196872399639]]]},"properties":{"id":"108389","parcel":"122010A38100CO","address":"317 DOE RIDGE CT","owner":"LIVINGSTON, TAMMY S.","point":[-86.62674924624334,36.119659582394064]}},{"type":"Feature","id":"108390","geometry":{"type":"Polygon","coordinates":[[[-86.6266300482438,36.1196575938526],[-86.6266981065926,36.1195720792946],[-86.626754886747,36.119602002053],[-86.6266868262501,36.1196872399639],[-86.6266300482438,36.1196575938526]]]},"properties":{"id":"108390","parcel":"122010A38200CO","address":"319 DOE RIDGE CT","owner":"COLLINS, JESSICA DYAN","point":[-86.62669243118492,36.11962979785604]}},{"type":"Feature","id":"108391","geometry":{"type":"Polygon","coordinates":[[[-86.6265238182529,36.1194109066347],[-86.6265542424654,36.1193618511131],[-86.6266659957137,36.1194074210012],[-86.6266355715599,36.1194564774517],[-86.6265238182529,36.1194109066347]]]},"properties":{"id":"108391","parcel":"122010A38500CO","address":"328 DOE RIDGE CT","owner":"TRAMMELL, VERNON ANDREW, III","point":[-86.62659490699596,36.11940916383909]}},{"type":"Feature","id":"108392","geometry":{"type":"Polygon","coordinates":[[[-86.6268571847727,36.1192646785587],[-86.6268800951846,36.1191645663065],[-86.6269465372144,36.1191746594943],[-86.6269236235582,36.1192747726775],[-86.6268571847727,36.1192646785587]]]},"properties":{"id":"108392","parcel":"122010A39000CO","address":"318 DOE RIDGE CT","owner":"MATTINGLY, MAUREEN R","point":[-86.6269018603176,36.11921966903296]}},{"type":"Feature","id":"108393","geometry":{"type":"Polygon","coordinates":[[[-86.6269900690181,36.1192848658237],[-86.627013316948,36.1191847517914],[-86.6270797611824,36.1191951197818],[-86.6270568488428,36.1192949571952],[-86.6269900690181,36.1192848658237]]]},"properties":{"id":"108393","parcel":"122010A39200CO","address":"314 DOE RIDGE CT","owner":"RICHARD, CHARLNETTE A.","point":[-86.6270349761906,36.11923999300157]}},{"type":"Feature","id":"108420","geometry":{"type":"Polygon","coordinates":[[[-86.6272379663829,36.1193775271862],[-86.6272992253187,36.1192887525924],[-86.6273583520489,36.1193156409077],[-86.6272970920477,36.1194044155368],[-86.6272379663829,36.1193775271862]]]},"properties":{"id":"108420","parcel":"122010A39500CO","address":"308 DOE RIDGE CT","owner":"TDG PROPERTIES LLC","point":[-86.62729815904618,36.119346584061695]}},{"type":"Feature","id":"108424","geometry":{"type":"Polygon","coordinates":[[[-86.6281550897504,36.1194504946037],[-86.6281749495195,36.1193501249037],[-86.6282417198006,36.1193588430358],[-86.6282218601423,36.1194592163514],[-86.6281550897504,36.1194504946037]]]},"properties":{"id":"108424","parcel":"122010A40600CO","address":"265 BUCK RUN DR","owner":"MCKINNIE, LAURA","point":[-86.62819840497025,36.11940466882842]}},{"type":"Feature","id":"108669","geometry":{"type":"Polygon","coordinates":[[[-86.6280907572191,36.1197071336273],[-86.628155296216,36.1196905900176],[-86.6281929706266,36.1197876408338],[-86.6281284315587,36.1198041844632],[-86.6280907572191,36.1197071336273]]]},"properties":{"id":"108669","parcel":"122010A33400CO","address":"248 BUCK RUN DR","owner":"PEYTON, PATRICIA A.","point":[-86.62814186389693,36.11974738724143]}},{"type":"Feature","id":"108670","geometry":{"type":"Polygon","coordinates":[[[-86.6279620309809,36.119741868235],[-86.6280262203694,36.1197239520784],[-86.6280638924639,36.1198207280582],[-86.6279993533423,36.1198372716184],[-86.6279620309809,36.119741868235]]]},"properties":{"id":"108670","parcel":"122010A33600CO","address":"244 BUCK RUN DR","owner":"WAELCHLI, GENEVIEVE A.","point":[-86.62801299979516,36.119781298275704]}},{"type":"Feature","id":"108889","geometry":{"type":"Polygon","coordinates":[[[-86.6284022001771,36.1197428745725],[-86.6284074262022,36.1197186707833],[-86.6284426764592,36.1197234315026],[-86.6284407209065,36.1197330564376],[-86.6284590263553,36.1197357081364],[-86.62845738568,36.1197423094734],[-86.6284841651613,36.1197462905531],[-86.6284626106738,36.1198463969415],[-86.6283826141662,36.1198350007623],[-86.6284022001771,36.1197428745725]]]},"properties":{"id":"108889","parcel":"122010A43000CO","address":"252 BUCK RUN DR","owner":"CROSS, ROBERT A. & JAMIE S.","point":[-86.62843332930159,36.11979064548148]}},{"type":"Feature","id":"108892","geometry":{"type":"Polygon","coordinates":[[[-86.6284626106738,36.1198463969415],[-86.6284841651613,36.1197462905531],[-86.6284890610858,36.1197231898319],[-86.628525669762,36.1197284932237],[-86.6285178313067,36.1197647957578],[-86.6285361356546,36.1197674474507],[-86.6285384212933,36.1197567221462],[-86.6285635035774,36.1197601622773],[-86.6285426050284,36.1198575181918],[-86.6284626106738,36.1198463969415]]]},"properties":{"id":"108892","parcel":"122010A43100CO","address":"254 BUCK RUN DR","owner":"MUDRAK, CHRISTINE L.","point":[-86.62851227956514,36.119806962224835]}},{"type":"Feature","id":"109700","geometry":{"type":"Polygon","coordinates":[[[-86.6280262203694,36.1197239520784],[-86.6280907572191,36.1197071336273],[-86.6281284315587,36.1198041844632],[-86.6280638924639,36.1198207280582],[-86.6280262203694,36.1197239520784]]]},"properties":{"id":"109700","parcel":"122010A33500CO","address":"246 BUCK RUN DR","owner":"PLUMB, SARAH","point":[-86.62807734756997,36.11976406834884]}},{"type":"Feature","id":"109703","geometry":{"type":"Polygon","coordinates":[[[-86.6278971433587,36.1197570400203],[-86.6279620309809,36.119741868235],[-86.6279993533423,36.1198372716184],[-86.6279348141936,36.119853815144],[-86.6278971433587,36.1197570400203]]]},"properties":{"id":"109703","parcel":"122010A33700CO","address":"242 BUCK RUN DR","owner":"SYVERSON, REBECCA RAE","point":[-86.62794820940253,36.11979715570934]}},{"type":"Feature","id":"109788","geometry":{"type":"Polygon","coordinates":[[[-86.6278007094214,36.1199792308933],[-86.6279206732471,36.1199494873434],[-86.6279403882634,36.1200021288219],[-86.6278207642705,36.1200318706218],[-86.6278007094214,36.1199792308933]]]},"properties":{"id":"109788","parcel":"122010A34000CO","address":"236 BUCK RUN DR","owner":"OBENG - THOMPSON, DORIS","point":[-86.62787058525196,36.119990679991055]}},{"type":"Feature","id":"109869","geometry":{"type":"Polygon","coordinates":[[[-86.6271257622005,36.1197464929109],[-86.627189057483,36.1196585324582],[-86.6272475156017,36.1196862489649],[-86.6271842148583,36.1197739345889],[-86.6271257622005,36.1197464929109]]]},"properties":{"id":"109869","parcel":"122010A37600CO","address":"307 DOE RIDGE CT","owner":"KOCHNER, BLAKE","point":[-86.62718660394462,36.11971637084473]}},{"type":"Feature","id":"109872","geometry":{"type":"Polygon","coordinates":[[[-86.6265729304007,36.1196276709875],[-86.6266409876888,36.1195421582694],[-86.6266981065926,36.1195720792946],[-86.6266300482438,36.1196575938526],[-86.6265729304007,36.1196276709875]]]},"properties":{"id":"109872","parcel":"122010A38300CO","address":"321 DOE RIDGE CT","owner":"COS PROPERTIES, LLC","point":[-86.62663551857437,36.11959987515776]}},{"type":"Feature","id":"109875","geometry":{"type":"Polygon","coordinates":[[[-86.6265542424654,36.1193618511131],[-86.6265846633533,36.1193125198118],[-86.6266964198371,36.1193583654437],[-86.6266659957137,36.1194074210012],[-86.6265542424654,36.1193618511131]]]},"properties":{"id":"109875","parcel":"122010A38600CO","address":"326 DOE RIDGE CT","owner":"DANSBY, NICOLE L & BOYKINS, SANTEZ","point":[-86.62662532769521,36.11936010828872]}},{"type":"Feature","id":"109878","geometry":{"type":"Polygon","coordinates":[[[-86.626645511583,36.1192144078259],[-86.626675935645,36.1191653522712],[-86.6267876908564,36.1192111969249],[-86.6267572679638,36.1192602534026],[-86.626645511583,36.1192144078259]]]},"properties":{"id":"109878","parcel":"122010A38900CO","address":"320 DOE RIDGE CT","owner":"VAGO, KATHRYN A.","point":[-86.626716601252,36.1192128023966]}},{"type":"Feature","id":"109881","geometry":{"type":"Polygon","coordinates":[[[-86.6269236235582,36.1192747726775],[-86.6269465372144,36.1191746594943],[-86.627013316948,36.1191847517914],[-86.6269900690181,36.1192848658237],[-86.6269236235582,36.1192747726775]]]},"properties":{"id":"109881","parcel":"122010A39100CO","address":"316 DOE RIDGE CT","owner":"WETZ, KENZIE N.","point":[-86.62696839503512,36.119229762008864]}},{"type":"Feature","id":"111069","geometry":{"type":"Polygon","coordinates":[[[-86.6297755772462,36.1197098869958],[-86.6298193212416,36.1195898861335],[-86.6298236318517,36.119578051582],[-86.6299013144835,36.1195968754399],[-86.6298612232365,36.1197075164971],[-86.6298401900037,36.1197024052681],[-86.6298365396019,36.1197117659917],[-86.6298138102884,36.1197061165433],[-86.6298095018915,36.1197179510825],[-86.6297755772462,36.1197098869958]]]},"properties":{"id":"111069","parcel":"122010A49700CO","address":"142 ANTLER RIDGE CIR","owner":"PEGRAM, JUSTIN A.","point":[-86.62983990174928,36.11964954503813]}},{"type":"Feature","id":"111070","geometry":{"type":"Polygon","coordinates":[[[-86.6293620967928,36.1196156227092],[-86.6293434623673,36.1196140715117],[-86.6293421953973,36.1196250664049],[-86.6293167852155,36.1196230016817],[-86.6293292098009,36.1195245911857],[-86.6294101843774,36.1195313112528],[-86.6293945788625,36.1196555606397],[-86.6293576509635,36.1196527313603],[-86.6293620967928,36.1196156227092]]]},"properties":{"id":"111070","parcel":"122010A50200CO","address":"152 ANTLER RIDGE CIR","owner":"THOMAS, MICHAEL W.","point":[-86.62936406707928,36.119572651921835]}},{"type":"Feature","id":"111071","geometry":{"type":"Polygon","coordinates":[[[-86.6292485740302,36.1195178692969],[-86.629250162391,36.1195046754318],[-86.6293307959699,36.1195111224435],[-86.6293292098009,36.1195245911857],[-86.6293167852155,36.1196230016817],[-86.6293161533518,36.1196287740071],[-86.6292809183192,36.1196259358722],[-86.6292821961827,36.1196163144582],[-86.6292635617586,36.1196147632484],[-86.6292645237121,36.1196078905533],[-86.6292374185086,36.1196055597687],[-86.6292485740302,36.1195178692969]]]},"properties":{"id":"111071","parcel":"122010A50300CO","address":"154 ANTLER RIDGE CIR","owner":"LUSK, HAROLD MAURICE","point":[-86.62928333368606,36.11956507554664]}},{"type":"Feature","id":"111072","geometry":{"type":"Polygon","coordinates":[[[-86.6290742120111,36.1196044877233],[-86.629088537962,36.1194895858138],[-86.6291695124752,36.1194963051413],[-86.6291676005484,36.1195114240031],[-86.6291551735866,36.1196095596069],[-86.6291523116846,36.119632924635],[-86.6291170766561,36.1196300864522],[-86.6291186715675,36.1196177163158],[-86.6290949542448,36.1196156427168],[-86.6290962343085,36.1196062961807],[-86.6290742120111,36.1196044877233]]]},"properties":{"id":"111072","parcel":"122010A50500CO","address":"158 ANTLER RIDGE CIR","owner":"ARICK, LINDA","point":[-86.629120860794,36.11955795573175]}},{"type":"Feature","id":"111073","geometry":{"type":"Polygon","coordinates":[[[-86.6288542294953,36.119616897945],[-86.6288679196484,36.1195926527111],[-86.6289186756234,36.1195031073858],[-86.6289923676526,36.1195307436213],[-86.6289416138919,36.119620560248],[-86.6289185208446,36.1196118923724],[-86.6289241986601,36.1196019740353],[-86.6289072201072,36.1195957437563],[-86.6288881865974,36.1196293576144],[-86.6288542294953,36.119616897945]]]},"properties":{"id":"111073","parcel":"122010A50600CO","address":"283 BUCK RUN DR","owner":"MCRAE, RACHEL E.","point":[-86.6289301706141,36.11956169826602]}},{"type":"Feature","id":"111074","geometry":{"type":"Polygon","coordinates":[[[-86.6288519937399,36.119462796051],[-86.6288546627097,36.1194578395723],[-86.6289286934665,36.1194854740807],[-86.6289186756234,36.1195031073858],[-86.6288679196484,36.1195926527111],[-86.628835659762,36.1195807330615],[-86.6288406687019,36.1195719168633],[-86.6288236901619,36.1195656865725],[-86.6288270258298,36.1195593512811],[-86.6288025743875,36.1195501388876],[-86.6288519937399,36.119462796051]]]},"properties":{"id":"111074","parcel":"122010A50700CO","address":"281 BUCK RUN DR","owner":"PATARCHANOVA, VANIA","point":[-86.6288606130907,36.119526623113934]}},{"type":"Feature","id":"111085","geometry":{"type":"Polygon","coordinates":[[[-86.6240681059546,36.1192860083846],[-86.6241163861639,36.119263956873],[-86.62416605274,36.1192440341772],[-86.6242169617295,36.1192262978204],[-86.6242689691229,36.1192107981164],[-86.624326068199,36.1191953937075],[-86.6244561738765,36.1195081610994],[-86.6242792612783,36.1195725343261],[-86.6240681059546,36.1192860083846]]]},"properties":{"id":"111085","parcel":"122010A10900CO","address":"1828 WOODLAND POINTE DR","owner":"ALI, SOLOMON & TEFERI, WORKNESH","point":[-86.62427993238829,36.1193971407028]}},{"type":"Feature","id":"111086","geometry":{"type":"Polygon","coordinates":[[[-86.6286501804625,36.1195034083501],[-86.6287096167449,36.119398434997],[-86.6287833086042,36.1194260713608],[-86.628777965229,36.119435439075],[-86.6287272124189,36.1195252583116],[-86.6287128555253,36.1195508805403],[-86.628680254718,36.11953868864],[-86.6286869391178,36.1195276655185],[-86.6286652056101,36.1195195357769],[-86.6286702145793,36.1195107213881],[-86.6286501804625,36.1195034083501]]]},"properties":{"id":"111086","parcel":"122010A50900CO","address":"277 BUCK RUN DR","owner":"JAUPI, STEFAN","point":[-86.6287140924188,36.11946942379042]}},{"type":"Feature","id":"111096","geometry":{"type":"Polygon","coordinates":[[[-86.6257789428432,36.1193257683714],[-86.6257868637933,36.1193072503462],[-86.6257914498343,36.1192880051732],[-86.6257926074266,36.1192684262916],[-86.6257903141783,36.1192489139814],[-86.6257846165448,36.1192298654614],[-86.6262056295004,36.1191205447838],[-86.6261815939043,36.1194646040347],[-86.6257789428432,36.1193257683714]]]},"properties":{"id":"111096","parcel":"122010A11700CO","address":"1860 WOODLAND POINTE DR","owner":"TOMLIN, GREG & SANDRA","point":[-86.625991163701,36.11929825859275]}},{"type":"Feature","id":"111097","geometry":{"type":"Polygon","coordinates":[[[-86.625541823338,36.1188393923901],[-86.6259224872617,36.1188948312761],[-86.6257129240198,36.1191549678296],[-86.6256909652462,36.1191456878004],[-86.6256675812799,36.1191390865234],[-86.6256432653129,36.1191353029391],[-86.625618531166,36.1191344154961],[-86.6255938977591,36.1191364449361],[-86.6255698879442,36.1191413470889],[-86.6255470063466,36.1191490201983],[-86.6255257348862,36.1191593004383],[-86.6255065228593,36.1191719718792],[-86.625541823338,36.1188393923901]]]},"properties":{"id":"111097","parcel":"122010A11900CO","address":"1865 WOODLAND POINTE DR","owner":"BRANSFORD, CALVIN & ANTOINETTE","point":[-86.625674575489,36.11901432376642]}},{"type":"Feature","id":"111098","geometry":{"type":"Polygon","coordinates":[[[-86.6251989090838,36.1190631340763],[-86.6254007975176,36.11881704845],[-86.625541823338,36.1188393923901],[-86.6255065228593,36.1191719718792],[-86.625500796355,36.1191764646627],[-86.6254942290381,36.1191801227239],[-86.6254870045187,36.1191828459707],[-86.6254793221498,36.1191845585641],[-86.6254713970484,36.1191852116209],[-86.6254634479197,36.1191847886858],[-86.6254556959031,36.1191833003285],[-86.625448355722,36.1191807886965],[-86.6253894820862,36.119146730337],[-86.6253281240191,36.1191156914646],[-86.6252645190583,36.1190877907131],[-86.6251989090838,36.1190631340763]]]},"properties":{"id":"111098","parcel":"122010A12000CO","address":"1861 WOODLAND POINTE DR","owner":"FOLEY, MATTHEW H.","point":[-86.62541039405627,36.11895138852426]}},{"type":"Feature","id":"111099","geometry":{"type":"Polygon","coordinates":[[[-86.6249980569546,36.1190108810611],[-86.6251021316425,36.1186403110001],[-86.6254323784363,36.1186998593165],[-86.6254007975176,36.11881704845],[-86.6251989090838,36.1190631340763],[-86.6251332588706,36.1190425324252],[-86.62506623062,36.1190250950277],[-86.6249980569546,36.1190108810611]]]},"properties":{"id":"111099","parcel":"122010A12100CO","address":"1857 WOODLAND POINTE DR","owner":"SILVA, RACHEL CRUZ E","point":[-86.62517320223809,36.11891388287634]}},{"type":"Feature","id":"111100","geometry":{"type":"Polygon","coordinates":[[[-86.6244756751467,36.118629820526],[-86.6244541885236,36.1185238946589],[-86.6247908788538,36.1185845100183],[-86.6247750961429,36.1189886887201],[-86.6247192098814,36.1189886465081],[-86.6246633784994,36.1189906381521],[-86.6246072345631,36.1189951197945],[-86.6245513978299,36.119001657419],[-86.6244756751467,36.118629820526]]]},"properties":{"id":"111100","parcel":"122010A12300CO","address":"1849 WOODLAND POINTE DR","owner":"WILLIAMSON, MARK A. & SYDNEY L.","point":[-86.62464711366408,36.11880932279829]}},{"type":"Feature","id":"111101","geometry":{"type":"Polygon","coordinates":[[[-86.6241756947847,36.1186731290246],[-86.6241763680401,36.1186725757661],[-86.6244756751467,36.118629820526],[-86.6245513978299,36.119001657419],[-86.6244959887161,36.1190104495833],[-86.6244411583885,36.1190213675249],[-86.6243870288666,36.1190343898839],[-86.6243337243065,36.119049484474],[-86.6241756947847,36.1186731290246]]]},"properties":{"id":"111101","parcel":"122010A12400CO","address":"1845 WOODLAND POINTE DR","owner":"ROSSELLO, JOSEPH EDWARD","point":[-86.62438127817498,36.118837448968215]}},{"type":"Feature","id":"111118","geometry":{"type":"Polygon","coordinates":[[[-86.6254323784363,36.1186998593165],[-86.6256177431771,36.11768233485],[-86.6309091092257,36.118404527519],[-86.6310366600014,36.117723870724],[-86.6311632031257,36.1173226876257],[-86.6313082274105,36.1165642223264],[-86.6313534802941,36.1165705196806],[-86.6310127642321,36.1184117461464],[-86.6307587467294,36.1197844149111],[-86.6305449995567,36.1194734649996],[-86.6297449284997,36.1193457843315],[-86.6265780563794,36.1189900482293],[-86.6263566948836,36.1189578734441],[-86.6262539987804,36.1189428327278],[-86.6259224872617,36.1188948312761],[-86.625541823338,36.1188393923901],[-86.6254007975176,36.11881704845],[-86.6254323784363,36.1186998593165]]]},"properties":{"id":"111118","parcel":"12100007900","address":"1400 B HERON POINTE DR","owner":"HERON POINT VILLAGE PHASE 2, LLC","point":[-86.62695366912074,36.118051751101746]}},{"type":"Feature","id":"111361","geometry":{"type":"Polygon","coordinates":[[[-86.6271232910113,36.1193050511865],[-86.6271462032846,36.1192052155632],[-86.6272129841586,36.1192153050403],[-86.6271897331896,36.11931514424],[-86.6271232910113,36.1193050511865]]]},"properties":{"id":"111361","parcel":"122010A39400CO","address":"310 DOE RIDGE CT","owner":"MCINTYRE, STACY J.","point":[-86.62716806153536,36.11926017788536]}},{"type":"Feature","id":"111363","geometry":{"type":"Polygon","coordinates":[[[-86.6272970920477,36.1194044155368],[-86.6273583520489,36.1193156409077],[-86.6274174777156,36.1193425301008],[-86.6273558800718,36.1194313056143],[-86.6272970920477,36.1194044155368]]]},"properties":{"id":"111363","parcel":"122010A39600CO","address":"306 DOE RIDGE CT","owner":"BARNETT, RITA JOYCE","point":[-86.62735722605554,36.119373472651084]}},{"type":"Feature","id":"111365","geometry":{"type":"Polygon","coordinates":[[[-86.6274741316086,36.1194850830711],[-86.6275353936465,36.11939658323],[-86.6275945194263,36.1194234714345],[-86.6275332585444,36.1195119712993],[-86.6274741316086,36.1194850830711]]]},"properties":{"id":"111365","parcel":"122010A39900CO","address":"300 DOE RIDGE CT","owner":"DUNFORD, ANDREA J.","point":[-86.62753432573382,36.11945427726874]}},{"type":"Feature","id":"111367","geometry":{"type":"Polygon","coordinates":[[[-86.627862705832,36.1193413120818],[-86.6279300395795,36.1193357423252],[-86.6279426889092,36.1194367665118],[-86.6278753550911,36.1194423380778],[-86.627862705832,36.1193413120818]]]},"properties":{"id":"111367","parcel":"122010A40300CO","address":"259 BUCK RUN DR","owner":"HAINES, TONY ALAN JR., & BIGGS, VALERIE","point":[-86.62790269729675,36.119389039303364]}},{"type":"Feature","id":"111369","geometry":{"type":"Polygon","coordinates":[[[-86.6279300395795,36.1193357423252],[-86.6279973744212,36.1193301716241],[-86.628010023857,36.1194311985075],[-86.6279426889092,36.1194367665118],[-86.6279300395795,36.1193357423252]]]},"properties":{"id":"111369","parcel":"122010A40400CO","address":"261 BUCK RUN DR","owner":"JENKINS, CLIFFORD D., JR.","point":[-86.62797003176907,36.1193834704233]}},{"type":"Feature","id":"111371","geometry":{"type":"Polygon","coordinates":[[[-86.6279973744212,36.1193301716241],[-86.6280647081499,36.1193246017923],[-86.6280773576704,36.1194256286689],[-86.628010023857,36.1194311985075],[-86.6279973744212,36.1193301716241]]]},"properties":{"id":"111371","parcel":"122010A40500CO","address":"263 BUCK RUN DR","owner":"CONWAY, ERIC & GRUNDY, KAREN","point":[-86.62803736602186,36.119377900153225]}},{"type":"Feature","id":"111406","geometry":{"type":"Polygon","coordinates":[[[-86.6285635035774,36.1197601622773],[-86.628569057496,36.1197345859409],[-86.6286043077697,36.1197393466129],[-86.6286016975077,36.119751722033],[-86.6286247459769,36.1197548987641],[-86.6286227904597,36.1197645255044],[-86.6286444837925,36.1197674326042],[-86.6286199902002,36.1198812887895],[-86.6285399947529,36.1198698936101],[-86.6285426050284,36.1198575181918],[-86.6285635035774,36.1197601622773]]]},"properties":{"id":"111406","parcel":"122010A43200CO","address":"256 BUCK RUN DR","owner":"LUJAN, ESTELA Y","point":[-86.62859353389622,36.11981247537648]}},{"type":"Feature","id":"111424","geometry":{"type":"Polygon","coordinates":[[[-86.6297528828247,36.119665777462],[-86.6297349041791,36.1196614758305],[-86.6297312624724,36.1196719342522],[-86.6297068392079,36.119666292726],[-86.6297393095305,36.1195765658203],[-86.6297412998024,36.1195713388792],[-86.6298193212416,36.1195898861335],[-86.6297755772462,36.1197098869958],[-86.6297399598382,36.1197012819624],[-86.6297528828247,36.119665777462]]]},"properties":{"id":"111424","parcel":"122010A49800CO","address":"144 ANTLER RIDGE CIR","owner":"HILL, ANITA L. & HILL-DERUSHA, KATHY J.","point":[-86.62976391899048,36.11962564021506]}},{"type":"Feature","id":"111426","geometry":{"type":"Polygon","coordinates":[[[-86.6296258317957,36.1196554524227],[-86.6296612881445,36.1195580212178],[-86.6297393095305,36.1195765658203],[-86.6297068392079,36.119666292726],[-86.6296982268355,36.1196899626748],[-86.6296639612411,36.1196816254493],[-86.6296672750777,36.1196725449804],[-86.6296496341028,36.1196682397709],[-86.6296519522554,36.1196616339794],[-86.6296258317957,36.1196554524227]]]},"properties":{"id":"111426","parcel":"122010A49900CO","address":"146 ANTLER RIDGE CIR","owner":"PACE, SAMANTHA K.","point":[-86.62968261083736,36.119616009259325]}},{"type":"Feature","id":"111428","geometry":{"type":"Polygon","coordinates":[[[-86.6293945788625,36.1196555606397],[-86.6294101843774,36.1195313112528],[-86.6294111463171,36.1195244385564],[-86.6294917820869,36.1195311576328],[-86.6294774567335,36.1196460622927],[-86.6294554344235,36.1196442548062],[-86.629454493194,36.119653599578],[-86.6294307780237,36.1196518000198],[-86.6294291831602,36.1196641701602],[-86.6293939459362,36.1196610580836],[-86.6293945788625,36.1196555606397]]]},"properties":{"id":"111428","parcel":"122010A50100CO","address":"150 ANTLER RIDGE CIR","owner":"BERRIOUS-RIVERA, JORGE L.","point":[-86.629443902832,36.11958781734628]}},{"type":"Feature","id":"111448","geometry":{"type":"Polygon","coordinates":[[[-86.6238336670082,36.1194410578938],[-86.6238758963579,36.1194056800561],[-86.6239206124572,36.1193723748785],[-86.6239676629166,36.1193412576077],[-86.6240168841759,36.1193124354371],[-86.6240681059546,36.1192860083846],[-86.6242792612783,36.1195725343261],[-86.624138802588,36.1196655629061],[-86.6238336670082,36.1194410578938]]]},"properties":{"id":"111448","parcel":"122010A10800CO","address":"1824 WOODLAND POINTE DR","owner":"MADISON, CARLTON S.","point":[-86.6240768313943,36.11950686023061]}},{"type":"Feature","id":"111450","geometry":{"type":"Polygon","coordinates":[[[-86.6248299239182,36.1194592514707],[-86.6248893253985,36.1191339639145],[-86.6249490729858,36.1191426111942],[-86.6250080432452,36.1191542528853],[-86.6250660081094,36.1191688442059],[-86.6251227438687,36.1191863295369],[-86.6251780311497,36.1192066397178],[-86.6249907505906,36.1195020965113],[-86.6248299239182,36.1194592514707]]]},"properties":{"id":"111450","parcel":"122010A11200CO","address":"1840 WOODLAND POINTE DR","owner":"SNEED, MARTHA J. & MAY ELIZABETH","point":[-86.62497542957715,36.11933285635778]}},{"type":"Feature","id":"111452","geometry":{"type":"Polygon","coordinates":[[[-86.6287729606731,36.1195302391022],[-86.6287559799779,36.1195237348269],[-86.6287503043306,36.1195339289335],[-86.6287272124189,36.1195252583116],[-86.628777965229,36.119435439075],[-86.6288519937399,36.119462796051],[-86.6288025743875,36.1195501388876],[-86.6287875453937,36.1195763144034],[-86.6287539271221,36.1195638529396],[-86.6287729606731,36.1195302391022]]]},"properties":{"id":"111452","parcel":"122010A50800CO","address":"279 BUCK RUN DR","owner":"WONG, SHIRLEY S.","point":[-86.62879004640628,36.119493222253226]}},{"type":"Feature","id":"111454","geometry":{"type":"Polygon","coordinates":[[[-86.6285764885777,36.1194757719053],[-86.6286355894324,36.1193710752236],[-86.6287096167449,36.119398434997],[-86.6286501804625,36.1195034083501],[-86.6286388259006,36.1195232467953],[-86.628606566084,36.1195113279854],[-86.6286129095237,36.1195000317575],[-86.6285915137265,36.1194919020452],[-86.6285961871757,36.1194833615914],[-86.6285764885777,36.1194757719053]]]},"properties":{"id":"111454","parcel":"122010A51000CO","address":"275 BUCK RUN DR","owner":"PELIZZARI, JEFFREY S.","point":[-86.62864301960145,36.11943710336739]}},{"type":"Feature","id":"111486","geometry":{"type":"Polygon","coordinates":[[[-86.6249907505906,36.1195020965113],[-86.6251780311497,36.1192066397178],[-86.6252228278034,36.1192255477981],[-86.625266374785,36.1192462892133],[-86.625399315748,36.119316750762],[-86.6251678571733,36.1195918320407],[-86.6249907505906,36.1195020965113]]]},"properties":{"id":"111486","parcel":"122010A11300CO","address":"1844 WOODLAND POINTE DR","owner":"WAGNER, LINDA L.","point":[-86.62518539433347,36.119409393655424]}},{"type":"Feature","id":"111488","geometry":{"type":"Polygon","coordinates":[[[-86.6251678571733,36.1195918320407],[-86.625399315748,36.119316750762],[-86.6255295423191,36.1193863988749],[-86.6255453139833,36.1193940130272],[-86.6255620206707,36.1194001784942],[-86.6255794596129,36.1194048197191],[-86.6254653774027,36.1197512681636],[-86.6251678571733,36.1195918320407]]]},"properties":{"id":"111488","parcel":"122010A11400CO","address":"1848 WOODLAND POINTE DR","owner":"JARRETT, ROBERT G. & ANITA A.","point":[-86.62539767886817,36.11949840117125]}},{"type":"Feature","id":"111490","geometry":{"type":"Polygon","coordinates":[[[-86.6257129240198,36.1191549678296],[-86.6259224872617,36.1188948312761],[-86.6262539987804,36.1189428327278],[-86.6262056295004,36.1191205447838],[-86.6257846165448,36.1192298654614],[-86.6257743210886,36.1192096790573],[-86.6257602865137,36.1191910360972],[-86.6257428529491,36.1191743863515],[-86.6257224446158,36.1191601376959],[-86.6257129240198,36.1191549678296]]]},"properties":{"id":"111490","parcel":"122010A11800CO","address":"1869 WOODLAND POINTE DR","owner":"WILSON, BRIAN & EVANS, JESSICA RENE","point":[-86.62602154910145,36.119031038794205]}},{"type":"Feature","id":"111634","geometry":{"type":"Polygon","coordinates":[[[-86.6290851260999,36.1198708975527],[-86.6291141095783,36.1198539890822],[-86.6291209441184,36.1198619197606],[-86.6291361101807,36.1198530505751],[-86.6291412322794,36.1198585180007],[-86.6291631392845,36.1198457670329],[-86.6292362518112,36.1199283466506],[-86.6291701919263,36.1199665986446],[-86.6291541349784,36.1199485542546],[-86.6290851260999,36.1198708975527]]]},"properties":{"id":"111634","parcel":"122010A43300CO","address":"139 ANTLER RIDGE CIR","owner":"MOSLEY, REGINA MARY & STEPHANIE","point":[-86.62916073596193,36.119899622270985]}},{"type":"Feature","id":"111750","geometry":{"type":"Polygon","coordinates":[[[-86.6273446028616,36.1199752859893],[-86.6274635297683,36.1199433500908],[-86.6274845986441,36.1199954348252],[-86.6273656683354,36.1200273707613],[-86.6273446028616,36.1199752859893]]]},"properties":{"id":"111750","parcel":"122010A37100CO","address":"249 BUCK RUN DR","owner":"ZIMMER, JEFFREY P.","point":[-86.62741460042703,36.11998536042667]}},{"type":"Feature","id":"111752","geometry":{"type":"Polygon","coordinates":[[[-86.6272430096318,36.119801649347],[-86.6273059682001,36.1197139645707],[-86.6273644264004,36.1197416810203],[-86.6273014656532,36.119829365838],[-86.6272430096318,36.119801649347]]]},"properties":{"id":"111752","parcel":"122010A37400CO","address":"303 DOE RIDGE CT","owner":"CRYSTALL BAY, LLC","point":[-86.62730371765997,36.11977166519807]}},{"type":"Feature","id":"111754","geometry":{"type":"Polygon","coordinates":[[[-86.6265846633533,36.1193125198118],[-86.6266150874905,36.1192634642736],[-86.6267268439156,36.1193093089767],[-86.6266964198371,36.1193583654437],[-86.6265846633533,36.1193125198118]]]},"properties":{"id":"111754","parcel":"122010A38700CO","address":"324 DOE RIDGE CT","owner":"CAMPBELL, ARIEL LINETTE","point":[-86.6266557536462,36.11931091441539]}},{"type":"Feature","id":"111788","geometry":{"type":"Polygon","coordinates":[[[-86.6274150058238,36.1194581948079],[-86.6274762679068,36.1193696949962],[-86.6275353936465,36.11939658323],[-86.6274741316086,36.1194850830711],[-86.6274150058238,36.1194581948079]]]},"properties":{"id":"111788","parcel":"122010A39800CO","address":"302 DOE RIDGE CT","owner":"DEROSA, CASEY","point":[-86.62747519975854,36.119427389034286]}},{"type":"Feature","id":"111790","geometry":{"type":"Polygon","coordinates":[[[-86.6276607034221,36.1193580211315],[-86.6277280371979,36.1193524514878],[-86.6277406862946,36.1194534783989],[-86.627673352434,36.1194590480496],[-86.6276607034221,36.1193580211315]]]},"properties":{"id":"111790","parcel":"122010A40000CO","address":"253 BUCK RUN DR","owner":"HUNT, MICHAEL A.","point":[-86.62770069483436,36.119405749771914]}},{"type":"Feature","id":"111792","geometry":{"type":"Polygon","coordinates":[[[-86.6282218601423,36.1194592163514],[-86.6282417198006,36.1193588430358],[-86.6283084900892,36.1193675602296],[-86.6282886304988,36.1194679317535],[-86.6282218601423,36.1194592163514]]]},"properties":{"id":"111792","parcel":"122010A40700CO","address":"267 BUCK RUN DR","owner":"PORTER, JARED & MEAGHAN","point":[-86.62826517505603,36.11941338829838]}},{"type":"Feature","id":"111794","geometry":{"type":"Polygon","coordinates":[[[-86.6284225056403,36.1194853652111],[-86.6284423683981,36.1193849936482],[-86.6285091376199,36.1193937107367],[-86.6284892793946,36.1194940831885],[-86.6284225056403,36.1194853652111]]]},"properties":{"id":"111794","parcel":"122010A41000CO","address":"273 BUCK RUN DR","owner":"MCKENZIE, SAMUEL PARSON","point":[-86.62846582271261,36.11943953798533]}}]}