{"type":"FeatureCollection","features":[{"type":"Feature","id":"31205","geometry":{"type":"Polygon","coordinates":[[[-86.6124529533816,35.9801341488995],[-86.6124738655468,35.9798709743085],[-86.6128784533498,35.9798940149767],[-86.6128576968134,35.9801553393874],[-86.6124529533816,35.9801341488995]]]},"properties":{"id":"31205","parcel":"188100A02000CO","address":"1104 PRINCETON HILLS DR","owner":"MCANDREWS, BEVERLY","point":[-86.61266570536776,35.980014082135334]}},{"type":"Feature","id":"31206","geometry":{"type":"Polygon","coordinates":[[[-86.6120695451567,35.9802107998826],[-86.6119890294465,35.9802102059958],[-86.6119418035138,35.9802107281246],[-86.6118843766489,35.9802122295096],[-86.6119232192198,35.9799801893846],[-86.6122807849638,35.9799989113561],[-86.6122673924198,35.9801599143609],[-86.6122605185252,35.9801723205328],[-86.6122511965593,35.9801836215425],[-86.6122401676714,35.9801931502655],[-86.6122274035597,35.9802011195516],[-86.612213231971,35.9802073222378],[-86.6121980198232,35.9802115978296],[-86.6121821621439,35.9802138361625],[-86.6121736506749,35.9802141750623],[-86.6121660876428,35.9802139809788],[-86.6120695451567,35.9802107998826]]]},"properties":{"id":"31206","parcel":"188100A90200CO","address":"7300 CAROTHERS RD","owner":"CAROTHERS CROSSING NEIGHBORHOOD ASSOCIATION, INC","point":[-86.61209044855288,35.98007881929208]}},{"type":"Feature","id":"31787","geometry":{"type":"Polygon","coordinates":[[[-86.6122316601334,35.9811520953621],[-86.6123424760868,35.9803910462955],[-86.6123444666918,35.9803773797028],[-86.6125030026222,35.9803953095394],[-86.6129287760144,35.9804144234788],[-86.6128005416008,35.9812726594939],[-86.6122316601334,35.9811520953621]]]},"properties":{"id":"31787","parcel":"188100A90100CO","address":"0 CAROTHERS RD","owner":"CAROTHERS CROSSING NEIGHBORHOOD ASSOCIATION, INC","point":[-86.61257951484858,35.98078325767214]}},{"type":"Feature","id":"40385","geometry":{"type":"Polygon","coordinates":[[[-86.6134772623579,35.9827186799346],[-86.6128388041444,35.9824345811274],[-86.6124298437824,35.9824371161061],[-86.6120288478795,35.9825448843927],[-86.6122316601334,35.9811520953621],[-86.6128005416008,35.9812726594939],[-86.6129287760144,35.9804144234788],[-86.6135685568147,35.980443207982],[-86.6136240780019,35.9804456361533],[-86.6136646242193,35.9804835102655],[-86.6148048730921,35.9814573253558],[-86.6148984610235,35.9819281731619],[-86.6167359438196,35.9815477365056],[-86.6171719895175,35.9815894072454],[-86.6174240616628,35.9815945231956],[-86.6174266918951,35.9816416539134],[-86.6174259757657,35.9816888279274],[-86.6174219165077,35.981735891099],[-86.6174157978336,35.9818126499861],[-86.6173899540821,35.9818120163961],[-86.61701593341,35.9818028403824],[-86.6169424526955,35.9818010375561],[-86.6167485253335,35.9817962789332],[-86.6163801382861,35.9818582485014],[-86.6163093674829,35.98187015368],[-86.6159499026758,35.9819306215646],[-86.6157996283426,35.981955899183],[-86.615572645883,35.9820196080732],[-86.6147879890155,35.9821484709955],[-86.614795742845,35.9825051804403],[-86.6145206938061,35.9829198313198],[-86.6144414662616,35.9830392691238],[-86.6144230522717,35.9830748498816],[-86.6143958459082,35.9831274198965],[-86.6134772623579,35.9827186799346]]]},"properties":{"id":"40385","parcel":"188100A90700CO","address":"1829 GRACE POINT LN","owner":"WALTON TENNESSEE, LLC","point":[-86.6135046979383,35.981754605088184]}},{"type":"Feature","id":"213435","geometry":{"type":"Polygon","coordinates":[[[-86.6103700632405,35.9817792112079],[-86.6108268996181,35.981737804416],[-86.6108400111225,35.9818333610907],[-86.6103831742029,35.9818747679314],[-86.6103700632405,35.9817792112079]]]},"properties":{"id":"213435","parcel":"188100A49300CO","address":"330 CAXTON ALY","owner":"GRIESE, WILLIAM P & KIMBERLEY H","point":[-86.61060503709946,35.981806286378955]}},{"type":"Feature","id":"213437","geometry":{"type":"Polygon","coordinates":[[[-86.6108260547425,35.9806068312559],[-86.6110144234053,35.9809141987521],[-86.6109571722961,35.9809382177296],[-86.6109007929597,35.9809635634737],[-86.6108955231611,35.980965546928],[-86.610889913719,35.9809667669032],[-86.6108841295977,35.9809671892144],[-86.6108783414647,35.9809668003775],[-86.6108727212904,35.9809656121383],[-86.610867434565,35.9809636588077],[-86.6108626369857,35.9809609990817],[-86.6108584699871,35.980957711557],[-86.6108550573928,35.9809538920443],[-86.6108524998794,35.9809496544979],[-86.6108253480563,35.9808977684209],[-86.6107941593574,35.9808474043777],[-86.6107590640005,35.9807987681017],[-86.6107124434715,35.9807386671767],[-86.6107059313426,35.9807284695726],[-86.6107016025068,35.980717532646],[-86.6106995768548,35.9807061622303],[-86.6106999122708,35.9806946761902],[-86.6107025990268,35.9806833963385],[-86.6107075608217,35.9806726394174],[-86.6107146602292,35.9806627044535],[-86.6107236975684,35.980653870059],[-86.6107344208071,35.9806463844674],[-86.6107436328292,35.980641670821],[-86.6107978889168,35.9806184080026],[-86.6107984172816,35.9806181881096],[-86.610801090105,35.9806170821779],[-86.6108260547425,35.9806068312559]]]},"properties":{"id":"213437","parcel":"188100A50500CO","address":"7321 CAROTHERS RD","owner":"SMITH, NOAH A. & ANNA","point":[-86.61083069849977,35.98076902563434]}},{"type":"Feature","id":"213441","geometry":{"type":"Polygon","coordinates":[[[-86.6102571962516,35.9809046636474],[-86.6103532433782,35.9808485351958],[-86.6105998752118,35.9811273405639],[-86.6105038279226,35.9811834692089],[-86.6102571962516,35.9809046636474]]]},"properties":{"id":"213441","parcel":"188100A50700CO","address":"7325 CAROTHERS RD","owner":"REGENT HOMES, LLC","point":[-86.61042853549154,35.98101600222754]}},{"type":"Feature","id":"213664","geometry":{"type":"Polygon","coordinates":[[[-86.6103259106704,35.9815057658556],[-86.6104067045935,35.9814856557384],[-86.6107875664098,35.9814511352677],[-86.6108006778197,35.9815466919524],[-86.610343842526,35.9815880986464],[-86.6103402975373,35.9815622556778],[-86.6103347226887,35.9815337389331],[-86.6103259106704,35.9815057658556]]]},"properties":{"id":"213664","parcel":"188100A49000CO","address":"336 CAXTON ALY","owner":"RUMMAGE, JAMES CHRISTOPHER","point":[-86.61056375300618,35.981520510302744]}},{"type":"Feature","id":"213667","geometry":{"type":"Polygon","coordinates":[[[-86.6099672236166,35.9810709262419],[-86.6100649785388,35.9810167803399],[-86.6103080693213,35.9812976330556],[-86.6101999224397,35.9813575352272],[-86.6099672236166,35.9810709262419]]]},"properties":{"id":"213667","parcel":"188100A51000CO","address":"7331 CAROTHERS RD","owner":"REGENT HOMES, LLC","point":[-86.61013460434279,35.98118426988528]}},{"type":"Feature","id":"213673","geometry":{"type":"Polygon","coordinates":[[[-86.6103831742029,35.9818747679314],[-86.6108400111225,35.9818333610907],[-86.6108268996181,35.981737804416],[-86.6108137881453,35.9816422477381],[-86.6108006778197,35.9815466919524],[-86.6107875664098,35.9814511352677],[-86.6107744561403,35.981355578574],[-86.6103641449039,35.9813927692206],[-86.6102850581235,35.9814327388667],[-86.6102832615859,35.9814304127096],[-86.6102805959511,35.9814262450994],[-86.610278841699,35.9814217700339],[-86.610278050833,35.9814171170365],[-86.6102782476901,35.981412422981],[-86.6102794244434,35.9814078240031],[-86.6102815488708,35.981403456362],[-86.6102845576191,35.9813994456593],[-86.6102883628848,35.9813959104099],[-86.6102928534608,35.9813929539252],[-86.6103962273166,35.981334317855],[-86.6107194829801,35.981145413369],[-86.6107219477663,35.9811442174635],[-86.6107246259764,35.9811433773893],[-86.6107274412859,35.9811429178686],[-86.6107303106269,35.9811428519411],[-86.6107331530665,35.9811431818197],[-86.6107358842619,35.9811438989192],[-86.6107384286305,35.9811449801894],[-86.6107407094396,35.9811463971779],[-86.6107426631519,35.9811481069447],[-86.6107442328415,35.9811500611084],[-86.6107453726024,35.9811522022188],[-86.6107460498138,35.9811544700546],[-86.6107487241114,35.9811695847751],[-86.6109058907945,35.9811000364773],[-86.6108980202751,35.9810699225855],[-86.6108972355685,35.9810656426977],[-86.6108972877199,35.9810613153017],[-86.6108981742331,35.9810570485661],[-86.6108998748496,35.9810529480454],[-86.6109023470987,35.9810491149004],[-86.6109055285092,35.9810456449857],[-86.6109093410162,35.9810426252218],[-86.6109136898116,35.9810401281936],[-86.6109911875873,35.9810044437507],[-86.6110704331972,35.9809713929929],[-86.6111512917883,35.9809410315803],[-86.6112336251615,35.9809134124865],[-86.6112389601869,35.9809121262909],[-86.6112444837836,35.9809115691891],[-86.6112500441419,35.9809117554713],[-86.6112554915384,35.9809126822924],[-86.6112606782802,35.9809143224618],[-86.6112654632029,35.9809166325326],[-86.6112697171874,35.9809195491683],[-86.6112733254046,35.9809229927363],[-86.611276187351,35.9809268718144],[-86.6112782290243,35.9809310804253],[-86.6112935131222,35.980977267358],[-86.6113053237432,35.98102412266],[-86.6113136163128,35.9810714744107],[-86.6113158082877,35.9810874478012],[-86.6109127203925,35.9811239853642],[-86.6109403988216,35.9813257032131],[-86.6109666208829,35.9815168156553],[-86.6109928430772,35.9817079289853],[-86.6113959338946,35.9816713911585],[-86.6113961862925,35.9816779711538],[-86.6113951452981,35.981684499132],[-86.6113928395759,35.9816908091087],[-86.6113893255537,35.9816967403665],[-86.6113846952127,35.98170214102],[-86.6113790661559,35.9817068743762],[-86.6113725816011,35.9817108180323],[-86.611365406008,35.9817138720107],[-86.610730346161,35.9819336054071],[-86.6106881714966,35.9819462698391],[-86.6106446844896,35.9819555493282],[-86.6106002958938,35.9819613579696],[-86.6104647574533,35.9819736431047],[-86.6104529780642,35.9819738704653],[-86.6104413278359,35.981972432473],[-86.6104301630566,35.9819693714852],[-86.6104198215646,35.9819647822284],[-86.6104106171278,35.9819588019118],[-86.6104028306072,35.9819516147794],[-86.6103966987508,35.981943436844],[-86.6103924053361,35.981934517735],[-86.6103900844003,35.9819251280638],[-86.6103831742029,35.9818747679314]]]},"properties":{"id":"213673","parcel":"188100A94900CO","address":"150 DAGMAN ALY","owner":"REGENT HOMES, LLC","point":[-86.6108714749318,35.9814430247995]}},{"type":"Feature","id":"214638","geometry":{"type":"Polygon","coordinates":[[[-86.6098837777355,35.9819777877121],[-86.6103038837954,35.9819397117731],[-86.6103094879177,35.9819583113897],[-86.6103184850523,35.9819760078323],[-86.6103306691723,35.9819923974621],[-86.610345760142,35.9820071013502],[-86.6103161198488,35.9820305095765],[-86.610275719022,35.9820341717238],[-86.6102588208827,35.9820357030486],[-86.6098962327344,35.9820685664202],[-86.6098837777355,35.9819777877121]]]},"properties":{"id":"214638","parcel":"188100A48400CO","address":"327 CAXTON ALY","owner":"REGENT HOMES, LLC","point":[-86.61011240210506,35.98199901582929]}},{"type":"Feature","id":"214640","geometry":{"type":"Polygon","coordinates":[[[-86.6098800051623,35.9817024071909],[-86.6102663003558,35.981667395787],[-86.6102787546337,35.981758174467],[-86.6098588689321,35.9817962302814],[-86.6098464140185,35.9817054515642],[-86.6098800051623,35.9817024071909]]]},"properties":{"id":"214640","parcel":"188100A48700CO","address":"333 CAXTON ALY","owner":"MOREAU, MARK LEONARD & MARY MOORE","point":[-86.61006258440969,35.98173181321046]}},{"type":"Feature","id":"214644","geometry":{"type":"Polygon","coordinates":[[[-86.6099361551559,35.9815988845271],[-86.610252970513,35.9815701709532],[-86.6102663003558,35.981667395787],[-86.6098800051623,35.9817024071909],[-86.6098696796653,35.9816271452465],[-86.6099361551559,35.9815988845271]]]},"properties":{"id":"214644","parcel":"188100A48800CO","address":"335 CAXTON ALY","owner":"REGENT HOMES, LLC","point":[-86.61006799089166,35.98164727068338]}},{"type":"Feature","id":"214648","geometry":{"type":"Polygon","coordinates":[[[-86.6103569534254,35.9816836553767],[-86.6108137881453,35.9816422477381],[-86.6108268996181,35.981737804416],[-86.6103700632405,35.9817792112079],[-86.6103569534254,35.9816836553767]]]},"properties":{"id":"214648","parcel":"188100A49200CO","address":"332 CAXTON ALY","owner":"THRASH, CANDACE H & MYLES L","point":[-86.6105919263029,35.98171073012555]}},{"type":"Feature","id":"214668","geometry":{"type":"Polygon","coordinates":[[[-86.6092074915225,35.9830294094575],[-86.6096258902451,35.9829914914716],[-86.609599670912,35.9828003778959],[-86.6095734506029,35.9826092652136],[-86.6095472315287,35.9824181525123],[-86.6095210125736,35.9822270388963],[-86.6094947926424,35.9820359261737],[-86.6094562639616,35.9817550911663],[-86.6095784299742,35.9817133113967],[-86.6096990254664,35.9816686156447],[-86.6098179420555,35.9816210432194],[-86.6099350769179,35.9815706352051],[-86.6100503283604,35.9815174353842],[-86.6101635947183,35.9814614911448],[-86.6101683033086,35.9814594880345],[-86.6101733416015,35.9814581096552],[-86.61017858234,35.9814573909011],[-86.6101838970135,35.9814573477455],[-86.6101891536806,35.9814579826595],[-86.6101942235886,35.9814592800724],[-86.6101989811797,35.9814612072723],[-86.610203307439,35.9814637170937],[-86.6102070954244,35.9814667460864],[-86.6102102536417,35.9814702208077],[-86.6102260286635,35.981493594434],[-86.6102385023238,35.9815182502116],[-86.6102475203545,35.9815438824822],[-86.610252970513,35.9815701709532],[-86.6099361551559,35.9815988845271],[-86.6098696796653,35.9816271452465],[-86.6098800051623,35.9817024071909],[-86.6098464140185,35.9817054515642],[-86.6098588689321,35.9817962302814],[-86.609871323874,35.9818870089955],[-86.6098837777355,35.9819777877121],[-86.6098962327344,35.9820685664202],[-86.6102588208827,35.9820357030486],[-86.610275719022,35.9820341717238],[-86.6103161198488,35.9820305095765],[-86.610345760142,35.9820071013502],[-86.610363427225,35.9820197940011],[-86.610383252221,35.9820301683884],[-86.6104047797664,35.9820379879757],[-86.6104275138907,35.9820430714116],[-86.6104509325005,35.9820453014696],[-86.6104744973812,35.9820446277015],[-86.6106100359411,35.9820323425556],[-86.6106497272388,35.9820275500617],[-86.6106888838473,35.9820204223002],[-86.6107272986806,35.9820109963738],[-86.6107647669745,35.9819993228933],[-86.611399827258,35.9817795902196],[-86.6114194385555,35.9817712419615],[-86.6114371637497,35.9817604625632],[-86.6114525525129,35.9817475265042],[-86.6114652081735,35.9817327638722],[-86.6114748109331,35.981716551232],[-86.6114811144705,35.9816993026296],[-86.6114839580559,35.9816814587152],[-86.6114832697803,35.9816634741081],[-86.6114582810319,35.9814813558755],[-86.6118613682766,35.9814448174015],[-86.6118351440824,35.9812537042499],[-86.6118089200142,35.981062591085],[-86.6114058324716,35.9810991302989],[-86.6114028357762,35.98107728904],[-86.6118059221008,35.9810407498416],[-86.6117736247591,35.9808053777348],[-86.6117903921716,35.9808039000364],[-86.6118036006385,35.9808036571712],[-86.6118166805989,35.9808051607717],[-86.6118292879753,35.9808083693242],[-86.6118410872415,35.9808131998116],[-86.6118517646884,35.9808195222387],[-86.6118610395945,35.9808271703909],[-86.6118686619882,35.9808359391417],[-86.6118744327179,35.9808455987708],[-86.6118781989815,35.9808558904814],[-86.6118798588946,35.9808665435005],[-86.6118833167643,35.9809297249454],[-86.6119576014359,35.9809270383045],[-86.6119541152919,35.98086336039],[-86.611954599651,35.9808526640273],[-86.6119572080142,35.9808421713786],[-86.6119618704477,35.9808321613004],[-86.6119684636604,35.9808228957953],[-86.6119768154334,35.9808146190891],[-86.6119867045643,35.9808075504195],[-86.6119978707841,35.9808018758753],[-86.6120100191586,35.9807977438667],[-86.6120228311764,35.9807952650694],[-86.6120359668977,35.9807945034008],[-86.6120889719872,35.9807954651386],[-86.6121419320161,35.98079748791],[-86.6121471351895,35.9807261886102],[-86.6121704812626,35.9803833098584],[-86.6123424760868,35.9803910462955],[-86.6122316601334,35.9811520953621],[-86.6120288478795,35.9825448843927],[-86.6113971716287,35.9826049941462],[-86.6107272735972,35.9832280132664],[-86.6086589423604,35.9832842421375],[-86.608646867719,35.9832396781358],[-86.6086336912824,35.9831953206909],[-86.6086327619526,35.9831906773976],[-86.6086328213191,35.9831859723251],[-86.6086338682329,35.9831813451804],[-86.6086358693525,35.9831769313266],[-86.6086387691037,35.9831728590286],[-86.6086424808013,35.9831692485973],[-86.6086468965809,35.9831662060295],[-86.6086518862759,35.9831638212115],[-86.6086573029215,35.9831621624835],[-86.608679701846,35.9831570353428],[-86.6087175557311,35.9831492685827],[-86.6087558727582,35.9831431903031],[-86.6087945421578,35.9831388163858],[-86.609078026049,35.9831131252657],[-86.6091024674243,35.9831092801753],[-86.6091258391787,35.9831023147913],[-86.6091475438418,35.9830924060871],[-86.609167025573,35.983079809239],[-86.609183783386,35.9830648467431],[-86.6091973888429,35.9830479020171],[-86.6092074915225,35.9830294094575]]]},"properties":{"id":"214668","parcel":"188100A94800CO","address":"315 CAXTON ALY","owner":"REGENT HOMES, LLC","point":[-86.61166907116274,35.981847471894454]}},{"type":"Feature","id":"216911","geometry":{"type":"Polygon","coordinates":[[[-86.609871323874,35.9818870089955],[-86.610291210042,35.9818489522372],[-86.6103027470096,35.9819330443265],[-86.6103038837954,35.9819397117731],[-86.6098837777355,35.9819777877121],[-86.609871323874,35.9818870089955]]]},"properties":{"id":"216911","parcel":"188100A48500CO","address":"329 CAXTON ALY","owner":"REGENT HOMES, LLC","point":[-86.6100870353781,35.98191002685457]}},{"type":"Feature","id":"216915","geometry":{"type":"Polygon","coordinates":[[[-86.6098588689321,35.9817962302814],[-86.6102787546337,35.981758174467],[-86.610291210042,35.9818489522372],[-86.609871323874,35.9818870089955],[-86.6098588689321,35.9817962302814]]]},"properties":{"id":"216915","parcel":"188100A48600CO","address":"331 CAXTON ALY","owner":"HOLMES, JAMES WILLIAM JR & CHELSEY","point":[-86.61007503939716,35.9818225914536]}},{"type":"Feature","id":"216919","geometry":{"type":"Polygon","coordinates":[[[-86.6102850581235,35.9814327388667],[-86.6103641449039,35.9813927692206],[-86.6107744561403,35.981355578574],[-86.6107875664098,35.9814511352677],[-86.6104067045935,35.9814856557384],[-86.6103259106704,35.9815057658556],[-86.6103149004709,35.9814804960957],[-86.6103012499623,35.9814560932461],[-86.6102850581235,35.9814327388667]]]},"properties":{"id":"216919","parcel":"188100A48900CO","address":"338 CAXTON ALY","owner":"MORRISON, JENNIFER","point":[-86.61055355298942,35.98141349741164]}},{"type":"Feature","id":"216923","geometry":{"type":"Polygon","coordinates":[[[-86.610343842526,35.9815880986464],[-86.6108006778197,35.9815466919524],[-86.6108137881453,35.9816422477381],[-86.6103569534254,35.9816836553767],[-86.610343842526,35.9815880986464]]]},"properties":{"id":"216923","parcel":"188100A49100CO","address":"334 CAXTON ALY","owner":"SHEAR, JEFFREY & CARLY","point":[-86.61057881539044,35.98161517342235]}},{"type":"Feature","id":"216927","geometry":{"type":"Polygon","coordinates":[[[-86.6103532433782,35.9808485351958],[-86.6104486710531,35.9807927685232],[-86.6104529777035,35.9807904150315],[-86.6104534460261,35.9807901738133],[-86.6104665274557,35.9807847925379],[-86.6104805573089,35.9807813307236],[-86.6104951116759,35.9807798923661],[-86.6105097539793,35.9807805202372],[-86.6105240405183,35.9807831958568],[-86.6105375437476,35.9807878384734],[-86.61054985674,35.9807943086469],[-86.6105606076296,35.9808024117804],[-86.6105694740613,35.9808119025532],[-86.6106161102013,35.9808720232817],[-86.6106448025879,35.9809116890055],[-86.6106704138881,35.9809527231965],[-86.6106928453149,35.9809949695321],[-86.6107120102295,35.9810382653183],[-86.6107132534684,35.981042474383],[-86.6107136669525,35.9810467895028],[-86.6107132409942,35.9810511043738],[-86.6107119880696,35.9810553107769],[-86.610709936213,35.9810593049206],[-86.6107071389974,35.9810629873904],[-86.6107036644802,35.9810662677113],[-86.6106995985229,35.9810690634296],[-86.6105998752118,35.9811273405639],[-86.6103532433782,35.9808485351958]]]},"properties":{"id":"216927","parcel":"188100A50600CO","address":"7323 CAROTHERS RD","owner":"CLINTON, KEVIN M. & TONI ANNETTE","point":[-86.61057254843193,35.98097349237196]}},{"type":"Feature","id":"216932","geometry":{"type":"Polygon","coordinates":[[[-86.6101611489825,35.9809607911205],[-86.6102571962516,35.9809046636474],[-86.6105038279226,35.9811834692089],[-86.610407780491,35.9812395968754],[-86.6101611489825,35.9809607911205]]]},"properties":{"id":"216932","parcel":"188100A50800CO","address":"7327 CAROTHERS RD","owner":"REGENT HOMES, LLC","point":[-86.61033248821242,35.98107213028659]}},{"type":"Feature","id":"216935","geometry":{"type":"Polygon","coordinates":[[[-86.6100649785388,35.9810167803399],[-86.610066060508,35.9810161601728],[-86.6100733306614,35.9810119908869],[-86.6100982964244,35.9809975211365],[-86.6101611489825,35.9809607911205],[-86.610407780491,35.9812395968754],[-86.6103449278265,35.981276327018],[-86.6103080693213,35.9812976330556],[-86.6100649785388,35.9810167803399]]]},"properties":{"id":"216935","parcel":"188100A50900CO","address":"7329 CAROTHERS RD","owner":"REGENT HOMES, LLC","point":[-86.61023531721072,35.981128185279516]}},{"type":"Feature","id":"216939","geometry":{"type":"Polygon","coordinates":[[[-86.6098675296178,35.9811226826297],[-86.6099672236166,35.9810709262419],[-86.6101999224397,35.9813575352272],[-86.6100896293414,35.9814147938524],[-86.6098675296178,35.9811226826297]]]},"properties":{"id":"216939","parcel":"188100A51100CO","address":"7333 CAROTHERS RD","owner":"REGENT HOMES, LLC","point":[-86.61003069604664,35.98124009919596]}},{"type":"Feature","id":"220162","geometry":{"type":"Polygon","coordinates":[[[-86.6120250573285,35.9806683690143],[-86.6120269392351,35.9804233740102],[-86.6120864016404,35.9804236756222],[-86.6120862421447,35.9804444513545],[-86.6121192663491,35.980444618757],[-86.6121181202964,35.9805938344835],[-86.6120956476058,35.9805937206968],[-86.6120950715026,35.9806687242434],[-86.6120250573285,35.9806683690143]]]},"properties":{"id":"220162","parcel":"188102A01100CO","address":"7301 CAROTHERS RD","owner":"RAMSEY, CHARLES & DIANA","point":[-86.61207244944525,35.980519056548076]}},{"type":"Feature","id":"220770","geometry":{"type":"Polygon","coordinates":[[[-86.611748408992,35.9804337429318],[-86.6117657802937,35.9805899532802],[-86.6117338399093,35.9805923003035],[-86.6117309796468,35.9805665800713],[-86.6116858198096,35.9805698982439],[-86.6116734401013,35.9804585742108],[-86.6117102169228,35.9804558718565],[-86.611708085712,35.9804367048628],[-86.611748408992,35.9804337429318]]]},"properties":{"id":"220770","parcel":"188102A01400CO","address":"7307 CAROTHERS RD","owner":"BINIAMINOV, BARUCH & MARY","point":[-86.61171831637614,35.980512629268226]}},{"type":"Feature","id":"221405","geometry":{"type":"Polygon","coordinates":[[[-86.6120269392351,35.9804233740102],[-86.6120250573285,35.9806683690143],[-86.6119593225612,35.9806680352574],[-86.6119598866355,35.9805946225642],[-86.6119363515721,35.9805945024302],[-86.6119374946342,35.980445862652],[-86.6119702149925,35.9804460289357],[-86.6119703911223,35.9804230872999],[-86.6120269392351,35.9804233740102]]]},"properties":{"id":"221405","parcel":"188102A01200CO","address":"7303 CAROTHERS RD","owner":"MORRIS PRESERVATION TRUST, THE","point":[-86.61198155801648,35.980520357126174]}},{"type":"Feature","id":"221409","geometry":{"type":"Polygon","coordinates":[[[-86.611748408992,35.9804337429318],[-86.6117887322621,35.980430780086],[-86.6117907944166,35.9804493282374],[-86.6118290186287,35.9804465193497],[-86.6118413722726,35.9805575983476],[-86.611798861213,35.9805607219424],[-86.6118018179621,35.9805873060277],[-86.6117657802937,35.9805899532802],[-86.611748408992,35.9804337429318]]]},"properties":{"id":"221409","parcel":"188102A01300CO","address":"7305 CAROTHERS RD","owner":"TREMMEL, KATELYN GALBATO & JACOB","point":[-86.61179574960734,35.98050339750794]}},{"type":"Feature","id":"222748","geometry":{"type":"Polygon","coordinates":[[[-86.6119041598368,35.9807251920145],[-86.6118834021431,35.9803822174861],[-86.6118911521484,35.9803819212324],[-86.6118940954074,35.9803818098364],[-86.6119019642053,35.9803815319056],[-86.611904790037,35.9803814355268],[-86.6119127787572,35.980381178617],[-86.6119154871407,35.9803810945518],[-86.6119235946952,35.9803808613724],[-86.6119261856305,35.9803807896207],[-86.6119344120123,35.9803805792705],[-86.6119368854926,35.980380518931],[-86.6119452296067,35.980380333218],[-86.6119475867338,35.9803802833839],[-86.6119560496961,35.9803801232038],[-86.6119582882454,35.9803800829852],[-86.6119668700628,35.9803799492392],[-86.6119689911362,35.9803799177291],[-86.6119776918017,35.980379809516],[-86.6119796953993,35.9803797867145],[-86.611988513818,35.9803797058423],[-86.6119903999328,35.9803796908481],[-86.6119993361116,35.9803796382181],[-86.6120804998816,35.9803802702643],[-86.6121616037112,35.9803829115539],[-86.6121704812626,35.9803833098584],[-86.6121471351895,35.9807261886102],[-86.6120661757365,35.9807234771753],[-86.6119851492129,35.9807231454538],[-86.6119041598368,35.9807251920145]],[[-86.6120269392351,35.9804233740102],[-86.6119703911223,35.9804230872999],[-86.6119702149925,35.9804460289357],[-86.6119374946342,35.980445862652],[-86.6119363515721,35.9805945024302],[-86.6119598866355,35.9805946225642],[-86.6119593225612,35.9806680352574],[-86.6120250573285,35.9806683690143],[-86.6120950715026,35.9806687242434],[-86.6120956476058,35.9805937206968],[-86.6121181202964,35.9805938344835],[-86.6121192663491,35.980444618757],[-86.6120862421447,35.9804444513545],[-86.6120864016404,35.9804236756222],[-86.6120269392351,35.9804233740102]]]},"properties":{"id":"222748","parcel":"188102A90500CO","address":"7303 C CAROTHERS RD","owner":"O.I.C. CAROTHERS CROSSING TOWNHOMES","point":[-86.61191431685602,35.98051949123559]}},{"type":"Feature","id":"222759","geometry":{"type":"Polygon","coordinates":[[[-86.6115965693406,35.9804063811559],[-86.6116005740775,35.9804058714095],[-86.6116071256879,35.9804050395811],[-86.6116112689827,35.9804045228214],[-86.6116176900394,35.9804037295101],[-86.6116219697089,35.9804032102547],[-86.6116282590962,35.9804024545648],[-86.611632678474,35.9804019336982],[-86.6116388350691,35.9804012138329],[-86.6116433930463,35.9804006913605],[-86.6116494168493,35.9804000073199],[-86.6116541134398,35.9803994850442],[-86.6116600044368,35.9803988350257],[-86.6116648396405,35.9803983129469],[-86.6116705989474,35.9803976978461],[-86.6116755716693,35.9803971777721],[-86.6116811970475,35.9803965948966],[-86.6116863095055,35.9803960768162],[-86.6116918020708,35.9803955270618],[-86.6116970531628,35.9803950118818],[-86.6117024117856,35.98039449255],[-86.6117078015256,35.980393982073],[-86.6117130262128,35.9803934940654],[-86.6117185546007,35.9803929882913],[-86.6117236453316,35.980392528904],[-86.6117293134901,35.9803920296298],[-86.6117342691559,35.9803915988685],[-86.6117400759831,35.9803911070008],[-86.6117448987945,35.980390703953],[-86.6117508442903,35.980390219492],[-86.6117555309139,35.9803898432733],[-86.6117616161943,35.9803893671146],[-86.6117661688408,35.9803890168125],[-86.6117723917018,35.9803885507698],[-86.6117768092554,35.9803882254888],[-86.6117831719148,35.9803877695508],[-86.6117874543687,35.9803874683896],[-86.6117939557385,35.9803870252657],[-86.6117981030787,35.9803867464217],[-86.6118047420429,35.9803863152164],[-86.6118087553785,35.9803860586841],[-86.6118155330599,35.980385641194],[-86.611819410173,35.9803854069848],[-86.6118263276806,35.9803850032043],[-86.6118300685504,35.9803847886143],[-86.6118371247891,35.9803844003517],[-86.6118407305245,35.9803842053752],[-86.6118479254944,35.9803838326304],[-86.6118513949797,35.9803836563719],[-86.6118587287014,35.9803833018487],[-86.6118620608208,35.9803831434125],[-86.6118695343895,35.9803828053026],[-86.6118727302518,35.9803826646833],[-86.6118803414705,35.9803823457018],[-86.6118834021431,35.9803822174861],[-86.6119041598368,35.9807251920145],[-86.6118234226566,35.9807296076531],[-86.6117429320864,35.9807363878919],[-86.6116627956158,35.9807455240738],[-86.6115965693406,35.9804063811559]],[[-86.611748408992,35.9804337429318],[-86.611708085712,35.9804367048628],[-86.6117102169228,35.9804558718565],[-86.6116734401013,35.9804585742108],[-86.6116858198096,35.9805698982439],[-86.6117309796468,35.9805665800713],[-86.6117338399093,35.9805923003035],[-86.6117657802937,35.9805899532802],[-86.6118018179621,35.9805873060277],[-86.611798861213,35.9805607219424],[-86.6118413722726,35.9805575983476],[-86.6118290186287,35.9804465193497],[-86.6117907944166,35.9804493282374],[-86.6117887322621,35.980430780086],[-86.611748408992,35.9804337429318]]]},"properties":{"id":"222759","parcel":"188102A90600CO","address":"7307 C CAROTHERS RD","owner":"O.I.C. CAROTHERS CROSSING TOWNHOMES","point":[-86.61184680381159,35.98056391593591]}},{"type":"Feature","id":"230354","geometry":{"type":"Polygon","coordinates":[[[-86.6113095539599,35.9807559956782],[-86.6112214331674,35.9805230969721],[-86.611273790073,35.9805100102203],[-86.6112800641065,35.9805265910946],[-86.611318437632,35.9805159331079],[-86.6113878281294,35.98069932752],[-86.6113701219767,35.9807037535682],[-86.6113829474394,35.9807376493561],[-86.6113095539599,35.9807559956782]]]},"properties":{"id":"230354","parcel":"188102A02700CO","address":"7313 CAROTHERS RD","owner":"REGENT HOMES, LLC","point":[-86.6113052563618,35.98061286638112]}},{"type":"Feature","id":"230355","geometry":{"type":"Polygon","coordinates":[[[-86.6110271109358,35.9808451264899],[-86.6109874978779,35.9807719609469],[-86.6109717316009,35.9807776001542],[-86.610897487703,35.9806404703269],[-86.6109254261643,35.9806304773898],[-86.6109165960689,35.9806141699415],[-86.610971861426,35.9805944034664],[-86.6110914411811,35.9808221179579],[-86.6110271109358,35.9808451264899]]]},"properties":{"id":"230355","parcel":"188102A03000CO","address":"7319 CAROTHERS RD","owner":"REGENT HOMES, LLC","point":[-86.61098189700655,35.98070634341067]}},{"type":"Feature","id":"232264","geometry":{"type":"Polygon","coordinates":[[[-86.6111990077431,35.9807881825101],[-86.6110740850066,35.9805188886171],[-86.6111590462239,35.9804941782416],[-86.611244986888,35.9804718215308],[-86.6113318095928,35.9804518406083],[-86.6114400045044,35.9807837782825],[-86.6113669451901,35.980800591637],[-86.6112946275434,35.9808194047671],[-86.6112231356735,35.9808401965173],[-86.6112084591159,35.9808085588481],[-86.6111990077431,35.9807881825101]],[[-86.6113095539599,35.9807559956782],[-86.6113829474394,35.9807376493561],[-86.6113701219767,35.9807037535682],[-86.6113878281294,35.98069932752],[-86.611318437632,35.9805159331079],[-86.6112800641065,35.9805265910946],[-86.611273790073,35.9805100102203],[-86.6112214331674,35.9805230969721],[-86.6111688515697,35.9805362398207],[-86.6111757968102,35.9805545973569],[-86.6111356176761,35.9805646407641],[-86.6112036269011,35.9807443866245],[-86.6112229954512,35.9807395456767],[-86.6112361604327,35.980774340153],[-86.6113095539599,35.9807559956782]]]},"properties":{"id":"232264","parcel":"188102A91300CO","address":"7315 C CAROTHERS RD","owner":"O.I.C. CAROTHERS CROSSING TOWNHOMES","point":[-86.61114365985257,35.980631601635146]}},{"type":"Feature","id":"233253","geometry":{"type":"Polygon","coordinates":[[[-86.6112361604327,35.980774340153],[-86.6112229954512,35.9807395456767],[-86.6112036269011,35.9807443866245],[-86.6111356176761,35.9805646407641],[-86.6111757968102,35.9805545973569],[-86.6111688515697,35.9805362398207],[-86.6112214331674,35.9805230969721],[-86.6113095539599,35.9807559956782],[-86.6112361604327,35.980774340153]]]},"properties":{"id":"233253","parcel":"188102A02800CO","address":"7315 CAROTHERS RD","owner":"REGENT HOMES, LLC","point":[-86.61121952292571,35.98065222354766]}},{"type":"Feature","id":"233489","geometry":{"type":"Polygon","coordinates":[[[-86.6108260547425,35.9806068312559],[-86.6109074947036,35.9805752466964],[-86.6109902027908,35.9805459215097],[-86.6110740850066,35.9805188886171],[-86.6111990077431,35.9807881825101],[-86.6112084591159,35.9808085588481],[-86.6112231356735,35.9808401965173],[-86.6111525503492,35.9808629439465],[-86.6110829534276,35.9808876214047],[-86.6110144234053,35.9809141987521],[-86.6108260547425,35.9806068312559]],[[-86.6110271109358,35.9808451264899],[-86.6110914411811,35.9808221179579],[-86.6111557724912,35.9807991084844],[-86.6111183988132,35.9807307851066],[-86.6111433907435,35.980720623209],[-86.6110684278396,35.9805821686204],[-86.6110372437177,35.9805933227103],[-86.6110271256398,35.9805746360701],[-86.610971861426,35.9805944034664],[-86.6109165960689,35.9806141699415],[-86.6109254261643,35.9806304773898],[-86.610897487703,35.9806404703269],[-86.6109717316009,35.9807776001542],[-86.6109874978779,35.9807719609469],[-86.6110271109358,35.9808451264899]]]},"properties":{"id":"233489","parcel":"188102A91400CO","address":"7319 C CAROTHERS RD","owner":"O.I.C. CAROTHERS CROSSING TOWNHOMES","point":[-86.6108949706453,35.98068014000427]}},{"type":"Feature","id":"233493","geometry":{"type":"Polygon","coordinates":[[[-86.610971861426,35.9805944034664],[-86.6110271256398,35.9805746360701],[-86.6110372437177,35.9805933227103],[-86.6110684278396,35.9805821686204],[-86.6111433907435,35.980720623209],[-86.6111183988132,35.9807307851066],[-86.6111557724912,35.9807991084844],[-86.6110914411811,35.9808221179579],[-86.610971861426,35.9805944034664]]]},"properties":{"id":"233493","parcel":"188102A02900CO","address":"7317 CAROTHERS RD","owner":"REGENT HOMES, LLC","point":[-86.6110571123196,35.98065751170305]}},{"type":"Feature","id":"233775","geometry":{"type":"Polygon","coordinates":[[[-86.6113605569359,35.9809056433146],[-86.6113593968224,35.980901432933],[-86.6113590620954,35.9808971255268],[-86.6113595613548,35.9808928301096],[-86.6113608820978,35.9808886512954],[-86.6113629918481,35.9808846919969],[-86.6113658370127,35.9808810489252],[-86.6113693495421,35.9808778134568],[-86.6113734435616,35.9808750662432],[-86.6113780142286,35.9808728727101],[-86.6113829521817,35.9808712874907],[-86.6114597758704,35.9808534113078],[-86.6115373625952,35.980837861957],[-86.6116156038607,35.980824661619],[-86.6116943944707,35.9808138288531],[-86.6117736247591,35.9808053777348],[-86.6118059221008,35.9810407498416],[-86.6114028357762,35.98107728904],[-86.611400951548,35.981063557419],[-86.6113915531714,35.9810102672287],[-86.6113780707714,35.9809575610852],[-86.6113605569359,35.9809056433146]],[[-86.6114904262793,35.9809456350942],[-86.6114923282584,35.980970473319],[-86.6114439390253,35.9809729218239],[-86.6114483442706,35.9810304256979],[-86.6117097886157,35.98101719704],[-86.6117383894443,35.9810158971744],[-86.6117351648142,35.9809738013099],[-86.6117451632362,35.9809732962587],[-86.6117425129797,35.9809386935714],[-86.6116797890221,35.9809418675381],[-86.6116793452764,35.9809360753475],[-86.6114904262793,35.9809456350942]],[[-86.6115565697055,35.9808678407201],[-86.6115571439375,35.9808758945064],[-86.6114789148317,35.9808795770374],[-86.6114823989946,35.9809284772919],[-86.6117266893744,35.9809169769719],[-86.6117270095419,35.9809147743755],[-86.6117461079045,35.9809138751915],[-86.6117423726214,35.9808614692689],[-86.6117213543527,35.9808624593231],[-86.6117211853333,35.9808600915706],[-86.6115565697055,35.9808678407201]]]},"properties":{"id":"233775","parcel":"188102A91500CO","address":"303 C CAXTON ALY","owner":"O.I.C. CAROTHERS CROSSING TOWNHOMES","point":[-86.61148751084208,35.980939556608824]}},{"type":"Feature","id":"233777","geometry":{"type":"Polygon","coordinates":[[[-86.6115565697055,35.9808678407201],[-86.6117211853333,35.9808600915706],[-86.6117213543527,35.9808624593231],[-86.6117423726214,35.9808614692689],[-86.6117461079045,35.9809138751915],[-86.6117270095419,35.9809147743755],[-86.6117266893744,35.9809169769719],[-86.6114823989946,35.9809284772919],[-86.6114789148317,35.9808795770374],[-86.6115571439375,35.9808758945064],[-86.6115565697055,35.9808678407201]]]},"properties":{"id":"233777","parcel":"188102A03200CO","address":"301 CAXTON ALY","owner":"REGENT HOMES, LLC","point":[-86.6116125111525,35.98089672618807]}},{"type":"Feature","id":"233779","geometry":{"type":"Polygon","coordinates":[[[-86.6113318095928,35.9804518406083],[-86.6114194147429,35.9804342612142],[-86.6115077015786,35.9804191018846],[-86.6115965693406,35.9804063811559],[-86.6116627956158,35.9807455240738],[-86.6115880149795,35.9807562291974],[-86.6115137224865,35.9807689858536],[-86.6114400045044,35.9807837782825],[-86.6113318095928,35.9804518406083]],[[-86.6114729671315,35.9804770244501],[-86.6113699089479,35.9804946796421],[-86.6114089344843,35.980645170407],[-86.6114263301518,35.980642189809],[-86.6114437368696,35.9807093148171],[-86.6115293985323,35.9806946401836],[-86.6116150612653,35.9806799645823],[-86.6116086994175,35.9806554347229],[-86.611631104036,35.9806515967545],[-86.6115818426371,35.9804583725294],[-86.6114729671315,35.9804770244501]]]},"properties":{"id":"233779","parcel":"188102A91600CO","address":"7311 C CAROTHERS RD","owner":"O.I.C. CAROTHERS CROSSING TOWNHOMES","point":[-86.61137940547987,35.98056837411696]}},{"type":"Feature","id":"235143","geometry":{"type":"Polygon","coordinates":[[[-86.6114729671315,35.9804770244501],[-86.6115818426371,35.9804583725294],[-86.611631104036,35.9806515967545],[-86.6116086994175,35.9806554347229],[-86.6116150612653,35.9806799645823],[-86.6115293985323,35.9806946401836],[-86.6114729671315,35.9804770244501]]]},"properties":{"id":"235143","parcel":"188102A03300CO","address":"7309 CAROTHERS RD","owner":"REGENT HOMES, LLC","point":[-86.61155222614055,35.980564311245644]}},{"type":"Feature","id":"235565","geometry":{"type":"Polygon","coordinates":[[[-86.6114729671315,35.9804770244501],[-86.6115293985323,35.9806946401836],[-86.6114437368696,35.9807093148171],[-86.6114263301518,35.980642189809],[-86.6114089344843,35.980645170407],[-86.6113699089479,35.9804946796421],[-86.6114729671315,35.9804770244501]]]},"properties":{"id":"235565","parcel":"188102A03400CO","address":"7311 CAROTHERS RD","owner":"REGENT HOMES, LLC","point":[-86.61144289086627,35.980568579725485]}},{"type":"Feature","id":"235579","geometry":{"type":"Polygon","coordinates":[[[-86.6114904262793,35.9809456350942],[-86.6116793452764,35.9809360753475],[-86.6116797890221,35.9809418675381],[-86.6117425129797,35.9809386935714],[-86.6117451632362,35.9809732962587],[-86.6117351648142,35.9809738013099],[-86.6117383894443,35.9810158971744],[-86.6117097886157,35.98101719704],[-86.6114483442706,35.9810304256979],[-86.6114439390253,35.9809729218239],[-86.6114923282584,35.980970473319],[-86.6114904262793,35.9809456350942]]]},"properties":{"id":"235579","parcel":"188102A03100CO","address":"303 CAXTON ALY","owner":"WHITE, MARY JANE","point":[-86.611591164293,35.9809944095896]}},{"type":"Feature","id":"238317","geometry":{"type":"Polygon","coordinates":[[[-86.6109831036351,35.9812094417207],[-86.6112650262661,35.9811867627588],[-86.6112734196415,35.9812517064328],[-86.6112457310898,35.9812523949828],[-86.6112457169716,35.981268307469],[-86.6110126325691,35.9812853587197],[-86.6110084746631,35.9812549628174],[-86.6109876513463,35.9812565168675],[-86.6109831036351,35.9812094417207]]]},"properties":{"id":"238317","parcel":"188102A04000CO","address":"306 CAXTON ALY","owner":"REGENT HOMES, LLC","point":[-86.61112792423353,35.98123057307094]}},{"type":"Feature","id":"238318","geometry":{"type":"Polygon","coordinates":[[[-86.6118351440824,35.9812537042499],[-86.6114320566922,35.9812902435446],[-86.6114058324716,35.9810991302989],[-86.6118089200142,35.981062591085],[-86.6118351440824,35.9812537042499]],[[-86.6117808244943,35.9811571321809],[-86.61177512132,35.9811085334287],[-86.6117477155491,35.981110658228],[-86.6117445103506,35.9810833462565],[-86.6115633290638,35.9810973922206],[-86.6115657260916,35.9811178178784],[-86.6114900130352,35.9811236877043],[-86.611496524133,35.9811791718874],[-86.6115032749235,35.9812366962921],[-86.6115779673914,35.9812309055486],[-86.6115799253765,35.9812475912466],[-86.6117609152732,35.9812335597515],[-86.6117579105634,35.9812079502155],[-86.6117865276755,35.9812057309323],[-86.6117808244943,35.9811571321809]]]},"properties":{"id":"238318","parcel":"188102A92100CO","address":"307 C CAXTON ALY","owner":"O.I.C. CAROTHERS CROSSING PH 5A","point":[-86.61145519033337,35.981167558077104]}},{"type":"Feature","id":"238319","geometry":{"type":"Polygon","coordinates":[[[-86.6115193597618,35.981376774541],[-86.611803660823,35.9813547347815],[-86.6118093640323,35.9814033335298],[-86.6117807468498,35.9814055528184],[-86.6117837515744,35.9814311623528],[-86.6116027612321,35.9814451938815],[-86.6116008032374,35.9814285081847],[-86.6115261105855,35.981434298942],[-86.6115193597618,35.981376774541]]]},"properties":{"id":"238319","parcel":"188102A04100CO","address":"311 CAXTON ALY","owner":"REGENT HOMES, LLC","point":[-86.61166436191294,35.98139005412302]}},{"type":"Feature","id":"238320","geometry":{"type":"Polygon","coordinates":[[[-86.6109403988216,35.9813257032131],[-86.6113434866174,35.9812891655646],[-86.6113697107439,35.9814802779148],[-86.6109666208829,35.9815168156553],[-86.6109403988216,35.9813257032131]],[[-86.6112861942469,35.9813872012907],[-86.611279341184,35.9813309238907],[-86.611205088045,35.9813364670651],[-86.6112024086427,35.9813192568631],[-86.6110231037092,35.981332817502],[-86.6110260591362,35.9813589707872],[-86.6109978436212,35.981361077893],[-86.6110033666031,35.9814099533886],[-86.6110086801215,35.9814569669638],[-86.611036896786,35.981454860751],[-86.6110395179082,35.9814780576721],[-86.611218011031,35.9814647318639],[-86.6112179628767,35.9814490846761],[-86.6112930473264,35.981443479591],[-86.6112861942469,35.9813872012907]]]},"properties":{"id":"238320","parcel":"188102A91800CO","address":"310 C CAXTON ALY","owner":"O.I.C. CAROTHERS CROSSING PH 5A","point":[-86.61132311543993,35.98139915526097]}},{"type":"Feature","id":"238321","geometry":{"type":"Polygon","coordinates":[[[-86.611803660823,35.9813547347815],[-86.6115193597618,35.981376774541],[-86.6115128486319,35.9813212903615],[-86.6115885618747,35.9813154205215],[-86.611586164835,35.981294994865],[-86.6117673465679,35.9812809488671],[-86.6117705517823,35.9813082608369],[-86.6117979576206,35.9813061360325],[-86.611803660823,35.9813547347815]]]},"properties":{"id":"238321","parcel":"188102A04200CO","address":"309 CAXTON ALY","owner":"REGENT HOMES, LLC","point":[-86.61165825471096,35.98133801265949]}},{"type":"Feature","id":"240285","geometry":{"type":"Polygon","coordinates":[[[-86.611496524133,35.9811791718874],[-86.6117808244943,35.9811571321809],[-86.6117865276755,35.9812057309323],[-86.6117579105634,35.9812079502155],[-86.6117609152732,35.9812335597515],[-86.6115799253765,35.9812475912466],[-86.6115779673914,35.9812309055486],[-86.6115032749235,35.9812366962921],[-86.611496524133,35.9811791718874]]]},"properties":{"id":"240285","parcel":"188102A04300CO","address":"307 CAXTON ALY","owner":"REGENT HOMES, LLC","point":[-86.61164152592015,35.981192451497456]}},{"type":"Feature","id":"240286","geometry":{"type":"Polygon","coordinates":[[[-86.6113131123993,35.981581337585],[-86.611030284073,35.9816040897451],[-86.6110247610611,35.9815552142528],[-86.6110529766442,35.9815531071407],[-86.6110500212011,35.9815269538573],[-86.6112293265677,35.9815133931788],[-86.6112320059823,35.9815306033795],[-86.6113062593007,35.9815250601887],[-86.6113131123993,35.981581337585]]]},"properties":{"id":"240286","parcel":"188102A03500CO","address":"312 CAXTON ALY","owner":"REGENT HOMES, LLC","point":[-86.61116888144751,35.98156827582632]}},{"type":"Feature","id":"240287","geometry":{"type":"Polygon","coordinates":[[[-86.6110033666031,35.9814099533886],[-86.6112861942469,35.9813872012907],[-86.6112930473264,35.981443479591],[-86.6112179628767,35.9814490846761],[-86.611218011031,35.9814647318639],[-86.6110395179082,35.9814780576721],[-86.611036896786,35.981454860751],[-86.6110086801215,35.9814569669638],[-86.6110033666031,35.9814099533886]]]},"properties":{"id":"240287","parcel":"188102A03800CO","address":"310 CAXTON ALY","owner":"REGENT HOMES, LLC","point":[-86.61114813562078,35.981426716345936]}},{"type":"Feature","id":"240432","geometry":{"type":"Polygon","coordinates":[[[-86.6114320566922,35.9812902435446],[-86.6118351440824,35.9812537042499],[-86.6118613682766,35.9814448174015],[-86.6114582810319,35.9814813558755],[-86.6114320566922,35.9812902435446]],[[-86.611803660823,35.9813547347815],[-86.6117979576206,35.9813061360325],[-86.6117705517823,35.9813082608369],[-86.6117673465679,35.9812809488671],[-86.611586164835,35.981294994865],[-86.6115885618747,35.9813154205215],[-86.6115128486319,35.9813212903615],[-86.6115193597618,35.981376774541],[-86.6115261105855,35.981434298942],[-86.6116008032374,35.9814285081847],[-86.6116027612321,35.9814451938815],[-86.6117837515744,35.9814311623528],[-86.6117807468498,35.9814055528184],[-86.6118093640323,35.9814033335298],[-86.611803660823,35.9813547347815]]]},"properties":{"id":"240432","parcel":"188102A92000CO","address":"311 C CAXTON ALY","owner":"O.I.C. CAROTHERS CROSSING PH 5A","point":[-86.61148016648688,35.98136516766801]}},{"type":"Feature","id":"240435","geometry":{"type":"Polygon","coordinates":[[[-86.6112650262661,35.9811867627588],[-86.6109831036351,35.9812094417207],[-86.610978623363,35.9811630611317],[-86.6109975093224,35.9811620748173],[-86.6109946489568,35.981128372678],[-86.6111884137386,35.9811139698753],[-86.6112290356389,35.9811107145842],[-86.6112294154499,35.981124930631],[-86.6112567177983,35.9811224765998],[-86.6112650262661,35.9811867627588]]]},"properties":{"id":"240435","parcel":"188102A03900CO","address":"304 CAXTON ALY","owner":"REGENT HOMES, LLC","point":[-86.61112792363649,35.98114565113557]}},{"type":"Feature","id":"240440","geometry":{"type":"Polygon","coordinates":[[[-86.6113434866174,35.9812891655646],[-86.6109403988216,35.9813257032131],[-86.6109127203925,35.9811239853642],[-86.6113158082877,35.9810874478012],[-86.6113434866174,35.9812891655646]],[[-86.6112650262661,35.9811867627588],[-86.6112567177983,35.9811224765998],[-86.6112294154499,35.981124930631],[-86.6112290356389,35.9811107145842],[-86.6111884137386,35.9811139698753],[-86.6109946489568,35.981128372678],[-86.6109975093224,35.9811620748173],[-86.610978623363,35.9811630611317],[-86.6109831036351,35.9812094417207],[-86.6109876513463,35.9812565168675],[-86.6110084746631,35.9812549628174],[-86.6110126325691,35.9812853587197],[-86.6112457169716,35.981268307469],[-86.6112457310898,35.9812523949828],[-86.6112734196415,35.9812517064328],[-86.6112650262661,35.9811867627588]]]},"properties":{"id":"240440","parcel":"188102A91900CO","address":"306 C CAXTON ALY","owner":"O.I.C. CAROTHERS CROSSING PH 5A","point":[-86.61129881752036,35.98119866858426]}},{"type":"Feature","id":"240443","geometry":{"type":"Polygon","coordinates":[[[-86.6109666208829,35.9815168156553],[-86.6113697107439,35.9814802779148],[-86.6113959338946,35.9816713911585],[-86.6109928430772,35.9817079289853],[-86.6109666208829,35.9815168156553]],[[-86.6113131123993,35.981581337585],[-86.6113062593007,35.9815250601887],[-86.6112320059823,35.9815306033795],[-86.6112293265677,35.9815133931788],[-86.6110500212011,35.9815269538573],[-86.6110529766442,35.9815531071407],[-86.6110247610611,35.9815552142528],[-86.611030284073,35.9816040897451],[-86.6110355976202,35.9816511033171],[-86.6110638143529,35.9816489970982],[-86.6110664354893,35.9816721940177],[-86.6112449290433,35.9816588681702],[-86.6112448808835,35.981643220983],[-86.6113199655146,35.9816376158814],[-86.6113131123993,35.981581337585]]]},"properties":{"id":"240443","parcel":"188102A91700CO","address":"314 C CAXTON ALY","owner":"O.I.C. CAROTHERS CROSSING PH 5A","point":[-86.61134989366545,35.98159329109547]}},{"type":"Feature","id":"241535","geometry":{"type":"Polygon","coordinates":[[[-86.6117808244943,35.9811571321809],[-86.611496524133,35.9811791718874],[-86.6114900130352,35.9811236877043],[-86.6115657260916,35.9811178178784],[-86.6115633290638,35.9810973922206],[-86.6117445103506,35.9810833462565],[-86.6117477155491,35.981110658228],[-86.61177512132,35.9811085334287],[-86.6117808244943,35.9811571321809]]]},"properties":{"id":"241535","parcel":"188102A04400CO","address":"305 CAXTON ALY","owner":"REGENT HOMES, LLC","point":[-86.61163541874824,35.98114041003059]}},{"type":"Feature","id":"241538","geometry":{"type":"Polygon","coordinates":[[[-86.6112861942469,35.9813872012907],[-86.6110033666031,35.9814099533886],[-86.6109978436212,35.981361077893],[-86.6110260591362,35.9813589707872],[-86.6110231037092,35.981332817502],[-86.6112024086427,35.9813192568631],[-86.611205088045,35.9813364670651],[-86.611279341184,35.9813309238907],[-86.6112861942469,35.9813872012907]]]},"properties":{"id":"241538","parcel":"188102A03700CO","address":"308 CAXTON ALY","owner":"REGENT HOMES, LLC","point":[-86.61114196365146,35.98137413949925]}},{"type":"Feature","id":"241540","geometry":{"type":"Polygon","coordinates":[[[-86.611030284073,35.9816040897451],[-86.6113131123993,35.981581337585],[-86.6113199655146,35.9816376158814],[-86.6112448808835,35.981643220983],[-86.6112449290433,35.9816588681702],[-86.6110664354893,35.9816721940177],[-86.6110638143529,35.9816489970982],[-86.6110355976202,35.9816511033171],[-86.611030284073,35.9816040897451]]]},"properties":{"id":"241540","parcel":"188102A03600CO","address":"314 CAXTON ALY","owner":"REGENT HOMES, LLC","point":[-86.61117505344964,35.98162085266939]}}]}