{"type":"FeatureCollection","features":[{"type":"Feature","id":"104260","geometry":{"type":"Polygon","coordinates":[[[-86.6909154273205,36.0960539817373],[-86.6895789607041,36.0958836192702],[-86.6894832002686,36.0967061007726],[-86.6908193184668,36.0968347100898],[-86.6909154273205,36.0960539817373],[-86.6909350804314,36.0961066137839],[-86.6909678120893,36.0962017500125],[-86.6909970377718,36.0962976354556],[-86.6913127503518,36.0968171554234],[-86.6913126574436,36.0968155399629],[-86.6921594466542,36.0984649878002],[-86.6921938216152,36.0985567497494],[-86.6921938466823,36.0985568226091],[-86.6922243753061,36.0986494105665],[-86.6922244164465,36.0986495437196],[-86.6922510850256,36.0987429154066],[-86.6922511217319,36.0987430494864],[-86.6922738981775,36.0988370924298],[-86.6922739293707,36.0988372310476],[-86.692292796415,36.0989318768515],[-86.6922928162204,36.0989319830887],[-86.692307750815,36.0990271372529],[-86.6923077591149,36.0990271975909],[-86.6923187415502,36.0991227664969],[-86.6923257463783,36.0992185078479],[-86.6923257503541,36.0992185817299],[-86.6923287770109,36.0993144324403],[-86.6923287778908,36.0993145333783],[-86.692327826176,36.0994103447384],[-86.6923278198794,36.0994105142149],[-86.6923228907635,36.0995062717985],[-86.6923228808996,36.0995064142571],[-86.6923151828625,36.0995911840269],[-86.692313963326,36.0996021253373],[-86.6923010878617,36.099697476093],[-86.6923010795118,36.0996975374279],[-86.692284831025,36.0997895529854],[-86.6922156597451,36.1003247847992],[-86.6921411777236,36.1008433093426],[-86.6921032094022,36.1011415618764],[-86.692055380532,36.1015334425373],[-86.6919709581716,36.1021369296261],[-86.6919192191382,36.1025704166158],[-86.6918874295285,36.1028426415489],[-86.6918227585358,36.1032623436635],[-86.6917517112764,36.1036855458792],[-86.6916618848385,36.1041817023478],[-86.6916371751645,36.1043070197586],[-86.6916199874825,36.1043941763042],[-86.6916090411859,36.1044642043299],[-86.6915950730754,36.1045338774548],[-86.6915781001668,36.104603109959],[-86.6915581439265,36.104671816998],[-86.6915352280343,36.1047399128133],[-86.6915045004928,36.1048191769764],[-86.6914697650341,36.1048973438222],[-86.6914310793475,36.1049742796273],[-86.691388511134,36.1050498524133],[-86.691342131459,36.1051239337875],[-86.6913044323282,36.1051784752677],[-86.691302155311,36.1051817698697],[-86.6913014897863,36.1051817412386],[-86.6912829771692,36.1052098923922],[-86.6912829585323,36.1052099204386],[-86.691255737174,36.1052490260568],[-86.6912313295001,36.1052820580587],[-86.6912312185856,36.1052822028987],[-86.6912100020975,36.1053095295473],[-86.6912057261412,36.1053148923182],[-86.6911606121307,36.1053687930789],[-86.6911128402986,36.1054211642637],[-86.6910624887335,36.1054719179982],[-86.6910091687627,36.1055243795145],[-86.6907979430652,36.105732203719],[-86.6907320544325,36.1057970314169],[-86.6905801044726,36.1059465338667],[-86.6903672852479,36.1061559238131],[-86.6902780529201,36.1062437178222],[-86.6902511064425,36.1062806837969],[-86.6902510087581,36.1062808177449],[-86.6902484623937,36.1062843112468],[-86.6902000098152,36.1063498599094],[-86.6901534207553,36.1064162928547],[-86.6901087215664,36.1064835747843],[-86.6900711250518,36.1065431948599],[-86.690035010875,36.1066034148031],[-86.6900294343152,36.1066130110574],[-86.6900280478475,36.1066153983604],[-86.6899724507151,36.1067158032158],[-86.6899209709282,36.1068176427542],[-86.6898801672109,36.1069059831644],[-86.6898424633358,36.1069952251296],[-86.6898078875773,36.1070852981913],[-86.6893916982324,36.1098509402327],[-86.6889779186793,36.112600399714],[-86.6889771846,36.1126052789049],[-86.6889738900949,36.1126180778068],[-86.6889681424465,36.1126302940774],[-86.688960086694,36.1126416177504],[-86.6889499247568,36.112651765573],[-86.6889377629565,36.1126605738063],[-86.6889240214256,36.112667689454],[-86.6889090540147,36.1126729293383],[-86.6888932461045,36.1126761596711],[-86.6888770046088,36.1126772961123],[-86.6888607491364,36.1126763092267],[-86.6888448964407,36.1126732245737],[-86.6888298570801,36.1126681218248],[-86.6886722806765,36.112602143434],[-86.6855418097494,36.1112913399156],[-86.6821998404143,36.1098918378981],[-86.6813629365936,36.1095413491425],[-86.6813678268715,36.1095298104253],[-86.6813931557141,36.1094700479581],[-86.682624015269,36.1065657066622],[-86.683545893071,36.1043900248835],[-86.6852125135308,36.100357011152],[-86.6820925411962,36.1001516846091],[-86.6788969893076,36.0999412988812],[-86.6768170221773,36.0998043139777],[-86.6768390744253,36.0997775655753],[-86.6769080351765,36.0996892318616],[-86.6769737246262,36.0995992716388],[-86.6770360857031,36.0995077636436],[-86.6770950624785,36.0994147902116],[-86.6771506023558,36.099320433659],[-86.6772026571813,36.0992247762775],[-86.6772511799436,36.0991279039567],[-86.6772961280737,36.0990299025615],[-86.6773374612323,36.0989308588449],[-86.6773747399512,36.0988318496022],[-86.6774084632309,36.0987320041038],[-86.6774386007045,36.0986314063419],[-86.6774932737097,36.0984563666941],[-86.679828977821,36.0986081618983],[-86.6798447625209,36.0984882020628],[-86.6803894138535,36.0985290838015],[-86.6804704383217,36.0985360702754],[-86.680551780308,36.0985399328765],[-86.6806332564861,36.0985406627248],[-86.6807146824885,36.0985382590582],[-86.6807958773334,36.098532727405],[-86.6808766578721,36.0985240796148],[-86.6809568432391,36.0985123347353],[-86.6810362526309,36.0984975190245],[-86.6811147075427,36.0984796677407],[-86.6811920328248,36.0984588188274],[-86.6812680534057,36.098435019241],[-86.6813425987256,36.098408324024],[-86.6815278115065,36.0983358529423],[-86.6830663039166,36.097749157611],[-86.6832903153723,36.0976621787552],[-86.6833918393797,36.0968726361335],[-86.6834653352026,36.0962876359627],[-86.6836604972159,36.0947371639483],[-86.6837265851004,36.0942357178011],[-86.6822751738363,36.0932879458116],[-86.6824177043667,36.0932727972099],[-86.6825596318133,36.093254283773],[-86.6827008341437,36.0932324215156],[-86.6828411904675,36.0932072300513],[-86.682980583226,36.0931787289759],[-86.6831188938048,36.0931469442002],[-86.6832560035901,36.0931119016357],[-86.6833917973469,36.0930736325829],[-86.683526159825,36.0930321665404],[-86.6836589769632,36.0929875420132],[-86.685251514991,36.0941028509055],[-86.6843440432212,36.0949177044962],[-86.6878982621939,36.0955481721935],[-86.6884004824439,36.0937622333877],[-86.6884103472018,36.0937228082838],[-86.6892834322718,36.0942810004252],[-86.6893762627032,36.0943328268702],[-86.6894671404111,36.0943868869639],[-86.6895559827804,36.0944431298101],[-86.6896427116534,36.0945015062898],[-86.6897272477292,36.0945619636855],[-86.6898231923264,36.0946334487038],[-86.6899162942781,36.0947073689432],[-86.6900064596581,36.0947836501413],[-86.6900935967203,36.0948622135173],[-86.690177618183,36.0949429829683],[-86.690258440024,36.0950258742613],[-86.6903359804643,36.0951108058545],[-86.6904101621264,36.0951976916743],[-86.6904809087264,36.095286443838],[-86.6905481809788,36.0953771427905],[-86.6906118700322,36.0954695313949],[-86.6906719117515,36.0955635144886],[-86.6907282453321,36.0956589968894],[-86.6907808155206,36.0957558833834],[-86.6908295681497,36.0958540760462],[-86.6908744534851,36.0959534760266],[-86.6909154273205,36.0960539817373]],[[-86.690700576675,36.1055051412007],[-86.6907783397003,36.1055113868951],[-86.6908028570646,36.1053613361641],[-86.6908053119874,36.1053463149393],[-86.6908077669014,36.1053312928131],[-86.6908080337072,36.105329661776],[-86.6908097673268,36.1053190528284],[-86.6908117677437,36.1053068119425],[-86.6908139379339,36.1052935318128],[-86.690822237936,36.1052427324601],[-86.6907479229988,36.1052403623652],[-86.6907462709889,36.1052403069353],[-86.6906488868099,36.1052362699585],[-86.6905746596196,36.1052324941635],[-86.6905007716177,36.1052281296496],[-86.6904994425623,36.1052280462302],[-86.6904493303896,36.1052247343381],[-86.6904397675375,36.1052240716694],[-86.6903898781085,36.1052204466357],[-86.6903143330752,36.1052144241311],[-86.6903142163694,36.1052144139838],[-86.690253688235,36.1052091436716],[-86.6902502796638,36.1052361059542],[-86.6902398605571,36.1053185116575],[-86.6902382601591,36.1053311675352],[-86.6902378673166,36.1053342719789],[-86.6902323830316,36.105369551407],[-86.6902322631135,36.1053703217838],[-86.690228853016,36.1053922540468],[-86.6902275981604,36.1054003249534],[-86.6902173489761,36.1054662498302],[-86.690700576675,36.1055051412007]]]},"properties":{"id":"104260","parcel":"12000015400","address":"1330 DONELSON PIKE","owner":"METROPOLITAN NASHVILLE AIRPORT AUTHORITY","point":[-86.68798103563296,36.103042466986615]}},{"type":"Feature","id":"108268","geometry":{"type":"Polygon","coordinates":[[[-86.6896956446148,36.1086976222969],[-86.689729076765,36.1084930451038],[-86.6902846540537,36.1085360200013],[-86.690248534687,36.1087428109463],[-86.6896956446148,36.1086976222969]]]},"properties":{"id":"108268","parcel":"12015000400","address":"305 KNIGHT VALLEY DR","owner":"METROPOLITAN NASHVILLE AIRPORT AUTHORITY","point":[-86.68998969114232,36.10861682032676]}},{"type":"Feature","id":"111418","geometry":{"type":"Polygon","coordinates":[[[-86.6896363910674,36.1090473912839],[-86.6896595247515,36.1089044130508],[-86.6902150857368,36.1089451856549],[-86.6901764683221,36.1091761630754],[-86.6897074726584,36.1091239015157],[-86.6896934671235,36.1091210028902],[-86.6896802595052,36.1091162358615],[-86.6896682275174,36.1091097370663],[-86.6896577104083,36.1091016902279],[-86.6896490089447,36.1090923243536],[-86.6896423709029,36.1090819057061],[-86.6896379821131,36.1090707297427],[-86.6896359708476,36.1090591147819],[-86.6896363910674,36.1090473912839]]]},"properties":{"id":"111418","parcel":"12015000200","address":"301 KNIGHT VALLEY DR","owner":"NELMS, NANCY B.","point":[-86.68992559871882,36.10899628845794]}},{"type":"Feature","id":"111420","geometry":{"type":"Polygon","coordinates":[[[-86.6896595247515,36.1089044130508],[-86.6896956446148,36.1086976222969],[-86.690248534687,36.1087428109463],[-86.6902459415292,36.108756008754],[-86.6902150857368,36.1089451856549],[-86.6896595247515,36.1089044130508]]]},"properties":{"id":"111420","parcel":"12015000300","address":"303 KNIGHT VALLEY DR","owner":"METROPOLITAN NASHVILLE AIRPORT AUTHORITY","point":[-86.68995316616446,36.10883021238284]}}]}