{"type":"FeatureCollection","features":[{"type":"Feature","id":"110970","geometry":{"type":"Polygon","coordinates":[[[-86.6598925100719,36.2861833870687],[-86.6603173622221,36.2858231382134],[-86.6603881164405,36.2857634174214],[-86.6607940284568,36.2854109631907],[-86.6608883311679,36.2853328472331],[-86.6609795393342,36.2852523580579],[-86.6610675634788,36.2851695781732],[-86.6611523141113,36.2850845882845],[-86.6611747727989,36.285062386207],[-86.6611953661862,36.285039028136],[-86.6612610655889,36.2849660043641],[-86.6613244204585,36.2848916352269],[-86.6614120154741,36.2847766078014],[-86.6614610947723,36.2847008873453],[-86.661507695366,36.2846241467205],[-86.6615517843115,36.2845464392826],[-86.6615933331253,36.2844678192641],[-86.6616396812325,36.28437260474],[-86.661682263889,36.2842762446144],[-86.6617210362825,36.2841788364694],[-86.6617559613928,36.2840804778442],[-86.6617870033365,36.2839812689751],[-86.6618141306979,36.2838813118763],[-86.6618373142656,36.2837807058456],[-86.6618811977745,36.2835917496772],[-86.6619461468954,36.2833249388645],[-86.6619639513897,36.2832593669506],[-86.6619849423903,36.2831944165543],[-86.6620090850994,36.283130187],[-86.6620363436291,36.2830667803215],[-86.6620682827307,36.2830009624412],[-86.6621033808293,36.2829362078231],[-86.6621549836279,36.282860439865],[-86.6622100550115,36.2827862904171],[-86.6622685179245,36.2827138635381],[-86.6623302908297,36.2826432597068],[-86.662395287739,36.2825745794261],[-86.6624634148281,36.2825079178342],[-86.6625345793875,36.2824433700634],[-86.6626086808717,36.2823810258815],[-86.6628257115605,36.2822056784939],[-86.6643409662147,36.280995016528],[-86.6644195155933,36.2809352504049],[-86.6688655083889,36.2844076084543],[-86.6719753746804,36.2817593253765],[-86.6710149238596,36.2809990284606],[-86.6725436467426,36.2797847233012],[-86.6731178700871,36.2802586194741],[-86.674421561357,36.2813193711771],[-86.6757243990192,36.2823952216951],[-86.675741221879,36.282418476765],[-86.6757458266764,36.2824265449855],[-86.6757489193113,36.2824350722754],[-86.6757504336573,36.2824438751533],[-86.6757503358054,36.2824527627474],[-86.6757480916907,36.2824681584189],[-86.6757357734999,36.2824857409198],[-86.6757202165846,36.2825015525794],[-86.6750959106325,36.2829945485489],[-86.6735936231035,36.2841808253364],[-86.6735040402762,36.2842473775368],[-86.6734119544796,36.2843116499792],[-86.6733174542582,36.2843735826836],[-86.673220628142,36.2844331138678],[-86.6731215702891,36.284490188928],[-86.6730203759637,36.2845447523535],[-86.6729171426727,36.2845967504236],[-86.6728119690829,36.2846461348187],[-86.6727049549673,36.2846928563124],[-86.6725962057189,36.2847368719556],[-86.6724858245057,36.2847781388119],[-86.6717767895752,36.285028209232],[-86.671544957594,36.2851063246104],[-86.6713143053121,36.28518669688],[-86.671084866,36.2852693132454],[-86.6708566729514,36.285354163615],[-86.6707085780481,36.2854176497842],[-86.6705619012306,36.2854832575109],[-86.6704499120964,36.285535235323],[-86.6703399093662,36.2855899219284],[-86.6702319928093,36.2856472690137],[-86.6701262610452,36.2857072237664],[-86.670022809347,36.2857697324913],[-86.6699361808118,36.2858255184397],[-86.6698513943004,36.2858831290223],[-86.6697685062374,36.2859425233749],[-86.6696875764027,36.2860036624173],[-86.6696086589653,36.286066501693],[-86.6665309227409,36.2885359938885],[-86.6651464259327,36.2896467937795],[-86.6650770687582,36.2896992024342],[-86.6650052437131,36.2897493859704],[-86.6649310592549,36.2897972680839],[-86.6648546294304,36.2898427751439],[-86.664776069454,36.2898858398215],[-86.6646954978875,36.2899263956712],[-86.6646130366715,36.289964380735],[-86.6645288111319,36.2899997384441],[-86.6644429488446,36.2900324149212],[-86.6643555807638,36.2900623607769],[-86.6623079475728,36.2870739250127],[-86.6598925100719,36.2861833870687]]]},"properties":{"id":"110970","parcel":"03500001000","address":"771 BURNETT RD","owner":"INDUSTRIAL LAND DEVELOPERS, LLC","point":[-86.66663345205652,36.284943827775024]}},{"type":"Feature","id":"110971","geometry":{"type":"Polygon","coordinates":[[[-86.6666382999853,36.2791923071929],[-86.6676762384015,36.2783609854298],[-86.6688475342809,36.2792858143164],[-86.6701008635957,36.280275382935],[-86.6710149238596,36.2809990284606],[-86.6719753746804,36.2817593253765],[-86.6688655083889,36.2844076084543],[-86.6644195155933,36.2809352504049],[-86.665252548577,36.280302163982],[-86.6666382999853,36.2791923071929]]]},"properties":{"id":"110971","parcel":"03500001100","address":"631 BURNETT RD","owner":"CAR ABC TN L.L.C.","point":[-86.66822991686065,36.28137016366906]}}]}