{"type":"FeatureCollection","features":[{"type":"Feature","id":"268574","geometry":{"type":"Polygon","coordinates":[[[-86.6045935970888,36.1805771071502],[-86.6046898277846,36.1800879291456],[-86.6052527921679,36.1801960874005],[-86.6050939040632,36.1806886018443],[-86.6045935970888,36.1805771071502]]]},"properties":{"id":"268574","parcel":"08600033600","address":"5570 OLD HICKORY BLVD","owner":"REGENCY CENTERS, L.P.","point":[-86.60491115562375,36.18038655800419]}},{"type":"Feature","id":"270554","geometry":{"type":"Polygon","coordinates":[[[-86.6031774858692,36.1823494308613],[-86.602916956656,36.1823111744878],[-86.6026455844353,36.1822729725838],[-86.6023497834381,36.1822304965501],[-86.6020763018512,36.1822714177248],[-86.6019926205891,36.1823179855288],[-86.6012558022835,36.1820293738403],[-86.6011688904719,36.1816496182935],[-86.6014117026582,36.1814967729587],[-86.6036635782795,36.1813932332458],[-86.6037358755868,36.1823444414361],[-86.6036706509783,36.1823227941506],[-86.6034213659953,36.1823372239928],[-86.6031774858692,36.1823494308613]]]},"properties":{"id":"270554","parcel":"08600027000","address":"0 OLD LEBANON DIRT RD","owner":"UNIVERSAL BUILDERS, LLC","point":[-86.60245523502172,36.18184362984535]}},{"type":"Feature","id":"270578","geometry":{"type":"Polygon","coordinates":[[[-86.6072621179688,36.179209769291],[-86.6073068241957,36.1783360673432],[-86.6062542473029,36.1781653233325],[-86.6060990065324,36.1779944931742],[-86.6108338249801,36.1785172886151],[-86.6108020630443,36.1787047940783],[-86.6107683989198,36.1789093437637],[-86.6107346974545,36.1791094981971],[-86.6107010690314,36.1793184421766],[-86.6106800348321,36.1794471071558],[-86.609584534482,36.1793548525784],[-86.6094005370604,36.18045679097],[-86.6091276617856,36.1809284588624],[-86.6096767669883,36.1813921301015],[-86.6096761026739,36.1813937845541],[-86.6098940715001,36.1815377259628],[-86.6101474498989,36.181703465093],[-86.6102799307362,36.1817904261634],[-86.6095556950916,36.1826580245258],[-86.6086444691329,36.1822538647799],[-86.6088040771781,36.1818574879193],[-86.6088493126058,36.1817473789012],[-86.6080163749521,36.1812988671545],[-86.6081282489106,36.179979729985],[-86.6081877623358,36.1792564113939],[-86.6072621179688,36.179209769291]]]},"properties":{"id":"270578","parcel":"08600007900","address":"5503 FRIST BLVD","owner":"HAYES, CEDRIC ET AL","point":[-86.60877409969997,36.18021829388791]}},{"type":"Feature","id":"270599","geometry":{"type":"Polygon","coordinates":[[[-86.6061918883104,36.1833661148584],[-86.6052409144925,36.1828588400731],[-86.6049121473559,36.1825374398962],[-86.6044104862204,36.1825611032077],[-86.6041570738521,36.1824785866606],[-86.6040184922699,36.1824353277912],[-86.6043860051194,36.1805039770571],[-86.6045371285329,36.179703285209],[-86.604682740763,36.1785356180491],[-86.6048033121442,36.1787062920364],[-86.604996785977,36.1789801627969],[-86.6050362347512,36.1790360041818],[-86.6046914612105,36.1800799538769],[-86.6046898277846,36.1800879291456],[-86.6045935970888,36.1805771071502],[-86.6050939040632,36.1806886018443],[-86.6052527921679,36.1801960874005],[-86.6054493375883,36.1796209731166],[-86.6064091513568,36.1809795051301],[-86.606488450121,36.1810904999536],[-86.606571374295,36.1811997406913],[-86.6066578643571,36.1813071474234],[-86.6067478574906,36.181412645654],[-86.6068412930943,36.1815161599748],[-86.6069381005743,36.1816176168303],[-86.6070382137825,36.181716942642],[-86.6071271676093,36.1818008310379],[-86.6072184546006,36.1818830556332],[-86.6072957943938,36.1820171498856],[-86.6073696978352,36.1821525114129],[-86.6074401322376,36.1822890836068],[-86.607507066004,36.1824268071493],[-86.6075704731087,36.1825656244967],[-86.6076303230512,36.1827054745227],[-86.6076865942444,36.1828462987596],[-86.6077392595214,36.1829880360637],[-86.6077763596509,36.1830940692336],[-86.6078103922255,36.1832007766504],[-86.6078413356627,36.1833080998438],[-86.606957793771,36.1833779240082],[-86.6067517355255,36.1833292394842],[-86.6065808900034,36.1834097616292],[-86.6061918883104,36.1833661148584]],[[-86.6071382605664,36.1820306995208],[-86.6069797783871,36.1818666742722],[-86.6065204382013,36.182062373996],[-86.6069033829783,36.1825109618096],[-86.6073249931768,36.1823440202236],[-86.6071382605664,36.1820306995208]]]},"properties":{"id":"270599","parcel":"08600008900","address":"5502 OLD HICKORY BLVD","owner":"NORTHLAKE VILLAGE SHOPPING CENTER, LLC","point":[-86.60531588680016,36.18083261985824]}},{"type":"Feature","id":"270733","geometry":{"type":"Polygon","coordinates":[[[-86.599511086246,36.182636370442],[-86.5994326142648,36.1823793027042],[-86.5995145327437,36.1823980520533],[-86.5996597546078,36.1820233304705],[-86.599662661162,36.1820189891151],[-86.599952640248,36.1821785139884],[-86.6002653813472,36.1819002474989],[-86.6005268260984,36.1820593739322],[-86.6011688904719,36.1816496182935],[-86.6012558022835,36.1820293738403],[-86.6019926205891,36.1823179855288],[-86.6018954345873,36.1823712132758],[-86.6017064516108,36.1824732453564],[-86.6015485685376,36.1827443396932],[-86.6014268881412,36.1827845028675],[-86.6011160041432,36.1828981302264],[-86.6009078405159,36.1829738858675],[-86.6006831496686,36.1830145609897],[-86.6005105273651,36.183129695992],[-86.6003352264126,36.1832492394734],[-86.6001680081808,36.1833621498447],[-86.5999570523693,36.1834269287291],[-86.5997694840451,36.183483806929],[-86.5996379415372,36.1830525195261],[-86.5995516878569,36.1827697165045],[-86.599511086246,36.182636370442]]]},"properties":{"id":"270733","parcel":"08600009300","address":"1704 ROBARDS WAY","owner":"UNIVERSAL BUILDERS, LLC","point":[-86.60057097876285,36.1825546868544]}},{"type":"Feature","id":"272105","geometry":{"type":"Polygon","coordinates":[[[-86.6000078229695,36.1808233708817],[-86.6000267796486,36.1807939778031],[-86.6000430080293,36.1807635311982],[-86.6000564204225,36.1807321955321],[-86.6000669425407,36.1807001433144],[-86.6005037240142,36.1807846476443],[-86.6003690075127,36.1809806040611],[-86.6000078229695,36.1808233708817]]]},"properties":{"id":"272105","parcel":"08611001600","address":"721 MARGARET ROBERTSON DR","owner":"MDHA","point":[-86.60030546636428,36.18090237845967]}},{"type":"Feature","id":"272106","geometry":{"type":"Polygon","coordinates":[[[-86.6000880499051,36.1805616373603],[-86.6000860342105,36.1805282460144],[-86.6000811862671,36.1804950462942],[-86.6000735306159,36.1804621957966],[-86.6000631017889,36.1804298502666],[-86.6000576072563,36.1804122842032],[-86.6004503438524,36.1803364853348],[-86.6005109263815,36.1805626726705],[-86.6000880499051,36.1805616373603]]]},"properties":{"id":"272106","parcel":"08611001800","address":"713 MARGARET ROBERTSON DR","owner":"MDHA","point":[-86.60027418352153,36.18044671058174]}},{"type":"Feature","id":"273029","geometry":{"type":"Polygon","coordinates":[[[-86.6015485685376,36.1827443396932],[-86.6017064516108,36.1824732453564],[-86.6019840024895,36.1829685243382],[-86.6018001554092,36.183033171281],[-86.6017862352577,36.1830363662187],[-86.6017718653186,36.1830377167288],[-86.601757413328,36.1830371903358],[-86.6017432506783,36.1830347969046],[-86.6017297425088,36.1830306013081],[-86.601717234256,36.1830247090737],[-86.6017060472541,36.1830172727146],[-86.6016964697669,36.18300848186],[-86.6016887492194,36.1829985650968],[-86.6015485685376,36.1827443396932]]]},"properties":{"id":"273029","parcel":"08607015500","address":"1445 MARKET SQ","owner":"HEAD, RYAN LEVI & VARGAS, ADRIA FONSECA","point":[-86.60176578288667,36.18285643054182]}},{"type":"Feature","id":"273032","geometry":{"type":"Polygon","coordinates":[[[-86.6019926205891,36.1823179855288],[-86.6020763018512,36.1822714177248],[-86.6023868170274,36.1828236690673],[-86.6021894681351,36.1828949775499],[-86.6018954345873,36.1823712132758],[-86.6019926205891,36.1823179855288]]]},"properties":{"id":"273032","parcel":"08607015700","address":"1437 MARKET SQ","owner":"PHILLIPS, VICKIE L. & STEPHANIE N.","point":[-86.60214102510692,36.18259744109122]}},{"type":"Feature","id":"273036","geometry":{"type":"Polygon","coordinates":[[[-86.6023497834381,36.1822304965501],[-86.6026455844353,36.1822729725838],[-86.6027871346509,36.1827073946394],[-86.6026865777127,36.1827308813645],[-86.6025869103361,36.1827567419728],[-86.6023497834381,36.1822304965501]]]},"properties":{"id":"273036","parcel":"08607015900","address":"1429 MARKET SQ","owner":"LAGUEUX, MARTHE-SOPHIE TRUST & ET AL","point":[-86.60259139192813,36.18248976885475]}},{"type":"Feature","id":"273039","geometry":{"type":"Polygon","coordinates":[[[-86.602916956656,36.1823111744878],[-86.6031774858692,36.1823494308613],[-86.6032042039216,36.1826547664085],[-86.6030983790001,36.1826627872539],[-86.6029929017358,36.182673402781],[-86.602916956656,36.1823111744878]]]},"properties":{"id":"273039","parcel":"08607016100","address":"1421 MARKET SQ","owner":"DAVIDSON, ANDREW & COLLINS, KATHERINE","point":[-86.60307383403511,36.182501710733334]}},{"type":"Feature","id":"273613","geometry":{"type":"Polygon","coordinates":[[[-86.603912504258,36.1824006965432],[-86.6037358755868,36.1823444414361],[-86.6036635782795,36.1813932332458],[-86.6036606172496,36.1813602837948],[-86.6036471695205,36.181271078248],[-86.6036298297864,36.1811823148469],[-86.6036086189338,36.1810941070435],[-86.603583563366,36.1810065628543],[-86.6035546961901,36.1809197947682],[-86.6035220515899,36.1808339107623],[-86.6034856726351,36.1807490178673],[-86.6034456035271,36.1806652258123],[-86.603401896193,36.1805826370768],[-86.6033546036848,36.1805013559375],[-86.6033037879398,36.1804214857249],[-86.6032975863542,36.180411321733],[-86.6032935539583,36.1804004637496],[-86.6032918019884,36.1803892131391],[-86.6032923784058,36.1803778832983],[-86.6032952678078,36.1803667879405],[-86.6033003902822,36.1803562365951],[-86.603307602416,36.1803465210835],[-86.6033167061544,36.1803379109688],[-86.6033724231514,36.1802986226178],[-86.6034254439346,36.1802569539871],[-86.6034756137986,36.1802130275229],[-86.6035227869597,36.1801669692319],[-86.603566826604,36.1801189149896],[-86.6036076026088,36.1800690033419],[-86.6036449971426,36.1800173808845],[-86.6036789013022,36.1799641986745],[-86.6037092162108,36.1799096104224],[-86.6043860051194,36.1805039770571],[-86.6040184922699,36.1824353277912],[-86.603912504258,36.1824006965432]]]},"properties":{"id":"273613","parcel":"08600019100","address":"0 OLD HICKORY BLVD","owner":"VALLEY STATION TOWNE CENTER, LLC","point":[-86.60394206898236,36.18113927944768]}},{"type":"Feature","id":"274704","geometry":{"type":"Polygon","coordinates":[[[-86.6000053402694,36.1802300283834],[-86.6004034975908,36.1801542144328],[-86.6004503438524,36.1803364853348],[-86.6000576072563,36.1804122842032],[-86.6000053402694,36.1802300283834]]]},"properties":{"id":"274704","parcel":"08611001900","address":"709 MARGARET ROBERTSON DR","owner":"MDHA","point":[-86.60022862454086,36.180283259678596]}},{"type":"Feature","id":"274851","geometry":{"type":"Polygon","coordinates":[[[-86.5998945984245,36.180973116307],[-86.5999916563916,36.1808475868073],[-86.6000078229695,36.1808233708817],[-86.6003690075127,36.1809806040611],[-86.6002558475713,36.1811457348005],[-86.5998945984245,36.180973116307]]]},"properties":{"id":"274851","parcel":"08611001500","address":"725 MARGARET ROBERTSON DR","owner":"MDHA","point":[-86.6001969354232,36.18106278380537]}},{"type":"Feature","id":"274854","geometry":{"type":"Polygon","coordinates":[[[-86.6000669425407,36.1807001433144],[-86.6000765519386,36.1806660317614],[-86.6000832919886,36.1806314712264],[-86.6000871305378,36.1805966195889],[-86.6000880499051,36.1805616373603],[-86.6005109263815,36.1805626726705],[-86.6005495206157,36.1807163967965],[-86.6005037240142,36.1807846476443],[-86.6000669425407,36.1807001433144]]]},"properties":{"id":"274854","parcel":"08611001700","address":"717 MARGARET ROBERTSON DR","owner":"MDHA","point":[-86.6003066494753,36.18068387202488]}},{"type":"Feature","id":"274857","geometry":{"type":"Polygon","coordinates":[[[-86.5999558047492,36.1800521588795],[-86.6003593816858,36.1799763307488],[-86.6004034975908,36.1801542144328],[-86.6000053402694,36.1802300283834],[-86.5999558047492,36.1800521588795]]]},"properties":{"id":"274857","parcel":"08611002000","address":"705 MARGARET ROBERTSON DR","owner":"MDHA","point":[-86.60018041900669,36.18010318942955]}},{"type":"Feature","id":"274914","geometry":{"type":"Polygon","coordinates":[[[-86.6005105273651,36.183129695992],[-86.6006831496686,36.1830145609897],[-86.600924471183,36.1833803628951],[-86.6007326256138,36.1834626296553],[-86.6005105273651,36.183129695992]]]},"properties":{"id":"274914","parcel":"08607015100","address":"1513 MARKET SQ","owner":"WHITE, AARON E.","point":[-86.60071796162613,36.18325503116492]}},{"type":"Feature","id":"274917","geometry":{"type":"Polygon","coordinates":[[[-86.6006831496686,36.1830145609897],[-86.6009078405159,36.1829738858675],[-86.6011217258503,36.183295870736],[-86.600924471183,36.1833803628951],[-86.6006831496686,36.1830145609897]]]},"properties":{"id":"274917","parcel":"08607015200","address":"1509 MARKET SQ","owner":"GILMORE, FAYE","point":[-86.60090211671726,36.183155214993924]}},{"type":"Feature","id":"274921","geometry":{"type":"Polygon","coordinates":[[[-86.6009078405159,36.1829738858675],[-86.6011160041432,36.1828981302264],[-86.6013081677774,36.1832158257178],[-86.6012447834114,36.1832405852026],[-86.6011826065563,36.1832672799398],[-86.6011217258503,36.183295870736],[-86.6009078405159,36.1829738858675]]]},"properties":{"id":"274921","parcel":"08607015300","address":"1505 MARKET SQ","owner":"MANGRUM, TERESA","point":[-86.60111159239068,36.18309486791646]}},{"type":"Feature","id":"275038","geometry":{"type":"Polygon","coordinates":[[[-86.6020763018512,36.1822714177248],[-86.6023497834381,36.1822304965501],[-86.6025869103361,36.1827567419728],[-86.602519231997,36.1827770903019],[-86.6024525046593,36.1827994093942],[-86.6023868170274,36.1828236690673],[-86.6020763018512,36.1822714177248]]]},"properties":{"id":"275038","parcel":"08607015800","address":"1433 MARKET SQ","owner":"LANTZ, DAVID A. & TAMBRALYN L.","point":[-86.60234515293493,36.18251412512281]}},{"type":"Feature","id":"275081","geometry":{"type":"Polygon","coordinates":[[[-86.6026455844353,36.1822729725838],[-86.602916956656,36.1823111744878],[-86.6029929017358,36.182673402781],[-86.6028896278546,36.1826888433377],[-86.6027871346509,36.1827073946394],[-86.6026455844353,36.1822729725838]]]},"properties":{"id":"275081","parcel":"08607016000","address":"1425 MARKET SQ","owner":"SAMUEL, PATRICK PARIDEE & DOEPEL, ERIK","point":[-86.60283585845845,36.18249189367436]}},{"type":"Feature","id":"275084","geometry":{"type":"Polygon","coordinates":[[[-86.6031774858692,36.1823494308613],[-86.6034213659953,36.1823372239928],[-86.6034156241154,36.1826515125706],[-86.6033098877497,36.1826520239154],[-86.6032042039216,36.1826547664085],[-86.6031774858692,36.1823494308613]]]},"properties":{"id":"275084","parcel":"08607016200","address":"1417 MARKET SQ","owner":"SFR JV-2 2024-2 BORROWER LLC","point":[-86.60330452399333,36.18250049818334]}},{"type":"Feature","id":"275633","geometry":{"type":"Polygon","coordinates":[[[-86.6017064516108,36.1824732453564],[-86.6018954345873,36.1823712132758],[-86.6021894681351,36.1828949775499],[-86.6019840024895,36.1829685243382],[-86.6017064516108,36.1824732453564]]]},"properties":{"id":"275633","parcel":"08607015600","address":"1441 MARKET SQ","owner":"HALL, WILLIAM ODELL","point":[-86.601947854871,36.182684111349445]}},{"type":"Feature","id":"275818","geometry":{"type":"Polygon","coordinates":[[[-86.5997813734862,36.1811228661261],[-86.5998945984245,36.180973116307],[-86.6002558475713,36.1811457348005],[-86.6001480701205,36.1813020604556],[-86.5997813734862,36.1811228661261]]]},"properties":{"id":"275818","parcel":"08611001400","address":"729 MARGARET ROBERTSON DR","owner":"MDHA","point":[-86.60001836017538,36.18113429986183]}},{"type":"Feature","id":"275940","geometry":{"type":"Polygon","coordinates":[[[-86.6011160041432,36.1828981302264],[-86.6014268881412,36.1827845028675],[-86.601567098495,36.1830431236722],[-86.6015712195299,36.1830542489354],[-86.6015731133823,36.1830657620207],[-86.6015727356207,36.1830773747485],[-86.6015700928961,36.1830887914746],[-86.6015652519455,36.1830997234652],[-86.6015583374365,36.1831098979205],[-86.6015495208236,36.1831190544247],[-86.6015390271617,36.1831269638389],[-86.6015271206335,36.1831334256696],[-86.601417061787,36.1831736084267],[-86.6013081677774,36.1832158257178],[-86.6011160041432,36.1828981302264]]]},"properties":{"id":"275940","parcel":"08607015400","address":"1501 MARKET SQ","owner":"MEYER, SAMUEL DAVID & KEATHLEY, EMMA NICOLE","point":[-86.60134380982443,36.182970634682604]}}]}