{"type":"FeatureCollection","features":[{"type":"Feature","id":"39059","geometry":{"type":"Polygon","coordinates":[[[-86.7621511301178,36.3837259687626],[-86.7616037610007,36.3827995923139],[-86.7607901495964,36.3824113550649],[-86.759702667268,36.3824047254624],[-86.7594663609162,36.382029335601],[-86.7592406623714,36.3814138002397],[-86.7590221420051,36.3812275580558],[-86.759528698846,36.3806313260046],[-86.7596475247715,36.3803798151548],[-86.759847985771,36.3799555101579],[-86.7599317911073,36.3796618899111],[-86.7607906065899,36.3785720217731],[-86.7610781713388,36.3786259752211],[-86.7610842881006,36.3786264864936],[-86.7633391702555,36.3790468435744],[-86.7637804005746,36.3796412349081],[-86.7642997806521,36.3797445376909],[-86.7643882777641,36.3797626554677],[-86.7656771888452,36.3792798444019],[-86.7662461707937,36.3792432807525],[-86.7664763738854,36.380003262662],[-86.7663526324587,36.3808358070316],[-86.7664596551579,36.3817844535468],[-86.7662905550723,36.3828447254166],[-86.7660392730074,36.3831363873275],[-86.7651843474651,36.3833967048897],[-86.7647196429136,36.3832941635095],[-86.7646870774496,36.3832287189017],[-86.7643597781346,36.3832835241643],[-86.7633003173265,36.3835061182705],[-86.7621511301178,36.3837259687626]]]},"properties":{"id":"39059","parcel":"00600008800","address":"0 BAKER STATION RD","owner":"LAMON ENTERPRISES LLC","point":[-86.76278500232216,36.381031932671924]}},{"type":"Feature","id":"39683","geometry":{"type":"Polygon","coordinates":[[[-86.7664132459492,36.3918647241783],[-86.7650631446459,36.3912403827768],[-86.7649559584064,36.3911925257185],[-86.7648010862634,36.3911233733554],[-86.764011176661,36.3903311894955],[-86.7629073528603,36.3892240428737],[-86.7633417395861,36.3892092181667],[-86.7660436413739,36.3893429523235],[-86.7661308757461,36.3889136112554],[-86.7665525544087,36.3888848461772],[-86.7665733681734,36.3888240081404],[-86.7670943860534,36.3873022294158],[-86.7667827231294,36.3861672672973],[-86.7668623852827,36.3859038855984],[-86.7668613666102,36.3859038920524],[-86.766987187248,36.3854608457932],[-86.7662905550723,36.3828447254166],[-86.7664596551579,36.3817844535468],[-86.7663526324587,36.3808358070316],[-86.7664763738854,36.380003262662],[-86.7662461707937,36.3792432807525],[-86.7656771888452,36.3792798444019],[-86.7664651473585,36.378844144139],[-86.7666016535387,36.3787685638236],[-86.7666677696023,36.3789017918009],[-86.7667301958944,36.3790361795392],[-86.7667888983026,36.3791716587681],[-86.7668438494264,36.3793081638779],[-86.7668950218385,36.3794456265554],[-86.7669423903312,36.3795839775717],[-86.7669859296959,36.3797231476977],[-86.7674424934633,36.3813332307606],[-86.7675796541319,36.3818169106942],[-86.7676254330693,36.3819932285699],[-86.7676747859916,36.3821689163351],[-86.7677277012872,36.3823439235919],[-86.7677841640529,36.3825182053698],[-86.7678441593504,36.3826917130935],[-86.7679076700379,36.3828644009054],[-86.7679746800789,36.3830362220387],[-86.7679432528975,36.3831023512005],[-86.7679155945164,36.3831695712364],[-86.7678917626652,36.3832377429964],[-86.7678718061316,36.3833067246835],[-86.7678557680881,36.3833763700297],[-86.7678436817034,36.3834465355341],[-86.7678355700899,36.3835170750553],[-86.7678314529908,36.3835878397695],[-86.7678313379073,36.3836586827325],[-86.7678352245306,36.3837294561481],[-86.767843105865,36.383800012262],[-86.7678549648841,36.3838702033834],[-86.7678707767774,36.3839398836727],[-86.7678905089237,36.3840089064384],[-86.7679141198207,36.3840771286498],[-86.7679427037444,36.384145904187],[-86.7679752909952,36.384213506175],[-86.768011807644,36.384279780973],[-86.7680521720291,36.3843445821988],[-86.7680962924313,36.3844077608302],[-86.768144069416,36.3844691769054],[-86.7681953968608,36.3845286905056],[-86.7682501575668,36.3845861689911],[-86.768308228779,36.3846414815604],[-86.7683694800095,36.3846945046703],[-86.7684337730028,36.3847451184319],[-86.7685009639993,36.3847932102011],[-86.7685708992253,36.3848386691996],[-86.7686434250106,36.3848813954633],[-86.7687183743276,36.3849212909156],[-86.7687955802433,36.3849582673926],[-86.7688748680573,36.3849922403852],[-86.7689560609264,36.38502313441],[-86.7690437712049,36.3850560200968],[-86.7691295013638,36.385092159049],[-86.76921306564,36.3851314740461],[-86.7692942860008,36.3851738806093],[-86.769372985457,36.3852192870438],[-86.7694489969868,36.3852675952832],[-86.7695209670953,36.3853179622955],[-86.7695899991065,36.3853709497352],[-86.7696559492503,36.3854264440678],[-86.7697186759668,36.3854843299427],[-86.7697780487699,36.385544484729],[-86.7698339427006,36.3856067812545],[-86.7698862372043,36.3856710869121],[-86.7699348239672,36.3857372672138],[-86.7699796001942,36.3858051822294],[-86.7700204697413,36.3858746883813],[-86.7700573487051,36.3859456402112],[-86.7700901575697,36.3860178850233],[-86.7701188279981,36.3860912736549],[-86.7701432982609,36.3861656487899],[-86.7701635177906,36.3862408548436],[-86.7701794437771,36.3863167316754],[-86.7701910423345,36.3863931199884],[-86.7701999181999,36.3864641517189],[-86.7702132602677,36.3865347242497],[-86.7702310355707,36.386604655745],[-86.7702531955207,36.3866737626659],[-86.7702796860083,36.3867418669152],[-86.7703104362057,36.3868087905016],[-86.7703396658553,36.3868641216026],[-86.7703718165261,36.3869183814936],[-86.7704068293108,36.3869714723155],[-86.7704446397023,36.3870232935411],[-86.7704851765494,36.3870737491917],[-86.7705283642687,36.38712274602],[-86.770573719252,36.3871904417194],[-86.7706152410505,36.3872597272037],[-86.7706528446618,36.3873304588244],[-86.7706864540164,36.3874024946787],[-86.7707159985373,36.3874756847173],[-86.7707414188103,36.3875498806221],[-86.7707626642924,36.3876249295121],[-86.770779688907,36.3877006793784],[-86.7707924588021,36.3877769745295],[-86.770800947918,36.3878536583224],[-86.7708051391026,36.3879305731556],[-86.7708050230315,36.3880075640812],[-86.7708006014735,36.3880844706728],[-86.7707918818224,36.388161137875],[-86.770778882583,36.3882374069564],[-86.770761630097,36.3883131227402],[-86.7707401596233,36.3883881299923],[-86.7707145164784,36.3884622761177],[-86.7706847504378,36.3885354084927],[-86.7706509246787,36.3886073771117],[-86.7706131079871,36.3886780355377],[-86.7705713769693,36.3887472390861],[-86.7705258171665,36.3888148448175],[-86.770484166278,36.3888819903648],[-86.770446094435,36.3889505126901],[-86.7704116728632,36.3890202851746],[-86.7703809638726,36.3890911812556],[-86.7703540241747,36.3891630717023],[-86.7703309015565,36.3892358264392],[-86.7703116381975,36.3893093118214],[-86.770296269608,36.3893833960486],[-86.7702848245497,36.3894579410544],[-86.7702773218063,36.3895328142429],[-86.7702441370873,36.3895397231868],[-86.7702121557083,36.3895496759526],[-86.7701818032491,36.3895625364545],[-86.7696971062667,36.3896793428813],[-86.7696517476011,36.3896971687939],[-86.7696083718377,36.3897179713862],[-86.7695672763033,36.3897416072803],[-86.7695287436522,36.3897679142668],[-86.7694930396461,36.3897967122193],[-86.7694594568448,36.3898286112487],[-86.7694293653119,36.3898627113538],[-86.7694029833346,36.3898987642189],[-86.7692125597264,36.390301021541],[-86.7692107961885,36.3903293261423],[-86.7692144684393,36.3903575925952],[-86.7692239111852,36.3903852789494],[-86.7692384299819,36.3904110071653],[-86.7692580244253,36.3904345059802],[-86.7692823481109,36.3904552278571],[-86.7693100370157,36.390472631726],[-86.7693410858024,36.3904861687837],[-86.7693744752934,36.3904955706374],[-86.7694088325512,36.3905002971771],[-86.7694441691418,36.3905006213941],[-86.7694722844927,36.3904945893313],[-86.7694997511569,36.390486842784],[-86.7695357284184,36.3904733879525],[-86.7695696499395,36.3904568072761],[-86.7696011019143,36.390437302554],[-86.7696297009739,36.3904151105395],[-86.7696550975388,36.3903905038194],[-86.7697010431577,36.3903598698303],[-86.7697495699813,36.3903319554734],[-86.7698004297393,36.3903069056166],[-86.7698533650444,36.3902848444582],[-86.7699081083823,36.3902658863479],[-86.7699643808925,36.3902501249804],[-86.7700218991344,36.3902376414629],[-86.770266329713,36.390218506431],[-86.7702717869242,36.3902206697482],[-86.7702762349783,36.3902239371572],[-86.7702793297089,36.3902277629144],[-86.7702814137126,36.3902324170043],[-86.7702814618656,36.3902373634238],[-86.7702801519936,36.3902420418146],[-86.7702774714072,36.3902461791917],[-86.7702734290227,36.3902497754983],[-86.7702683572248,36.3902522806851],[-86.770262594829,36.3902536907936],[-86.7701186908041,36.3902688896665],[-86.770027996768,36.3903057276206],[-86.7698547626777,36.3903793451537],[-86.7697373724491,36.3904657973969],[-86.7696324248867,36.3905741400333],[-86.769573583918,36.3906723032083],[-86.7695425456883,36.3906944755668],[-86.7694951836366,36.3907156531188],[-86.7692709427859,36.3908544223565],[-86.7689061159304,36.3910709977705],[-86.7688824906914,36.3910906166097],[-86.7688617475878,36.3911122619755],[-86.7687050761003,36.3912579755006],[-86.7687025452424,36.3912805199377],[-86.7687032521975,36.3913031492542],[-86.7687071840041,36.3913255616279],[-86.7687142909362,36.3913474572727],[-86.7687260534674,36.3913712654511],[-86.7687415639334,36.3913936250183],[-86.7687605555788,36.3914141555553],[-86.7687827028187,36.3914325022505],[-86.7688076258543,36.3914483520921],[-86.7688348973432,36.3914614320235],[-86.7688640491744,36.3914715179125],[-86.7688945825263,36.3914784371909],[-86.7689259712282,36.391482070636],[-86.7689576785146,36.3914823558688],[-86.7689891592721,36.3914792891425],[-86.7690198744948,36.3914729216455],[-86.7690526665231,36.391469898842],[-86.7695268036708,36.3914261915605],[-86.7700300646417,36.3913781633166],[-86.7700566867653,36.3913764997578],[-86.7700833826658,36.3913769193137],[-86.7701099037462,36.39137941906],[-86.7701360034281,36.3913839744306],[-86.7701665657327,36.3914229473266],[-86.7701935619205,36.3914636047302],[-86.7702168516986,36.3915057339506],[-86.7702363125362,36.3915491149737],[-86.7702518418944,36.3915935204485],[-86.7702633605788,36.3916387165665],[-86.7702708049902,36.3916844685188],[-86.7702741393323,36.3917305350103],[-86.7702571607669,36.3917637533837],[-86.7702361442916,36.3917954266449],[-86.770211301916,36.3918252344155],[-86.7700147291797,36.3920594595479],[-86.7699864482407,36.39209698094],[-86.7699619928524,36.3921362209247],[-86.7699415221646,36.3921769243517],[-86.7699251684896,36.3922188272291],[-86.7699130384256,36.3922616576176],[-86.7699052095479,36.3923051392556],[-86.7699018475869,36.392345568934],[-86.7699022061797,36.3923860875987],[-86.7699062809457,36.3924264735808],[-86.7699140529967,36.3924665035009],[-86.7699254778346,36.392505956846],[-86.7699317897636,36.3925411854114],[-86.7699338612878,36.3925767419503],[-86.76993167357,36.3926122949389],[-86.7699252467583,36.3926475099012],[-86.7699146423029,36.3926820584065],[-86.7698999573663,36.3927156163027],[-86.7698813315809,36.3927478708826],[-86.7698589381065,36.3927785182382],[-86.7698329859644,36.392807274059],[-86.7698037188617,36.3928338673324],[-86.7697714108297,36.392858050284],[-86.7697363628532,36.3928795956961],[-86.7696989051527,36.3928983022999],[-86.7696593860471,36.3929139957483],[-86.7696181764112,36.392926528587],[-86.7695756619005,36.3929357830082],[-86.769532239633,36.392941673575],[-86.7694883181536,36.3929441436171],[-86.7689903324716,36.3929682846825],[-86.7688260931042,36.3929112785436],[-86.7687797360269,36.3928988344159],[-86.7687345895641,36.3928837564676],[-86.7686908852076,36.3928661216348],[-86.7686488411865,36.392846018654],[-86.7686003723265,36.3928240999684],[-86.7685503101922,36.3928046633881],[-86.7684988483356,36.3927877824821],[-86.7684461869431,36.392773525371],[-86.7683925305014,36.3927619439262],[-86.7681417016142,36.3926481661619],[-86.76660502984,36.3919516846726],[-86.7664132459492,36.3918647241783]]]},"properties":{"id":"39683","parcel":"00200009100","address":"1339 PLEMEL LN","owner":"LITTLE MOUNTAIN REVOCABLE LIVING TRUST","point":[-86.76844064072452,36.38583692258276]}}]}