{"type":"FeatureCollection","features":[{"type":"Feature","id":"70538","geometry":{"type":"Polygon","coordinates":[[[-86.7804619865911,36.2638588198261],[-86.7804777340254,36.2637787227999],[-86.7817064146877,36.2639687773475],[-86.7815009652555,36.2647596823879],[-86.7802890214997,36.2647385909954],[-86.7803707005316,36.2643230939611],[-86.7804619865911,36.2638588198261]]]},"properties":{"id":"70538","parcel":"04100018800","address":"20 HILLENGLADE DR","owner":"JENNIFER O'NEILL MINISTRIES, INC.","point":[-86.7810329306582,36.264145927222835]}},{"type":"Feature","id":"111803","geometry":{"type":"Polygon","coordinates":[[[-86.783266202817,36.2687004725806],[-86.7829096475199,36.2686632237612],[-86.7829172563321,36.2686093360193],[-86.7830058399133,36.2680302452105],[-86.7811902829095,36.2677973178717],[-86.7762744223363,36.2671664912446],[-86.7762534489455,36.2670750966387],[-86.7762291143925,36.2669842499416],[-86.77620143841,36.2668940330377],[-86.7758677910274,36.2659078048233],[-86.7758144043449,36.2657699401159],[-86.7815676047813,36.2654711934625],[-86.7826639094545,36.2654142352492],[-86.7827601441208,36.2656848061206],[-86.7830647817138,36.2660305999673],[-86.783420237641,36.2663774262863],[-86.7835585402623,36.2663917381392],[-86.7850630843744,36.2666077190893],[-86.7861110324119,36.2667581424266],[-86.7858476955649,36.2689045727822],[-86.7858121679418,36.2689476569996],[-86.7856242860304,36.2689527240897],[-86.7835826991699,36.2687346815374],[-86.783266202817,36.2687004725806]]]},"properties":{"id":"111803","parcel":"04100004100","address":"4000 BRICK CHURCH PIKE","owner":"BULLOCK, JEFFERY L","point":[-86.7823764750056,36.26748861587545]}},{"type":"Feature","id":"111805","geometry":{"type":"Polygon","coordinates":[[[-86.7761256076217,36.2622126400714],[-86.7762266167016,36.2616692755259],[-86.7807828297483,36.2621504836593],[-86.7808789052076,36.2616065971263],[-86.7841179979251,36.2619485885188],[-86.7840326326194,36.2626865822874],[-86.7839944001769,36.2630170941094],[-86.7837001625362,36.2629852447262],[-86.7832865442314,36.2629404722675],[-86.7828470034991,36.2628928913182],[-86.7761256076217,36.2622126400714]]]},"properties":{"id":"111805","parcel":"04100004200","address":"3824 BRICK CHURCH PIKE","owner":"ODOI-INKUM, GEORGINA & INKUM, CHRISTOPHER","point":[-86.78124826571928,36.2624518204128]}},{"type":"Feature","id":"112783","geometry":{"type":"Polygon","coordinates":[[[-86.7810740246349,36.2686212627861],[-86.7811902829095,36.2677973178717],[-86.7830058399133,36.2680302452105],[-86.7829172563321,36.2686093360193],[-86.7829096475199,36.2686632237612],[-86.783266202817,36.2687004725806],[-86.7832432312639,36.2694653890977],[-86.7832130612658,36.269462906127],[-86.7830945289237,36.2694531621316],[-86.7819964923283,36.2693547878323],[-86.7812875783219,36.2692934450935],[-86.7811869975629,36.2692842951595],[-86.7809718137222,36.2692647193705],[-86.7810696333595,36.2686575508682],[-86.7810740246349,36.2686212627861]]]},"properties":{"id":"112783","parcel":"04100009800","address":"1459 FINNLAND DR","owner":"BARNES, NICKOLAS B","point":[-86.78199218279657,36.26864108794867]}},{"type":"Feature","id":"112799","geometry":{"type":"Polygon","coordinates":[[[-86.7815009652555,36.2647596823879],[-86.7817064146877,36.2639687773475],[-86.7826136536331,36.26411179184],[-86.7827816937476,36.2632340370503],[-86.7828470034991,36.2628928913182],[-86.7832865442314,36.2629404722675],[-86.7837001625362,36.2629852447262],[-86.7836628878873,36.2632568962272],[-86.7834123247665,36.2650829085145],[-86.7832619156586,36.2650852082903],[-86.7814090462545,36.2651135355148],[-86.7815009652555,36.2647596823879]]]},"properties":{"id":"112799","parcel":"04100013200","address":"30 HILLENGLADE DR","owner":"O'NEILL, JENNIFER & LOUQUE, MERVIN","point":[-86.78309111330967,36.26404197756833]}},{"type":"Feature","id":"112801","geometry":{"type":"Polygon","coordinates":[[[-86.7850256301519,36.2650582186135],[-86.7855715342418,36.265049858574],[-86.7850630843744,36.2666077190893],[-86.7835585402623,36.2663917381392],[-86.7844365845435,36.2650672356522],[-86.7850256301519,36.2650582186135]]]},"properties":{"id":"112801","parcel":"04100014300","address":"41 HILLENGLADE DR","owner":"DOVECOTE-HILLENGLADE, LLC","point":[-86.78467324678346,36.26573070607523]}},{"type":"Feature","id":"112804","geometry":{"type":"Polygon","coordinates":[[[-86.7814308505639,36.2654129228827],[-86.7813277879524,36.2651114554089],[-86.7814090462545,36.2651135355148],[-86.7815676047813,36.2654711934625],[-86.7758144043449,36.2657699401159],[-86.7757925607599,36.2657040435495],[-86.7814308505639,36.2654129228827]]]},"properties":{"id":"112804","parcel":"04100014600","address":"0 BRICK CHURCH PIKE","owner":"DOVECOTE-HILLENGLADE, LLC","point":[-86.78122158544421,36.26544155066921]}},{"type":"Feature","id":"112805","geometry":{"type":"Polygon","coordinates":[[[-86.7832432312639,36.2694653890977],[-86.783266202817,36.2687004725806],[-86.7835826991699,36.2687346815374],[-86.7856242860304,36.2689527240897],[-86.785548496716,36.2695201959028],[-86.7854019698711,36.2695222468384],[-86.7854018964208,36.2695222473157],[-86.7847730349426,36.2695355197208],[-86.7841606504136,36.2695484377073],[-86.7837837671256,36.2695142199376],[-86.7835902331686,36.2694966488475],[-86.7832642950495,36.2694685448249],[-86.7832434017576,36.2694654105239],[-86.7832432312639,36.2694653890977]]]},"properties":{"id":"112805","parcel":"04100015300","address":"0 FINNLAND DR","owner":"RECTOR, JAMES E.","point":[-86.78442038316959,36.26920903842254]}},{"type":"Feature","id":"113074","geometry":{"type":"Polygon","coordinates":[[[-86.7852438862912,36.27075447705],[-86.7854262081616,36.2703286871834],[-86.7842354122891,36.2702473349549],[-86.783597615214,36.2702432336601],[-86.7834744709742,36.2702420790343],[-86.7828356347278,36.2702360842413],[-86.7828356714001,36.2702358532856],[-86.782852828346,36.2701227975387],[-86.7835966483158,36.2701454469993],[-86.7843418177833,36.2701669836108],[-86.7848088070419,36.269982650825],[-86.7851399521474,36.2697827168694],[-86.7853262779594,36.2696205316745],[-86.785374578635,36.2695578157488],[-86.7854019698711,36.2695222468384],[-86.785548496716,36.2695201959028],[-86.7856242860304,36.2689527240897],[-86.7858121679418,36.2689476569996],[-86.7858476955649,36.2689045727822],[-86.7861110324119,36.2667581424266],[-86.7874163197079,36.2669454913416],[-86.7889256181844,36.2671621035096],[-86.7893250208259,36.2669220331012],[-86.7896533740325,36.2667246660082],[-86.7898677574209,36.2673338235021],[-86.7896108999731,36.2676912580553],[-86.7882252471501,36.2679696194098],[-86.788035834956,36.2682348910369],[-86.7880778972634,36.2685757941574],[-86.7882921373769,36.2703341218763],[-86.7881015478002,36.2703403090708],[-86.7880135618054,36.2703411594729],[-86.7879258417546,36.2703420044721],[-86.7879258357331,36.270341958548],[-86.7878950477368,36.2701039625763],[-86.7878163385174,36.2694955445443],[-86.7867775570888,36.2694210005026],[-86.7868009306159,36.2691568192719],[-86.7868134877996,36.2690142068244],[-86.7859750840297,36.2689564860278],[-86.785930004377,36.270362688353],[-86.7859298941379,36.2703626827612],[-86.7855158530674,36.2703340725932],[-86.7853990445418,36.2706042149642],[-86.7853407541467,36.2707390140832],[-86.7853335801857,36.2707556615877],[-86.7853215212597,36.2707836397115],[-86.7852612120029,36.2708447906479],[-86.7852200912179,36.2708864870362],[-86.7851356528761,36.2709758710795],[-86.7851118794489,36.2710010070578],[-86.7848191736155,36.2712352124102],[-86.7848191477866,36.2712351891456],[-86.784819111888,36.271235160539],[-86.7848156689865,36.2712324169833],[-86.7848108047247,36.2712285407833],[-86.7848041614734,36.2712233828522],[-86.7847962458308,36.2712174121514],[-86.7847884110326,36.2712115130245],[-86.7847882932938,36.271211424566],[-86.7847803281083,36.2712055082604],[-86.7847701271258,36.2711982609171],[-86.7847694983232,36.2711978143788],[-86.7847631260709,36.2711932729382],[-86.7849579094144,36.2710307910549],[-86.7850565155421,36.2709485331609],[-86.7850986467386,36.2709048980022],[-86.7852438862912,36.27075447705]]]},"properties":{"id":"113074","parcel":"04100002800","address":"4270 WLAC TRANSMITTER RD","owner":"NEWSCHANNEL 5 NETWORK, L.P.","point":[-86.78726122954208,36.2689868923421]}},{"type":"Feature","id":"113514","geometry":{"type":"Polygon","coordinates":[[[-86.7763151477115,36.2611245913287],[-86.7764303197641,36.2604101954581],[-86.7764448492396,36.2603203840949],[-86.7789810429088,36.2606467752683],[-86.7790573271211,36.2602486867072],[-86.7835042607709,36.2608007629634],[-86.7842421644588,36.2608751462345],[-86.7841577793894,36.2616046775996],[-86.7841179979251,36.2619485885188],[-86.7808789052076,36.2616065971263],[-86.7763151477115,36.2611245913287]]]},"properties":{"id":"113514","parcel":"04100010200","address":"3808 BRICK CHURCH PIKE","owner":"BELOTE, LOREN R.","point":[-86.78028166000067,36.26099993997924]}},{"type":"Feature","id":"114122","geometry":{"type":"Polygon","coordinates":[[[-86.7760229540112,36.2627558329449],[-86.7761256076217,36.2622126400714],[-86.7828470034991,36.2628928913182],[-86.7827816937476,36.2632340370503],[-86.7826136536331,36.26411179184],[-86.7817064146877,36.2639687773475],[-86.7804777340254,36.2637787227999],[-86.780584134456,36.2632375675696],[-86.7760229540112,36.2627558329449]]]},"properties":{"id":"114122","parcel":"04100010100","address":"3900 BRICK CHURCH PIKE","owner":"TIDWELL, DWIGHT L. & DOROTHY L.","point":[-86.78084067487829,36.263059864166685]}},{"type":"Feature","id":"114148","geometry":{"type":"Polygon","coordinates":[[[-86.7836628878873,36.2632568962272],[-86.7837001625362,36.2629852447262],[-86.7839944001769,36.2630170941094],[-86.7840326326194,36.2626865822874],[-86.7849713263715,36.2626515125471],[-86.7844362384832,36.2650672406023],[-86.7834123247665,36.2650829085145],[-86.7836628878873,36.2632568962272]]]},"properties":{"id":"114148","parcel":"04100013300","address":"40 HILLENGLADE DR","owner":"DOVECOTE-HILLENGLADE, LLC","point":[-86.78408765723145,36.26416213787279]}},{"type":"Feature","id":"114692","geometry":{"type":"Polygon","coordinates":[[[-86.7849713263715,36.2626515125471],[-86.7861999464461,36.2626089114476],[-86.7864623997707,36.2627035999196],[-86.7850256301519,36.2650582186135],[-86.7844365845435,36.2650672356522],[-86.7844362384832,36.2650672406023],[-86.7849713263715,36.2626515125471]]]},"properties":{"id":"114692","parcel":"04100013400","address":"50 HILLENGLADE DR","owner":"DOVECOTE-HILLENGLADE, LLC","point":[-86.78522172894023,36.263879974848464]}},{"type":"Feature","id":"114693","geometry":{"type":"Polygon","coordinates":[[[-86.7850256301519,36.2650582186135],[-86.7864623997707,36.2627035999196],[-86.7865257568746,36.2627264586149],[-86.7878294188113,36.2632198040815],[-86.7878301225591,36.263220069867],[-86.7878940043677,36.2632442447496],[-86.7855736050213,36.2650498270881],[-86.7855715342418,36.265049858574],[-86.7850256301519,36.2650582186135]]]},"properties":{"id":"114693","parcel":"04100013500","address":"60 HILLENGLADE DR","owner":"DOVECOTE-HILLENGLADE, LLC","point":[-86.78615835414469,36.264146014208286]}},{"type":"Feature","id":"115077","geometry":{"type":"Polygon","coordinates":[[[-86.7827601441208,36.2656848061206],[-86.7826639094545,36.2654142352492],[-86.7815676047813,36.2654711934625],[-86.7814090462545,36.2651135355148],[-86.7832619156586,36.2650852082903],[-86.7834123247665,36.2650829085145],[-86.7844362384832,36.2650672406023],[-86.7844365845435,36.2650672356522],[-86.7835585402623,36.2663917381392],[-86.783420237641,36.2663774262863],[-86.7830647817138,36.2660305999673],[-86.7827601441208,36.2656848061206]]]},"properties":{"id":"115077","parcel":"04100014200","address":"31 HILLENGLADE DR","owner":"DOVECOTE-HILLENGLADE, LLC","point":[-86.7834119161715,36.26585860861102]}},{"type":"Feature","id":"118784","geometry":{"type":"Polygon","coordinates":[[[-86.7832642950495,36.2694685448249],[-86.7835902331686,36.2694966488475],[-86.7837837671256,36.2695142199376],[-86.7841606504136,36.2695484377073],[-86.7847730349426,36.2695355197208],[-86.7854018964208,36.2695222473157],[-86.7854019698711,36.2695222468384],[-86.785374578635,36.2695578157488],[-86.7853262779594,36.2696205316745],[-86.7851399521474,36.2697827168694],[-86.7848088070419,36.269982650825],[-86.7843418177833,36.2701669836108],[-86.7835966483158,36.2701454469993],[-86.782852828346,36.2701227975387],[-86.7827212145801,36.269986299736],[-86.7827793036361,36.2699605264949],[-86.7828353470433,36.2699319374755],[-86.7828891388421,36.26990063946],[-86.7829404776148,36.2698667482142],[-86.7829891742936,36.2698303902385],[-86.7830350476639,36.2697916982918],[-86.7830779277752,36.2697508185783],[-86.7831176558334,36.2697078999339],[-86.7831540842903,36.2696631028378],[-86.7831870790156,36.2696165939907],[-86.783216514828,36.2695685445416],[-86.7832422855548,36.2695191345283],[-86.7832642950495,36.2694685448249]]]},"properties":{"id":"118784","parcel":"04106002900","address":"1456 FINNLAND DR","owner":"RECTOR, JAMES","point":[-86.78404947042841,36.26981292179942]}},{"type":"Feature","id":"120583","geometry":{"type":"Polygon","coordinates":[[[-86.7799328765889,36.2691736725875],[-86.779932879564,36.2691736356174],[-86.7801143247662,36.2691895764251],[-86.7805969834048,36.2692319798817],[-86.7805488139113,36.2698520123904],[-86.7798923506379,36.2698122985854],[-86.7799328736494,36.2691737131624],[-86.7799328765889,36.2691736725875]]]},"properties":{"id":"120583","parcel":"04106002500","address":"1435 FINNLAND DR","owner":"COORDINATION PLUS, LLC","point":[-86.7802425983772,36.26952213596067]}},{"type":"Feature","id":"120584","geometry":{"type":"Polygon","coordinates":[[[-86.7819500103193,36.2699385503383],[-86.7819964923283,36.2693547878323],[-86.7830945289237,36.2694531621316],[-86.7830711770222,36.2695005899298],[-86.7830439149081,36.2695466281066],[-86.7830128673878,36.2695910676636],[-86.7829781771196,36.2696337039931],[-86.7829400035453,36.2696743413904],[-86.7828985206644,36.2697127930692],[-86.7828539192778,36.2697488829492],[-86.7828064047708,36.2697824465718],[-86.7827561937572,36.2698133293195],[-86.7827035174438,36.2698413890977],[-86.7826486160931,36.2698664990746],[-86.7825917422998,36.2698885413515],[-86.7825331555237,36.2699074169113],[-86.7824731264701,36.2699230383811],[-86.7824119304569,36.2699353345807],[-86.7823498462837,36.2699442487278],[-86.7822871595882,36.2699497402189],[-86.7822241561507,36.2699517828697],[-86.7821611286159,36.2699503693786],[-86.7819500103193,36.2699385503383]]]},"properties":{"id":"120584","parcel":"04106002800","address":"1453 FINNLAND DR","owner":"COORDINATION PLUS, LLC","point":[-86.78246594951779,36.26965312677818]}},{"type":"Feature","id":"120715","geometry":{"type":"Polygon","coordinates":[[[-86.7805488139113,36.2698520123904],[-86.7805969834048,36.2692319798817],[-86.7807116981575,36.2692419997273],[-86.7809718137222,36.2692647193705],[-86.7811869975629,36.2692842951595],[-86.7812875783219,36.2692934450935],[-86.7812426167307,36.2698942282547],[-86.7805488139113,36.2698520123904]]]},"properties":{"id":"120715","parcel":"04106002600","address":"1443 FINNLAND DR","owner":"DUNN, JERRY & PAMELA D.","point":[-86.7809185950813,36.26957273005178]}},{"type":"Feature","id":"120716","geometry":{"type":"Polygon","coordinates":[[[-86.7812426167307,36.2698942282547],[-86.7812875783219,36.2692934450935],[-86.7819964923283,36.2693547878323],[-86.7819500103193,36.2699385503383],[-86.7812426167307,36.2698942282547]]]},"properties":{"id":"120716","parcel":"04106002700","address":"1445 FINNLAND DR","owner":"BARNES, NICKOLAS B","point":[-86.7816189076267,36.26962450746444]}},{"type":"Feature","id":"217628","geometry":{"type":"Polygon","coordinates":[[[-86.7898677574209,36.2673338235021],[-86.7896533740325,36.2667246660082],[-86.7893753278309,36.2659346052963],[-86.7885275931491,36.2655448160818],[-86.7882210249469,36.2650092526672],[-86.7878940043677,36.2632442447496],[-86.7878301225591,36.263220069867],[-86.7878294188113,36.2632198040815],[-86.7865257568746,36.2627264586149],[-86.7864623997707,36.2627035999196],[-86.7861999464461,36.2626089114476],[-86.7849713263715,36.2626515125471],[-86.7840326326194,36.2626865822874],[-86.7841179979251,36.2619485885188],[-86.7841577793894,36.2616046775996],[-86.7842421644588,36.2608751462345],[-86.7843230389268,36.2601759454067],[-86.7845799103634,36.2586029454714],[-86.7846675149391,36.2580664751378],[-86.7857844729846,36.2572276930298],[-86.7860925045178,36.2562710722706],[-86.7863258056669,36.2567861839109],[-86.7864590871834,36.2570804557726],[-86.7866929619234,36.2575968192156],[-86.7873677146329,36.2590865479708],[-86.7876467622289,36.2598809196587],[-86.787849728801,36.2603362838181],[-86.788337684642,36.2614310067905],[-86.7886630963848,36.2624343179953],[-86.7887968298434,36.2628466407335],[-86.7889630076559,36.2630760240725],[-86.789889035577,36.26435423777],[-86.7896488384037,36.2656397086019],[-86.7901482367149,36.2658152792243],[-86.7907121974049,36.2660135440957],[-86.7913016808044,36.2670854323302],[-86.7911882628228,36.2675376809798],[-86.7898677574209,36.2673338235021]]]},"properties":{"id":"217628","parcel":"050020E91600CO","address":"0 BRICK CHURCH PIKE","owner":"THORNTON GROVE HOMEOWNERS ASSOCIATION, INC","point":[-86.78629508585395,36.26178050666345]}}]}