{"type":"FeatureCollection","features":[{"type":"Feature","id":"16563","geometry":{"type":"Polygon","coordinates":[[[-86.7031842267042,36.1703058778826],[-86.7031838083199,36.1702564073123],[-86.7031806405316,36.1702070023282],[-86.7031775155062,36.1701651821206],[-86.7031717699587,36.170123545715],[-86.7040381610519,36.1700174033184],[-86.7041265278144,36.1702014880825],[-86.7041790180537,36.1703132637895],[-86.7031842267042,36.1703058778826]]]},"properties":{"id":"16563","parcel":"09501001000","address":"2116 DEARBORN DR","owner":"FUQUA, TIMOTHY & PHAPHEELOM, JAY","point":[-86.7036374243659,36.17014551029869]}},{"type":"Feature","id":"16619","geometry":{"type":"Polygon","coordinates":[[[-86.702380445961,36.1701369440689],[-86.7022932124576,36.1700803125171],[-86.7028736053124,36.1698154147519],[-86.7029037138363,36.1698673648467],[-86.7029307209985,36.1699204244241],[-86.7029545623608,36.169974472191],[-86.7029751856791,36.1700293831779],[-86.702992540932,36.1700850324022],[-86.7024349637617,36.1701717886668],[-86.702380445961,36.1701369440689]]]},"properties":{"id":"16619","parcel":"09501001800","address":"2115 DEARBORN DR","owner":"TOMA, KIROLLAS G.","point":[-86.7027162670627,36.17000131067438]}},{"type":"Feature","id":"16623","geometry":{"type":"Polygon","coordinates":[[[-86.7041790180537,36.1703132637895],[-86.7041265278144,36.1702014880825],[-86.7040381610519,36.1700174033184],[-86.7039553518954,36.1698486679212],[-86.7045794729564,36.1696252623608],[-86.7047339790659,36.1699320298418],[-86.7047622523583,36.1699828293675],[-86.7047934345699,36.1700324970385],[-86.7048274558235,36.1700809242078],[-86.7045683033677,36.1701989101208],[-86.7042011290989,36.1703614830254],[-86.7041790180537,36.1703132637895]]]},"properties":{"id":"16623","parcel":"09501000100","address":"2114 GUARANTY DR","owner":"WALDRON, MICHAEL & MARCIA RAMIREZ","point":[-86.70440145598842,36.170000119974816]}},{"type":"Feature","id":"16706","geometry":{"type":"Polygon","coordinates":[[[-86.7025722480045,36.1703709753032],[-86.7024349637617,36.1701717886668],[-86.702992540932,36.1700850324022],[-86.7030038841542,36.1701463657537],[-86.7030126032897,36.1702079811606],[-86.7030150833826,36.1702548035303],[-86.7030143536626,36.1703016662249],[-86.703010418396,36.1703484241163],[-86.7030032885183,36.1703949320371],[-86.7029929849924,36.1704410474652],[-86.7025722480045,36.1703709753032]]]},"properties":{"id":"16706","parcel":"09501001900","address":"2117 DEARBORN DR","owner":"OLDHAM FAMILY REVOCABLE TRUST","point":[-86.70276108977248,36.17027760550198]}},{"type":"Feature","id":"17570","geometry":{"type":"Polygon","coordinates":[[[-86.7002914811028,36.1702237993786],[-86.7009195803791,36.169835568671],[-86.7011630660297,36.1700912783782],[-86.7012833465981,36.1702070542584],[-86.7012698900885,36.1702181188307],[-86.700731368017,36.1706212194627],[-86.7006660306832,36.1705886341868],[-86.7004917958325,36.1705017399564],[-86.7004698810046,36.1704754971012],[-86.7003356801572,36.1703180411993],[-86.7002644947245,36.1702371441194],[-86.7002914811028,36.1702237993786]]]},"properties":{"id":"17570","parcel":"09502003100","address":"213 DONELSON HILLS DR","owner":"MICHAEL STEWARD MCKIBBEN SR. LIVING TRUST","point":[-86.70076406469778,36.170231687549894]}},{"type":"Feature","id":"17794","geometry":{"type":"Polygon","coordinates":[[[-86.7015219487931,36.1702166541173],[-86.7014720455765,36.1701735276281],[-86.7014235990137,36.1701293219532],[-86.701854330339,36.1697971713978],[-86.7020342386345,36.1699126007041],[-86.7017333511396,36.1702154252522],[-86.7016338479962,36.1703039119452],[-86.7015772126475,36.170260861585],[-86.7015219487931,36.1702166541173]]]},"properties":{"id":"17794","parcel":"09501002100","address":"208 DONELSON HILLS DR","owner":"FAIRCLOTH, AUTUMN B.","point":[-86.70174536738125,36.17002100269466]}},{"type":"Feature","id":"17837","geometry":{"type":"Polygon","coordinates":[[[-86.7016338479962,36.1703039119452],[-86.7017333511396,36.1702154252522],[-86.7020342386345,36.1699126007041],[-86.7021351214282,36.1699801403368],[-86.702189618467,36.1700127887896],[-86.7020504535357,36.1702135812668],[-86.7018763655047,36.1704497439121],[-86.7018127936473,36.1704166046247],[-86.7017511026223,36.1703812057191],[-86.7016914142073,36.1703436167884],[-86.7016338479962,36.1703039119452]]]},"properties":{"id":"17837","parcel":"09501002000","address":"206 DONELSON HILLS DR","owner":"BLEVINS, PATTI","point":[-86.7019778385699,36.170112831193045]}},{"type":"Feature","id":"266834","geometry":{"type":"Polygon","coordinates":[[[-86.7020616529296,36.1745428724066],[-86.7014834584382,36.1738341985468],[-86.7012669670546,36.173567343763],[-86.7014964271085,36.1731550522272],[-86.7015186396449,36.173162416225],[-86.701542031592,36.1731667631496],[-86.7015659827766,36.1731679785396],[-86.7015898604035,36.173166029121],[-86.7016130324348,36.1731609672357],[-86.7022686441456,36.1743482756307],[-86.7021054870429,36.1745953610754],[-86.7020616529296,36.1745428724066]]]},"properties":{"id":"266834","parcel":"08413000100","address":"101 GRAEME DR","owner":"ROBERTSON, BRIAN K.","point":[-86.70190992678764,36.174091322081686]}},{"type":"Feature","id":"266838","geometry":{"type":"Polygon","coordinates":[[[-86.7016406114662,36.17290807779],[-86.7016380515957,36.1728530309778],[-86.7016330461042,36.1727980957169],[-86.7016256022874,36.1727433422631],[-86.7027330917401,36.1726182268911],[-86.7031871237135,36.1727738127733],[-86.7032877189752,36.1728083894353],[-86.7032101512848,36.1729253159478],[-86.7016406114662,36.17290807779]]]},"properties":{"id":"266838","parcel":"08413000400","address":"104 GRAEME DR","owner":"WILSON, BENJAMIN REVOCABLE LIVING TRUST & ET AL","point":[-86.70238772725197,36.1727585337417]}},{"type":"Feature","id":"266841","geometry":{"type":"Polygon","coordinates":[[[-86.7015724545597,36.1725568520345],[-86.7021322343104,36.172410749813],[-86.702550933351,36.1725555554208],[-86.7027330917401,36.1726182268911],[-86.7016256022874,36.1727433422631],[-86.7016103278956,36.1726807320598],[-86.7015926062435,36.172618547955],[-86.7015724545597,36.1725568520345]]]},"properties":{"id":"266841","parcel":"08413000500","address":"106 GRAEME DR","owner":"HJL, L.P.","point":[-86.70211474451821,36.172587446259435]}},{"type":"Feature","id":"266845","geometry":{"type":"Polygon","coordinates":[[[-86.7031871237135,36.1727738127733],[-86.7022133065241,36.1717707642428],[-86.7022676699534,36.1717321569378],[-86.7023197501088,36.1716915350531],[-86.7023694366039,36.171648985755],[-86.7034776226997,36.1725215890587],[-86.7032877189752,36.1728083894353],[-86.7031871237135,36.1727738127733]]]},"properties":{"id":"266845","parcel":"08413000900","address":"2134 DEARBORN DR","owner":"WONG, PING KIONG","point":[-86.70278923786739,36.17214603876307]}},{"type":"Feature","id":"266848","geometry":{"type":"Polygon","coordinates":[[[-86.7025550713536,36.1714539636894],[-86.7026271376424,36.1713661875556],[-86.7038734536757,36.1719215229468],[-86.7036728680146,36.1722259672034],[-86.702506456444,36.1715119346381],[-86.7025550713536,36.1714539636894]]]},"properties":{"id":"266848","parcel":"08413001100","address":"2130 DEARBORN DR","owner":"FLETCHER, ERIC & HEATHER","point":[-86.70312733606768,36.17171657549419]}},{"type":"Feature","id":"267328","geometry":{"type":"Polygon","coordinates":[[[-86.7063755191635,36.1698231060679],[-86.7075668374863,36.1690737587439],[-86.7076703679429,36.1690071450677],[-86.7077711686988,36.1689378354063],[-86.7078691347957,36.1688659015816],[-86.7079641613245,36.1687914208231],[-86.7080561478317,36.1687144712355],[-86.7081449972558,36.1686351372125],[-86.7082306158307,36.1685534986224],[-86.7083129109836,36.1684696443389],[-86.7083917979233,36.1683836631901],[-86.7084671907725,36.1682956467143],[-86.7085390114355,36.168205686404],[-86.7086071829696,36.1681138782511],[-86.7088995364068,36.1676558752104],[-86.708917820127,36.1676546691817],[-86.7089672419783,36.167649983429],[-86.7090827221467,36.1676446347038],[-86.7092169890956,36.167628952445],[-86.7093506781865,36.1676103064725],[-86.709483690606,36.1675887108883],[-86.7096485915408,36.1675789505276],[-86.709813377605,36.1675557311448],[-86.7099672401753,36.1675235090783],[-86.7101759855734,36.1674912396858],[-86.7104890697938,36.1674580808953],[-86.7106757134244,36.1674168749245],[-86.7108458753621,36.1673889512232],[-86.7110380958689,36.167365567683],[-86.7113186998885,36.1673372684235],[-86.7114727853007,36.1673297665869],[-86.7114574034191,36.1673753070928],[-86.7114452684521,36.1674214890836],[-86.7114364201472,36.1674681582099],[-86.7114306753493,36.1674698404834],[-86.7114236900617,36.1674747421728],[-86.711417497616,36.1674803007162],[-86.7114121906233,36.1674864317503],[-86.7114006053062,36.1674985850824],[-86.7113871584641,36.1675094046996],[-86.7113720818393,36.167518703575],[-86.7113556318765,36.1675263224754],[-86.7113448719584,36.1675361943449],[-86.7113321687026,36.1675444094273],[-86.7113179055803,36.1675507194169],[-86.7112956212219,36.1675678837301],[-86.7112721277177,36.1675839538203],[-86.7112541036686,36.1675976321666],[-86.7112342451421,36.1676095223976],[-86.711212818587,36.1676194652213],[-86.7111904487391,36.1676295758267],[-86.711169653022,36.1676416959838],[-86.7111510010481,36.1676489375833],[-86.7111334990798,36.1676578694837],[-86.7111173794814,36.1676683740537],[-86.7110972471409,36.1676808462888],[-86.7110759579723,36.1676919842554],[-86.7110536458494,36.167701718668],[-86.7110426457751,36.167712830261],[-86.7110298216441,36.1677225718623],[-86.711015428476,36.1677307490989],[-86.7109997571162,36.1677371962267],[-86.710978465903,36.1677482332463],[-86.7109593208574,36.1677616081159],[-86.710949296003,36.167763959981],[-86.7109397814389,36.1677674399255],[-86.7109309710492,36.1677719774103],[-86.7109230429716,36.1677774812596],[-86.7109161551441,36.167783838787],[-86.7108649170086,36.1678127106316],[-86.7108509891245,36.1678224551091],[-86.7108356179292,36.167830648899],[-86.710819063398,36.1678371543789],[-86.7107834612754,36.1678553875149],[-86.7107489301222,36.1678749274749],[-86.7107030961496,36.1678940013327],[-86.7106589526015,36.1679155373861],[-86.7106167008982,36.1679394380156],[-86.7105937849623,36.1679549917513],[-86.7105694698339,36.1679690810549],[-86.710543899254,36.1679816212621],[-86.71052313069,36.1679980365682],[-86.7105006149954,36.1680128597085],[-86.7104765378316,36.1680259706225],[-86.7104481666959,36.1680461420705],[-86.7104172476928,36.1680636796943],[-86.7103553286546,36.1681101951337],[-86.7103264726702,36.1681340735991],[-86.7102961148482,36.168156693719],[-86.710228850369,36.1682120305723],[-86.7101965934384,36.1682407976436],[-86.7101615902498,36.1682673682623],[-86.710121162325,36.1683048183948],[-86.7100782198641,36.1683403807389],[-86.7100507842558,36.1683652538862],[-86.71002096767,36.1683882564912],[-86.7099889643792,36.1684092368986],[-86.7099549821475,36.1684280604976],[-86.7099192410786,36.1684446052226],[-86.7098820433267,36.1684653115264],[-86.7098437091758,36.1684846068143],[-86.7098118101786,36.1684972498732],[-86.7097819942472,36.1685128827826],[-86.7097546839792,36.1685312813479],[-86.7097177475879,36.1685528837216],[-86.7096819009919,36.1685756621336],[-86.7096145975363,36.1686266034012],[-86.709525769647,36.1686952530093],[-86.7094824482301,36.1687193154392],[-86.709440497814,36.1687449262768],[-86.709359739584,36.1687991739054],[-86.7092805530523,36.1688549245626],[-86.7092132667461,36.1689002533321],[-86.7091485763018,36.1689480011238],[-86.7090767576558,36.1689987532087],[-86.7090031069765,36.1690477495352],[-86.7089666905647,36.1690686303122],[-86.7089329173961,36.1690922507146],[-86.7089020989751,36.1691183926119],[-86.7088620005782,36.169155143696],[-86.7088193493839,36.1691899540166],[-86.7087742877429,36.1692227073733],[-86.7087275451022,36.1692606528467],[-86.7086834884982,36.1693006563371],[-86.7086422568677,36.1693425926573],[-86.7086039779777,36.1693863303769],[-86.7085725044436,36.1694199195652],[-86.7085384424548,36.1694518061321],[-86.7085019331141,36.1694818585641],[-86.7084631242662,36.1695099534194],[-86.708415639021,36.169541823205],[-86.7083804426294,36.1695646875297],[-86.7083466398563,36.1695888946587],[-86.7083143080308,36.1696143909648],[-86.708276862691,36.169655660532],[-86.7082418762891,36.1696983261352],[-86.7082215686614,36.1697182920079],[-86.7082036370735,36.1697397030807],[-86.708188239924,36.1697623727649],[-86.7081626833203,36.1697940227556],[-86.7081345827454,36.1698242213107],[-86.7081157690009,36.1698453103865],[-86.7080941666592,36.169864563723],[-86.7080700469998,36.1698817390903],[-86.7080161554682,36.1699172170985],[-86.7079970368216,36.1699367794014],[-86.7079754279246,36.1699545564856],[-86.7079515792366,36.1699703395903],[-86.7079119836293,36.1699938974125],[-86.7078740205054,36.1700191589484],[-86.70783780149,36.1700460523451],[-86.7078034325786,36.1700744976714],[-86.7077821379383,36.170092622567],[-86.7077587162328,36.1701089294663],[-86.707733399446,36.1701232565828],[-86.7077002838985,36.1701396924111],[-86.7076696115441,36.1701589961447],[-86.707641759304,36.1701809303458],[-86.7076251378884,36.1701931074187],[-86.7076068215743,36.1702035649021],[-86.7075870813286,36.1702121497944],[-86.7075662050246,36.1702187351319],[-86.7075372826343,36.1702294864028],[-86.7075101204287,36.1702429230264],[-86.7074850991218,36.1702588589147],[-86.707462564643,36.1702770712319],[-86.7074428293121,36.170297307598],[-86.7074261696173,36.1703192861009],[-86.7074128162751,36.1703427025654],[-86.7073920019184,36.1703764416579],[-86.7073675011814,36.1704085106799],[-86.7073395129049,36.1704386461966],[-86.7073082682849,36.1704665981022],[-86.7072740253956,36.170492138665],[-86.7072370668939,36.1705150544296],[-86.7071976979007,36.1705351579456],[-86.7071744689284,36.1705542854527],[-86.7071543652545,36.170575613554],[-86.707137699591,36.1705988087544],[-86.7071247332568,36.1706235081179],[-86.7071156684616,36.1706493265232],[-86.707110647226,36.1706758602747],[-86.7071097492222,36.1707026943252],[-86.7071072294174,36.1707244105928],[-86.7071005367519,36.1707482413341],[-86.7070897712904,36.1707710711982],[-86.7070751479408,36.1707924437874],[-86.7070569585951,36.1708119346982],[-86.7070355643646,36.1708291533694],[-86.7070113934942,36.1708437584163],[-86.7069849269123,36.170855457715],[-86.7069566916501,36.170864018355],[-86.706927584553,36.1708687951861],[-86.7068994165527,36.1708764226118],[-86.7068726101432,36.1708867873032],[-86.7068475707526,36.1708997318696],[-86.7068246701437,36.1709150630676],[-86.7068045950344,36.1709327552466],[-86.7067873342445,36.1709523019638],[-86.7067731452826,36.1709734115062],[-86.7067622409817,36.1709957680878],[-86.7067547862037,36.1710190363757],[-86.7067501280152,36.1710484078615],[-86.7067418881633,36.1710772586596],[-86.7067301474468,36.1711053007933],[-86.7067150245529,36.1711322568791],[-86.7066966682684,36.1711578592707],[-86.7066752608385,36.1711818527438],[-86.7066506279389,36.1712037597469],[-86.706623439842,36.1712235799592],[-86.7065939660476,36.1712411198322],[-86.7065624918019,36.1712562064549],[-86.7065293314601,36.1712686901786],[-86.7065082279813,36.1712785157966],[-86.7064892007015,36.1712908149408],[-86.7064726861795,36.1713053056656],[-86.7064590638393,36.1713216558892],[-86.7064486482203,36.1713394870439],[-86.7064377966387,36.1713681557274],[-86.7064228991833,36.1713956043463],[-86.7064041581512,36.171421457691],[-86.7063818282981,36.171445364579],[-86.7063353821283,36.1715006566573],[-86.7062857056244,36.1715540713622],[-86.7062329154971,36.1716054836329],[-86.706177131857,36.1716547755983],[-86.7061184859552,36.1717018320265],[-86.7060977793511,36.1717171772838],[-86.7060802533339,36.171734938242],[-86.7060663320378,36.1717546852228],[-86.7060563513791,36.1717759430999],[-86.7060505513239,36.1717981967509],[-86.706049072729,36.1718209109039],[-86.7060428827821,36.1718486924747],[-86.706033055902,36.1718757418631],[-86.7060197208071,36.1719017843316],[-86.7060030315888,36.1719265233636],[-86.7059831791398,36.1719496757463],[-86.7059603889712,36.1719709760891],[-86.7059349234677,36.1719901804164],[-86.7059070741388,36.1720070698174],[-86.705877158285,36.1720214504661],[-86.7058455201482,36.1720331581206],[-86.7058125186859,36.1720420581953],[-86.7057676028287,36.1720585291323],[-86.7057277332934,36.1720708490753],[-86.7057004350371,36.1720872160788],[-86.7056643645893,36.1721077549317],[-86.7056419104463,36.1721353566769],[-86.7056235175842,36.1721626606921],[-86.7056139175438,36.1721879891085],[-86.7056126993632,36.172203377172],[-86.7056080762,36.1722168672541],[-86.7056064092101,36.1722509113664],[-86.7056007824855,36.1722846749005],[-86.7055912478175,36.1723178574326],[-86.705577889256,36.1723501610539],[-86.7055608265003,36.1723812966596],[-86.7055402127008,36.1724109866655],[-86.7055162322274,36.1724389641196],[-86.7054890985112,36.1724649799255],[-86.7054590551478,36.1724888019342],[-86.7054263703479,36.1725102158784],[-86.7053895822443,36.1725350839967],[-86.7053552548488,36.1725621665456],[-86.7053235901693,36.1725913046256],[-86.7052947767559,36.1726223258973],[-86.7052689819447,36.1726550473301],[-86.7052463585425,36.1726892769654],[-86.705203426968,36.1727452113748],[-86.7051568430554,36.1727991906367],[-86.7051067421263,36.172851057137],[-86.7050532695868,36.172900662215],[-86.7049965797612,36.1729478598618],[-86.7049622574035,36.1729742933559],[-86.7049308443135,36.1730030071666],[-86.7049025675947,36.1730337890745],[-86.7048776364713,36.1730664161495],[-86.7048562300126,36.1731006494148],[-86.704838506074,36.1731362392023],[-86.7048245957467,36.1731729260858],[-86.7048145966962,36.1732104418216],[-86.704784808999,36.173279872327],[-86.7047509217237,36.1733480568811],[-86.7047130123483,36.1734148337021],[-86.70467117177,36.1734800499426],[-86.7046254942138,36.1735435518337],[-86.7045760895156,36.1736051909232],[-86.704523070895,36.1736648241463],[-86.7044665638401,36.1737223128729],[-86.7044066983102,36.1737775211505],[-86.7043436143581,36.1738303228817],[-86.7042774587151,36.1738805928311],[-86.7042083881901,36.1739282138162],[-86.7041921222314,36.1739412607442],[-86.7041784648366,36.1739561445449],[-86.7041677253445,36.1739725245405],[-86.7041601472332,36.1739900288926],[-86.704160346185,36.1739976668267],[-86.7041590171231,36.1740052298572],[-86.7041561960802,36.1740125194964],[-86.7041519558104,36.1740193415485],[-86.7041464103471,36.1740255187007],[-86.7041397038397,36.1740308851811],[-86.7041320140081,36.1740353002573],[-86.7041235443703,36.1740386491829],[-86.7041145186679,36.1740408414277],[-86.7040838448284,36.1740573638319],[-86.7040553834743,36.1740763112365],[-86.7040294252473,36.17409749088],[-86.7040062350006,36.1741206849167],[-86.7039860496477,36.1741456585395],[-86.7039690758992,36.1741721554873],[-86.7039554870001,36.1741999061753],[-86.7039454204984,36.174228626806],[-86.703920371177,36.1742758340677],[-86.7038915596403,36.1743216077248],[-86.7038591108819,36.1743657532744],[-86.7038231621556,36.1744080797473],[-86.7037838696925,36.1744484050758],[-86.7037414031356,36.1744865552254],[-86.7036959433486,36.1745223678127],[-86.7036699841683,36.1745403334817],[-86.7036464410764,36.1745603678764],[-86.7036255656459,36.1745822595377],[-86.703607577032,36.1746057764665],[-86.7035926686649,36.1746306687885],[-86.7035809971663,36.1746566724236],[-86.7035726868193,36.1746835117634],[-86.7035427202586,36.1747394736139],[-86.7035091711352,36.174794081912],[-86.7034721326078,36.1748471874035],[-86.7034317067448,36.1748986425848],[-86.7033880045714,36.1749483071102],[-86.7033553471956,36.1749830238308],[-86.7033262638595,36.1750197700873],[-86.7033009469728,36.1750583059269],[-86.7032795632527,36.1750983771261],[-86.7032622515564,36.1751397215122],[-86.7032491261918,36.1751820662402],[-86.7032355268405,36.1752203499398],[-86.7032177487614,36.1752574917494],[-86.703195934905,36.1752931907142],[-86.7031702617139,36.175327161907],[-86.7031409368436,36.1753591301322],[-86.7031081947803,36.175388837162],[-86.7030723002154,36.1754160462226],[-86.7030464239421,36.1754348863924],[-86.7030230345487,36.175455754331],[-86.7030023713539,36.1754784350469],[-86.7029846490789,36.1755026974695],[-86.7029700477956,36.1755282890993],[-86.7029587197074,36.1755549485867],[-86.7029507802164,36.1755824012772],[-86.7029370909051,36.1756210946343],[-86.7029192641369,36.1756586638759],[-86.702897437402,36.1756948188947],[-86.7028717794198,36.1757292811176],[-86.7028206618289,36.1757918694256],[-86.7027725983829,36.1758560279514],[-86.7027276593652,36.1759216589534],[-86.7026859161479,36.1759886619796],[-86.7026474300834,36.1760569348335],[-86.7026122614054,36.1761263744239],[-86.702580463647,36.1761968740932],[-86.7025697063442,36.1762524922414],[-86.7025548871719,36.1763074914293],[-86.7025360566747,36.1763616802938],[-86.7025132842549,36.1764148628556],[-86.7024866471842,36.1764668530029],[-86.7024562405366,36.1765174663227],[-86.702422174989,36.1765665228172],[-86.7023845679446,36.1766138487581],[-86.7023435535373,36.1766592766283],[-86.7022992781937,36.1767026460494],[-86.7022518983855,36.1767438010906],[-86.7022227912713,36.1767585221802],[-86.7021960020743,36.1767758975114],[-86.7021718977516,36.1767956888208],[-86.7021508082997,36.176817626516],[-86.7021330223163,36.1768414106024],[-86.7021187803625,36.1768667143273],[-86.7021082806084,36.1768931940598],[-86.7021016654618,36.1769204857646],[-86.7020971775216,36.1769493558219],[-86.7020890133627,36.1769774730774],[-86.7020772454774,36.1770047388714],[-86.7020620079008,36.1770308486985],[-86.7020434659532,36.177055515896],[-86.7020218284031,36.1770784643638],[-86.701997333129,36.177099441265],[-86.7019702537565,36.1771182133829],[-86.7019405291938,36.1771342835749],[-86.7019090415676,36.177147969361],[-86.7018760787784,36.1771591428896],[-86.7018271336703,36.1771921738799],[-86.7017808759762,36.177227659582],[-86.7017374934232,36.1772654583109],[-86.7016971625042,36.1773054149281],[-86.7016600452148,36.1773473689718],[-86.7016262901247,36.1773911501444],[-86.7015960368641,36.1774365827926],[-86.7015694049759,36.1774834823668],[-86.7015465039517,36.1775316589685],[-86.7015274254583,36.177580918296],[-86.7015001724492,36.1776492363175],[-86.701468731243,36.1777163628686],[-86.7014331814717,36.177782127145],[-86.7013936150597,36.1778463654808],[-86.7013501272913,36.1779089168941],[-86.7013028301497,36.1779696230094],[-86.7012518423529,36.1780283326223],[-86.7011972904332,36.1780848980875],[-86.7011393120801,36.1781391762016],[-86.7010827607938,36.1781881438828],[-86.7010289483591,36.178239099133],[-86.7009779828395,36.1782919421897],[-86.7009299622547,36.1783465688424],[-86.7008849823706,36.1784028712885],[-86.7008431322601,36.1784607390604],[-86.7008044942798,36.1785200563218],[-86.7007691441093,36.1785807063739],[-86.7007371540706,36.1786425698333],[-86.7007298441104,36.1786635097914],[-86.700719043396,36.1786834317601],[-86.7007049575663,36.1787019560153],[-86.7006878558698,36.1787187304028],[-86.7006680656227,36.1787334321727],[-86.7006459645547,36.1787457824445],[-86.7006219741158,36.1787555435418],[-86.7005965529097,36.1787625307474],[-86.7005701855537,36.1787666096639],[-86.7005356035406,36.1787643372979],[-86.700500717557,36.1787659132652],[-86.7004665400777,36.1787710568059],[-86.700433412552,36.1787800390214],[-86.7004020060101,36.1787923089538],[-86.700373006293,36.1788078599216],[-86.7003467400353,36.178826417851],[-86.7003235458655,36.1788474301088],[-86.7003041007599,36.1788708927697],[-86.7002887378078,36.1788962550354],[-86.7002777923317,36.1789229669961],[-86.7002709216979,36.1789507494474],[-86.7002756570279,36.1789724928209],[-86.7002773733943,36.1789945276907],[-86.700276046152,36.1790165811177],[-86.7002716950891,36.1790383763002],[-86.7002637631636,36.1790595253224],[-86.7002528741399,36.179079789336],[-86.7002391735074,36.1790989007236],[-86.7002228412961,36.1791166006793],[-86.7002041000007,36.1791326553864],[-86.7001831978355,36.1791468480028],[-86.7001362956084,36.179183706699],[-86.7000922188446,36.1792227895228],[-86.7000511274975,36.1792639558545],[-86.7000131725333,36.1793070543111],[-86.6999784893246,36.1793519299951],[-86.6999472076075,36.1793984190288],[-86.6999194392934,36.1794463531317],[-86.6998952839949,36.1794955559829],[-86.6998748312971,36.1795458486156],[-86.6998581552149,36.1795970512519],[-86.6998422509072,36.1796355569649],[-86.6998221929895,36.1796727646063],[-86.6997981389723,36.1797083830554],[-86.6997702797795,36.1797421282073],[-86.6997388343022,36.1797737356226],[-86.6997040515736,36.1798029551073],[-86.6996662063554,36.1798295543437],[-86.6996255969689,36.1798533252113],[-86.6995930557283,36.1798774206266],[-86.6995633886903,36.1799038426527],[-86.6995368473448,36.1799323672231],[-86.6995136574489,36.1799627514937],[-86.6994940168266,36.1799947365601],[-86.699470398855,36.180035834777],[-86.6994434771661,36.1800755750056],[-86.699413372527,36.1801137853045],[-86.6993802135027,36.1801502954897],[-86.6993441476524,36.1801849460821],[-86.6993053315089,36.1802175865633],[-86.6992639372401,36.1802480744355],[-86.6992201437408,36.1802762734709],[-86.6991741455883,36.18030206087],[-86.699137183841,36.1803205957517],[-86.6991027270467,36.1803420686425],[-86.699071127895,36.1803662593971],[-86.6990427121436,36.1803929191861],[-86.6990177697565,36.1804217741523],[-86.6989965604866,36.1804525280817],[-86.6989650762678,36.1804984808628],[-86.6989306033883,36.1805430026143],[-86.6988932429887,36.1805859647691],[-86.6988531007208,36.1806272459441],[-86.6988102900341,36.1806667265136],[-86.6987649366629,36.1807042930895],[-86.6987171686213,36.1807398385794],[-86.6986547198395,36.180774929161],[-86.6985942919142,36.1808122737819],[-86.6985360109125,36.1808517969109],[-86.6984799950649,36.1808934167537],[-86.6984263603638,36.1809370497265],[-86.6983752138375,36.1809826041858],[-86.6983266625155,36.1810299884885],[-86.697736929057,36.1805521159408],[-86.6973284539209,36.1806489750827],[-86.697417151215,36.1805627546936],[-86.6984142473823,36.179585634706],[-86.6982233249004,36.1794526830378],[-86.6972343801328,36.180431952572],[-86.6970140005865,36.1806485929485],[-86.6967849367874,36.1804938838472],[-86.6965270990131,36.1792229398609],[-86.6964236919914,36.1791773865561],[-86.696397721489,36.1790905638906],[-86.6963689236403,36.1790043280255],[-86.6963373190168,36.1789187419285],[-86.6963396840127,36.1789175278077],[-86.6988830682119,36.1776121256102],[-86.6996792784878,36.1771799587828],[-86.6996327559565,36.1771427792464],[-86.7009915047046,36.1761466819058],[-86.7011370175915,36.1760390707074],[-86.70124350789,36.1759546735942],[-86.7013469324953,36.1758678085178],[-86.7014358816285,36.1757901716616],[-86.701522410412,36.1757107570963],[-86.7016122959081,36.175624149818],[-86.7016994829733,36.175535747522],[-86.7017839176381,36.1754456064062],[-86.7018655470452,36.1753537826617],[-86.7019443216889,36.1752603342628],[-86.7020201887135,36.1751653174005],[-86.7020931042047,36.1750687936214],[-86.7021630208982,36.1749708226891],[-86.7022753813046,36.174803148172],[-86.7022342580609,36.1747506437958],[-86.7034227277551,36.1729526464294],[-86.7043151410191,36.1716024862473],[-86.7046632709294,36.1711257630602],[-86.7047510551973,36.1710284432337],[-86.7048420322768,36.1709330694475],[-86.7049361360973,36.1708397123789],[-86.7050332994459,36.1707484391067],[-86.7051334517598,36.1706593149269],[-86.7053110032999,36.170508837387],[-86.7053546603979,36.1705415450538],[-86.7058123216526,36.1701916420189],[-86.7058678838569,36.1701534099875],[-86.7060074267539,36.1700584082815],[-86.7061491122516,36.1699655145463],[-86.7063755191635,36.1698231060679]]]},"properties":{"id":"267328","parcel":"08400001200","address":"149 BARKER RD","owner":"EAKES, ALICE JANE B","point":[-86.70328598453496,36.17418435669827]}},{"type":"Feature","id":"268064","geometry":{"type":"Polygon","coordinates":[[[-86.7018033383244,36.1719995059887],[-86.7020191542173,36.1718839736571],[-86.702550933351,36.1725555554208],[-86.7021322343104,36.172410749813],[-86.7018033383244,36.1719995059887]]]},"properties":{"id":"268064","parcel":"08413000700","address":"2138 DEARBORN DR","owner":"BAILEY, JOCELYN L.","point":[-86.70212092100756,36.17220550910463]}},{"type":"Feature","id":"268065","geometry":{"type":"Polygon","coordinates":[[[-86.7026271376424,36.1713661875556],[-86.7026700668336,36.1713074790752],[-86.7027111096131,36.1712478902121],[-86.702750235205,36.1711874599018],[-86.7040178818636,36.1717031141249],[-86.7038734536757,36.1719215229468],[-86.7026271376424,36.1713661875556]]]},"properties":{"id":"268065","parcel":"08413001200","address":"2128 DEARBORN DR","owner":"WALLS, NATHANIEL","point":[-86.70330445169196,36.171534608111514]}},{"type":"Feature","id":"268081","geometry":{"type":"Polygon","coordinates":[[[-86.7028678152283,36.1709977823576],[-86.7029800516974,36.1708169204126],[-86.7042613234802,36.1713412800593],[-86.7042101316638,36.1714141015179],[-86.7041355570829,36.1715244184882],[-86.7028678152283,36.1709977823576]]]},"properties":{"id":"268081","parcel":"08413001400","address":"2124 DEARBORN DR","owner":"SPAIN, MICHAEL TODD","point":[-86.70356144862522,36.171169525508475]}},{"type":"Feature","id":"268082","geometry":{"type":"Polygon","coordinates":[[[-86.7030789309265,36.170658113443],[-86.7031015769928,36.1706174950153],[-86.7031215617188,36.1705759709955],[-86.7031388316265,36.1705336525518],[-86.7031533388519,36.1704906571282],[-86.7043586192287,36.1706990008182],[-86.7045078239137,36.1710189840126],[-86.704472187754,36.171061626148],[-86.7044381173648,36.1711051009132],[-86.7030789309265,36.170658113443]]]},"properties":{"id":"268082","parcel":"08413001600","address":"2120 DEARBORN DR","owner":"SULLIVANT, GARY D. ET UX","point":[-86.70405867070856,36.170858067240964]}},{"type":"Feature","id":"268083","geometry":{"type":"Polygon","coordinates":[[[-86.7015263495887,36.171020968285],[-86.7018206150568,36.1705819263875],[-86.7018913254018,36.1706144275237],[-86.7019639245727,36.1706440642368],[-86.7020382363002,36.1706707645466],[-86.7017632150365,36.1711404614764],[-86.7015263495887,36.171020968285]]]},"properties":{"id":"268083","parcel":"08413002500","address":"205 DONELSON HILLS DR","owner":"HARDIN, THOMAS H.","point":[-86.70178971395754,36.1708458851767]}},{"type":"Feature","id":"268084","geometry":{"type":"Polygon","coordinates":[[[-86.7023959170536,36.1706598927281],[-86.7025722480045,36.1703709753032],[-86.7029929849924,36.1704410474652],[-86.7029749967962,36.1704950161865],[-86.702952847815,36.1705479591655],[-86.70292662842,36.1705996640766],[-86.7028304176549,36.1707540599276],[-86.7028222722662,36.170763864424],[-86.702812282204,36.1707724728705],[-86.7028007066925,36.1707796602439],[-86.7027878508391,36.1707852364037],[-86.7027740534798,36.1707890542732],[-86.7027596761121,36.1707910153125],[-86.7027450962018,36.1707910668529],[-86.7027306994504,36.17078920755],[-86.7027168608989,36.1707854874938],[-86.7023959170536,36.1706598927281]]]},"properties":{"id":"268084","parcel":"08413002700","address":"2119 DEARBORN DR","owner":"LING, KAH HING & YIOK MING LEE","point":[-86.70269446770588,36.17057320284023]}},{"type":"Feature","id":"268447","geometry":{"type":"Polygon","coordinates":[[[-86.7010782438393,36.1727619062991],[-86.7014408122786,36.1726894753285],[-86.7014552767483,36.1727458616381],[-86.7014654270375,36.1728028633433],[-86.7014712234249,36.1728602634716],[-86.7014726461965,36.1729178449341],[-86.701472554872,36.1729335427424],[-86.7014695973593,36.1729490580283],[-86.7014638395288,36.1729640461268],[-86.7014571070944,36.1729754177174],[-86.7014488524439,36.1729861104909],[-86.7014387394879,36.1729982182285],[-86.7014308924202,36.1730113843983],[-86.7014254799884,36.1730253331352],[-86.7014226129735,36.1730397699844],[-86.7014223531611,36.173054390862],[-86.7010158361671,36.1730611479044],[-86.7010782438393,36.1727619062991]]]},"properties":{"id":"268447","parcel":"08414001600","address":"105 GRAEME DR","owner":"COX, ANTHONY T. & ANNA M.","point":[-86.70126194010149,36.172888530421744]}},{"type":"Feature","id":"268448","geometry":{"type":"Polygon","coordinates":[[[-86.7009819799246,36.1732173790712],[-86.7010158361671,36.1730611479044],[-86.7014223531611,36.173054390862],[-86.7014237401721,36.1730719664198],[-86.7014285207284,36.1730891473327],[-86.7014365765279,36.1731055025831],[-86.7014477061253,36.1731206268722],[-86.7014616327375,36.1731341432775],[-86.701478009904,36.1731457149372],[-86.7014964271085,36.1731550522272],[-86.7012669670546,36.173567343763],[-86.7009819799246,36.1732173790712]]]},"properties":{"id":"268448","parcel":"08414001700","address":"103 GRAEME DR","owner":"GOBLE, TRACY & GRAYSON","point":[-86.70124424695929,36.1733926604341]}},{"type":"Feature","id":"268481","geometry":{"type":"Polygon","coordinates":[[[-86.7001247898219,36.1709917460197],[-86.7006660306832,36.1705886341868],[-86.700731368017,36.1706212194627],[-86.7009383018275,36.1707277025669],[-86.7003759621681,36.1711968671675],[-86.7002039513669,36.1710550177796],[-86.700163005475,36.1710245042356],[-86.7001247898219,36.1709917460197]]]},"properties":{"id":"268481","parcel":"08414005400","address":"212 GRAEME DR","owner":"CATHEY, HAROLD JOE ET UX","point":[-86.70054106835666,36.17085974880438]}},{"type":"Feature","id":"268679","geometry":{"type":"Polygon","coordinates":[[[-86.702750235205,36.1711874599018],[-86.7028678152283,36.1709977823576],[-86.7041355570829,36.1715244184882],[-86.7040178818636,36.1717031141249],[-86.702750235205,36.1711874599018]]]},"properties":{"id":"268679","parcel":"08413001300","address":"2126 DEARBORN DR","owner":"FAIRCLOTH, JEREMY S.","point":[-86.703447205942,36.17135595187255]}},{"type":"Feature","id":"268680","geometry":{"type":"Polygon","coordinates":[[[-86.7017363840396,36.1711713838589],[-86.7017632150365,36.1711404614764],[-86.7021505369764,36.1711096398604],[-86.7025069495212,36.1712614006812],[-86.7024535688568,36.1713314906841],[-86.702397046747,36.1713999424223],[-86.7023454720126,36.1714573275858],[-86.7022908146146,36.1715128064671],[-86.7022331813945,36.1715662684863],[-86.7017363840396,36.1711713838589]]]},"properties":{"id":"268680","parcel":"08413002200","address":"2127 DEARBORN DR","owner":"STEELMAN, JODEAN LIVING TRUST","point":[-86.70220239117262,36.17136516231721]}},{"type":"Feature","id":"268681","geometry":{"type":"Polygon","coordinates":[[[-86.7021505369764,36.1711096398604],[-86.7023401489876,36.170789878265],[-86.702636618972,36.1709068256353],[-86.7026483616506,36.1709121107766],[-86.7026588869245,36.1709188747653],[-86.702667915297,36.1709269362725],[-86.7026752081017,36.1709360803851],[-86.7026805686698,36.1709460649072],[-86.7026838556919,36.1709566229871],[-86.7026849810913,36.1709674739435],[-86.7026839167406,36.1709783286352],[-86.7026806878808,36.1709888994125],[-86.7026753831487,36.1709989027626],[-86.7025978941191,36.1711246148925],[-86.7025069495212,36.1712614006812],[-86.7021505369764,36.1711096398604]]]},"properties":{"id":"268681","parcel":"08413002300","address":"201 DONELSON HILLS DR","owner":"MAYNARD, BENJAMIN T","point":[-86.70241230602574,36.17105426997416]}},{"type":"Feature","id":"268682","geometry":{"type":"Polygon","coordinates":[[[-86.7017632150365,36.1711404614764],[-86.7020382363002,36.1706707645466],[-86.7023401489876,36.170789878265],[-86.7021505369764,36.1711096398604],[-86.7017632150365,36.1711404614764]]]},"properties":{"id":"268682","parcel":"08413002400","address":"203 DONELSON HILLS DR","owner":"HARRIS JOINT REVOCABLE LIVING TRUST","point":[-86.70206037972936,36.170949298980524]}},{"type":"Feature","id":"269169","geometry":{"type":"Polygon","coordinates":[[[-86.7043586192287,36.1706990008182],[-86.7042011290989,36.1703614830254],[-86.7045683033677,36.1701989101208],[-86.7048274558235,36.1700809242078],[-86.7048588034077,36.1701209194448],[-86.7048926045859,36.1701595790933],[-86.7049287706792,36.1701968054317],[-86.7049702708247,36.1702402499607],[-86.7050147026367,36.1702817432417],[-86.705061930464,36.1703211553808],[-86.705111804269,36.1703583637782],[-86.7051609383702,36.1703976349604],[-86.7049860804416,36.1705458983716],[-86.7048840552103,36.1706361581452],[-86.7047851432106,36.1707286681287],[-86.7046894194029,36.1708233575933],[-86.7045969553986,36.1709201540278],[-86.7045078239137,36.1710189840126],[-86.7043586192287,36.1706990008182]]]},"properties":{"id":"269169","parcel":"08413001800","address":"2112 GUARANTY DR","owner":"RAMIREZ-DARDON, ELDER RICARDO","point":[-86.70462129156833,36.17059025458996]}},{"type":"Feature","id":"269171","geometry":{"type":"Polygon","coordinates":[[[-86.7013848876895,36.171575596195],[-86.7015914875609,36.1713370499064],[-86.7019475779293,36.1717591216989],[-86.7019384690334,36.1717635728303],[-86.7016670248084,36.1719101956955],[-86.7013848876895,36.171575596195]]]},"properties":{"id":"269171","parcel":"08413002000","address":"2135 DEARBORN DR","owner":"WONG, LING & TING LOK","point":[-86.70166621137244,36.17166735922407]}},{"type":"Feature","id":"269173","geometry":{"type":"Polygon","coordinates":[[[-86.7015914875609,36.1713370499064],[-86.7017363840396,36.1711713838589],[-86.7022331813945,36.1715662684863],[-86.7021813272958,36.1716096955507],[-86.7021266792825,36.1716508081801],[-86.7020693941621,36.1716894891958],[-86.7020096365874,36.1717256285839],[-86.7019475779293,36.1717591216989],[-86.7015914875609,36.1713370499064]]]},"properties":{"id":"269173","parcel":"08413002100","address":"2131 DEARBORN DR","owner":"HJL, L.P.","point":[-86.70188862815368,36.1714516006032]}},{"type":"Feature","id":"269175","geometry":{"type":"Polygon","coordinates":[[[-86.701444671417,36.1709796874899],[-86.7012568250956,36.1708862798282],[-86.7016217894217,36.1704732003779],[-86.7016863745802,36.1705114476375],[-86.7017526806957,36.1705477065859],[-86.7018206150568,36.1705819263875],[-86.7015263495887,36.171020968285],[-86.701444671417,36.1709796874899]]]},"properties":{"id":"269175","parcel":"08413002600","address":"207 DONELSON HILLS DR","owner":"LEATH, JAMES E. & CAROLYN L., TRS.","point":[-86.70155496021542,36.17073414392459]}},{"type":"Feature","id":"269177","geometry":{"type":"Polygon","coordinates":[[[-86.7005306854761,36.1755209239784],[-86.7005305700405,36.1754997909757],[-86.7005264439736,36.1754789236875],[-86.7005184061618,36.1754588199369],[-86.7005066487042,36.1754399589807],[-86.7004914512423,36.1754227889243],[-86.7004731753391,36.1754077195446],[-86.7004522577052,36.1753951106131],[-86.7004291956537,36.1753852611653],[-86.7005098316277,36.1752312336532],[-86.7005331656462,36.1745737290624],[-86.7006300807285,36.1744984465972],[-86.7010446525182,36.1741751841797],[-86.7014646214156,36.1738496916504],[-86.7014834584382,36.1738341985468],[-86.7020616529296,36.1745428724066],[-86.7018878664379,36.1748141929935],[-86.7018206595484,36.1749141605309],[-86.7017498228087,36.1750124673759],[-86.701675416573,36.1751090257492],[-86.7015975090091,36.1752037514306],[-86.7015161671667,36.1752965593053],[-86.7014314625825,36.1753873687383],[-86.7013434701373,36.1754760999769],[-86.7012851612131,36.1755322421375],[-86.7012251855694,36.1755872178049],[-86.7005306854761,36.1755209239784]]]},"properties":{"id":"269177","parcel":"08414000100","address":"2014 BROOKVIEW DR","owner":"KENT, JAMES NATHAN & MELISSA MOON","point":[-86.70124631657802,36.174694052282]}},{"type":"Feature","id":"269179","geometry":{"type":"Polygon","coordinates":[[[-86.6994971439965,36.1748148843749],[-86.6996864867394,36.1747698369934],[-86.7001409253076,36.1746639102286],[-86.7005331656462,36.1745737290624],[-86.7005098316277,36.1752312336532],[-86.7004291956537,36.1753852611653],[-86.700402983291,36.1753790674825],[-86.7003758752258,36.1753764299601],[-86.7003486001926,36.1753774191741],[-86.7003218905215,36.1753820092452],[-86.7002964654562,36.1753900770346],[-86.7002730078281,36.1754014040817],[-86.700252149701,36.1754156875021],[-86.7002344501566,36.1754325419193],[-86.6994971439965,36.1748148843749]]]},"properties":{"id":"269179","parcel":"08414000200","address":"2015 BROOKVIEW DR","owner":"ALLEN, AMANDA & JUDSON","point":[-86.70013102210659,36.175023379580956]}},{"type":"Feature","id":"270126","geometry":{"type":"Polygon","coordinates":[[[-86.6999420877127,36.1736321699978],[-86.6999996319136,36.1735968763659],[-86.7000548239731,36.1735591953868],[-86.7001075158414,36.1735192297647],[-86.7001575617482,36.1734770884997],[-86.7010446525182,36.1741751841797],[-86.7006300807285,36.1744984465972],[-86.6999420877127,36.1736321699978]]]},"properties":{"id":"270126","parcel":"08414001100","address":"2204 DEARBORN DR","owner":"ROVETTO, ANGELA M","point":[-86.7004286723353,36.173903516495585]}},{"type":"Feature","id":"270127","geometry":{"type":"Polygon","coordinates":[[[-86.7003346635317,36.1732738774589],[-86.7003613032139,36.1732344873668],[-86.7003853633578,36.1731940208078],[-86.7004067771411,36.1731525890265],[-86.7004994231714,36.1729696468426],[-86.7006065821552,36.1727580521426],[-86.7009819799246,36.1732173790712],[-86.7012669670546,36.173567343763],[-86.7014834584382,36.1738341985468],[-86.7014646214156,36.1738496916504],[-86.7003346635317,36.1732738774589]]]},"properties":{"id":"270127","parcel":"08414001300","address":"2200 DEARBORN DR","owner":"KAMEL, KARAM & HOOKER, ANNA","point":[-86.70088495593167,36.17342082175638]}},{"type":"Feature","id":"270128","geometry":{"type":"Polygon","coordinates":[[[-86.7008645648144,36.1725060225915],[-86.7011775100702,36.1723393823075],[-86.7011871240108,36.172334962549],[-86.7011975181845,36.1723319153855],[-86.7012083954668,36.172330329064],[-86.7012194472442,36.172330249539],[-86.7012303578276,36.1723316768421],[-86.7012408178628,36.1723345731149],[-86.701250527577,36.1723388526767],[-86.7012592113559,36.1723443963599],[-86.7012666221347,36.1723510451753],[-86.7012725470345,36.1723586092925],[-86.7012952227782,36.1723883516787],[-86.701316447395,36.1724187892534],[-86.7013490061242,36.1724703965025],[-86.701377812739,36.1725234504399],[-86.7014027700407,36.1725777704793],[-86.7014237930406,36.1726331741607],[-86.7014408122786,36.1726894753285],[-86.7010782438393,36.1727619062991],[-86.7008645648144,36.1725060225915]]]},"properties":{"id":"270128","parcel":"08414001500","address":"107 GRAEME DR","owner":"BASS, WILLIAM B & SARAH C REVOCABLE TRUST","point":[-86.70114553470587,36.1725499997736]}},{"type":"Feature","id":"270227","geometry":{"type":"Polygon","coordinates":[[[-86.7003759621681,36.1711968671675],[-86.7009383018275,36.1707277025669],[-86.7012568250956,36.1708862798282],[-86.701444671417,36.1709796874899],[-86.7007527608256,36.1715089431246],[-86.7006933593187,36.1714581927154],[-86.700654431899,36.1714238057134],[-86.7003759621681,36.1711968671675]]]},"properties":{"id":"270227","parcel":"08414005300","address":"210 GRAEME DR","owner":"MATTHYS, PAUL J. ET UX","point":[-86.70090437833608,36.17108826368919]}},{"type":"Feature","id":"270228","geometry":{"type":"Polygon","coordinates":[[[-86.7009383018275,36.1707277025669],[-86.700731368017,36.1706212194627],[-86.7012698900885,36.1702181188307],[-86.7012833465981,36.1702070542584],[-86.7012969961753,36.1702179613425],[-86.7013559022517,36.1702738398269],[-86.7014179749161,36.1703274187854],[-86.7014830763952,36.1703785791459],[-86.7015510645247,36.1704272081709],[-86.7016217894217,36.1704732003779],[-86.7012568250956,36.1708862798282],[-86.7009383018275,36.1707277025669]]]},"properties":{"id":"270228","parcel":"08414005900","address":"209 DONELSON HILLS DR","owner":"BRADLEY, JOHN & EMMA","point":[-86.70119347853873,36.17054725292655]}},{"type":"Feature","id":"270231","geometry":{"type":"Polygon","coordinates":[[[-86.6998202759956,36.171806638722],[-86.6997654459287,36.1717366329327],[-86.70027668898,36.1713117204963],[-86.7005333018794,36.1715190070201],[-86.7005707913877,36.1715513069716],[-86.7006070628173,36.1715845080335],[-86.700001093698,36.1720253548615],[-86.6998202759956,36.171806638722]]]},"properties":{"id":"270231","parcel":"08414006200","address":"209 GRAEME DR","owner":"DAVIS, ERON CORINNE & WILLIAM C.","point":[-86.70017968886567,36.171660554783216]}},{"type":"Feature","id":"270232","geometry":{"type":"Polygon","coordinates":[[[-86.700001093698,36.1720253548615],[-86.7006070628173,36.1715845080335],[-86.700678581402,36.1716509674421],[-86.7007471566023,36.1717194347836],[-86.7008127032,36.1717898267405],[-86.7008751392469,36.1718620527658],[-86.7008833487675,36.1718707951053],[-86.7001901651113,36.1722572083066],[-86.700001093698,36.1720253548615]]]},"properties":{"id":"270232","parcel":"08414006300","address":"205 GRAEME DR","owner":"ROTH, DOLORIS","point":[-86.70042591657989,36.17194803500288]}},{"type":"Feature","id":"270233","geometry":{"type":"Polygon","coordinates":[[[-86.7001901651113,36.1722572083066],[-86.7008833487675,36.1718707951053],[-86.7011026412113,36.1721486225818],[-86.7011083342303,36.1721561141506],[-86.7011124323723,36.1721642620892],[-86.7011148247485,36.1721728453313],[-86.7011154448276,36.1721816308365],[-86.7011142782641,36.1721903789527],[-86.7011113552053,36.1721988533739],[-86.7011067547615,36.1722068238186],[-86.7011006017272,36.1722140723578],[-86.701093065565,36.1722204042355],[-86.7010843481631,36.1722256461379],[-86.7007713837559,36.1723900890215],[-86.7007253313493,36.172418976851],[-86.700681455462,36.1724500123528],[-86.7006399096642,36.1724830891902],[-86.7006008374361,36.1725180911712],[-86.7005643733266,36.1725548976494],[-86.7005306462641,36.1725933808009],[-86.7004997717836,36.1726334065708],[-86.7001901651113,36.1722572083066]]]},"properties":{"id":"270233","parcel":"08414006400","address":"201 GRAEME DR","owner":"ADAMS, ANTHONY C. ET UX","point":[-86.70063634168422,36.172241425769556]}},{"type":"Feature","id":"270974","geometry":{"type":"Polygon","coordinates":[[[-86.7023323225668,36.1702119414678],[-86.702380445961,36.1701369440689],[-86.7024349637617,36.1701717886668],[-86.7025722480045,36.1703709753032],[-86.7023959170536,36.1706598927281],[-86.7021130353328,36.1705472611822],[-86.7023323225668,36.1702119414678]]]},"properties":{"id":"270974","parcel":"08413002800","address":"202 DONELSON HILLS DR","owner":"DIVER, HUGH J.& REBECCA L.","point":[-86.70234457183147,36.170459123262525]}},{"type":"Feature","id":"270979","geometry":{"type":"Polygon","coordinates":[[[-86.7018763655047,36.1704497439121],[-86.7020504535357,36.1702135812668],[-86.702189618467,36.1700127887896],[-86.7022932124576,36.1700803125171],[-86.702380445961,36.1701369440689],[-86.7023323225668,36.1702119414678],[-86.7021130353328,36.1705472611822],[-86.7020323686695,36.1705176435419],[-86.7019534259144,36.1704851155596],[-86.7018763655047,36.1704497439121]]]},"properties":{"id":"270979","parcel":"08413002900","address":"204 DONELSON HILLS DR","owner":"JIMMY GREGORY ENTERPRISES","point":[-86.7021084834872,36.17033202365376]}},{"type":"Feature","id":"270987","geometry":{"type":"Polygon","coordinates":[[[-86.7001575617482,36.1734770884997],[-86.7002065923366,36.1734291102238],[-86.7002525330113,36.1733791607681],[-86.7002952593238,36.173327371541],[-86.7003346635317,36.1732738774589],[-86.7014646214156,36.1738496916504],[-86.7010446525182,36.1741751841797],[-86.7001575617482,36.1734770884997]]]},"properties":{"id":"270987","parcel":"08414001200","address":"2202 DEARBORN DR","owner":"KAMEL, KARAM & HOOKER, ANNA F.","point":[-86.70074670960513,36.173663230955334]}},{"type":"Feature","id":"270991","geometry":{"type":"Polygon","coordinates":[[[-86.7006065821552,36.1727580521426],[-86.7006344452542,36.1727166324503],[-86.700665542207,36.1726767540634],[-86.7006997422028,36.1726385835711],[-86.7007369065631,36.1726022776942],[-86.7007768765634,36.1725679887633],[-86.7008194878347,36.1725358592284],[-86.7008645648144,36.1725060225915],[-86.7010782438393,36.1727619062991],[-86.7010158361671,36.1730611479044],[-86.7009819799246,36.1732173790712],[-86.7006065821552,36.1727580521426]]]},"properties":{"id":"270991","parcel":"08414001400","address":"2148 DEARBORN DR","owner":"REDDEN, BETTY M.","point":[-86.7008892044004,36.1729111328991]}},{"type":"Feature","id":"271016","geometry":{"type":"Polygon","coordinates":[[[-86.6999334985851,36.1708148462314],[-86.7004698810046,36.1704754971012],[-86.7004917958325,36.1705017399564],[-86.7006660306832,36.1705886341868],[-86.7001247898219,36.1709917460197],[-86.700073535445,36.1709500309666],[-86.700024510149,36.1709065905658],[-86.6999778035378,36.1708615018085],[-86.6999334985851,36.1708148462314]]]},"properties":{"id":"271016","parcel":"08414005500","address":"216 GRAEME DR","owner":"MASSEY, MORGAN & GANN, TIMOTHY II","point":[-86.70031323292851,36.17070177448344]}},{"type":"Feature","id":"271054","geometry":{"type":"Polygon","coordinates":[[[-86.7000566496779,36.1758643102124],[-86.7002362932471,36.1757182246914],[-86.7003015573817,36.1756651024762],[-86.7003150868053,36.1756565115731],[-86.7003300252445,36.1756496239885],[-86.7003460483215,36.1756445903119],[-86.7003628101491,36.1756415170962],[-86.7003799467209,36.1756404731463],[-86.7004056637458,36.175637767051],[-86.7004304940399,36.1756317007867],[-86.7004537742639,36.1756224350223],[-86.7004748796442,36.1756102176262],[-86.7004932472374,36.1755953745176],[-86.7005083881016,36.1755783032877],[-86.7005198938621,36.1755594614444],[-86.7005274599119,36.1755393500553],[-86.7005306854761,36.1755209239784],[-86.7012251855694,36.1755872178049],[-86.7011506982442,36.1756509568791],[-86.7010745059751,36.1757133593236],[-86.7009803402242,36.1757895472378],[-86.7008835593213,36.1758635493809],[-86.7007842394403,36.1759353058212],[-86.7006824612508,36.1760047620086],[-86.7005783042714,36.1760718588936],[-86.7004718525481,36.1761365464132],[-86.7003631900957,36.1761987708995],[-86.7000566496779,36.1758643102124]]]},"properties":{"id":"271054","parcel":"08410005900","address":"2102 BROOKVIEW DR","owner":"MILLS, NATHAN","point":[-86.70051878885981,36.175825515541675]}},{"type":"Feature","id":"271289","geometry":{"type":"Polygon","coordinates":[[[-86.7016130324348,36.1731609672357],[-86.7016330426995,36.1731537246458],[-86.701651358925,36.1731439719718],[-86.7016675086909,36.1731319616103],[-86.7016810701309,36.1731180060484],[-86.7016916940597,36.1731024660192],[-86.7016991039256,36.1730857450938],[-86.7029213046902,36.1733643293928],[-86.7022686441456,36.1743482756307],[-86.7016130324348,36.1731609672357]]]},"properties":{"id":"271289","parcel":"08413000200","address":"100 GRAEME DR","owner":"ERWIN, APRIL N.","point":[-86.70229556838021,36.173855558873704]}},{"type":"Feature","id":"271292","geometry":{"type":"Polygon","coordinates":[[[-86.7016991039256,36.1730857450938],[-86.7017029536786,36.173067427099],[-86.7017033251591,36.1730488472295],[-86.7017002110716,36.1730304372321],[-86.7016936830079,36.1730126247898],[-86.7016838924703,36.1729958236016],[-86.7016710674496,36.1729804234893],[-86.70166179355,36.1729721407268],[-86.7016539432775,36.1729629412162],[-86.7016475294795,36.1729521408253],[-86.7016431275338,36.172940696955],[-86.7016408307612,36.1729288551073],[-86.7016406891961,36.1729168682463],[-86.7016406114662,36.17290807779],[-86.7032101512848,36.1729253159478],[-86.7031912816024,36.1729539949804],[-86.7029213046902,36.1733643293928],[-86.7016991039256,36.1730857450938]]]},"properties":{"id":"271292","parcel":"08413000300","address":"102 A GRAEME DR","owner":"WILSON, BENJAMIN REVOCABLE LIVING TRUST & ET AL","point":[-86.70266100360655,36.17322591051194]}},{"type":"Feature","id":"271295","geometry":{"type":"Polygon","coordinates":[[[-86.7014418590038,36.1721949999846],[-86.7018033383244,36.1719995059887],[-86.7021322343104,36.172410749813],[-86.7015724545597,36.1725568520345],[-86.7015476010984,36.1725002079725],[-86.7015194153972,36.1724445989933],[-86.7014879619585,36.1723901536007],[-86.7014533141602,36.1723369984433],[-86.7014155542319,36.1722852556125],[-86.7014098785401,36.1722735667804],[-86.7014067751415,36.172261259155],[-86.7014063395576,36.1722487016989],[-86.7014085829057,36.1722362719763],[-86.7014134384487,36.1722243425961],[-86.7014207604037,36.1722132722061],[-86.7014303304923,36.1722033919362],[-86.7014418590038,36.1721949999846]]]},"properties":{"id":"271295","parcel":"08413000600","address":"2140 DEARBORN DR","owner":"ROBERTSON, STEVEN E. ET UX","point":[-86.70172056886625,36.17228017854163]}},{"type":"Feature","id":"271298","geometry":{"type":"Polygon","coordinates":[[[-86.7027330917401,36.1726182268911],[-86.702550933351,36.1725555554208],[-86.7020191542173,36.1718839736571],[-86.7020858754263,36.1718485300933],[-86.7021506330407,36.1718107699542],[-86.7022133065241,36.1717707642428],[-86.7031871237135,36.1727738127733],[-86.7027330917401,36.1726182268911]]]},"properties":{"id":"271298","parcel":"08413000800","address":"2136 DEARBORN DR","owner":"VANDEVENTER, LAURA","point":[-86.70246757074523,36.17222021856847]}},{"type":"Feature","id":"271303","geometry":{"type":"Polygon","coordinates":[[[-86.7023694366039,36.171648985755],[-86.7024170805001,36.171604612451],[-86.7024627728838,36.1715589103079],[-86.702506456444,36.1715119346381],[-86.7036728680146,36.1722259672034],[-86.7034776226997,36.1725215890587],[-86.7023694366039,36.171648985755]]]},"properties":{"id":"271303","parcel":"08413001000","address":"2132 DEARBORN DR","owner":"CARNES, JANIS G. & COMSTOCK, MARSHA G.","point":[-86.70296862184114,36.17193734794575]}},{"type":"Feature","id":"271379","geometry":{"type":"Polygon","coordinates":[[[-86.7029800516974,36.1708169204126],[-86.7030789309265,36.170658113443],[-86.7044381173648,36.1711051009132],[-86.7043769152489,36.1711826998802],[-86.7043179729602,36.1712614401447],[-86.7042613234802,36.1713412800593],[-86.7029800516974,36.1708169204126]]]},"properties":{"id":"271379","parcel":"08413001500","address":"2122 DEARBORN DR","owner":"MANGUM, DOROTHY","point":[-86.70366600896845,36.170960906276896]}},{"type":"Feature","id":"271384","geometry":{"type":"Polygon","coordinates":[[[-86.7031533388519,36.1704906571282],[-86.7031660726083,36.170445094423],[-86.7031754858985,36.1703990039937],[-86.7031815445738,36.1703525455634],[-86.7031842267042,36.1703058778826],[-86.7041790180537,36.1703132637895],[-86.7042011290989,36.1703614830254],[-86.7043586192287,36.1706990008182],[-86.7031533388519,36.1704906571282]]]},"properties":{"id":"271384","parcel":"08413001700","address":"2118 DEARBORN DR","owner":"ASCHLIMAN, KURT & HANNAH","point":[-86.70403331493245,36.17059551636401]}},{"type":"Feature","id":"271389","geometry":{"type":"Polygon","coordinates":[[[-86.7010153972106,36.1717843209567],[-86.7013848876895,36.171575596195],[-86.7016670248084,36.1719101956955],[-86.7013406082755,36.1720857064679],[-86.7013322347029,36.1720899784353],[-86.7013231568368,36.1720931693748],[-86.7013135874449,36.1720952050478],[-86.7013023782838,36.1720960876191],[-86.7012911486818,36.1720954120261],[-86.7012802222922,36.17209319892],[-86.7012699209194,36.172089511322],[-86.7012605412006,36.1720844574629],[-86.7012523578853,36.172078184455],[-86.7012456093527,36.1720708747709],[-86.7010153972106,36.1717843209567]]]},"properties":{"id":"271389","parcel":"08413001900","address":"2139 DEARBORN DR","owner":"HISLE, ELIZABETH C. & WILLIAM E. JR.","point":[-86.70133996870989,36.171847255670315]}},{"type":"Feature","id":"271407","geometry":{"type":"Polygon","coordinates":[[[-86.6996883374492,36.1737501183914],[-86.6997419906637,36.1737308944006],[-86.6997943323808,36.1737094266378],[-86.6998452219315,36.1736857726996],[-86.6998945187032,36.1736599964916],[-86.6999420877127,36.1736321699978],[-86.7006300807285,36.1744984465972],[-86.7005331656462,36.1745737290624],[-86.7001409253076,36.1746639102286],[-86.6996883374492,36.1737501183914]]]},"properties":{"id":"271407","parcel":"08414001000","address":"2206 DEARBORN DR","owner":"STACY, ZACHARIAH & SABRINA F.","point":[-86.70010328282169,36.17412414335333]}},{"type":"Feature","id":"271638","geometry":{"type":"Polygon","coordinates":[[[-86.7007527608256,36.1715089431246],[-86.701444671417,36.1709796874899],[-86.7015263495887,36.171020968285],[-86.7017632150365,36.1711404614764],[-86.7017363840396,36.1711713838589],[-86.7015914875609,36.1713370499064],[-86.7013848876895,36.171575596195],[-86.7010153972106,36.1717843209567],[-86.7009543433237,36.171712659277],[-86.7008901643039,36.1716428164341],[-86.7008229420917,36.1715748820736],[-86.7007527608256,36.1715089431246]]]},"properties":{"id":"271638","parcel":"08414005200","address":"204 GRAEME DR","owner":"BURGESS, PHILIP D. ET UX","point":[-86.70119121361417,36.17142304489428]}},{"type":"Feature","id":"271640","geometry":{"type":"Polygon","coordinates":[[[-86.6997637158824,36.1706180423416],[-86.7003356801572,36.1703180411993],[-86.7004698810046,36.1704754971012],[-86.6999334985851,36.1708148462314],[-86.6998945425085,36.1707747424417],[-86.6998580078139,36.1707331672586],[-86.6998239820393,36.1706902157102],[-86.6997637158824,36.1706180423416]]]},"properties":{"id":"271640","parcel":"08414005600","address":"218 GRAEME DR","owner":"PHILLIPS, FERRIS & WALLACE, MAGGIE","point":[-86.70012845533479,36.17054679943886]}}]}