{"type":"FeatureCollection","features":[{"type":"Feature","id":"50220","geometry":{"type":"Polygon","coordinates":[[[-86.7725806178511,36.3646021273836],[-86.772818388627,36.3645003461731],[-86.7777160410231,36.3693499485625],[-86.7771647821899,36.3707686948291],[-86.7771344444206,36.3708445113812],[-86.7742268880337,36.3717475961719],[-86.772721271827,36.372804586232],[-86.7715348334545,36.371699300873],[-86.7716000541236,36.3711634249016],[-86.7717994465034,36.3695250905683],[-86.7719900182246,36.3679591642997],[-86.7720193046472,36.3677816834388],[-86.7720593498839,36.367569366881],[-86.7722732982307,36.3665219803229],[-86.7724214229636,36.3656211478473],[-86.7725806178511,36.3646021273836]]]},"properties":{"id":"50220","parcel":"00600016700","address":"0 BAKER RD","owner":"WILLIAMSON, CHARLES D.","point":[-86.77446195512607,36.36865385312221]}}]}