{"type":"FeatureCollection","features":[{"type":"Feature","id":"14641","geometry":{"type":"Polygon","coordinates":[[[-86.7856416025739,36.2904436521465],[-86.7861473822451,36.2897369204062],[-86.7862227402147,36.2897778178441],[-86.7862955809507,36.2898216038517],[-86.7863657342267,36.2898681758984],[-86.7864330375713,36.2899174277986],[-86.7857894307256,36.2904663145635],[-86.7856416025739,36.2904436521465]]]},"properties":{"id":"14641","parcel":"032090B01000CO","address":"4944 INDIAN SUMMER DR","owner":"MONET, DORIAN TRUST","point":[-86.7859772533553,36.29018043313956]}},{"type":"Feature","id":"14881","geometry":{"type":"Polygon","coordinates":[[[-86.7853703430927,36.2903945948703],[-86.785917896824,36.2896273675005],[-86.7860844335512,36.2897058900876],[-86.7861473822451,36.2897369204062],[-86.7856416025739,36.2904436521465],[-86.7854523467879,36.2904093813211],[-86.7853703430927,36.2903945948703]]]},"properties":{"id":"14881","parcel":"032090B00900CO","address":"4940 INDIAN SUMMER DR","owner":"TABIBI, MOHAMMED & HAMID","point":[-86.78575853807286,36.29006575769943]}},{"type":"Feature","id":"14883","geometry":{"type":"Polygon","coordinates":[[[-86.7859229982909,36.2904879718055],[-86.7857894307256,36.2904663145635],[-86.7864330375713,36.2899174277986],[-86.7864938627776,36.2899663162512],[-86.7865518799139,36.2900173922221],[-86.7866346352224,36.2900936562953],[-86.7859316507501,36.2906074069858],[-86.7859229982909,36.2904879718055]]]},"properties":{"id":"14883","parcel":"032090B01100CO","address":"4948 INDIAN SUMMER DR","owner":"COLE, BRITTANY","point":[-86.78619380391223,36.29027995358763]}},{"type":"Feature","id":"14889","geometry":{"type":"Polygon","coordinates":[[[-86.7838611887394,36.2901340881924],[-86.7838330539719,36.2896571223008],[-86.7841518294657,36.2898099821282],[-86.7844470802913,36.2899517337135],[-86.7846785745893,36.2900625831477],[-86.7849076858549,36.2901726229796],[-86.7851388419156,36.2902834728281],[-86.7853703430927,36.2903945948703],[-86.7838611887394,36.2901340881924]]]},"properties":{"id":"14889","parcel":"032090B02600CO","address":"0 INDIAN SUMMER DR","owner":"QUAIL RIDGE SECTION 7 PROPERTY OWNERS'S ASSOCIATION, INC.","point":[-86.78420822668089,36.29000651908369]}},{"type":"Feature","id":"17994","geometry":{"type":"Polygon","coordinates":[[[-86.7859316507501,36.2906074069858],[-86.7866346352224,36.2900936562953],[-86.7868127242312,36.2902577770304],[-86.7860050307549,36.2908456441825],[-86.7859468807169,36.2908176684329],[-86.7859316507501,36.2906074069858]]]},"properties":{"id":"17994","parcel":"032090B01200CO","address":"4952 INDIAN SUMMER DR","owner":"NELSON, BURLEY & TANYA","point":[-86.78637169909791,36.29043259195115]}},{"type":"Feature","id":"17996","geometry":{"type":"Polygon","coordinates":[[[-86.7860050307549,36.2908456441825],[-86.7868127242312,36.2902577770304],[-86.7869721812938,36.2904047249513],[-86.7869918936677,36.2904228899383],[-86.7869656360919,36.2904412199044],[-86.7862308059423,36.2909541810085],[-86.7860050307549,36.2908456441825]]]},"properties":{"id":"17996","parcel":"032090B01300CO","address":"4956 INDIAN SUMMER DR","owner":"SLONE, WILLIAM A. & FLEGAL, DIANA ROSE","point":[-86.78647941541116,36.29064342244599]}},{"type":"Feature","id":"36095","geometry":{"type":"Polygon","coordinates":[[[-86.7874561200104,36.2915169284857],[-86.7875791470214,36.2914128029227],[-86.787616214702,36.2913795941745],[-86.7876510056512,36.2913448095649],[-86.7879562026304,36.291570556982],[-86.7877567929036,36.2917393298303],[-86.7874561200104,36.2915169284857]]]},"properties":{"id":"36095","parcel":"032090B03900CO","address":"205 INDIAN SUMMER CT","owner":"SMITH, JOSEPH & COURTNEY","point":[-86.78770616124403,36.29154374299509]}},{"type":"Feature","id":"36096","geometry":{"type":"Polygon","coordinates":[[[-86.7881886551258,36.2910009260826],[-86.788448931612,36.290900292794],[-86.7886443376664,36.2912206805634],[-86.7883839834326,36.2913211894926],[-86.7881886551258,36.2910009260826]]]},"properties":{"id":"36096","parcel":"032090B04200CO","address":"4604 INDIAN SUMMER DR","owner":"VELA, JACINTO QUIROZ & PEREZ, SILVIA","point":[-86.78841649593404,36.29111080353977]}},{"type":"Feature","id":"37089","geometry":{"type":"Polygon","coordinates":[[[-86.7864384057381,36.2911011995131],[-86.7871721424768,36.290588999527],[-86.7873523931549,36.2907551088313],[-86.7866415695126,36.2912513116325],[-86.7864365209349,36.2911029881128],[-86.7864386849878,36.2911014058822],[-86.7864384057381,36.2911011995131]]]},"properties":{"id":"37089","parcel":"032090B02900CO","address":"4964 INDIAN SUMMER DR","owner":"CHILDRESS, OMAR & KANIKA","point":[-86.78689539965512,36.290928155049926]}},{"type":"Feature","id":"37090","geometry":{"type":"Polygon","coordinates":[[[-86.7859629399913,36.2910393611715],[-86.7859468807169,36.2908176684329],[-86.7860050307549,36.2908456441825],[-86.7862308059423,36.2909541810085],[-86.7864365209349,36.2911029881128],[-86.7866415695126,36.2912513116325],[-86.7868315891418,36.2914112242951],[-86.787099604427,36.2916358639982],[-86.7870885237443,36.2916452414142],[-86.7870804996308,36.291651211179],[-86.7870715961803,36.2916562989499],[-86.7870600558148,36.29166109206],[-86.7870477470532,36.2916644040318],[-86.7870349585834,36.2916661581829],[-86.7870219894793,36.2916663147144],[-86.7870091424945,36.2916648680501],[-86.7869817611434,36.2916615594172],[-86.7869540797929,36.2916612232079],[-86.7869265872394,36.2916638670551],[-86.7868997728376,36.2916694427118],[-86.7868741098654,36.2916778524678],[-86.7868500554975,36.2916889464468],[-86.7868280330482,36.2917025281283],[-86.7868084342335,36.2917183579388],[-86.7867916058219,36.2917361542391],[-86.7859629399913,36.2910393611715]]]},"properties":{"id":"37090","parcel":"032090B03200CO","address":"208 INDIAN SUMMER CT","owner":"SCHIAVONE, RUBY  A & DAVID RAFFAELE","point":[-86.78652288064912,36.2913308866736]}},{"type":"Feature","id":"37091","geometry":{"type":"Polygon","coordinates":[[[-86.7881368095882,36.2905089632356],[-86.7886547196834,36.2903129920529],[-86.7888567881436,36.290601982921],[-86.788842930442,36.2906076898599],[-86.7888184642225,36.2906173873039],[-86.7883071246383,36.2908150935537],[-86.7881368095882,36.2905089632356]]]},"properties":{"id":"37091","parcel":"032090B04800CO","address":"4611 INDIAN SUMMER DR","owner":"COES, RANDY L. & MARQUIETTA O.","point":[-86.78849351451224,36.29055546781066]}},{"type":"Feature","id":"37092","geometry":{"type":"Polygon","coordinates":[[[-86.7873625700745,36.2905730322782],[-86.787945902265,36.290165815169],[-86.7880921320441,36.290428657749],[-86.7875878842833,36.290780669636],[-86.7873625700745,36.2905730322782]]]},"properties":{"id":"37092","parcel":"032090B05000CO","address":"4961 INDIAN SUMMER DR","owner":"SHERRELL, THOMAS L. & ANGELA D.","point":[-86.7877273517421,36.290500845572176]}},{"type":"Feature","id":"37093","geometry":{"type":"Polygon","coordinates":[[[-86.7871822231787,36.2904068352876],[-86.7879034421798,36.2899023195377],[-86.7879214126992,36.2899174901022],[-86.7880935143923,36.290062773382],[-86.787945902265,36.290165815169],[-86.7873625700745,36.2905730322782],[-86.7871822231787,36.2904068352876]]]},"properties":{"id":"37093","parcel":"032090B05100CO","address":"4957 INDIAN SUMMER DR","owner":"RUCKER, JOE C. & HARRIET FAMILY TRUST","point":[-86.78756388506208,36.290286325524455]}},{"type":"Feature","id":"37094","geometry":{"type":"Polygon","coordinates":[[[-86.787945902265,36.290165815169],[-86.7880935143923,36.290062773382],[-86.7881374837984,36.2900998907862],[-86.788271459106,36.2900627181065],[-86.7886975050324,36.2899445042298],[-86.7890167377888,36.2898559265851],[-86.7890551203912,36.2899017860793],[-86.7891656075528,36.2900338000291],[-86.7886966924059,36.2902971096906],[-86.7886547196834,36.2903129920529],[-86.7881368095882,36.2905089632356],[-86.7880921320441,36.290428657749],[-86.787945902265,36.290165815169]]]},"properties":{"id":"37094","parcel":"032090B05300CO","address":"0 INDIAN SUMMER DR","owner":"QUAIL RIDGE SECTION 7 PROPERTY OWNERS'S ASSOCIATION, INC.","point":[-86.78839707244356,36.290231597136035]}},{"type":"Feature","id":"37200","geometry":{"type":"Polygon","coordinates":[[[-86.7869656360919,36.2904412199044],[-86.7869918936677,36.2904228899383],[-86.7871721424768,36.290588999527],[-86.7864384057381,36.2911011995131],[-86.7864386849878,36.2911014058822],[-86.7864365209349,36.2911029881128],[-86.7862308059423,36.2909541810085],[-86.7869656360919,36.2904412199044]]]},"properties":{"id":"37200","parcel":"032090B02800CO","address":"4960 INDIAN SUMMER DR","owner":"MAJORS, AUREATA L REVOCABLE LIVING TRUST","point":[-86.78670147553878,36.29077159120094]}},{"type":"Feature","id":"37201","geometry":{"type":"Polygon","coordinates":[[[-86.7866415695126,36.2912513116325],[-86.7873523931549,36.2907551088313],[-86.7875323996575,36.2909209923422],[-86.7868315891418,36.2914112242951],[-86.7866415695126,36.2912513116325]]]},"properties":{"id":"37201","parcel":"032090B03000CO","address":"4968 INDIAN SUMMER DR","owner":"COLVIN, CHERYL M.","point":[-86.78708723113328,36.291086153259684]}},{"type":"Feature","id":"37202","geometry":{"type":"Polygon","coordinates":[[[-86.7860336250133,36.2920151223161],[-86.7859629399913,36.2910393611715],[-86.7867916058219,36.2917361542391],[-86.786790713832,36.2917372487386],[-86.7867762687517,36.2917582793853],[-86.7867656744116,36.2917807629977],[-86.7867591466631,36.2918042385412],[-86.7867568199252,36.2918282283874],[-86.7867587405401,36.2918522419619],[-86.7860989381403,36.2920038791849],[-86.7860338933417,36.2920188282596],[-86.7860336250133,36.2920151223161]]]},"properties":{"id":"37202","parcel":"032090B03300CO","address":"212 INDIAN SUMMER CT","owner":"WASHINGTON, CHERYL E. & DEANDRE","point":[-86.78618269933068,36.29138741066005]}},{"type":"Feature","id":"37203","geometry":{"type":"Polygon","coordinates":[[[-86.7870016489437,36.2902404259113],[-86.7877019252121,36.2897322038975],[-86.7879034421798,36.2899023195377],[-86.7871822231787,36.2904068352876],[-86.7870016489437,36.2902404259113]]]},"properties":{"id":"37203","parcel":"032090B05200CO","address":"4953 INDIAN SUMMER DR","owner":"SEWARD, MARJORIE M.","point":[-86.7874481830823,36.29007136582406]}},{"type":"Feature","id":"38875","geometry":{"type":"Polygon","coordinates":[[[-86.7860338933417,36.2920188282596],[-86.7860989381403,36.2920038791849],[-86.7867587405401,36.2918522419619],[-86.7867644542993,36.291874597809],[-86.7867738514134,36.291896123077],[-86.7867867587143,36.2919164196441],[-86.7868029387456,36.291935117745],[-86.7868220941786,36.2919518723375],[-86.7868438734949,36.2919663747814],[-86.7868205076797,36.2919996166729],[-86.7861339554543,36.2929763237536],[-86.7860338933417,36.2920188282596]]]},"properties":{"id":"38875","parcel":"032090B03400CO","address":"216 INDIAN SUMMER CT","owner":"YOUNG, MAYA","point":[-86.78627696046625,36.292497921222996]}},{"type":"Feature","id":"38877","geometry":{"type":"Polygon","coordinates":[[[-86.7869994719462,36.2919954064665],[-86.787023896109,36.2919908241919],[-86.7870474631264,36.2919838961658],[-86.787069827768,36.2919747228711],[-86.787090668503,36.2919634370811],[-86.787109678595,36.2919502039177],[-86.7871201058828,36.2919413922258],[-86.7871367668489,36.2919241133798],[-86.7871461577904,36.2919118395725],[-86.7871542145875,36.2918989607091],[-86.7875384348424,36.2921819656632],[-86.7877894123958,36.2923668269642],[-86.7880395208275,36.2925510454175],[-86.7872577452557,36.2928322093724],[-86.7869994719462,36.2919954064665]]]},"properties":{"id":"38877","parcel":"032090B03600CO","address":"217 INDIAN SUMMER CT","owner":"DEL VALLE MORALES, EDITY MARLEN ETAL","point":[-86.78737459272985,36.292273882239165]}},{"type":"Feature","id":"38879","geometry":{"type":"Polygon","coordinates":[[[-86.7871542145875,36.2918989607091],[-86.7871631567823,36.2918800666323],[-86.7871692361564,36.2918604395642],[-86.7871723631459,36.2918403648794],[-86.7871724927419,36.2918201303655],[-86.7871696234217,36.2918000307373],[-86.7871683394865,36.2917893522301],[-86.7871691259157,36.2917786422171],[-86.7871719641456,36.2917681612766],[-86.7871767832563,36.2917581667228],[-86.7871834665441,36.2917489017481],[-86.787191851494,36.2917405927196],[-86.7872567093443,36.2916856996108],[-86.7875573834315,36.2919081014325],[-86.7875384348424,36.2921819656632],[-86.7871542145875,36.2918989607091]]]},"properties":{"id":"38879","parcel":"032090B03700CO","address":"213 INDIAN SUMMER CT","owner":"HOFFMAAN, BRET","point":[-86.78744998279421,36.29204485951854]}},{"type":"Feature","id":"38881","geometry":{"type":"Polygon","coordinates":[[[-86.7872567093443,36.2916856996108],[-86.7874561200104,36.2915169284857],[-86.7877567929036,36.2917393298303],[-86.7875573834315,36.2919081014325],[-86.7872567093443,36.2916856996108]]]},"properties":{"id":"38881","parcel":"032090B03800CO","address":"209 INDIAN SUMMER CT","owner":"BROWN, EVAN R. & BRITNEY","point":[-86.78750675110513,36.291712514981874]}},{"type":"Feature","id":"38883","geometry":{"type":"Polygon","coordinates":[[[-86.7876510056512,36.2913448095649],[-86.787679170928,36.2913135450884],[-86.7877054979519,36.2912812489504],[-86.7877299261619,36.291247988238],[-86.7877572898751,36.2912058681564],[-86.7877816112785,36.2911625422109],[-86.7878028105386,36.29111815422],[-86.7878038326203,36.2911158142564],[-86.7878088312077,36.2911065277787],[-86.787815464297,36.2910979372188],[-86.787823585689,36.2910902300855],[-86.7878330189317,36.2910835742573],[-86.7881611379663,36.2913971063944],[-86.7879562026304,36.291570556982],[-86.7876510056512,36.2913448095649]]]},"properties":{"id":"38883","parcel":"032090B04000CO","address":"201 INDIAN SUMMER CT","owner":"SMITH, LANNIE & VANESSA","point":[-86.7878779634696,36.291329555153624]}},{"type":"Feature","id":"38886","geometry":{"type":"Polygon","coordinates":[[[-86.788448931612,36.290900292794],[-86.7887092085501,36.2907996589347],[-86.7889046912396,36.2911201710704],[-86.7886443376664,36.2912206805634],[-86.788448931612,36.290900292794]]]},"properties":{"id":"38886","parcel":"032090B04300CO","address":"4608 INDIAN SUMMER DR","owner":"ROBERTS, JONATHAN NEWELL","point":[-86.78867681115491,36.29101023214938]}},{"type":"Feature","id":"38887","geometry":{"type":"Polygon","coordinates":[[[-86.7887092085501,36.2907996589347],[-86.7888857311145,36.2907314073041],[-86.7889272874438,36.2907147209748],[-86.7889682126847,36.2906970428824],[-86.7891805511933,36.2910136747031],[-86.7889046912396,36.2911201710704],[-86.7887092085501,36.2907996589347]]]},"properties":{"id":"38887","parcel":"032090B04400CO","address":"4612 INDIAN SUMMER DR","owner":"ONWU, CHARLES & RENEE","point":[-86.78894163685653,36.290906661327476]}},{"type":"Feature","id":"38889","geometry":{"type":"Polygon","coordinates":[[[-86.7894689103512,36.2908533597954],[-86.7891935223213,36.290574403546],[-86.7892063063057,36.2905659629133],[-86.7892178356549,36.2905581928797],[-86.7892805330221,36.2905169800201],[-86.7893449344026,36.2904775242285],[-86.7894109623428,36.2904398728725],[-86.7894233001361,36.2904331348637],[-86.7898972761227,36.2909125288576],[-86.7896763799423,36.2910629068845],[-86.7894689103512,36.2908533597954]]]},"properties":{"id":"38889","parcel":"032090B04600CO","address":"4620 INDIAN SUMMER DR","owner":"NICHOLS, JAKEEMA T & RICO L","point":[-86.78951636685207,36.290714207809046]}},{"type":"Feature","id":"38892","geometry":{"type":"Polygon","coordinates":[[[-86.7879562026304,36.291570556982],[-86.7881611379663,36.2913971063944],[-86.7881686751421,36.2914043077068],[-86.7883839834326,36.2913211894926],[-86.7886443376664,36.2912206805634],[-86.7889046912396,36.2911201710704],[-86.7891805511933,36.2910136747031],[-86.7891870557027,36.2910233728132],[-86.7894689103512,36.2908533597954],[-86.7896763799423,36.2910629068845],[-86.7882951234308,36.2920031924882],[-86.7877894123958,36.2923668269642],[-86.7875384348424,36.2921819656632],[-86.7875573834315,36.2919081014325],[-86.7877567929036,36.2917393298303],[-86.7879562026304,36.291570556982]]]},"properties":{"id":"38892","parcel":"032090B05400CO","address":"0 QUAIL RIDGE DR","owner":"QUAIL RIDGE SECTION 7 PROPERTY OWNER'S ASSOCIATION, INC.","point":[-86.78833036636722,36.291655783231676]}},{"type":"Feature","id":"39172","geometry":{"type":"Polygon","coordinates":[[[-86.7868315891418,36.2914112242951],[-86.7875323996575,36.2909209923422],[-86.7875556009095,36.2909423726528],[-86.7875779241339,36.2909615452407],[-86.7876018518714,36.2909794041819],[-86.7876272663684,36.2909958628228],[-86.787637371314,36.2910030213029],[-86.7876459552505,36.2910113811279],[-86.7876528001234,36.2910207328291],[-86.7876577377205,36.2910308413787],[-86.7876606419602,36.2910414543509],[-86.7876614422944,36.2910523063404],[-86.7876601181876,36.291063123505],[-86.7876567003557,36.2910736361745],[-86.7876364037774,36.2911161103396],[-86.7876127380617,36.2911574249291],[-86.7875858016623,36.291197405361],[-86.7875593864316,36.2912314693744],[-86.7875305982844,36.2912642474534],[-86.7874995296789,36.2912956335493],[-86.7874662853189,36.2913255215338],[-86.787099604427,36.2916358639982],[-86.7868315891418,36.2914112242951]]]},"properties":{"id":"39172","parcel":"032090B03100CO","address":"200 INDIAN SUMMER CT","owner":"CASON, GREGORY","point":[-86.78726779445945,36.291279500844944]}},{"type":"Feature","id":"39174","geometry":{"type":"Polygon","coordinates":[[[-86.7875878842833,36.290780669636],[-86.7880921320441,36.290428657749],[-86.7881368095882,36.2905089632356],[-86.7883071246383,36.2908150935537],[-86.788037212232,36.2909194519823],[-86.788003614121,36.2909305263956],[-86.7879686419899,36.290938329252],[-86.7879327790109,36.290942750154],[-86.7878965222167,36.2909437290833],[-86.7878603746637,36.2909412519463],[-86.7878248376742,36.2909353542293],[-86.7877904030001,36.2909261165433],[-86.7877575472735,36.2909136664627],[-86.7877267264328,36.2908981776603],[-86.7876983678661,36.2908798636498],[-86.787672862638,36.2908589796387],[-86.7875878842833,36.290780669636]]]},"properties":{"id":"39174","parcel":"032090B04900CO","address":"4601 INDIAN SUMMER DR","owner":"WATKINS, CURTIS V JR & CAROLYN B","point":[-86.78799771507417,36.2906450568329]}},{"type":"Feature","id":"39347","geometry":{"type":"Polygon","coordinates":[[[-86.7886547196834,36.2903129920529],[-86.7886966924059,36.2902971096906],[-86.7891656075528,36.2900338000291],[-86.789388821642,36.290300501383],[-86.7893691144329,36.2903107293353],[-86.7893012887124,36.2903476011221],[-86.7892349519266,36.2903862079451],[-86.7891701727134,36.2904265115066],[-86.7891070174484,36.2904684699188],[-86.7890478543765,36.290505860003],[-86.7889863096222,36.2905406402973],[-86.788922560319,36.2905727114071],[-86.7888567881436,36.290601982921],[-86.7886547196834,36.2903129920529]]]},"properties":{"id":"39347","parcel":"032090B04700CO","address":"4621 INDIAN SUMMER DR","owner":"CURBEAM, JAMES LEE & AMELIA","point":[-86.78899920320562,36.290330334433776]}},{"type":"Feature","id":"39927","geometry":{"type":"Polygon","coordinates":[[[-86.7881611379663,36.2913971063944],[-86.7878330189317,36.2910835742573],[-86.787845245631,36.2910773959035],[-86.7878585864344,36.2910729821199],[-86.7878726585484,36.2910704615742],[-86.7878870541069,36.291069904517],[-86.7879318754726,36.291069507845],[-86.7879764394067,36.2910656142315],[-86.7880203332344,36.2910582588115],[-86.7880631457439,36.291047511859],[-86.7881044782561,36.2910334724066],[-86.7881886551258,36.2910009260826],[-86.7883839834326,36.2913211894926],[-86.7881686751421,36.2914043077068],[-86.7881611379663,36.2913971063944]]]},"properties":{"id":"39927","parcel":"032090B04100CO","address":"4600 INDIAN SUMMER DR","owner":"PULLEN, NAJANEIRO LYNETTE","point":[-86.78813440766119,36.29120242809763]}},{"type":"Feature","id":"39929","geometry":{"type":"Polygon","coordinates":[[[-86.7891805511933,36.2910136747031],[-86.7889682126847,36.2906970428824],[-86.7890268256498,36.2906694555849],[-86.7890839042942,36.2906398342672],[-86.7891393423242,36.2906082373044],[-86.7891930356648,36.2905747221561],[-86.7891935223213,36.290574403546],[-86.7894689103512,36.2908533597954],[-86.7891870557027,36.2910233728132],[-86.7891805511933,36.2910136747031]]]},"properties":{"id":"39929","parcel":"032090B04500CO","address":"4616 INDIAN SUMMER DR","owner":"DENIS, CONNOR J & ELIO J","point":[-86.7892062230402,36.290775179850705]}},{"type":"Feature","id":"42623","geometry":{"type":"Polygon","coordinates":[[[-86.7868205076797,36.2919996166729],[-86.7868438734949,36.2919663747814],[-86.7868670738663,36.291978014656],[-86.7868919565781,36.2919870948778],[-86.7869180936983,36.2919934596136],[-86.7869450365906,36.2919969982273],[-86.7869723182047,36.2919976515732],[-86.7869994719462,36.2919954064665],[-86.7872577452557,36.2928322093724],[-86.7861339554543,36.2929763237536],[-86.7868205076797,36.2919996166729]]]},"properties":{"id":"42623","parcel":"032090B03500CO","address":"221 INDIAN SUMMER CT","owner":"ABDUKADIROVA, NILUFAR","point":[-86.78682891596905,36.29241553866182]}},{"type":"Feature","id":"93283","geometry":{"type":"Polygon","coordinates":[[[-86.787103269403,36.2942911715394],[-86.7876340936361,36.2934141765594],[-86.7882397058318,36.29343879769],[-86.7881218346212,36.2953706883871],[-86.7865917299007,36.2951977052882],[-86.787103269403,36.2942911715394]]]},"properties":{"id":"93283","parcel":"03200000700","address":"0 BRICK CHURCH PIKE","owner":"MARTIN, DAVID E. & DENISE M.","point":[-86.78750370185006,36.294745606695095]}},{"type":"Feature","id":"94605","geometry":{"type":"Polygon","coordinates":[[[-86.7804847473545,36.2933479184893],[-86.7804266271825,36.2932697302532],[-86.7803474389275,36.2931670913616],[-86.7802648449985,36.2930662264001],[-86.7801789062531,36.2929672097718],[-86.7800896857562,36.292870114063],[-86.7799972499026,36.292775010937],[-86.7799016650593,36.2926819693539],[-86.7802864293509,36.2919894468765],[-86.780855477442,36.291748433814],[-86.7816510006338,36.2905939582146],[-86.7820360955599,36.2900406991889],[-86.7822302988547,36.2899490675583],[-86.782595734972,36.2897768813553],[-86.782972450233,36.2895989801311],[-86.7832775165623,36.2894551337959],[-86.7836087724047,36.2892987528396],[-86.7838033518966,36.2892069161243],[-86.7838247876063,36.289531822806],[-86.7838330539719,36.2896571223008],[-86.7838611887394,36.2901340881924],[-86.7853703430927,36.2903945948703],[-86.7854523467879,36.2904093813211],[-86.7856416025739,36.2904436521465],[-86.7857894307256,36.2904663145635],[-86.7859229982909,36.2904879718055],[-86.7858752972818,36.2905366287801],[-86.7837949299579,36.292800182392],[-86.7817295801688,36.2950501399001],[-86.78166132744,36.2949334692488],[-86.781590047338,36.2948179906358],[-86.7815157726721,36.2947037561155],[-86.7812583270011,36.2943708390192],[-86.7810029076354,36.2940368087563],[-86.780749518391,36.293701941093],[-86.7804847473545,36.2933479184893]]]},"properties":{"id":"94605","parcel":"03200000900","address":"4412 BRICK CHURCH PIKE","owner":"HOLTKAMP, REINHOLD ET UX","point":[-86.78215448742583,36.292339479882884]}},{"type":"Feature","id":"97920","geometry":{"type":"Polygon","coordinates":[[[-86.7823667788826,36.2965541057519],[-86.7823191141562,36.296461927631],[-86.7822744458752,36.2963687711863],[-86.7822328058248,36.2962746993021],[-86.7821942224768,36.296179777587],[-86.7821587209624,36.2960840716715],[-86.7821522388586,36.2960654337027],[-86.7821351181137,36.2960350989321],[-86.7821217662436,36.2960035492449],[-86.7828982460541,36.296078735205],[-86.7836964871223,36.2961581704493],[-86.783850385981,36.2960731153946],[-86.787103269403,36.2942911715394],[-86.7865917299007,36.2951977052882],[-86.7862841417446,36.2953881464923],[-86.7855865915932,36.2957437467885],[-86.7852164933811,36.2960642503539],[-86.78495135631,36.2962928716741],[-86.7848019227431,36.2966916029756],[-86.783860046079,36.2966378299589],[-86.7823667788826,36.2965541057519]]]},"properties":{"id":"97920","parcel":"03200008900","address":"4474 BRICK CHURCH PIKE","owner":"MARTIN, DAVID E. & DENISE M.","point":[-86.7853576955699,36.29556491154726]}},{"type":"Feature","id":"99483","geometry":{"type":"Polygon","coordinates":[[[-86.7821217662436,36.2960035492449],[-86.782070006515,36.2958934701312],[-86.7820212918272,36.29578248448],[-86.7819756438723,36.2956706480312],[-86.7819330865597,36.2955580156087],[-86.7818936415806,36.2954446429519],[-86.7818572093039,36.2953448026744],[-86.781817705275,36.2952457311748],[-86.7817751534873,36.2951474895792],[-86.7817295801688,36.2950501399001],[-86.7837949299579,36.292800182392],[-86.7858752972818,36.2905366287801],[-86.7859229982909,36.2904879718055],[-86.7859316507501,36.2906074069858],[-86.7859468807169,36.2908176684329],[-86.7859629399913,36.2910393611715],[-86.7860336250133,36.2920151223161],[-86.7860338933417,36.2920188282596],[-86.7861339554543,36.2929763237536],[-86.7862135385952,36.2937378286467],[-86.7882636598849,36.2929815451086],[-86.7882516801099,36.2932101714261],[-86.7882397058318,36.29343879769],[-86.7876340936361,36.2934141765594],[-86.787103269403,36.2942911715394],[-86.783850385981,36.2960731153946],[-86.7836964871223,36.2961581704493],[-86.7828982460541,36.296078735205],[-86.7821217662436,36.2960035492449]]]},"properties":{"id":"99483","parcel":"03200013600","address":"0 BRICK CHURCH PIKE","owner":"HOLTKAMP, REINHOLD ET UX","point":[-86.78475063539742,36.29330647039685]}},{"type":"Feature","id":"99534","geometry":{"type":"Polygon","coordinates":[[[-86.7898972761227,36.2909125288576],[-86.7894233001361,36.2904331348637],[-86.7894764138822,36.2904051587717],[-86.7895290791853,36.2903789934671],[-86.7897240855307,36.2902849373065],[-86.7901226346212,36.2907937537815],[-86.789903636841,36.2909189626865],[-86.7898972761227,36.2909125288576]]]},"properties":{"id":"99534","parcel":"03205000100","address":"4636 INDIAN SUMMER DR","owner":"FARAH, RAHMA","point":[-86.7897914802202,36.29061347738171]}}]}