{"type":"FeatureCollection","features":[{"type":"Feature","id":"56464","geometry":{"type":"Polygon","coordinates":[[[-86.7238315952023,36.1416351875056],[-86.7233587656604,36.1414830874629],[-86.723201163267,36.1414334862433],[-86.7232763215147,36.1412813969085],[-86.7233807023374,36.1411401206168],[-86.7234017646947,36.1411499326523],[-86.7234244093313,36.1411570620277],[-86.723448118086,36.1411613469162],[-86.7234723511419,36.1411626878094],[-86.7234965571091,36.1411610564686],[-86.7235201851722,36.1411564877414],[-86.7235426973873,36.1411490875988],[-86.7235635785995,36.1411390240634],[-86.7235874041766,36.1411200428163],[-86.7236138285363,36.1411034794101],[-86.7236424793132,36.1410895631967],[-86.7236729583004,36.1410784921388],[-86.7237048346512,36.1410704184303],[-86.7237376660721,36.141065457382],[-86.7242131447718,36.1410626043546],[-86.7242873455382,36.141064487841],[-86.724361318751,36.1410695622459],[-86.7244348553864,36.1410778126021],[-86.7245077496635,36.141089214009],[-86.7245797957514,36.1411037361596],[-86.7246507888396,36.1411213388268],[-86.7247205328986,36.1411419700152],[-86.7248720603001,36.1411938039534],[-86.7246099163422,36.141712927985],[-86.7239088124642,36.1414863822754],[-86.7238315952023,36.1416351875056]]]},"properties":{"id":"56464","parcel":"10607005000","address":"1448 POPLAR LN","owner":"ROLLINS ASSOCIATES, L. P.","point":[-86.7240131840394,36.14135922863821]}},{"type":"Feature","id":"58064","geometry":{"type":"Polygon","coordinates":[[[-86.7224033334028,36.1409976343929],[-86.7224519067484,36.1409017448545],[-86.72345165002,36.1408979527378],[-86.7234161484282,36.1409044835096],[-86.7233837496114,36.1409170395915],[-86.7233551288211,36.1409353420501],[-86.7233323071081,36.1409582801226],[-86.7233162922018,36.140984747319],[-86.7233080860142,36.1410133640989],[-86.7233076760876,36.1410427624092],[-86.7233153898509,36.1410715604413],[-86.723330533443,36.1410981166329],[-86.72335275908,36.1411213335157],[-86.7233807023374,36.1411401206168],[-86.7232763215147,36.1412813969085],[-86.7224033334028,36.1409976343929]]]},"properties":{"id":"58064","parcel":"10607005100","address":"1470 POPLAR LN","owner":"ROLLINS ASSOCIATES, L. P.","point":[-86.72299495294105,36.14108408036711]}},{"type":"Feature","id":"58065","geometry":{"type":"Polygon","coordinates":[[[-86.7243338870963,36.1408959555683],[-86.7248420696176,36.1408769710505],[-86.726439713378,36.1409989635017],[-86.7266762764446,36.1410170253652],[-86.7264039783252,36.1415351177009],[-86.7247168856717,36.140965080531],[-86.7246612157059,36.1409476310184],[-86.7246044420924,36.1409327044569],[-86.724546737489,36.1409203484769],[-86.7244882788983,36.1409105998675],[-86.7244292443681,36.1409034882018],[-86.7243698152217,36.1408990367248],[-86.7243338870963,36.1408959555683]]]},"properties":{"id":"58065","parcel":"10607005200","address":"1431 POPLAR LN","owner":"ROLLINS ASSOCIATES, L. P.","point":[-86.72608563205293,36.14127503304757]}},{"type":"Feature","id":"58066","geometry":{"type":"Polygon","coordinates":[[[-86.7264039783252,36.1415351177009],[-86.7266762764446,36.1410170253652],[-86.72720701559,36.1410572338291],[-86.7276845183479,36.1411274272886],[-86.7273178386872,36.1418416811261],[-86.7268821450082,36.1416959061074],[-86.7264447453917,36.1415488275399],[-86.7264039783252,36.1415351177009]]]},"properties":{"id":"58066","parcel":"10607005400","address":"1415 POPLAR LN","owner":"ROLLINS ASSOCIATES, L. P.","point":[-86.72704549845473,36.14133127706198]}},{"type":"Feature","id":"58417","geometry":{"type":"Polygon","coordinates":[[[-86.7246099163422,36.141712927985],[-86.7248720603001,36.1411938039534],[-86.725504059531,36.1414083112731],[-86.7261317909746,36.1416213664959],[-86.7258728830578,36.1421228926892],[-86.7252444970877,36.1419195530578],[-86.7246099163422,36.141712927985]]]},"properties":{"id":"58417","parcel":"10607004800","address":"1440 POPLAR LN","owner":"SOUTHWEST ELECTRIC CO.","point":[-86.72537058661068,36.14166714904648]}},{"type":"Feature","id":"59135","geometry":{"type":"Polygon","coordinates":[[[-86.7218176363321,36.1422878712641],[-86.7218141898236,36.1422881514482],[-86.7217992834898,36.1422344996617],[-86.7217873162599,36.1421803652351],[-86.7217783102142,36.1421258552884],[-86.7217498691597,36.1421355392325],[-86.7217517015574,36.1421135516898],[-86.7217390418775,36.1420527907514],[-86.7217289183775,36.1419917172211],[-86.7217699849845,36.1418521946142],[-86.721973820791,36.1416976887858],[-86.7220239455103,36.141623217871],[-86.722022927469,36.1416229490755],[-86.7224033334028,36.1409976343929],[-86.7232763215147,36.1412813969085],[-86.723201163267,36.1414334862433],[-86.7233587656604,36.1414830874629],[-86.7238315952023,36.1416351875056],[-86.7243948429956,36.1418230037152],[-86.7237155413269,36.1417566665736],[-86.7230458776987,36.1419405083802],[-86.7229736072845,36.1419578943447],[-86.722964320295,36.141979376801],[-86.722925790632,36.1420625696258],[-86.7225736750965,36.1422240090559],[-86.7223386743488,36.1423034328422],[-86.7218176363321,36.1422878712641]]]},"properties":{"id":"59135","parcel":"10607006000","address":"0 SPENCE LN","owner":"JMJ ENTERPRISES INC","point":[-86.722964360682,36.14166658437169]}}]}