{"type":"FeatureCollection","features":[{"type":"Feature","id":"54814","geometry":{"type":"Polygon","coordinates":[[[-86.7581049567066,36.343003492217],[-86.7578426403709,36.3418486798547],[-86.7592711863015,36.3419829835434],[-86.758997087386,36.3434088383078],[-86.7584127750265,36.3430944091921],[-86.7581049567066,36.343003492217]]]},"properties":{"id":"54814","parcel":"01700037200","address":"0 LICKTON PIKE","owner":"WALKER UNITED METHODIST CHURCH","point":[-86.75858082039021,36.342493022719914]}},{"type":"Feature","id":"55400","geometry":{"type":"Polygon","coordinates":[[[-86.7566757988694,36.3428948714123],[-86.7567126079977,36.3428413493083],[-86.7567522146895,36.3427891516082],[-86.7567945485467,36.3427383724766],[-86.7568395302604,36.3426891061337],[-86.7568870760323,36.3426414432231],[-86.7569371009079,36.3425954698893],[-86.7569960350293,36.3425430574388],[-86.7570573985959,36.3424925024901],[-86.757121102087,36.3424438795],[-86.7571870525983,36.3423972584404],[-86.7578619572918,36.3428162073597],[-86.7578601388705,36.3429288199205],[-86.7581049567066,36.343003492217],[-86.7584127750265,36.3430944091921],[-86.758997087386,36.3434088383078],[-86.7590292727077,36.3437910078663],[-86.7587097684089,36.3436333555991],[-86.7583879678463,36.3434787918468],[-86.758063916865,36.3433273370323],[-86.7579457948072,36.3432730919387],[-86.7578257308074,36.3432217121583],[-86.7577038311274,36.3431732438834],[-86.7575802042124,36.3431277287866],[-86.7574549584985,36.3430852076399],[-86.7573282068505,36.3430457184842],[-86.7572000587476,36.3430092948759],[-86.7570706292463,36.3429759712381],[-86.7569400322285,36.3429457756933],[-86.7568083837858,36.3429187345478],[-86.7566757988694,36.3428948714123]]]},"properties":{"id":"55400","parcel":"01700036800","address":"6153 LICKTON PIKE","owner":"WALKER UNITED METHODIST CHURCH","point":[-86.75798688160397,36.34311105025779]}},{"type":"Feature","id":"73786","geometry":{"type":"Polygon","coordinates":[[[-86.7538117834805,36.3485681142141],[-86.7540373802781,36.348545557636],[-86.7540384139702,36.3485470616352],[-86.7543959273738,36.3505034357238],[-86.7543959449172,36.3505035230326],[-86.7539772340355,36.3504610443864],[-86.7534401474753,36.3504065358082],[-86.7529907837761,36.3503609218556],[-86.7529907722844,36.3503608849772],[-86.752990759653,36.3503608454023],[-86.7524789797609,36.3487107362298],[-86.7538117834805,36.3485681142141]]]},"properties":{"id":"73786","parcel":"01200018900","address":"0 LICKTON PIKE","owner":"SOLOMAN, CAROL L.","point":[-86.75347726086174,36.349537324982826]}},{"type":"Feature","id":"73792","geometry":{"type":"Polygon","coordinates":[[[-86.7517440261963,36.3460507904707],[-86.7531504725961,36.3457654278265],[-86.7535730691068,36.346427828219],[-86.7538250952061,36.347220118328],[-86.753600729961,36.3479068722142],[-86.7540373802781,36.348545557636],[-86.7538117834805,36.3485681142141],[-86.7524789797609,36.3487107362298],[-86.7524758326866,36.3487011416082],[-86.7523345733623,36.3482009842264],[-86.7518901897877,36.3466033891237],[-86.7517440261963,36.3460507904707]]]},"properties":{"id":"73792","parcel":"01200019300","address":"0 LICKTON PIKE","owner":"CANNON, MURRAY F. & BILLIE S.","point":[-86.75293463324071,36.34756188879802]}},{"type":"Feature","id":"74380","geometry":{"type":"Polygon","coordinates":[[[-86.7598003952907,36.3450305211603],[-86.7598903358333,36.3442833450903],[-86.7599598207255,36.3443059825373],[-86.7600313219566,36.3443264101021],[-86.7598642685509,36.3456712548991],[-86.759709681897,36.3467589081068],[-86.7578494209458,36.3465299449555],[-86.7577663033516,36.3462184157338],[-86.7582289307099,36.3458792937162],[-86.7592266225647,36.3456752583863],[-86.7598003952907,36.3450305211603]]]},"properties":{"id":"74380","parcel":"01700003900","address":"6114 LICKTON PIKE","owner":"STUMP, GARY P. & MCKAY, CHRISTINA PARKS","point":[-86.75970995230671,36.34535064203301]}},{"type":"Feature","id":"74381","geometry":{"type":"Polygon","coordinates":[[[-86.7585032536016,36.3441744814536],[-86.7586398760989,36.3437621357858],[-86.7587449706949,36.343815865303],[-86.7588575049764,36.343866252298],[-86.7587569420346,36.3442855142067],[-86.7585032536016,36.3441744814536]]]},"properties":{"id":"74381","parcel":"01700004000","address":"6126 LICKTON PIKE","owner":"MORRIS COMMUNITY PROPERTY TRUST, THE","point":[-86.75868743629711,36.34402038125976]}},{"type":"Feature","id":"74404","geometry":{"type":"Polygon","coordinates":[[[-86.7541533621498,36.3389407661158],[-86.7549623495904,36.3388977558233],[-86.7553950348051,36.3402161131178],[-86.7554196008636,36.3407953563758],[-86.7554762852613,36.3411453347978],[-86.7555611590239,36.3414897117434],[-86.7554636630515,36.3417104005084],[-86.7555903483813,36.3420501426273],[-86.7555154649072,36.3420710292868],[-86.7554038793878,36.3421041781889],[-86.7547148704321,36.3427807629471],[-86.7547092936191,36.3428368347044],[-86.7545383204206,36.3428532841755],[-86.7551048481069,36.3423014630556],[-86.7551033811165,36.3421476447223],[-86.7550351588226,36.3419722667983],[-86.7539056775949,36.3403135763349],[-86.7538246218316,36.3402162909108],[-86.7537312390847,36.3401080936542],[-86.7534577428089,36.3399114694187],[-86.7532559021961,36.3398231766416],[-86.753724105983,36.3393587765069],[-86.7541533621498,36.3389407661158]]]},"properties":{"id":"74404","parcel":"01700021600","address":"6221 LICKTON PIKE","owner":"CHAUDOIN FAMILY TRUST","point":[-86.75489965398758,36.34096922237372]}},{"type":"Feature","id":"74405","geometry":{"type":"Polygon","coordinates":[[[-86.7544553011579,36.341410018243],[-86.753733100834,36.3403036640878],[-86.7536324449088,36.340216388856],[-86.7536324030844,36.3402119947641],[-86.753328427348,36.3400232511473],[-86.7531265698026,36.3399333099293],[-86.7531824529892,36.3398829658638],[-86.7532559021961,36.3398231766416],[-86.7534577428089,36.3399114694187],[-86.7537312390847,36.3401080936542],[-86.7538246218316,36.3402162909108],[-86.7539056775949,36.3403135763349],[-86.7550351588226,36.3419722667983],[-86.7551033811165,36.3421476447223],[-86.7551048481069,36.3423014630556],[-86.7545383204206,36.3428532841755],[-86.7544853847776,36.342856875859],[-86.7544326656924,36.3428621514503],[-86.7543802444089,36.3428691032332],[-86.7549459523972,36.3423024547951],[-86.7549216177714,36.3421718531154],[-86.75486578634,36.3420139787789],[-86.7544553011579,36.341410018243]]]},"properties":{"id":"74405","parcel":"01700021800","address":"0 LICKTON PIKE","owner":"SOMERVILLE, CARL JASON","point":[-86.75418822070237,36.34086181352899]}},{"type":"Feature","id":"75066","geometry":{"type":"Polygon","coordinates":[[[-86.7564141094646,36.345177196281],[-86.7571661548959,36.3451267943901],[-86.7578400692434,36.3452661045788],[-86.7577417789073,36.345642814514],[-86.7576842919879,36.3458805107203],[-86.7577663033516,36.3462184157338],[-86.7568496295476,36.3463741386235],[-86.7566027006774,36.3456916974154],[-86.7564188755984,36.3452165299462],[-86.7564182441073,36.3451967241884],[-86.7564141094646,36.345177196281]]]},"properties":{"id":"75066","parcel":"01100007700","address":"3039 FREEMAN HOLLOW RD","owner":"HOLT, SHARON G.","point":[-86.75717166720197,36.345786162536996]}},{"type":"Feature","id":"75838","geometry":{"type":"Polygon","coordinates":[[[-86.7559702870589,36.3421062409613],[-86.7562035187427,36.3420430721387],[-86.7564032445644,36.342037441712],[-86.7565035175005,36.3420057225719],[-86.7569696115069,36.3419851853006],[-86.7570498144388,36.3420366045157],[-86.7571547601172,36.3420404024314],[-86.7574750018817,36.3419062146725],[-86.7576148701844,36.3418280374797],[-86.7576424285229,36.3418327972619],[-86.7576946238764,36.3417823156157],[-86.7576764884957,36.3418008258226],[-86.7575821127315,36.3418894976934],[-86.7574853735174,36.3419764863868],[-86.7573863172566,36.3420617519529],[-86.7572849903443,36.3421452535408],[-86.7571814425353,36.3422269520811],[-86.7571189713119,36.3422641588459],[-86.7570589191891,36.3423038873736],[-86.7570014411298,36.3423460339592],[-86.7569466853628,36.3423904895319],[-86.7564459776229,36.3421892509414],[-86.7559702870589,36.3421062409613]]]},"properties":{"id":"75838","parcel":"01700019400","address":"2956 LOWER WALKERS CREEK RD","owner":"WALKERS METHODIST CHURCH","point":[-86.75670736601553,36.34208405772599]}},{"type":"Feature","id":"75988","geometry":{"type":"Polygon","coordinates":[[[-86.7563016383897,36.344196543356],[-86.7570538321663,36.3441394387899],[-86.7570527153053,36.3446883336988],[-86.7563379262926,36.3447402359386],[-86.7563379662836,36.34470885522],[-86.7563195873267,36.3444199940276],[-86.7563016383897,36.344196543356]]]},"properties":{"id":"75988","parcel":"01700017500","address":"3023 FREEMAN HOLLOW RD","owner":"HITCH, DICK W. ETUX","point":[-86.75669053216768,36.3445541733452]}},{"type":"Feature","id":"76035","geometry":{"type":"Polygon","coordinates":[[[-86.7508556045695,36.3471814488075],[-86.7506526953168,36.3457287636882],[-86.7506207022453,36.3454702014992],[-86.7507008010298,36.3454664105216],[-86.7504185730848,36.3433107271637],[-86.7505251844382,36.3433100657761],[-86.7506131954495,36.3439685842839],[-86.750694763239,36.3445789156319],[-86.750848267196,36.3457275500015],[-86.7509854617608,36.3466601015854],[-86.7514358702705,36.3466318660435],[-86.7518901897877,36.3466033891237],[-86.7523345733623,36.3482009842264],[-86.7524758326866,36.3487011416082],[-86.7524789797609,36.3487107362298],[-86.752990759653,36.3503608454023],[-86.7529907722844,36.3503608849772],[-86.7529907837761,36.3503609218556],[-86.7524647135074,36.3503093342335],[-86.7518528283929,36.350249332174],[-86.7515936761616,36.3502075406754],[-86.7506474743817,36.3501200202111],[-86.7499891761263,36.347661216534],[-86.7503813333264,36.3476214265588],[-86.7503293900304,36.3472283894115],[-86.7508556045695,36.3471814488075]]]},"properties":{"id":"76035","parcel":"01200018200","address":"6266 LICKTON PIKE","owner":"TURTLE HILL IRREV TRUST & MOUNT CANINE IRREV TRUST","point":[-86.75139912402167,36.346921771794555]}},{"type":"Feature","id":"76055","geometry":{"type":"Polygon","coordinates":[[[-86.7580597543517,36.3444530527165],[-86.7583103630956,36.3436043280403],[-86.7584307648564,36.3436609863712],[-86.7585504962814,36.3437184706985],[-86.7586398760989,36.3437621357858],[-86.7585032536016,36.3441744814536],[-86.7587569420346,36.3442855142067],[-86.7587223732946,36.3444340655144],[-86.7580597543517,36.3444530527165]]]},"properties":{"id":"76055","parcel":"01700016800","address":"6128 LICKTON PIKE","owner":"MORPHIS, ZACHARY R & HORTON, LISA M","point":[-86.75838733686864,36.34396793631952]}},{"type":"Feature","id":"76067","geometry":{"type":"Polygon","coordinates":[[[-86.7528005212982,36.343201385341],[-86.753108039375,36.3431610621799],[-86.7534509026926,36.3431174485415],[-86.7537944581989,36.3430752030745],[-86.7539959832106,36.3430481236044],[-86.7541979435884,36.3430232589858],[-86.7544003026236,36.3430006130501],[-86.7546030224943,36.3429801896365],[-86.7546948586956,36.3432537047781],[-86.754826312079,36.3436527928456],[-86.753114299094,36.3440246702163],[-86.7528005212982,36.343201385341]]]},"properties":{"id":"76067","parcel":"01700018400","address":"6220 LICKTON PIKE","owner":"STONE, ELIZABETH H.& KIMBERLY OLIVIA","point":[-86.75382781679322,36.34345133105701]}},{"type":"Feature","id":"76263","geometry":{"type":"Polygon","coordinates":[[[-86.7564141094646,36.345177196281],[-86.7564060906456,36.3451578260402],[-86.7563856242934,36.3450894135569],[-86.7563687668189,36.3450203593671],[-86.756355547267,36.3449507894614],[-86.7563459902093,36.3448808280556],[-86.7563401135506,36.3448106012093],[-86.7563379262926,36.3447402359386],[-86.7570527153053,36.3446883336988],[-86.757052494874,36.3447965796758],[-86.7578531610218,36.3452120890769],[-86.7578465909313,36.3452411071501],[-86.7578400692434,36.3452661045788],[-86.7571661548959,36.3451267943901],[-86.7564141094646,36.345177196281]]]},"properties":{"id":"76263","parcel":"01700018800","address":"3027 FREEMAN HOLLOW RD","owner":"STOTTS, GLENN E. ETUX","point":[-86.75689149154083,36.344986652414065]}},{"type":"Feature","id":"76362","geometry":{"type":"Polygon","coordinates":[[[-86.7555364441999,36.3429195737636],[-86.7556613034442,36.3429203394678],[-86.7557860471088,36.3429247512006],[-86.7559105113791,36.3429328009741],[-86.7560345368873,36.3429444798717],[-86.7560348175538,36.342948323624],[-86.7560694144293,36.3434159776092],[-86.7557209758188,36.3434414009137],[-86.7555364441999,36.3429195737636]]]},"properties":{"id":"76362","parcel":"01700004400","address":"3000 FREEMAN HOLLOW RD","owner":"CARRILLO, LUIS VALENZUELA","point":[-86.75584055405473,36.343181718576204]}},{"type":"Feature","id":"76363","geometry":{"type":"Polygon","coordinates":[[[-86.7543534563725,36.3449374019981],[-86.7561704499202,36.3447604599548],[-86.7561750484793,36.3448370835445],[-86.7561831153943,36.3449135187266],[-86.7561946418961,36.3449896628162],[-86.756200342327,36.3450533479125],[-86.7562195738156,36.3451113419373],[-86.7562360310357,36.3451804905716],[-86.7562568789624,36.3452488583349],[-86.7563850711662,36.3455962376181],[-86.7557502641936,36.3457191497658],[-86.7557942663503,36.3458600526764],[-86.7543880028261,36.346170361862],[-86.7543786675925,36.3457056568447],[-86.7543658848698,36.3453809317189],[-86.7543534563725,36.3449374019981]]]},"properties":{"id":"76363","parcel":"01700004600","address":"3036 FREEMAN HOLLOW RD","owner":"ECKLAND, ERICKA E.","point":[-86.75535805950942,36.34548855327477]}},{"type":"Feature","id":"77054","geometry":{"type":"Polygon","coordinates":[[[-86.7540373802781,36.348545557636],[-86.753600729961,36.3479068722142],[-86.7538250952061,36.347220118328],[-86.7535730691068,36.346427828219],[-86.7531504725961,36.3457654278265],[-86.7526141732915,36.3450364383456],[-86.7517679915646,36.3432821587836],[-86.7519836652123,36.3432725342878],[-86.7521990844982,36.343259709856],[-86.7524141747893,36.3432436886573],[-86.7526288670482,36.3432244765301],[-86.7528005212982,36.343201385341],[-86.753114299094,36.3440246702163],[-86.7532000502428,36.3442499648515],[-86.7537475169311,36.3445710904487],[-86.7539727073216,36.3447619488086],[-86.7540523620424,36.3449056699753],[-86.7540147447273,36.3449703037837],[-86.7540504931426,36.3462462668861],[-86.7540583404346,36.3467181115544],[-86.7540661775488,36.3467557597905],[-86.7540846580843,36.3469138670903],[-86.7541177582677,36.3470378234851],[-86.7541331276063,36.347154194889],[-86.754158182716,36.3472891845673],[-86.754208669882,36.3473844675057],[-86.7542635864962,36.347517623557],[-86.7542984880263,36.3476168446177],[-86.7543205648624,36.3477243854727],[-86.7543633534923,36.3480097986585],[-86.7544022832227,36.3481040495715],[-86.7544506779756,36.3481938471025],[-86.7544912485745,36.3483177549609],[-86.7545673622042,36.3484656136001],[-86.7546175330504,36.348527930841],[-86.7546869271652,36.3486121052567],[-86.7547325228001,36.3486931269376],[-86.7547865472775,36.3488032161807],[-86.7548318947471,36.3488584212657],[-86.7549140828377,36.3489309765194],[-86.7549923008351,36.3490145441462],[-86.7550317646516,36.3490934086056],[-86.7550599502186,36.3492003632179],[-86.755092658772,36.3492831153125],[-86.7551208287675,36.349388421674],[-86.7551586262952,36.3495063012079],[-86.7552016589892,36.3496032758344],[-86.7552249907759,36.349699820981],[-86.7552159047629,36.3498152489389],[-86.7551972383327,36.3499230438981],[-86.7551981396907,36.3500175327862],[-86.7552131664571,36.3500976491909],[-86.7552261126718,36.3501733833394],[-86.7552545224796,36.3502325394769],[-86.7553003083306,36.3503333396548],[-86.7553209349545,36.3504310011365],[-86.7553461590405,36.350512152435],[-86.7553791831985,36.3505874935395],[-86.7553791396828,36.3505874866015],[-86.7553790906227,36.3505874824017],[-86.7543959449172,36.3505035230326],[-86.7543959273738,36.3505034357238],[-86.7540384139702,36.3485470616352],[-86.7540373802781,36.348545557636]]]},"properties":{"id":"77054","parcel":"01800009200","address":"6246 LICKTON PIKE","owner":"MCKEE, THURMAN W. ET UX","point":[-86.75388885154872,36.346834429359106]}},{"type":"Feature","id":"77287","geometry":{"type":"Polygon","coordinates":[[[-86.7587569420346,36.3442855142067],[-86.7588575049764,36.343866252298],[-86.7589714461961,36.3439218493268],[-86.7591426920564,36.3440045567442],[-86.7591029464246,36.3443921216764],[-86.7589842399904,36.3450438878923],[-86.7577417789073,36.345642814514],[-86.7578400692434,36.3452661045788],[-86.7578465909313,36.3452411071501],[-86.7578531610218,36.3452120890769],[-86.7578550613998,36.3452036958293],[-86.7580597543517,36.3444530527165],[-86.7587223732946,36.3444340655144],[-86.7587569420346,36.3442855142067]]]},"properties":{"id":"77287","parcel":"01700023500","address":"6122 LICKTON PIKE","owner":"BABY KAY TRUST","point":[-86.75850867566434,36.34474844428377]}},{"type":"Feature","id":"77582","geometry":{"type":"Polygon","coordinates":[[[-86.7569261692292,36.3496562264513],[-86.7569354682403,36.3495987606672],[-86.7569457842775,36.3495412831107],[-86.7570009181418,36.3492700913872],[-86.7570553469432,36.3489961580118],[-86.7570629163214,36.3489109202646],[-86.7570747723231,36.3488260017573],[-86.7600858819556,36.3491536388537],[-86.7599996200357,36.3497962800628],[-86.7599998570814,36.3498896745429],[-86.7569261692292,36.3496562264513]]]},"properties":{"id":"77582","parcel":"01100009800","address":"3091 FREEMAN HOLLOW RD","owner":"KAPLAN, DEBORAH A.","point":[-86.75851228286436,36.34940880709366]}},{"type":"Feature","id":"77591","geometry":{"type":"Polygon","coordinates":[[[-86.7570494961001,36.3472480547132],[-86.7570263450022,36.3471010088946],[-86.7569991098425,36.3469544212058],[-86.7569678036118,36.3468083663642],[-86.756932442643,36.346662919066],[-86.7568930443648,36.3465181521973],[-86.7568496295476,36.3463741386235],[-86.7577663033516,36.3462184157338],[-86.7578494209458,36.3465299449555],[-86.7581641833502,36.3477701311043],[-86.7572541663141,36.3477005645228],[-86.7570494961001,36.3472480547132]]]},"properties":{"id":"77591","parcel":"01100010300","address":"3057 FREEMAN HOLLOW RD","owner":"CLENDENIN, LES TRUST","point":[-86.75749448934323,36.347028693663205]}},{"type":"Feature","id":"78593","geometry":{"type":"Polygon","coordinates":[[[-86.7585856017768,36.3410743345872],[-86.7587328584256,36.3409320851954],[-86.758882591593,36.3407915387066],[-86.7590347725911,36.3406527241309],[-86.7591893704785,36.3405156677889],[-86.7593066011341,36.3404193385662],[-86.7611850116656,36.3405726234193],[-86.7611110595679,36.3414271110731],[-86.7585856017768,36.3410743345872]]]},"properties":{"id":"78593","parcel":"01700009600","address":"2933 LOWER WALKERS CREEK RD","owner":"RODRIGUEZ, JUAN","point":[-86.75998365001651,36.34086417941703]}},{"type":"Feature","id":"78948","geometry":{"type":"Polygon","coordinates":[[[-86.7571870525983,36.3423972584404],[-86.7572392133857,36.342363127161],[-86.7572924395328,36.3423300904806],[-86.7573905828481,36.3422548477828],[-86.7574862353728,36.3421775342738],[-86.7575793319125,36.3420982053422],[-86.757669806142,36.342016914581],[-86.7577575962362,36.3419337200615],[-86.7578426403709,36.3418486798547],[-86.7581049567066,36.343003492217],[-86.7578601388705,36.3429288199205],[-86.7578619572918,36.3428162073597],[-86.7571870525983,36.3423972584404]]]},"properties":{"id":"78948","parcel":"01700009500","address":"2947 LOWER WALKERS CREEK RD","owner":"WALKER'S UNITED METHODIST CHURCH ET AL","point":[-86.75776978085125,36.342607230780615]}},{"type":"Feature","id":"79061","geometry":{"type":"Polygon","coordinates":[[[-86.7562191457937,36.3428245289307],[-86.7561372058022,36.342815556691],[-86.7560313230135,36.3428053010941],[-86.7559339798378,36.3427967746552],[-86.7558147765379,36.3427880810094],[-86.7556953037258,36.3427823097846],[-86.7555756683586,36.3427794639166],[-86.7554559818576,36.3427795472153],[-86.7553363533818,36.3427825598999],[-86.7552168920559,36.3427884985857],[-86.7550977081013,36.3427973580789],[-86.7549789094859,36.3428091304967],[-86.7548606052576,36.3428238043449],[-86.7547873540643,36.3428336007574],[-86.7547092936191,36.3428368347044],[-86.7547148704321,36.3427807629471],[-86.7554038793878,36.3421041781889],[-86.7555154649072,36.3420710292868],[-86.7555903483813,36.3420501426273],[-86.7559702870589,36.3421062409613],[-86.7564459776229,36.3421892509414],[-86.7569466853628,36.3423904895319],[-86.756910907761,36.3424162386635],[-86.7568770182033,36.3424436062786],[-86.7568451261312,36.342472504276],[-86.7568153386812,36.3425028364574],[-86.7567623280101,36.3425487761499],[-86.7567120946091,36.3425967162777],[-86.756664755495,36.3426465452618],[-86.7566204176516,36.3426981506854],[-86.7565791835392,36.3427514129496],[-86.7565411478042,36.3428062107023],[-86.7565063972623,36.3428624190349],[-86.7563630293763,36.3428421909206],[-86.7562191457937,36.3428245289307]]]},"properties":{"id":"79061","parcel":"01700012100","address":"6217 LICKTON PIKE","owner":"QUINTERO, WYATT & NICOLE","point":[-86.75595417503155,36.342456206752374]}},{"type":"Feature","id":"79064","geometry":{"type":"Polygon","coordinates":[[[-86.7537427652997,36.341318867641],[-86.753442397775,36.3412960165565],[-86.7530342007039,36.3413595393796],[-86.7521784574285,36.3398466375124],[-86.7531824529892,36.3398829658638],[-86.7531265698026,36.3399333099293],[-86.753328427348,36.3400232511473],[-86.7536324030844,36.3402119947641],[-86.7536324449088,36.340216388856],[-86.753733100834,36.3403036640878],[-86.7544553011579,36.341410018243],[-86.7537427652997,36.341318867641]]]},"properties":{"id":"79064","parcel":"01700012300","address":"6245 LICKTON PIKE","owner":"SOMERVILLE, CARL JASON","point":[-86.75338710857504,36.34079942657194]}},{"type":"Feature","id":"79233","geometry":{"type":"Polygon","coordinates":[[[-86.7570527153053,36.3446883336988],[-86.7570538321663,36.3441394387899],[-86.7570646354678,36.3431196767668],[-86.7571051832075,36.3431289696279],[-86.7572193086466,36.3431591094855],[-86.757332237982,36.3431920685307],[-86.757443862855,36.3432278141003],[-86.7575540815984,36.3432663143906],[-86.7576627869141,36.3433075313249],[-86.757769878187,36.343351426785],[-86.7578752558893,36.3433979599426],[-86.7579788182387,36.34344708728],[-86.758091090119,36.3434970512559],[-86.7582016322954,36.3435494772874],[-86.7583103630956,36.3436043280403],[-86.7580597543517,36.3444530527165],[-86.7578550613998,36.3452036958293],[-86.7578531610218,36.3452120890769],[-86.757052494874,36.3447965796758],[-86.7570527153053,36.3446883336988]]]},"properties":{"id":"79233","parcel":"01700004200","address":"6140 LICKTON PIKE","owner":"ROBERTS, MAGGIE SAVAGE ET VIR","point":[-86.75757962131489,36.34429629312152]}},{"type":"Feature","id":"79235","geometry":{"type":"Polygon","coordinates":[[[-86.7563016383897,36.344196543356],[-86.7562024348176,36.3429615602829],[-86.7563727744087,36.3429854924924],[-86.7564632049585,36.3429993159199],[-86.7565761243286,36.3430171838987],[-86.7566441416685,36.3430285698764],[-86.7567791657759,36.3430518986848],[-86.7569418382515,36.3430909861141],[-86.7570646354678,36.3431196767668],[-86.7570538321663,36.3441394387899],[-86.7563016383897,36.344196543356]]]},"properties":{"id":"79235","parcel":"01700004300","address":"3009 FREEMAN HOLLOW RD","owner":"GARRETT, DONALD BARRY & LOLA JEAN","point":[-86.75665759786057,36.34362874065149]}},{"type":"Feature","id":"79238","geometry":{"type":"Polygon","coordinates":[[[-86.7550844902594,36.3429364276507],[-86.7551972457767,36.3429287519523],[-86.7553102037437,36.3429233829093],[-86.7554232940107,36.3429203227616],[-86.7555364441999,36.3429195737636],[-86.7557209758188,36.3434414009137],[-86.7557629634266,36.3435902139066],[-86.7553177558424,36.3436681868778],[-86.7550844902594,36.3429364276507]]]},"properties":{"id":"79238","parcel":"01700004500","address":"6206 LICKTON PIKE","owner":"SHIVERS, J. M. ETUX","point":[-86.75539833812934,36.34318890571424]}},{"type":"Feature","id":"79848","geometry":{"type":"Polygon","coordinates":[[[-86.750694763239,36.3445789156319],[-86.7513314172356,36.3445071140212],[-86.7514381396936,36.3450547367466],[-86.7516570367516,36.3457225275543],[-86.7517114535858,36.3459278737459],[-86.7517440261963,36.3460507904707],[-86.7518901897877,36.3466033891237],[-86.7514358702705,36.3466318660435],[-86.7509854617608,36.3466601015854],[-86.750848267196,36.3457275500015],[-86.750694763239,36.3445789156319]]]},"properties":{"id":"79848","parcel":"01800015500","address":"6262 LICKTON PIKE","owner":"LOVELL, DAVID W. ET UX","point":[-86.75117517705637,36.3453878573746]}},{"type":"Feature","id":"80322","geometry":{"type":"Polygon","coordinates":[[[-86.750136728716,36.343164965366],[-86.7498480884167,36.3375333599935],[-86.7506504254661,36.3376105164251],[-86.7509284048906,36.3376370849038],[-86.7521784574285,36.3398466375124],[-86.7530342007039,36.3413595393796],[-86.753104992722,36.3414843583947],[-86.7509798907458,36.3421705667853],[-86.7510007168523,36.3422899284528],[-86.7511520014971,36.3431688284878],[-86.751069841666,36.3431698883638],[-86.750322832315,36.3431684804198],[-86.7502436993264,36.3431664991711],[-86.750136728716,36.343164965366]]]},"properties":{"id":"80322","parcel":"01800015000","address":"0 LICKTON PIKE","owner":"BUTLER, JANICE L.","point":[-86.75130573283691,36.340600389857585]}},{"type":"Feature","id":"80449","geometry":{"type":"Polygon","coordinates":[[[-86.7577417789073,36.345642814514],[-86.7589842399904,36.3450438878923],[-86.7591029464246,36.3443921216764],[-86.7591426920564,36.3440045567442],[-86.7592884949558,36.3440666342717],[-86.7594362633259,36.3441255909768],[-86.7595858953964,36.3441813869367],[-86.7597372871857,36.344233984045],[-86.7598903358333,36.3442833450903],[-86.7598003952907,36.3450305211603],[-86.7592266225647,36.3456752583863],[-86.7582289307099,36.3458792937162],[-86.7577663033516,36.3462184157338],[-86.7576842919879,36.3458805107203],[-86.7577417789073,36.345642814514]]]},"properties":{"id":"80449","parcel":"01700031700","address":"6116 LICKTON PIKE","owner":"SMITH, DEREK R","point":[-86.75894146632211,36.34534452106813]}},{"type":"Feature","id":"80480","geometry":{"type":"Polygon","coordinates":[[[-86.7552253426233,36.3444307145277],[-86.7547607639727,36.3430105914471],[-86.7547439698103,36.3429671483741],[-86.7550844902594,36.3429364276507],[-86.7553177558424,36.3436681868778],[-86.7557629634266,36.3435902139066],[-86.7557209758188,36.3434414009137],[-86.7560694144293,36.3434159776092],[-86.7561431238862,36.3443435264571],[-86.7552253426233,36.3444307145277]]]},"properties":{"id":"80480","parcel":"01700036300","address":"6214 LICKTON PIKE","owner":"CLARK, NATHAN HAROLD","point":[-86.75560113719338,36.34400559302209]}},{"type":"Feature","id":"80842","geometry":{"type":"Polygon","coordinates":[[[-86.7546030224943,36.3429801896365],[-86.7547439698103,36.3429671483741],[-86.7547607639727,36.3430105914471],[-86.7552253426233,36.3444307145277],[-86.7537475169311,36.3445710904487],[-86.7532000502428,36.3442499648515],[-86.753114299094,36.3440246702163],[-86.754826312079,36.3436527928456],[-86.7546948586956,36.3432537047781],[-86.7546030224943,36.3429801896365]]]},"properties":{"id":"80842","parcel":"01700036200","address":"6216 LICKTON PIKE","owner":"CLARK, HAROLD D. & JEANETTE W.","point":[-86.75450135085387,36.34383982669835]}},{"type":"Feature","id":"80843","geometry":{"type":"Polygon","coordinates":[[[-86.7513314172356,36.3445071140212],[-86.7511472005798,36.3433073036722],[-86.7512655544116,36.3433078087972],[-86.7513838808219,36.3433056589835],[-86.7515020884742,36.3433008566008],[-86.7516200860406,36.3432934049205],[-86.751737782219,36.343283309918],[-86.7517679915646,36.3432821587836],[-86.7526141732915,36.3450364383456],[-86.7531504725961,36.3457654278265],[-86.7517440261963,36.3460507904707],[-86.7517114535858,36.3459278737459],[-86.7516570367516,36.3457225275543],[-86.7514381396936,36.3450547367466],[-86.7513314172356,36.3445071140212]]]},"properties":{"id":"80843","parcel":"01800000100","address":"6252 LICKTON PIKE","owner":"CANNON, MURRAY F. & BILLIE S.","point":[-86.75193489092658,36.34477169923167]}},{"type":"Feature","id":"82257","geometry":{"type":"Polygon","coordinates":[[[-86.7537475169311,36.3445710904487],[-86.7552253426233,36.3444307145277],[-86.7561431238862,36.3443435264571],[-86.7561691920979,36.3446714534511],[-86.7561704499202,36.3447604599548],[-86.7543534563725,36.3449374019981],[-86.7543658848698,36.3453809317189],[-86.7543786675925,36.3457056568447],[-86.7543880028261,36.346170361862],[-86.7540504931426,36.3462462668861],[-86.7540147447273,36.3449703037837],[-86.7540523620424,36.3449056699753],[-86.7539727073216,36.3447619488086],[-86.7537475169311,36.3445710904487]]]},"properties":{"id":"82257","parcel":"01700036100","address":"3030 FREEMAN HOLLOW RD","owner":"ECKLAND, ERICKA E.","point":[-86.75419031424342,36.34517561788185]}},{"type":"Feature","id":"82373","geometry":{"type":"Polygon","coordinates":[[[-86.7525404655098,36.3429975811316],[-86.7524090460409,36.3426028423548],[-86.7510007168523,36.3422899284528],[-86.7509798907458,36.3421705667853],[-86.753104992722,36.3414843583947],[-86.7530342007039,36.3413595393796],[-86.753442397775,36.3412960165565],[-86.7537427652997,36.341318867641],[-86.7544553011579,36.341410018243],[-86.75486578634,36.3420139787789],[-86.7549216177714,36.3421718531154],[-86.7549459523972,36.3423024547951],[-86.7543802444089,36.3428691032332],[-86.7541840989814,36.3428884200457],[-86.7539882617423,36.3429096947721],[-86.7537927649467,36.3429329236079],[-86.7537581777006,36.3429378083441],[-86.7535065289641,36.3429684936022],[-86.7532539130617,36.3430046781943],[-86.7532610798817,36.342937059195],[-86.7525404655098,36.3429975811316]]]},"properties":{"id":"82373","parcel":"01800000200","address":"0 LICKTON PIKE","owner":"SOMERVILLE, CARL JASON","point":[-86.7530687157267,36.34208915904701]}},{"type":"Feature","id":"82988","geometry":{"type":"Polygon","coordinates":[[[-86.7555903483813,36.3420501426273],[-86.7554636630515,36.3417104005084],[-86.7555611590239,36.3414897117434],[-86.7554762852613,36.3411453347978],[-86.7554196008636,36.3407953563758],[-86.7553950348051,36.3402161131178],[-86.7549623495904,36.3388977558233],[-86.7582333828897,36.3411975299273],[-86.7577547826102,36.3417194643769],[-86.7577220293873,36.3417543458066],[-86.7576946238764,36.3417823156157],[-86.7576424285229,36.3418327972619],[-86.7576148701844,36.3418280374797],[-86.7574750018817,36.3419062146725],[-86.7571547601172,36.3420404024314],[-86.7570498144388,36.3420366045157],[-86.7569696115069,36.3419851853006],[-86.7565035175005,36.3420057225719],[-86.7564032445644,36.342037441712],[-86.7562035187427,36.3420430721387],[-86.7559702870589,36.3421062409613],[-86.7555903483813,36.3420501426273]]]},"properties":{"id":"82988","parcel":"01700035800","address":"2894 LOWER WALKERS CREEK RD","owner":"CHAUDOIN FAMILY TRUST","point":[-86.75633103242303,36.34050762168161]}},{"type":"Feature","id":"85894","geometry":{"type":"Polygon","coordinates":[[[-86.7581641833502,36.3477701311043],[-86.7578494209458,36.3465299449555],[-86.759709681897,36.3467589081068],[-86.7597965105772,36.3468896749651],[-86.7601229129793,36.3472881164653],[-86.7607003858191,36.3479481417803],[-86.7581641833502,36.3477701311043]]]},"properties":{"id":"85894","parcel":"01100015600","address":"6120 LICKTON PIKE","owner":"PHILLIPS, MICAH & JESSICA","point":[-86.7589749929819,36.34708691379254]}},{"type":"Feature","id":"85912","geometry":{"type":"Polygon","coordinates":[[[-86.7553791831985,36.3505874935395],[-86.7553461590405,36.350512152435],[-86.7553209349545,36.3504310011365],[-86.7553003083306,36.3503333396548],[-86.7552545224796,36.3502325394769],[-86.7552261126718,36.3501733833394],[-86.7552131664571,36.3500976491909],[-86.7551981396907,36.3500175327862],[-86.7551972383327,36.3499230438981],[-86.7552159047629,36.3498152489389],[-86.7552249907759,36.349699820981],[-86.7552016589892,36.3496032758344],[-86.7551586262952,36.3495063012079],[-86.7551208287675,36.349388421674],[-86.755092658772,36.3492831153125],[-86.7550599502186,36.3492003632179],[-86.7550317646516,36.3490934086056],[-86.7549923008351,36.3490145441462],[-86.7549140828377,36.3489309765194],[-86.7548318947471,36.3488584212657],[-86.7547865472775,36.3488032161807],[-86.7547325228001,36.3486931269376],[-86.7546869271652,36.3486121052567],[-86.7546175330504,36.348527930841],[-86.7545673622042,36.3484656136001],[-86.7544912485745,36.3483177549609],[-86.7544506779756,36.3481938471025],[-86.7544022832227,36.3481040495715],[-86.7543633534923,36.3480097986585],[-86.7543205648624,36.3477243854727],[-86.7542984880263,36.3476168446177],[-86.7542635864962,36.347517623557],[-86.754208669882,36.3473844675057],[-86.754158182716,36.3472891845673],[-86.7541331276063,36.347154194889],[-86.7541177582677,36.3470378234851],[-86.7540846580843,36.3469138670903],[-86.7540661775488,36.3467557597905],[-86.7540583404346,36.3467181115544],[-86.7540504931426,36.3462462668861],[-86.7543880028261,36.346170361862],[-86.7557942663503,36.3458600526764],[-86.7557502641936,36.3457191497658],[-86.7563850711662,36.3455962376181],[-86.7564207103282,36.3456928354852],[-86.7564862406962,36.345846873095],[-86.7565474899422,36.3460020585531],[-86.7566044305681,36.3461583145329],[-86.7566570294962,36.3463155628409],[-86.7567052647793,36.3464737243123],[-86.7567491088998,36.3466327198172],[-86.7567885421369,36.3467924701759],[-86.7568235425243,36.3469528944203],[-86.7568540947875,36.347113912441],[-86.7568801814236,36.3472754441421],[-86.7569017904819,36.3474374075901],[-86.7569189111255,36.3475997208441],[-86.7569315347708,36.3477623046522],[-86.7569396550276,36.3479250761434],[-86.756943267751,36.3480879542347],[-86.7569423698922,36.3482508560332],[-86.75693696399,36.3484137004132],[-86.7569270514779,36.3485764071564],[-86.7567871212825,36.3489997566836],[-86.7566503199761,36.3494307819156],[-86.7566768549095,36.3506793654215],[-86.7566778588251,36.3506794943252],[-86.7566788950648,36.3506796248292],[-86.7566795127204,36.3507086951581],[-86.7566795131511,36.3507087402163],[-86.7566817701647,36.3507672385751],[-86.7566817739202,36.3507672818101],[-86.7554245552076,36.350696024188],[-86.7554245050506,36.3506960217976],[-86.7554244604637,36.3506960193723],[-86.7554012268694,36.3505892718926],[-86.7553792322586,36.3505874977393],[-86.7553791831985,36.3505874935395]]]},"properties":{"id":"85912","parcel":"01100018900","address":"3080 FREEMAN HOLLOW RD","owner":"KHAN, MONO K. & SUZANNE Y.","point":[-86.75568469182139,36.34815152734107]}}]}