{"type":"FeatureCollection","features":[{"type":"Feature","id":"75054","geometry":{"type":"Polygon","coordinates":[[[-86.7600018840515,36.3510224904424],[-86.7599986409777,36.3506846729769],[-86.7599977704858,36.3505939969694],[-86.7600005956897,36.3501808427438],[-86.7599998570814,36.3498896745429],[-86.7599996200357,36.3497962800628],[-86.7600858819556,36.3491536388537],[-86.7570747723231,36.3488260017573],[-86.7570850953129,36.3487696218139],[-86.7570974662869,36.3487135111335],[-86.7571090403352,36.3485506551957],[-86.7571163905148,36.3483876391297],[-86.7571195119626,36.3482245341631],[-86.7571184031576,36.3480614115022],[-86.757113064824,36.3478983441412],[-86.7571034998881,36.3477354023566],[-86.7570897124245,36.3475726600218],[-86.7570717086926,36.3474101864905],[-86.7570494961001,36.3472480547132],[-86.7572541663141,36.3477005645228],[-86.7581641833502,36.3477701311043],[-86.7607003858191,36.3479481417803],[-86.7609489571244,36.3482306112208],[-86.7611069591195,36.3484180558691],[-86.7617693968605,36.3495060618708],[-86.7624463757459,36.3502687379262],[-86.7626567145289,36.3508827217253],[-86.7628025728459,36.3511477039215],[-86.7629000581071,36.3513272869187],[-86.7612704852524,36.3511573540626],[-86.7612657211293,36.3511562872576],[-86.7600018840515,36.3510224904424]]]},"properties":{"id":"75054","parcel":"01100005902","address":"3071 FREEMAN HOLLOW RD","owner":"WRIGHT, JERRY A.","point":[-86.76086273293781,36.34932972345535]}},{"type":"Feature","id":"75199","geometry":{"type":"Polygon","coordinates":[[[-86.759709681897,36.3467589081068],[-86.7598642685509,36.3456712548991],[-86.7600313219566,36.3443264101021],[-86.7601134610289,36.3443519618113],[-86.7601968074455,36.3443748148349],[-86.7600479348806,36.3454910017328],[-86.761042112504,36.3466186714353],[-86.7597965105772,36.3468896749651],[-86.759709681897,36.3467589081068]]]},"properties":{"id":"75199","parcel":"01100013200","address":"6110 LICKTON PIKE","owner":"BAKER, JACK T. ET UX","point":[-86.76000158951031,36.3455812197135]}},{"type":"Feature","id":"76292","geometry":{"type":"Polygon","coordinates":[[[-86.7621707812046,36.3444986415784],[-86.7623147091043,36.3444827275801],[-86.7624580390126,36.344463604329],[-86.7626006618681,36.3444412851319],[-86.7627424675479,36.3444157887098],[-86.7628833481489,36.3443871328691],[-86.7630231969344,36.3443553408164],[-86.7631619071684,36.3443204357591],[-86.7639294198398,36.3451786773977],[-86.7623725776119,36.3452851877455],[-86.7620975825112,36.3449369623076],[-86.7621707812046,36.3444986415784]]]},"properties":{"id":"76292","parcel":"01700023700","address":"6070 LICKTON PIKE","owner":"BRATCHER, BENNETT F. & DEBORAH R.","point":[-86.76282695208805,36.34471917885362]}},{"type":"Feature","id":"76814","geometry":{"type":"Polygon","coordinates":[[[-86.7590292727077,36.3437910078663],[-86.758997087386,36.3434088383078],[-86.7592711863015,36.3419829835434],[-86.7624169687236,36.3422786729597],[-86.7632249437473,36.3439557954606],[-86.7635267601569,36.3440571752563],[-86.7633999560087,36.3441013377424],[-86.7632715825506,36.344142427822],[-86.7631417541654,36.3441804069176],[-86.7630105852891,36.3442152418589],[-86.7628781915067,36.3442469030739],[-86.76274469286,36.3442753609627],[-86.7626102049791,36.3443005904601],[-86.7624748491075,36.3443225709719],[-86.7623387442441,36.3443412801161],[-86.7622020105803,36.3443567036149],[-86.7620641908034,36.3443725997314],[-86.7619258070137,36.3443848790415],[-86.7617870039203,36.344393528015],[-86.7616479274074,36.3443985394236],[-86.7615087244819,36.3443999069337],[-86.7613695388521,36.3443976287395],[-86.7612305165064,36.3443917084284],[-86.7610918056784,36.3443821513772],[-86.7609535490661,36.3443689666027],[-86.7608158916647,36.3443521703179],[-86.7606789795743,36.3443317778282],[-86.7605429545078,36.3443078116769],[-86.7604079582037,36.3442802971116],[-86.7602741346625,36.3442492629708],[-86.7601416223398,36.3442147408325],[-86.7599971195281,36.3441717998798],[-86.7598539979944,36.3441259319281],[-86.7597123471609,36.3440771670622],[-86.7595722586596,36.3440255335509],[-86.7594338197263,36.3439710659996],[-86.7592971175875,36.3439137981126],[-86.7591622406002,36.3438537653901],[-86.7590292727077,36.3437910078663]]]},"properties":{"id":"76814","parcel":"01700009400","address":"0 LICKTON PIKE","owner":"ANDERSON, DAVID LEE","point":[-86.76089872245598,36.34284415159656]}},{"type":"Feature","id":"80368","geometry":{"type":"Polygon","coordinates":[[[-86.760663065837,36.3453349555089],[-86.7607213536008,36.3444748017575],[-86.7607923940137,36.344482595765],[-86.7610418649427,36.3445076720707],[-86.7612229825132,36.3445240279084],[-86.7613410006974,36.3445304327973],[-86.7614592028836,36.3445339597187],[-86.7615774843226,36.3445346066274],[-86.761695734713,36.3445323733166],[-86.7618138493314,36.3445272604458],[-86.7617577282685,36.3450462389384],[-86.7622539098502,36.3456562215331],[-86.7623583350062,36.3457808231509],[-86.7625960847897,36.3462803676891],[-86.7618707419341,36.3464368492403],[-86.761408053048,36.3465361683865],[-86.7608808341855,36.3456648653979],[-86.760663065837,36.3453349555089]]]},"properties":{"id":"80368","parcel":"01700027200","address":"6100 LICKTON PIKE","owner":"PERRY, SHANNON & DAVID","point":[-86.76144625692389,36.34549556675285]}},{"type":"Feature","id":"80837","geometry":{"type":"Polygon","coordinates":[[[-86.7611110595679,36.3414271110731],[-86.7611850116656,36.3405726234193],[-86.7626801338477,36.3406947844156],[-86.7625656564837,36.3414294849781],[-86.7625473516322,36.3415017530264],[-86.7625165948444,36.3416231800568],[-86.7611110595679,36.3414271110731]]]},"properties":{"id":"80837","parcel":"01700034600","address":"0 LOWER WALKERS CREEK RD","owner":"HEESAKER, GARY L. & CHERYL D.","point":[-86.76188289872144,36.34106066260622]}},{"type":"Feature","id":"82026","geometry":{"type":"Polygon","coordinates":[[[-86.763978387157,36.346452938221],[-86.7626244415262,36.3459109952671],[-86.7625590221276,36.3457465952817],[-86.7624949764089,36.3456547023486],[-86.7619201287389,36.3449858771862],[-86.7619889470113,36.3445157197296],[-86.7620337996179,36.3445078984958],[-86.7620791828722,36.3445024323954],[-86.7621249064853,36.3444993424537],[-86.7621707812046,36.3444986415784],[-86.7620975825112,36.3449369623076],[-86.7623725776119,36.3452851877455],[-86.7639294198398,36.3451786773977],[-86.7639678584263,36.3455025692555],[-86.763969985961,36.3455118951625],[-86.7639855338481,36.3456452982917],[-86.7640298097141,36.3460109085377],[-86.7647214004242,36.3457560194495],[-86.7649412959634,36.3456716719192],[-86.7653621749669,36.3455838554278],[-86.7656083574844,36.3455493346451],[-86.7658700122602,36.3456399768904],[-86.7660050291223,36.3456968082426],[-86.7662743525805,36.3458082733136],[-86.7658729413759,36.3461536312164],[-86.765509723272,36.3465157773068],[-86.7641215630452,36.3465113675644],[-86.763978387157,36.346452938221]]]},"properties":{"id":"82026","parcel":"01100011500","address":"101 LAKESIDE DR","owner":"DOTSON, DOUGLAS W. & ANGELIKA H.","point":[-86.76316720869086,36.34550564606254]}},{"type":"Feature","id":"82181","geometry":{"type":"Polygon","coordinates":[[[-86.7600479348806,36.3454910017328],[-86.7601968074455,36.3443748148349],[-86.7603265878607,36.3444042802143],[-86.760457341386,36.3444307806324],[-86.7605889641864,36.3444542933069],[-86.7607213536008,36.3444748017575],[-86.760663065837,36.3453349555089],[-86.7608808341855,36.3456648653979],[-86.761408053048,36.3465361683865],[-86.761042112504,36.3466186714353],[-86.7600479348806,36.3454910017328]]]},"properties":{"id":"82181","parcel":"01700027300","address":"6108 LICKTON PIKE","owner":"BAKER, JACK T. ET UX","point":[-86.76047395033991,36.34557795346433]}},{"type":"Feature","id":"82184","geometry":{"type":"Polygon","coordinates":[[[-86.7592711863015,36.3419829835434],[-86.7578426403709,36.3418486798547],[-86.7579118114286,36.3417840074881],[-86.7579782017494,36.3417174563356],[-86.7580417363326,36.3416491043765],[-86.7584235868847,36.3412456595812],[-86.7585069756166,36.3411605319264],[-86.7585856017768,36.3410743345872],[-86.7611110595679,36.3414271110731],[-86.7625165948444,36.3416231800568],[-86.7624169687236,36.3422786729597],[-86.7592711863015,36.3419829835434]]]},"properties":{"id":"82184","parcel":"01700027900","address":"2937 LOWER WALKERS CREEK RD","owner":"OVERSTREET, CASEY COLLEEN","point":[-86.76025802909982,36.34168781125114]}},{"type":"Feature","id":"84475","geometry":{"type":"Polygon","coordinates":[[[-86.7612626545668,36.3483654346057],[-86.7610921802653,36.3481522468948],[-86.7609489571244,36.3482306112208],[-86.7607003858191,36.3479481417803],[-86.7601229129793,36.3472881164653],[-86.7597965105772,36.3468896749651],[-86.761042112504,36.3466186714353],[-86.761408053048,36.3465361683865],[-86.7618707419341,36.3464368492403],[-86.7625960847897,36.3462803676891],[-86.7627591069425,36.3466364328856],[-86.7632522859648,36.3471442525585],[-86.7623447523978,36.3476795484282],[-86.7622297997657,36.3475646075695],[-86.7622193102258,36.3475541140732],[-86.7620741841404,36.3476329306436],[-86.7619618212748,36.3476940750583],[-86.7621203513724,36.3478666873391],[-86.7612626545668,36.3483654346057]]]},"properties":{"id":"84475","parcel":"011150A00800CO","address":"104 LAKESIDE DR","owner":"MCGATHY, ROSANNE & FARRIS, MICHAEL E. & JULIE C.","point":[-86.76150755587139,36.34742179179008]}},{"type":"Feature","id":"84484","geometry":{"type":"Polygon","coordinates":[[[-86.7629083009766,36.3465442968098],[-86.7626244415262,36.3459109952671],[-86.763978387157,36.346452938221],[-86.7641215630452,36.3465113675644],[-86.765509723272,36.3465157773068],[-86.7641843412664,36.34787893841],[-86.7639902141392,36.3476785410098],[-86.7629083009766,36.3465442968098]]]},"properties":{"id":"84484","parcel":"01100011600","address":"103 LAKESIDE DR","owner":"COLEMAN, TED L. ETUX","point":[-86.76418850635756,36.34711288119164]}},{"type":"Feature","id":"85963","geometry":{"type":"Polygon","coordinates":[[[-86.7612626545668,36.3483654346057],[-86.7621203513724,36.3478666873391],[-86.7623200076619,36.3480774916807],[-86.7624740880546,36.3479895440201],[-86.7625670838951,36.3479364618562],[-86.7623900431218,36.3477309227077],[-86.7632942070183,36.3471956297452],[-86.7639926050234,36.3479262981358],[-86.7640550067251,36.3479885333773],[-86.763992423987,36.3480482648857],[-86.7630558474497,36.3489584599249],[-86.762518024048,36.3500924829689],[-86.7619217396931,36.3494578561422],[-86.7612626545668,36.3483654346057]]]},"properties":{"id":"85963","parcel":"011150A00700CO","address":"108 LAKESIDE DR","owner":"LAKESIDE LAND TRUST","point":[-86.76239959403105,36.34866242874399]}},{"type":"Feature","id":"97664","geometry":{"type":"Polygon","coordinates":[[[-86.7620741841404,36.3476329306436],[-86.7622193102258,36.3475541140732],[-86.7622297997657,36.3475646075695],[-86.7623447523978,36.3476795484282],[-86.7623447591414,36.3476799016637],[-86.7623899593039,36.3477308952981],[-86.7623900431218,36.3477309227077],[-86.7625670838951,36.3479364618562],[-86.7624740880546,36.3479895440201],[-86.7623200076619,36.3480774916807],[-86.7621203513724,36.3478666873391],[-86.7619618212748,36.3476940750583],[-86.7620741841404,36.3476329306436]]]},"properties":{"id":"97664","parcel":"01115000100","address":"106 LAKESIDE DR","owner":"CEMETERY","point":[-86.7622532455036,36.34779880121709]}}]}