{"type":"FeatureCollection","features":[{"type":"Feature","id":"44674","geometry":{"type":"Polygon","coordinates":[[[-86.7567634793464,36.2442137565803],[-86.7569556744346,36.2440919476117],[-86.7570264939163,36.2440993492421],[-86.7570977372669,36.244103251334],[-86.7571691417568,36.2441036384096],[-86.7572404425773,36.2441005103259],[-86.7573113783697,36.2440938786349],[-86.7573816845494,36.2440837666256],[-86.7574511022329,36.2440702119723],[-86.7575193748913,36.2440532658533],[-86.7575862505411,36.244032989333],[-86.7576514806925,36.2440094596765],[-86.7577148247216,36.2439827622118],[-86.7577760499139,36.2439529948346],[-86.7578349281353,36.2439202689314],[-86.7578912424732,36.2438847057322],[-86.7579447850023,36.2438464354233],[-86.7579953568196,36.243805600752],[-86.7580437990266,36.2437611527999],[-86.7580888291652,36.2437144091292],[-86.7581302786503,36.2436655411376],[-86.7581679967764,36.2436147282215],[-86.7582018451458,36.2435621569099],[-86.7582316976773,36.2435080217657],[-86.7582574472294,36.243452519936],[-86.7582848446498,36.2433864505393],[-86.7583158200832,36.2433214266557],[-86.7583503135403,36.2432575748336],[-86.7583882538906,36.2431950198887],[-86.7584295710907,36.2431338839261],[-86.7584741839642,36.2430742882191],[-86.7585220034707,36.2430163459792],[-86.7585806413228,36.2429579067981],[-86.7586413239275,36.2429008543854],[-86.7586422601708,36.2428999833082],[-86.7600854671281,36.2426215083827],[-86.7607947864892,36.2425398526865],[-86.7616543392371,36.2423176973799],[-86.761939271356,36.2422909027917],[-86.7629745967092,36.2422922709585],[-86.7634510553845,36.2422928966641],[-86.7639600989987,36.2421558974662],[-86.764877793315,36.2420591504466],[-86.7644518775361,36.2433181001146],[-86.7617819757081,36.242724807565],[-86.7617281671293,36.2428836791157],[-86.7616912028993,36.2428807920465],[-86.761654096817,36.2428795839846],[-86.7616014614377,36.2428784990426],[-86.761548887579,36.2428808068895],[-86.7614967055286,36.2428864928261],[-86.7614452464796,36.242895520518],[-86.7613948369933,36.2429078347345],[-86.7613457955931,36.2429233541595],[-86.7612984317646,36.2429419831147],[-86.7612530458779,36.2429636034484],[-86.7612099258762,36.2429880772599],[-86.7611693428689,36.2430152514339],[-86.76113155553,36.2430449522048],[-86.761096802371,36.2430769915142],[-86.7610653028622,36.2431111679051],[-86.7610372574153,36.2431472647191],[-86.7610128429594,36.2431850528284],[-86.7609922140788,36.243224293332],[-86.7609755007974,36.2432647384708],[-86.760786321038,36.243791263779],[-86.7595403109509,36.2434945142426],[-86.7594766755346,36.243477568871],[-86.7594118282731,36.2434639638982],[-86.759346038941,36.2434537553066],[-86.7592795760702,36.2434469855681],[-86.7592127147292,36.2434436826942],[-86.7591457287271,36.2434438593836],[-86.759078895081,36.243447514797],[-86.7590124884623,36.2434546354925],[-86.758946782266,36.2434651909135],[-86.7588820464292,36.2434791379081],[-86.7588185485268,36.2434964189197],[-86.7587565482256,36.2435169638246],[-86.7586963028132,36.2435406862921],[-86.7586380594707,36.2435674901413],[-86.7585820585495,36.2435972630126],[-86.7585285292085,36.2436298854067],[-86.7584776926474,36.2436652198497],[-86.7584297577777,36.2437031235375],[-86.7583849233532,36.2437434384089],[-86.7583433724931,36.2437860001917],[-86.7581093830496,36.2440811150238],[-86.7578430632166,36.2444189575362],[-86.7575779151259,36.2447574040137],[-86.7575511223433,36.2447969736516],[-86.7575283180055,36.2448381504345],[-86.7575096498129,36.2448806720768],[-86.7574952375587,36.2449242665537],[-86.7574851720332,36.244968653911],[-86.7574795173008,36.2450135516575],[-86.7574783106648,36.2450586711609],[-86.7574815605198,36.2451037257721],[-86.7574892451788,36.2451484245239],[-86.7575013140887,36.2451924829382],[-86.7575176933582,36.2452356193867],[-86.7575382746582,36.2452775578641],[-86.7575629285893,36.2453180297065],[-86.7575914969109,36.2453567754435],[-86.7576237959133,36.2453935483813],[-86.7576596208419,36.2454281118717],[-86.7577239211314,36.2454763146921],[-86.7577898022905,36.2455230962093],[-86.7578572150476,36.2455684233839],[-86.7578763412493,36.2455885922881],[-86.75789246363,36.2456104148949],[-86.7579053702203,36.2456335987284],[-86.7579148844961,36.2456578348678],[-86.7579208820764,36.245682798744],[-86.7579232807615,36.2457081556091],[-86.7579220495118,36.2457335685916],[-86.7579172050844,36.2457586960135],[-86.7578885879863,36.2458261374132],[-86.7578640262765,36.2458946195416],[-86.7578512524589,36.2459488727348],[-86.7578361138015,36.2460027243829],[-86.7578186296884,36.2460561076712],[-86.7577989563959,36.2461012781031],[-86.7577760713555,36.2461454448584],[-86.7577500487691,36.2461884560604],[-86.7577209784933,36.2462301678452],[-86.7576889604063,36.2462704371873],[-86.7576493327537,36.2463139365429],[-86.7576062022048,36.2463551921147],[-86.7575597628116,36.246394018828],[-86.7575102220902,36.2464302432396],[-86.7574578010122,36.2464637026374],[-86.7574027351431,36.2464942477365],[-86.7573452712959,36.2465217417992],[-86.7572856664269,36.2465460615432],[-86.7572241865324,36.24656709805],[-86.7571611077686,36.2465847576589],[-86.7570782653166,36.2466026492285],[-86.7570831291547,36.2465104356063],[-86.75683186824,36.2463829007637],[-86.7567626429728,36.2459914235011],[-86.7567424158361,36.2458714067451],[-86.7567255611799,36.245751048015],[-86.7567120851542,36.245630410361],[-86.756701996125,36.2455095559175],[-86.7566953002332,36.245388546833],[-86.756691999178,36.2452674461847],[-86.7566919577741,36.245116590264],[-86.7566953378715,36.244965758871],[-86.7567021377163,36.2448150033873],[-86.7567123566665,36.2446643751875],[-86.7567259896133,36.2445139238711],[-86.7567430325774,36.244363700833],[-86.7567634793464,36.2442137565803]]]},"properties":{"id":"44674","parcel":"050120A00600CO","address":"3438 DICKERSON PIKE","owner":"SKYLINE COMMONS, LLC","point":[-86.75734853738018,36.244289937577214]}},{"type":"Feature","id":"44725","geometry":{"type":"Polygon","coordinates":[[[-86.7573804833207,36.2474526415737],[-86.7578128885385,36.2471756555824],[-86.7579520862882,36.2471970693593],[-86.7581534469961,36.246342321485],[-86.7576889604063,36.2462704371873],[-86.7577209784933,36.2462301678452],[-86.7577500487691,36.2461884560604],[-86.7577760713555,36.2461454448584],[-86.7577989563959,36.2461012781031],[-86.7578186296884,36.2460561076712],[-86.7578361138015,36.2460027243829],[-86.7578512524589,36.2459488727348],[-86.7578640262765,36.2458946195416],[-86.7578885879863,36.2458261374132],[-86.7579172050844,36.2457586960135],[-86.7579220495118,36.2457335685916],[-86.7579232807615,36.2457081556091],[-86.7579208820764,36.245682798744],[-86.7579148844961,36.2456578348678],[-86.7579053702203,36.2456335987284],[-86.75789246363,36.2456104148949],[-86.7578763412493,36.2455885922881],[-86.7578572150476,36.2455684233839],[-86.7577898022905,36.2455230962093],[-86.7577239211314,36.2454763146921],[-86.7576596208419,36.2454281118717],[-86.7576237959133,36.2453935483813],[-86.7575914969109,36.2453567754435],[-86.7575629285893,36.2453180297065],[-86.7575382746582,36.2452775578641],[-86.7575176933582,36.2452356193867],[-86.7575013140887,36.2451924829382],[-86.7574892451788,36.2451484245239],[-86.7574815605198,36.2451037257721],[-86.7574783106648,36.2450586711609],[-86.7574795173008,36.2450135516575],[-86.7574851720332,36.244968653911],[-86.7574952375587,36.2449242665537],[-86.7575096498129,36.2448806720768],[-86.7575283180055,36.2448381504345],[-86.7575511223433,36.2447969736516],[-86.7575779151259,36.2447574040137],[-86.7578430632166,36.2444189575362],[-86.7581093830496,36.2440811150238],[-86.7583433724931,36.2437860001917],[-86.7583849233532,36.2437434384089],[-86.7584297577777,36.2437031235375],[-86.7584776926474,36.2436652198497],[-86.7585285292085,36.2436298854067],[-86.7585820585495,36.2435972630126],[-86.7586380594707,36.2435674901413],[-86.7586963028132,36.2435406862921],[-86.7587565482256,36.2435169638246],[-86.7588185485268,36.2434964189197],[-86.7588820464292,36.2434791379081],[-86.758946782266,36.2434651909135],[-86.7590124884623,36.2434546354925],[-86.759078895081,36.243447514797],[-86.7591457287271,36.2434438593836],[-86.7592127147292,36.2434436826942],[-86.7592795760702,36.2434469855681],[-86.759346038941,36.2434537553066],[-86.7594118282731,36.2434639638982],[-86.7594766755346,36.243477568871],[-86.7595403109509,36.2434945142426],[-86.760786321038,36.243791263779],[-86.7603464031659,36.2450156114384],[-86.7602894649384,36.2451679967052],[-86.7600001644906,36.2476656561056],[-86.7581376166257,36.2475145672718],[-86.7579056738909,36.2474940807043],[-86.7573804833207,36.2474526415737]]]},"properties":{"id":"44725","parcel":"050120A00200CO","address":"3440 DICKERSON PIKE","owner":"SKYLINE COMMONS, LLC","point":[-86.75903432696846,36.245548204761]}},{"type":"Feature","id":"45958","geometry":{"type":"Polygon","coordinates":[[[-86.7568685025174,36.2436522513867],[-86.7568987906862,36.2435134812795],[-86.7569322029399,36.2433751827653],[-86.7569586219195,36.2432732952041],[-86.7569667459563,36.2432404316723],[-86.7577087067751,36.2433664165033],[-86.757729714975,36.2432874183475],[-86.7577381872357,36.243268321843],[-86.7577500574478,36.2432505189466],[-86.7577500783014,36.2432504890746],[-86.7577501047003,36.2432504573653],[-86.7577501300212,36.2432504292678],[-86.757765113771,36.2432343120026],[-86.7577651446287,36.2432342811666],[-86.7577651711309,36.2432342602717],[-86.7577652042221,36.243234230323],[-86.7577832389531,36.243220237988],[-86.7578035479036,36.2432084682825],[-86.7578257194756,36.2431991599144],[-86.7578493004349,36.2431925022838],[-86.7578493481697,36.2431924911694],[-86.7578493803982,36.2431924873622],[-86.757849421501,36.2431924807956],[-86.7578739605772,36.2431889850365],[-86.7578740094761,36.2431889793223],[-86.7578740517431,36.2431889781559],[-86.7578741017891,36.2431889760395],[-86.7578990424181,36.2431884969367],[-86.757923881918,36.2431910556687],[-86.7580579128552,36.2432213447631],[-86.7580257058272,36.2433000040782],[-86.758008548787,36.2433424874992],[-86.7579879865165,36.2433839666614],[-86.7579641096615,36.2434242643499],[-86.7579370211233,36.2434632050749],[-86.757906837249,36.2435006231761],[-86.7578736866586,36.2435363565211],[-86.757837713626,36.2435702509903],[-86.7577910214526,36.2436089883946],[-86.7577417395573,36.2436455592005],[-86.7576900192794,36.2436798497998],[-86.757636023162,36.2437117546255],[-86.7575799160345,36.2437411744049],[-86.7575218739301,36.2437680179067],[-86.757462077393,36.2437922001803],[-86.7574099174324,36.2438078592158],[-86.7573565991004,36.2438207081898],[-86.7573023544117,36.2438306924729],[-86.7572474177015,36.2438377673351],[-86.7571920245726,36.2438419042616],[-86.757136416277,36.2438430837149],[-86.7570808331004,36.2438413014853],[-86.7570255132153,36.243836565093],[-86.7568685025174,36.2436522513867]]]},"properties":{"id":"45958","parcel":"050120A00500CO","address":"3434 DOVERSIDE DR","owner":"MURPHY OIL USA, INC.","point":[-86.7573899366987,36.243524927392535]}},{"type":"Feature","id":"54852","geometry":{"type":"Polygon","coordinates":[[[-86.7570588794524,36.2429212587416],[-86.757059191386,36.2429213018493],[-86.7571325789347,36.2426624145128],[-86.7573303455989,36.2426993121702],[-86.7574227637571,36.2427150174552],[-86.7575158649708,36.242727801047],[-86.7576095110809,36.2427376430818],[-86.7577035584084,36.2427445282368],[-86.7577978644382,36.24274844659],[-86.7578922866897,36.2427493918246],[-86.7579849688653,36.2427474269577],[-86.7580774901397,36.2427425979619],[-86.7581697148374,36.2427349119974],[-86.758261511767,36.2427243798021],[-86.7583527453309,36.2427110166479],[-86.7584432833205,36.2426948431936],[-86.758381998887,36.2427449236282],[-86.7583239847313,36.2427974979858],[-86.7582693952786,36.2428524265095],[-86.7582183759951,36.2429095631899],[-86.7581710611541,36.2429687548782],[-86.758149044316,36.2429987694136],[-86.7580579128552,36.2432213447631],[-86.757923881918,36.2431910556687],[-86.7578990424181,36.2431884969367],[-86.7578741017891,36.2431889760395],[-86.7578740517431,36.2431889781559],[-86.7578740094761,36.2431889793223],[-86.7578739605772,36.2431889850365],[-86.757849421501,36.2431924807956],[-86.7578493803982,36.2431924873622],[-86.7578493481697,36.2431924911694],[-86.7578493004349,36.2431925022838],[-86.7578257194756,36.2431991599144],[-86.7578035479036,36.2432084682825],[-86.7577832389531,36.243220237988],[-86.7577652042221,36.243234230323],[-86.7577651711309,36.2432342602717],[-86.7577651446287,36.2432342811666],[-86.757765113771,36.2432343120026],[-86.7577501300212,36.2432504292678],[-86.7577501047003,36.2432504573653],[-86.7577500783014,36.2432504890746],[-86.7577500574478,36.2432505189466],[-86.7577381872357,36.243268321843],[-86.757729714975,36.2432874183475],[-86.7577087067751,36.2433664165033],[-86.7569667459563,36.2432404316723],[-86.7569948985249,36.2431335628547],[-86.7570256132814,36.2430271592385],[-86.7570588794524,36.2429212587416]]]},"properties":{"id":"54852","parcel":"050120A00800CO","address":"3430 DOVERSIDE DR","owner":"DUNDER MIFFLIN, LLC","point":[-86.75758659912476,36.24301296416644]}},{"type":"Feature","id":"131367","geometry":{"type":"Polygon","coordinates":[[[-86.7577384728082,36.2400680711597],[-86.7583815882972,36.2400511244329],[-86.7583930491504,36.240717472714],[-86.7583371400828,36.2407095420985],[-86.7578721550995,36.2406435369609],[-86.7576480500637,36.2406117225918],[-86.7576553980086,36.2405676739494],[-86.7577320972797,36.2401064124156],[-86.7577384728082,36.2400680711597]]]},"properties":{"id":"131367","parcel":"05000014100","address":"393 OAKVIEW DR","owner":"ONEILL, MICHAEL W. & WALTERS, PATRICK P.","point":[-86.7580401388899,36.240337744235404]}},{"type":"Feature","id":"133264","geometry":{"type":"Polygon","coordinates":[[[-86.7589904672196,36.2498822804858],[-86.757293525938,36.249750117738],[-86.757270504573,36.2496041637166],[-86.7572786905081,36.2496074253918],[-86.7572872622459,36.2496099573426],[-86.757295475257,36.2496116272462],[-86.7573038543082,36.2496126246801],[-86.7582490568042,36.2496863136425],[-86.7581845422663,36.2492771092738],[-86.7580878789933,36.248664282447],[-86.7580800705068,36.2486094987025],[-86.7580706224935,36.2485548856654],[-86.7579891551713,36.2480383912803],[-86.7570170255106,36.2479585459443],[-86.7569987993231,36.2478645312414],[-86.7569890250696,36.2476067187778],[-86.7569966834984,36.2474225190555],[-86.7573804833207,36.2474526415737],[-86.7579056738909,36.2474940807043],[-86.7581376166257,36.2475145672718],[-86.7600001644906,36.2476656561056],[-86.7613619363714,36.247776243592],[-86.761173191291,36.2491484328203],[-86.7590583777924,36.2498875713769],[-86.7589904672196,36.2498822804858]]]},"properties":{"id":"133264","parcel":"05000010500","address":"3474 DICKERSON PIKE","owner":"MDHA","point":[-86.7596633282564,36.248640073939676]}},{"type":"Feature","id":"133879","geometry":{"type":"Polygon","coordinates":[[[-86.7488375351775,36.248001643887],[-86.7488657195568,36.2477973991619],[-86.7489746096367,36.2472718069108],[-86.7489794683639,36.2472477657898],[-86.7489884223362,36.2472245095018],[-86.7490012978303,36.247202493351],[-86.7490178407884,36.2471821488054],[-86.7490377289717,36.2471638744097],[-86.7490605707716,36.2471480276812],[-86.7490859207344,36.2471349196063],[-86.7491132817098,36.2471248065161],[-86.7491395566081,36.2471138547847],[-86.749163606108,36.2470999472399],[-86.7491849267052,36.2470833745028],[-86.7492030710532,36.2470644827235],[-86.7492176612714,36.2470436689926],[-86.7492283921471,36.2470213669009],[-86.7492350366888,36.246998045604],[-86.7492374592902,36.2469741899126],[-86.7492356057331,36.2469503021575],[-86.7492295174462,36.2469268804709],[-86.7492193203452,36.2469044152504],[-86.7492052291716,36.2468833774166],[-86.7491875373602,36.2468642058581],[-86.7491666158836,36.2468473029327],[-86.749144804279,36.2468340465579],[-86.7491210099209,36.2468232574679],[-86.7490956563017,36.2468151268038],[-86.7490691931806,36.2468097995804],[-86.7490420898655,36.2468073702222],[-86.7490148285377,36.2468078826044],[-86.7489878930929,36.2468113265169],[-86.7490457736031,36.2464406716908],[-86.7489045613464,36.2464264385864],[-86.7489158829071,36.2463525392026],[-86.7491013412431,36.2451434657618],[-86.747575708164,36.2449727120767],[-86.7477385367936,36.2448340885702],[-86.7485962760244,36.2441038328812],[-86.7486310531535,36.2440742241212],[-86.7492961535635,36.2439758810522],[-86.7496405348982,36.2437075577683],[-86.7507998972654,36.2434124722198],[-86.7528107188674,36.2432906280809],[-86.7529483213621,36.24328235422],[-86.7538455479533,36.2430605696673],[-86.7543945291709,36.2427349180372],[-86.7552222358197,36.2424072478425],[-86.755988906768,36.2425073887443],[-86.7560136491962,36.242509947574],[-86.755814350785,36.2431520232398],[-86.7564767710506,36.2432206071286],[-86.7564374598804,36.243374840463],[-86.7564012919821,36.2435295786234],[-86.7563682780859,36.2436847782857],[-86.756338425602,36.2438403979487],[-86.7563117441571,36.2439963951959],[-86.756259435969,36.2439907221293],[-86.7562578208848,36.2440009109293],[-86.7560447136764,36.2439733876589],[-86.7559766673189,36.2439635707834],[-86.7559094460315,36.2439505519823],[-86.7558432760945,36.2439343749038],[-86.7557783861328,36.2439150957992],[-86.7557149970775,36.2438927808821],[-86.7556533243908,36.2438675063147],[-86.755593579161,36.2438393563978],[-86.755535964817,36.2438084289993],[-86.75548067818,36.2437748292386],[-86.7554299630661,36.2437398120457],[-86.755152380762,36.2435252479579],[-86.7549833258274,36.2449420362453],[-86.7543584503622,36.2448935193106],[-86.7542798336772,36.24553350807],[-86.7528318502361,36.2455158470562],[-86.7526208118229,36.2455050752526],[-86.7518560019201,36.2454603911012],[-86.7517326791151,36.2468319141445],[-86.7517015026378,36.247156528907],[-86.7496745676838,36.2469837003091],[-86.7503267434383,36.248383645648],[-86.7502165926044,36.2486626073647],[-86.7488375351775,36.248001643887]],[[-86.7531536416889,36.2452011682828],[-86.7536283508319,36.2452067366106],[-86.7536340530907,36.244890873409],[-86.7531593436221,36.2448853060182],[-86.7531536416889,36.2452011682828]]]},"properties":{"id":"133879","parcel":"05000007900","address":"3441 DICKERSON PIKE","owner":"HTI MEMORIAL HOSPITAL CORPORATION","point":[-86.75039604755308,36.2459405522963]}},{"type":"Feature","id":"136792","geometry":{"type":"Polygon","coordinates":[[[-86.7583930491504,36.240717472714],[-86.7583815882972,36.2400511244329],[-86.7577384728082,36.2400680711597],[-86.7577529884711,36.2399902393],[-86.7578658796659,36.2399870752582],[-86.7599368978839,36.2399289985924],[-86.7599391646257,36.239988592035],[-86.7599426858663,36.2400703068502],[-86.7599491958798,36.2402214774325],[-86.7599547051252,36.2403467019428],[-86.7599574350942,36.2404087727007],[-86.7599622941119,36.2405247734082],[-86.7599675480576,36.2406501707504],[-86.7599687979967,36.2406788946968],[-86.7599710238917,36.2407298120617],[-86.7599542399635,36.2409598433016],[-86.7599541909191,36.2409598336964],[-86.7588759268521,36.2407879922715],[-86.7587734224779,36.2407716340564],[-86.7583931059559,36.2407174795674],[-86.7583930491504,36.240717472714]]]},"properties":{"id":"136792","parcel":"05000009000","address":"397 OAKVIEW DR","owner":"ONEILL, MICHAEL W. & WALTERS, PATRICK P.","point":[-86.75917427368391,36.24046519430211]}},{"type":"Feature","id":"138808","geometry":{"type":"Polygon","coordinates":[[[-86.755814350785,36.2431520232398],[-86.7560136491962,36.242509947574],[-86.7566752704955,36.2425783605124],[-86.7565093526681,36.243101880015],[-86.7564767710506,36.2432206071286],[-86.755814350785,36.2431520232398]]]},"properties":{"id":"138808","parcel":"05000007700","address":"3433 DICKERSON PIKE","owner":"HTI MEMORIAL HOSPITAL CORPORATION","point":[-86.75625195365484,36.24283942733785]}},{"type":"Feature","id":"141934","geometry":{"type":"Polygon","coordinates":[[[-86.7500218007785,36.2491022097292],[-86.7500183939389,36.2491015188931],[-86.7500219119188,36.2491019611966],[-86.7502165926044,36.2486626073647],[-86.7503267434383,36.248383645648],[-86.7496745676838,36.2469837003091],[-86.7517015026378,36.247156528907],[-86.7516058479666,36.2479056829658],[-86.7516018904684,36.2479532302972],[-86.7515349640978,36.2487886691381],[-86.7515336597623,36.2488049510499],[-86.7514039756209,36.2488156109506],[-86.7512747321952,36.2488293376153],[-86.7511460384025,36.248846119553],[-86.751018005351,36.2488659416551],[-86.7508907430285,36.2488887879184],[-86.7507643602593,36.2489146369407],[-86.7506389636514,36.2489434682346],[-86.7505606891774,36.2489635863425],[-86.7504836085689,36.2489865268957],[-86.7504078738179,36.2490122438901],[-86.7503336402041,36.2490406858942],[-86.7502691254384,36.2490682816159],[-86.7502466321364,36.2490774851176],[-86.7502234577947,36.2490855041006],[-86.7501915659476,36.2490960159772],[-86.7501584061805,36.2491035264578],[-86.7501244070563,36.2491079373486],[-86.750090009769,36.249109191835],[-86.7500556592432,36.2491072745375],[-86.7500218007785,36.2491022097292]]]},"properties":{"id":"141934","parcel":"05100017700","address":"0 SKYLINE RIDGE DR","owner":"BATTLE GROUND ACADEMY","point":[-86.75090515804455,36.24816831651185]}}]}