{"type":"FeatureCollection","features":[{"type":"Feature","id":"58698","geometry":{"type":"Polygon","coordinates":[[[-86.7575101786114,36.33226510221],[-86.757701079968,36.3322149592377],[-86.7578906608176,36.3321616348063],[-86.7580788378148,36.3321051510737],[-86.7582655332008,36.3320455319652],[-86.7583450258663,36.3320251444933],[-86.7584231306648,36.3320015014398],[-86.7584996421286,36.3319746653787],[-86.7585743626566,36.3319447060455],[-86.7586163275353,36.3319263616025],[-86.7586575243734,36.3319069089511],[-86.7587293963633,36.3320252420895],[-86.7592870378893,36.3320879691832],[-86.7592577928072,36.3323515137007],[-86.7594494171822,36.3325969250589],[-86.7577140361413,36.3329224546043],[-86.7575101786114,36.33226510221]]]},"properties":{"id":"58698","parcel":"01700037500","address":"5250 BRICK CHURCH PIKE","owner":"FARMS, PATRICIA DELORES TRUST, THE","point":[-86.75846375944268,36.33247242446543]}},{"type":"Feature","id":"74409","geometry":{"type":"Polygon","coordinates":[[[-86.7566426071105,36.3324708771631],[-86.7567366012533,36.3324530126859],[-86.7568297669946,36.3324325028211],[-86.7573591574997,36.3323022807143],[-86.7574248652202,36.332286486283],[-86.7575101786114,36.33226510221],[-86.7577140361413,36.3329224546043],[-86.7581632791733,36.3343710294137],[-86.7573706510553,36.3347911306428],[-86.7573263595159,36.3347388774999],[-86.7571745279297,36.3343607530532],[-86.7568518404491,36.3332904859351],[-86.7566426071105,36.3324708771631]]]},"properties":{"id":"74409","parcel":"01700025100","address":"5270 BRICK CHURCH PIKE","owner":"LEE, CHARLES KERRY","point":[-86.75750396561938,36.33382661639623]}},{"type":"Feature","id":"75898","geometry":{"type":"Polygon","coordinates":[[[-86.7565477964629,36.3396906365981],[-86.7566658822665,36.3385120143603],[-86.7575679898844,36.3385546635871],[-86.7575798529559,36.338555224652],[-86.757577601883,36.3385511670312],[-86.7587312931098,36.3386415681715],[-86.7597541880036,36.3387860907678],[-86.759841060579,36.3387983667851],[-86.7598873177872,36.3388389078578],[-86.7599502729363,36.338951534564],[-86.7599524201419,36.3389536930183],[-86.7602729640374,36.339275843684],[-86.7602298141197,36.3393253179665],[-86.7601888780731,36.3393760084871],[-86.7601637514242,36.3394057489848],[-86.759790700553,36.3390308242773],[-86.7597585226348,36.3389732607874],[-86.7573863371212,36.3387149135593],[-86.7572383420443,36.3397794714123],[-86.756589763673,36.3396947901011],[-86.7565477964629,36.3396906365981]]]},"properties":{"id":"75898","parcel":"01700020600","address":"2896 LOWER WALKERS CREEK RD","owner":"KENT, BRANDEE & BUMPUS, JONATHON","point":[-86.75696423585939,36.33914713543021]}},{"type":"Feature","id":"76857","geometry":{"type":"Polygon","coordinates":[[[-86.7597541880036,36.3387860907678],[-86.7594875134956,36.3383376439375],[-86.7592244228327,36.3377162934888],[-86.7591338837357,36.3374741212055],[-86.7590656558591,36.3373151736713],[-86.7590353188203,36.3371833052738],[-86.7590307415315,36.3371634079769],[-86.7589036434672,36.336795741698],[-86.7588849048718,36.33674349465],[-86.7589791955817,36.3367122813247],[-86.7596447498566,36.3363907812513],[-86.7606893301119,36.3388257722449],[-86.7606457321091,36.3388691347149],[-86.7606032739877,36.3389132326076],[-86.760166375441,36.3387036340216],[-86.7599524201419,36.3389536930183],[-86.7599502729363,36.338951534564],[-86.7598873177872,36.3388389078578],[-86.759841060579,36.3387983667851],[-86.7597541880036,36.3387860907678]]]},"properties":{"id":"76857","parcel":"01700011800","address":"2886 LOWER WALKERS CREEK RD","owner":"SEXTON, JOHN HUNTER","point":[-86.75967071302257,36.33759619683897]}},{"type":"Feature","id":"76860","geometry":{"type":"Polygon","coordinates":[[[-86.756534642173,36.3398219303536],[-86.7565477964629,36.3396906365981],[-86.756589763673,36.3396947901011],[-86.7572383420443,36.3397794714123],[-86.7573863371212,36.3387149135593],[-86.7597585226348,36.3389732607874],[-86.759790700553,36.3390308242773],[-86.7601637514242,36.3394057489848],[-86.7600941897435,36.3394857179945],[-86.7600229319824,36.3395647035704],[-86.7599500001911,36.3396426821394],[-86.7588341554682,36.3389157973151],[-86.7577484538806,36.3400075998076],[-86.7579304811016,36.3401443381462],[-86.7575305668017,36.3405217655682],[-86.756534642173,36.3398219303536]]]},"properties":{"id":"76860","parcel":"01700012000","address":"0 LOWER WALKERS CREEK RD","owner":"CHAUDOIN FAMILY TRUST","point":[-86.75770866307543,36.339599096667705]}},{"type":"Feature","id":"76903","geometry":{"type":"Polygon","coordinates":[[[-86.7566658822665,36.3385120143603],[-86.7556972077385,36.3384662108645],[-86.7551868364666,36.3364445018098],[-86.7549429494886,36.3343671468854],[-86.7550755422167,36.333816934821],[-86.7551700661378,36.3326214267782],[-86.7552807151694,36.3326185387164],[-86.7553933930217,36.3326145383906],[-86.7554866067972,36.3326071799125],[-86.7555794563651,36.3325972569541],[-86.7556718348977,36.3325847809983],[-86.7557572962948,36.3325725203258],[-86.7558430613531,36.332561735701],[-86.7559654944882,36.3325554433531],[-86.7560876143312,36.3325459715218],[-86.7562092962284,36.3325333318018],[-86.756330412194,36.3325175367106],[-86.7564508398451,36.332498602336],[-86.7565470436219,36.3324861865016],[-86.7566426071105,36.3324708771631],[-86.7568518404491,36.3332904859351],[-86.7571745279297,36.3343607530532],[-86.7573263595159,36.3347388774999],[-86.7573706510553,36.3347911306428],[-86.7587817073629,36.3364557518477],[-86.7588849048718,36.33674349465],[-86.7589036434672,36.336795741698],[-86.7590307415315,36.3371634079769],[-86.7590353188203,36.3371833052738],[-86.756703798535,36.3369967234489],[-86.7575679898844,36.3385546635871],[-86.7566658822665,36.3385120143603]]]},"properties":{"id":"76903","parcel":"01700012400","address":"5284 BRICK CHURCH PIKE","owner":"MCCLURE, DAVID BLAKE","point":[-86.75658199677692,36.33561843930814]}},{"type":"Feature","id":"78640","geometry":{"type":"Polygon","coordinates":[[[-86.7581632791733,36.3343710294137],[-86.7577140361413,36.3329224546043],[-86.7594494171822,36.3325969250589],[-86.7592577928072,36.3323515137007],[-86.7592870378893,36.3320879691832],[-86.7587293963633,36.3320252420895],[-86.7586575243734,36.3319069089511],[-86.7587017722231,36.331884460406],[-86.7587451700393,36.3318609492267],[-86.7587850102793,36.3318379046529],[-86.7588576965151,36.3317880489736],[-86.758932172745,36.3317399538234],[-86.7590083736477,36.331693660164],[-86.7591100161802,36.3316323492113],[-86.7592098266612,36.3315690994226],[-86.7614841321202,36.3338702997459],[-86.7609094473328,36.3346183562824],[-86.7586556794051,36.3341100471945],[-86.7581632791733,36.3343710294137]]]},"properties":{"id":"78640","parcel":"01700012500","address":"5246 BRICK CHURCH PIKE","owner":"HARDING, STEPHANIE KAYE","point":[-86.75943924423656,36.33339607043172]}},{"type":"Feature","id":"80093","geometry":{"type":"Polygon","coordinates":[[[-86.7479012659524,36.3337573968214],[-86.7484961053147,36.3335449509782],[-86.7485309882629,36.3336436244352],[-86.7492835521767,36.3334521739269],[-86.7490126780862,36.3328830389113],[-86.7487988708089,36.3321399419911],[-86.7492137286491,36.3321365510665],[-86.7496635471884,36.3321351374182],[-86.7501133876462,36.3321359200437],[-86.7504593560758,36.3321381683333],[-86.7505427562168,36.3336303342505],[-86.7512515205901,36.3335462733662],[-86.7518380950839,36.3334657148148],[-86.7519390787679,36.3347330700796],[-86.7520368295574,36.3359455072805],[-86.75140975689,36.3372701275504],[-86.7506504254661,36.3376105164251],[-86.7498480884167,36.3375333599935],[-86.7495323861156,36.3375029024049],[-86.7478864532726,36.3345255306358],[-86.7473581661307,36.3339379358003],[-86.7475891647342,36.3337829508545],[-86.7479012659524,36.3337573968214]]]},"properties":{"id":"80093","parcel":"01800002600","address":"5294 BRICK CHURCH PIKE","owner":"BUTLER, JANICE L.","point":[-86.75016001260855,36.33533548154161]}},{"type":"Feature","id":"81062","geometry":{"type":"Polygon","coordinates":[[[-86.7526391350274,36.3331602140299],[-86.7527189990375,36.3327762494525],[-86.7528342553709,36.3322580102714],[-86.7528366838038,36.3322583907934],[-86.7528973680754,36.3322681563343],[-86.7529868369221,36.332283987227],[-86.7530355758132,36.3322935657083],[-86.7530758360503,36.3323020731345],[-86.753109586865,36.3323093900072],[-86.7531718062335,36.3323236222274],[-86.7532335957331,36.332339030485],[-86.753268914368,36.3323459446166],[-86.7532750776367,36.3323471598345],[-86.7533747477078,36.3323664443829],[-86.7534808567937,36.3323858338347],[-86.7534921348127,36.3323878697362],[-86.75357861223,36.332403240278],[-86.7536006252014,36.3324070108319],[-86.7536577432426,36.3324165485727],[-86.7536580266204,36.3324165972755],[-86.753712683048,36.332429991341],[-86.7537963906831,36.3324486630437],[-86.7537965079635,36.3324486974606],[-86.7536885365138,36.3328669889104],[-86.7536661155948,36.3329538983565],[-86.753663134975,36.332953315813],[-86.7536632457835,36.3329649580208],[-86.7535428380697,36.3333676986478],[-86.7526391350274,36.3331602140299]]]},"properties":{"id":"81062","parcel":"01800012600","address":"5308 BRICK CHURCH PIKE","owner":"STERN, STEVEN DAVID & SUSAN NEIL LIVING TRUST","point":[-86.75320487877853,36.33282162245835]}},{"type":"Feature","id":"82256","geometry":{"type":"Polygon","coordinates":[[[-86.7579304811016,36.3401443381462],[-86.7577484538806,36.3400075998076],[-86.7588341554682,36.3389157973151],[-86.7599500001911,36.3396426821394],[-86.7598413778429,36.3397541101839],[-86.7597293496487,36.3398633091659],[-86.7596139862436,36.339970211041],[-86.7593593285531,36.3401816736962],[-86.7590675877435,36.3404208386159],[-86.758975004181,36.3405030034841],[-86.7588376674538,36.3406274765693],[-86.7587531972701,36.3407060197254],[-86.7587184262468,36.3407362331564],[-86.7579304811016,36.3401443381462]]]},"properties":{"id":"82256","parcel":"01700035000","address":"2910 LOWER WALKERS CREEK RD","owner":"HARRIS, DANIEL LANE","point":[-86.75886764098897,36.339806861564114]}},{"type":"Feature","id":"83147","geometry":{"type":"Polygon","coordinates":[[[-86.7506504254661,36.3376105164251],[-86.75140975689,36.3372701275504],[-86.7520368295574,36.3359455072805],[-86.7519390787679,36.3347330700796],[-86.7518380950839,36.3334657148148],[-86.752187046166,36.3321730356867],[-86.7523651035952,36.3321900581552],[-86.7523059846613,36.3327795264578],[-86.7522683539008,36.3331547439812],[-86.7526391350274,36.3331602140299],[-86.7535428380697,36.3333676986478],[-86.7536632457835,36.3329649580208],[-86.753663134975,36.332953315813],[-86.7536661155948,36.3329538983565],[-86.7536885365138,36.3328669889104],[-86.7537965079635,36.3324486974606],[-86.7538766668281,36.3324645478654],[-86.7539573731065,36.3324784607803],[-86.7540753262451,36.3325068908521],[-86.7541943472044,36.3325322346719],[-86.7543143165403,36.3325544659445],[-86.754435107055,36.33257356293],[-86.7545565960136,36.3325895047622],[-86.7546786540413,36.332602275123],[-86.7548011573575,36.3326118603634],[-86.7549239788832,36.3326182513618],[-86.7550469904509,36.3326214417073],[-86.7551700661378,36.3326214267782],[-86.7550755422167,36.333816934821],[-86.7549429494886,36.3343671468854],[-86.7551868364666,36.3364445018098],[-86.7556972077385,36.3384662108645],[-86.7556404335667,36.3387860413068],[-86.7549623495904,36.3388977558233],[-86.7541533621498,36.3389407661158],[-86.753724105983,36.3393587765069],[-86.7532559021961,36.3398231766416],[-86.7531824529892,36.3398829658638],[-86.7521784574285,36.3398466375124],[-86.7509284048906,36.3376370849038],[-86.7506504254661,36.3376105164251]]]},"properties":{"id":"83147","parcel":"01800002700","address":"5290 BRICK CHURCH PIKE","owner":"BUTLER, JANICE L.","point":[-86.75353914471563,36.33619486504667]}},{"type":"Feature","id":"90220","geometry":{"type":"Polygon","coordinates":[[[-86.7549623495904,36.3388977558233],[-86.7556404335667,36.3387860413068],[-86.7556972077385,36.3384662108645],[-86.7566658822665,36.3385120143603],[-86.7565477964629,36.3396906365981],[-86.756534642173,36.3398219303536],[-86.7575305668017,36.3405217655682],[-86.7579304811016,36.3401443381462],[-86.7587184262468,36.3407362331564],[-86.7586085712426,36.3408337484081],[-86.7585006868924,36.3409326940535],[-86.7583948041361,36.3410330437683],[-86.7582909472225,36.3411347703689],[-86.7582333828897,36.3411975299273],[-86.7549623495904,36.3388977558233]]]},"properties":{"id":"90220","parcel":"01700037900","address":"0 LOWER WALKERS CREEK RD","owner":"CHAUDOIN FAMILY TRUST","point":[-86.75663332910591,36.33998191753996]}},{"type":"Feature","id":"195848","geometry":{"type":"Polygon","coordinates":[[[-86.7587312931098,36.3386415681715],[-86.757577601883,36.3385511670312],[-86.7575798529559,36.338555224652],[-86.7575679898844,36.3385546635871],[-86.756703798535,36.3369967234489],[-86.7590353188203,36.3371833052738],[-86.7590656558591,36.3373151736713],[-86.7591338837357,36.3374741212055],[-86.7592244228327,36.3377162934888],[-86.7594875134956,36.3383376439375],[-86.7597541880036,36.3387860907678],[-86.7587312931098,36.3386415681715]]]},"properties":{"id":"195848","parcel":"01700039100","address":"0 BRICK CHURCH PIKE","owner":"MCCLURE, DAVID BLAKE","point":[-86.75831445178588,36.33802486712978]}}]}