{"type":"FeatureCollection","features":[{"type":"Feature","id":"90594","geometry":{"type":"Polygon","coordinates":[[[-86.7586158142845,36.2954660408142],[-86.7599882058961,36.292514720912],[-86.7605194908539,36.2925704990068],[-86.7595176128624,36.2943868638791],[-86.7586761029898,36.2962337146022],[-86.7585943971254,36.2964188251826],[-86.7584988088501,36.2963625453766],[-86.7584046299404,36.2963047281616],[-86.7583500062744,36.2962703724159],[-86.7582967405485,36.2962360946465],[-86.7582830677641,36.2962257414159],[-86.7582132782591,36.2961785678541],[-86.7581450567124,36.2961299145074],[-86.7586158142845,36.2954660408142]]]},"properties":{"id":"90594","parcel":"03200006900","address":"1403 CAMPBELL RD","owner":"HOWSE, ELIZABETH S","point":[-86.75906924545646,36.294926458328334]}},{"type":"Feature","id":"91401","geometry":{"type":"Polygon","coordinates":[[[-86.757932035974,36.2949330229322],[-86.7590156957709,36.2924087765956],[-86.7595048792485,36.292462068394],[-86.7583498525242,36.2951908152276],[-86.7578098248497,36.2958501770897],[-86.7577295258438,36.2957695585509],[-86.7576519680416,36.2956871987188],[-86.7575772110451,36.2956031603114],[-86.7575053088809,36.2955175051804],[-86.757932035974,36.2949330229322]]]},"properties":{"id":"91401","parcel":"03200007200","address":"1393 CAMPBELL RD","owner":"ANTHONY, KENNETH M & ALLEN, ROSEMARIE","point":[-86.75872218333338,36.29369755591665]}},{"type":"Feature","id":"91482","geometry":{"type":"Polygon","coordinates":[[[-86.7545867126062,36.3023289950501],[-86.7542234835842,36.3023180764169],[-86.7541827932037,36.3023216260426],[-86.7542026971818,36.3022539798106],[-86.754226434566,36.3021871487073],[-86.7542539554719,36.3021212736338],[-86.7542852011265,36.3020564973488],[-86.7543201037903,36.301992956358],[-86.754358591263,36.3019307862935],[-86.7544005790641,36.3018701192588],[-86.7544459793394,36.3018110837736],[-86.754494695312,36.3017538066103],[-86.7545090852725,36.3017325649011],[-86.7545710688535,36.3016378073929],[-86.7546355713449,36.3015441588646],[-86.754671981691,36.3014936581863],[-86.7547047615067,36.3014415543357],[-86.7547338055227,36.3013880165034],[-86.7547590174547,36.3013332219344],[-86.7547803143963,36.3012773495927],[-86.7548056983171,36.3012216824468],[-86.7548349241828,36.3011672638478],[-86.7548678978893,36.3011142674173],[-86.7549045130266,36.3010628605445],[-86.7549433768475,36.3009810437659],[-86.7549861262698,36.3009005058902],[-86.7550326967572,36.3008213689829],[-86.7550830181731,36.3007437515389],[-86.7551370159031,36.3006677693774],[-86.7551946086451,36.3005935374578],[-86.755255710602,36.3005211662614],[-86.7553202270541,36.3004507645224],[-86.7553880654923,36.3003824391591],[-86.7554390039566,36.3003425063288],[-86.7554877724964,36.3003008341386],[-86.7555342772281,36.300257501585],[-86.7555784354012,36.3002125875949],[-86.7556201620913,36.3001661765162],[-86.7557671704803,36.3000367121857],[-86.7559170235949,36.2999094027537],[-86.7560143799448,36.2998354670451],[-86.7561138167271,36.2997633675734],[-86.7562152797521,36.2996931425244],[-86.7563187170577,36.29962483007],[-86.7564240710982,36.2995584666145],[-86.7564466878226,36.2995419893705],[-86.7564667756783,36.2995234893568],[-86.7564840587313,36.2995032188438],[-86.756498302473,36.2994814541759],[-86.7565093126813,36.2994584930752],[-86.7565345413829,36.2994229014507],[-86.7565624728454,36.2993886582749],[-86.7565929981236,36.2993558976103],[-86.7566259970879,36.2993247481816],[-86.7566613395211,36.299295331567],[-86.7566988884751,36.2992677639794],[-86.7567738679963,36.2992157450704],[-86.7568514943252,36.2991663348352],[-86.7569316280236,36.2991196215613],[-86.7569204225703,36.2991188679881],[-86.7569351388275,36.2990608148757],[-86.7576756777594,36.2987839517082],[-86.758352643774,36.298531107648],[-86.7583972304612,36.2984385317993],[-86.7587529298743,36.2983027958596],[-86.7591177035098,36.2983351170042],[-86.7591365518523,36.2977169320578],[-86.7591684347741,36.2968300119543],[-86.7593101810074,36.2968903786312],[-86.7593101792213,36.2968904246054],[-86.7592517840652,36.2984452528972],[-86.7586331251139,36.2984782543996],[-86.7583038136006,36.2986348114799],[-86.7579831645104,36.2987872460754],[-86.7581604978743,36.2988633508965],[-86.7585092002159,36.2990130025295],[-86.7585092885376,36.2990130407284],[-86.7581200944059,36.3004362110349],[-86.7554879608177,36.3020321888938],[-86.7555540851873,36.3021334139108],[-86.7548568796234,36.3024745455372],[-86.7545867126062,36.3023289950501]]]},"properties":{"id":"91482","parcel":"03200003400","address":"0 CAMPBELL RD","owner":"HARRIS, CHERYL, TRUSTEE","point":[-86.75729924801344,36.29966108612604]}},{"type":"Feature","id":"91485","geometry":{"type":"Polygon","coordinates":[[[-86.7576756777594,36.2987839517082],[-86.7570505909844,36.2960856792985],[-86.7574458492458,36.2956870906619],[-86.7575069304422,36.2957587012082],[-86.7575707565045,36.295828725475],[-86.7576372655438,36.2958970944509],[-86.7577063912341,36.2959637409547],[-86.7577780650308,36.2960285987204],[-86.7578522173101,36.2960916050938],[-86.7579287762117,36.2961526965332],[-86.757857696065,36.296223938531],[-86.7574494383608,36.2966303758174],[-86.7576460205829,36.2978828586367],[-86.7577679549571,36.2978590219786],[-86.7577857495173,36.2978555182045],[-86.757946798667,36.2978238369947],[-86.7579486823427,36.2978237089264],[-86.7579493443494,36.2978236633194],[-86.7580878754789,36.2978141618444],[-86.7580917608286,36.2978139040624],[-86.7584426082403,36.2977905083951],[-86.7591364406105,36.2977169417686],[-86.7591365518523,36.2977169320578],[-86.7591177035098,36.2983351170042],[-86.7587529298743,36.2983027958596],[-86.7583972304612,36.2984385317993],[-86.758352643774,36.298531107648],[-86.7576756777594,36.2987839517082]]]},"properties":{"id":"91485","parcel":"03200003500","address":"1394 CAMPBELL RD","owner":"KIMBROUGH, DALE & DONNA GAIL","point":[-86.75741831519434,36.29717188553503]}},{"type":"Feature","id":"93132","geometry":{"type":"Polygon","coordinates":[[[-86.7598666863583,36.2944115910949],[-86.7608936882577,36.2926095326897],[-86.761374976534,36.2925929515326],[-86.7608891725483,36.2933921788838],[-86.7601923068266,36.2945386061598],[-86.7601328435018,36.2949608955182],[-86.7599940837709,36.2955941836045],[-86.7599343373492,36.2961576491581],[-86.7599343332851,36.2961576897392],[-86.7599343302306,36.2961577194991],[-86.7599343283931,36.2961577600662],[-86.7599309177414,36.2962258336631],[-86.7598279770533,36.2969560644287],[-86.7598279133203,36.2969560359898],[-86.7595857154522,36.2968534870822],[-86.7593744549018,36.2967630650382],[-86.7591935128785,36.2966848144612],[-86.7593296380608,36.2962296116614],[-86.7598666863583,36.2944115910949]]]},"properties":{"id":"93132","parcel":"03200008800","address":"1433 CAMPBELL RD","owner":"ACEVEDO, REBECCA & RAFAEL","point":[-86.75996480240538,36.294749353981935]}},{"type":"Feature","id":"93150","geometry":{"type":"Polygon","coordinates":[[[-86.7583498525242,36.2951908152276],[-86.7595048792485,36.292462068394],[-86.7599882058961,36.292514720912],[-86.7586158142845,36.2954660408142],[-86.7581450567124,36.2961299145074],[-86.7580307360988,36.2960387073298],[-86.7579189745486,36.2959454454098],[-86.7578098248497,36.2958501770897],[-86.7583498525242,36.2951908152276]]]},"properties":{"id":"93150","parcel":"03200009700","address":"1397 CAMPBELL RD","owner":"CASA REY CAPITAL, LLC","point":[-86.75914113852379,36.293852714871214]}},{"type":"Feature","id":"93153","geometry":{"type":"Polygon","coordinates":[[[-86.7595176128624,36.2943868638791],[-86.7605194908539,36.2925704990068],[-86.7608936882577,36.2926095326897],[-86.7598666863583,36.2944115910949],[-86.7593296380608,36.2962296116614],[-86.7591935128785,36.2966848144612],[-86.7590408800076,36.2966226080858],[-86.7588900945937,36.2965575167888],[-86.7587412393842,36.2964895770083],[-86.7585943971254,36.2964188251826],[-86.7586761029898,36.2962337146022],[-86.7595176128624,36.2943868638791]]]},"properties":{"id":"93153","parcel":"03200010600","address":"1425 CAMPBELL RD","owner":"ATKINSON, ERIC & JOY, TYLER M.","point":[-86.75934539669728,36.29532009328284]}},{"type":"Feature","id":"97142","geometry":{"type":"Polygon","coordinates":[[[-86.757857696065,36.296223938531],[-86.7579287762117,36.2961526965332],[-86.7579289220045,36.2961528073721],[-86.7579818810734,36.2961934562435],[-86.7579842105935,36.2961952477103],[-86.7580381768779,36.2962377161412],[-86.7580583753671,36.2962562684601],[-86.758074799074,36.2962676598111],[-86.7581041045642,36.296287604201],[-86.7581185715186,36.2962972990773],[-86.7581652777788,36.2963281185698],[-86.7582304970692,36.2963695817655],[-86.7582717114567,36.296395060703],[-86.758276515767,36.2963979992335],[-86.7583408778946,36.2964364368972],[-86.7584062479543,36.2964737434642],[-86.7584266377207,36.2964850477025],[-86.7584707713259,36.2965091248654],[-86.758475183869,36.2965114935626],[-86.7585489047643,36.2965501544871],[-86.7585996660465,36.2965759690538],[-86.7586204332642,36.2965862245589],[-86.7578834875315,36.2970781578766],[-86.7578826589495,36.2970787128231],[-86.7577049314582,36.2970880676969],[-86.7577679549571,36.2978590219786],[-86.7576460205829,36.2978828586367],[-86.7574494383608,36.2966303758174],[-86.757857696065,36.296223938531]]]},"properties":{"id":"97142","parcel":"03200011400","address":"1406 CAMPBELL RD","owner":"KIMBROUGH, DALE M. & DONNA G.","point":[-86.75785087088863,36.29685464065647]}},{"type":"Feature","id":"97194","geometry":{"type":"Polygon","coordinates":[[[-86.7554210615562,36.299002709316],[-86.75564342984,36.2986920112429],[-86.7559268025684,36.2983732383846],[-86.756042428462,36.2983280170119],[-86.7562029957704,36.2980847298657],[-86.7564037114889,36.2978527297884],[-86.7566705216504,36.2971505839749],[-86.7567031611913,36.2970861010313],[-86.7567168544363,36.2962459937339],[-86.7567218557048,36.2961300421731],[-86.7568026399073,36.2959191173938],[-86.7568235363937,36.2956909879979],[-86.7571869981005,36.2953744591641],[-86.7573146324746,36.29553174692],[-86.7574458492458,36.2956870906619],[-86.7570505909844,36.2960856792985],[-86.7576756777594,36.2987839517082],[-86.7569351388275,36.2990608148757],[-86.7569204225703,36.2991188679881],[-86.7554210615562,36.299002709316]]]},"properties":{"id":"97194","parcel":"03200013300","address":"1390 CAMPBELL RD","owner":"KIMBROUGH, DALE M. ET UX","point":[-86.75695806358095,36.297502513369196]}},{"type":"Feature","id":"97277","geometry":{"type":"Polygon","coordinates":[[[-86.7514409967925,36.3005647112963],[-86.7524929569373,36.2984149895854],[-86.7531018253783,36.2990649750317],[-86.7533386016567,36.2988409955257],[-86.7537246808801,36.2984732439721],[-86.7540047011439,36.2986571924158],[-86.7544811556738,36.2981586682302],[-86.7545774298789,36.2980767572663],[-86.7547212390172,36.2979264244014],[-86.7548464158694,36.2978146660005],[-86.7549635729098,36.2977166914331],[-86.755076786293,36.2976319273172],[-86.755168287936,36.2975478484626],[-86.7552762075713,36.2974774008609],[-86.755357733282,36.2974148082895],[-86.7554324450673,36.2973495157855],[-86.7554905981636,36.2972557549154],[-86.7555585630334,36.2971234761758],[-86.7556896107548,36.2968452133816],[-86.7557013581111,36.2967248235107],[-86.7557757451334,36.296625469791],[-86.7558256582933,36.2965218701088],[-86.7558836381332,36.2964105297428],[-86.7559179767853,36.2963103259031],[-86.7559411609724,36.2962508464365],[-86.7559764500531,36.2961792048305],[-86.7560280842799,36.2960426325718],[-86.7561522851506,36.2958292404123],[-86.7562294455612,36.2957364597521],[-86.756303878173,36.2956420477472],[-86.75648763596,36.2954826729706],[-86.7565784912645,36.2954024425766],[-86.756651406454,36.295362429295],[-86.7567377368718,36.2953058511364],[-86.7568214201838,36.2952564317632],[-86.7569201654591,36.2952206519312],[-86.7570077633398,36.2951547261538],[-86.7570788502924,36.2952430074778],[-86.7571869981005,36.2953744591641],[-86.7568235363937,36.2956909879979],[-86.7568026399073,36.2959191173938],[-86.7567218557048,36.2961300421731],[-86.7567168544363,36.2962459937339],[-86.7567031611913,36.2970861010313],[-86.7566705216504,36.2971505839749],[-86.7564037114889,36.2978527297884],[-86.7562029957704,36.2980847298657],[-86.756042428462,36.2983280170119],[-86.7559268025684,36.2983732383846],[-86.75564342984,36.2986920112429],[-86.7554210615562,36.299002709316],[-86.7542521910998,36.2989177090972],[-86.7540739963232,36.2992347206612],[-86.7539243842402,36.3016996781561],[-86.7535636227811,36.3016623712282],[-86.753365261444,36.3016443787006],[-86.7510248250267,36.3014117125595],[-86.7514409967925,36.3005647112963]]]},"properties":{"id":"97277","parcel":"03200016400","address":"1388 CAMPBELL RD","owner":"HARRIS, SUE, TRUSTEE","point":[-86.75503247845667,36.298448075091194]}},{"type":"Feature","id":"97782","geometry":{"type":"Polygon","coordinates":[[[-86.7578834875315,36.2970781578766],[-86.7586204332642,36.2965862245589],[-86.7586404257667,36.2965953340466],[-86.7586996980523,36.2966224929772],[-86.7587503388657,36.2966454837709],[-86.758795386402,36.2966658095531],[-86.7590132979049,36.296762476053],[-86.7590461017017,36.2967769367764],[-86.7591572494893,36.296825174073],[-86.7591683755031,36.2968299843883],[-86.7591684347741,36.2968300119543],[-86.7591365518523,36.2977169320578],[-86.7591364406105,36.2977169417686],[-86.7584426082403,36.2977905083951],[-86.7580917608286,36.2978139040624],[-86.7580878754789,36.2978141618444],[-86.7579493443494,36.2978236633194],[-86.7579486823427,36.2978237089264],[-86.757946798667,36.2978238369947],[-86.7577857495173,36.2978555182045],[-86.7577679549571,36.2978590219786],[-86.7577049314582,36.2970880676969],[-86.7578826589495,36.2970787128231],[-86.7578834875315,36.2970781578766]]]},"properties":{"id":"97782","parcel":"03200011500","address":"1412 CAMPBELL RD","owner":"BRADLEY, KEITH A.","point":[-86.75843916179893,36.29740253923924]}},{"type":"Feature","id":"97906","geometry":{"type":"Polygon","coordinates":[[[-86.7581200944059,36.3004362110349],[-86.7585092885376,36.2990130407284],[-86.758649659528,36.2985045207251],[-86.7589440730731,36.2986305128311],[-86.7595492441044,36.2988894912296],[-86.7595492665864,36.2988895136192],[-86.7595492958432,36.2988895458797],[-86.7600239206584,36.2994117278124],[-86.7606322570999,36.2974542611713],[-86.7607434744473,36.2975054832616],[-86.7608558371803,36.2975550415743],[-86.7605379121288,36.2986030511019],[-86.7604242666504,36.2989776622956],[-86.7606840654135,36.2990980531279],[-86.7607617277107,36.2991340391722],[-86.7605500253991,36.2997050917654],[-86.7604887696268,36.3001114752186],[-86.7602469504297,36.3017177737538],[-86.7601640714125,36.3022759277307],[-86.7595274186935,36.3019931459599],[-86.7592595232464,36.3018728639293],[-86.7578684554146,36.30126956837],[-86.7580869721887,36.3005567359489],[-86.7581200944059,36.3004362110349]]]},"properties":{"id":"97906","parcel":"03200007300","address":"1440 CAMPBELL RD","owner":"8 TEN FARM TRUST","point":[-86.75939255305994,36.299906021153205]}},{"type":"Feature","id":"105767","geometry":{"type":"Polygon","coordinates":[[[-86.7583038136006,36.2986348114799],[-86.7586331251139,36.2984782543996],[-86.7592517840652,36.2984452528972],[-86.7593101792213,36.2968904246054],[-86.7593101810074,36.2968903786312],[-86.7594978396828,36.296970065762],[-86.7596891026168,36.2970513783099],[-86.7600250450517,36.2971943708835],[-86.760025032531,36.2971944583819],[-86.7595492441044,36.2988894912296],[-86.7589440730731,36.2986305128311],[-86.758649659528,36.2985045207251],[-86.7585092885376,36.2990130407284],[-86.7585092002159,36.2990130025295],[-86.7581604978743,36.2988633508965],[-86.7579831645104,36.2987872460754],[-86.7583038136006,36.2986348114799]]]},"properties":{"id":"105767","parcel":"03200014800","address":"1426 CAMPBELL RD","owner":"8 TEN FARM TRUST, THE","point":[-86.7595623347705,36.2978197033484]}}]}