{"type":"FeatureCollection","features":[{"type":"Feature","id":"54903","geometry":{"type":"Polygon","coordinates":[[[-86.6894565018619,36.2140975156889],[-86.6884967815675,36.2140827721184],[-86.6884073514797,36.2138267048403],[-86.6880097490484,36.2138207791251],[-86.6880008240932,36.2137934914286],[-86.6872695692024,36.211755719533],[-86.6878761640069,36.2116112696699],[-86.6881186415168,36.2122396186742],[-86.6892023475719,36.2123403408655],[-86.6891826986651,36.2113184664153],[-86.6891737498384,36.2108406351652],[-86.6891713504,36.2107617298598],[-86.6880032689338,36.2107867206991],[-86.6869045202757,36.210810218083],[-86.6867913200116,36.2104953662067],[-86.6867392514629,36.2105076606734],[-86.6865534560696,36.2099908903655],[-86.6881917647155,36.2096680963863],[-86.6893868075029,36.2095017713015],[-86.690433773065,36.2096094207949],[-86.69099025711,36.2120095157875],[-86.6911025102234,36.2121305550139],[-86.6912908645196,36.2132697941579],[-86.6913905677658,36.2138091088371],[-86.6913958948624,36.2138379201739],[-86.6904429721514,36.2140000615092],[-86.690452749999,36.2140393695429],[-86.6902326111376,36.2141178632943],[-86.6902048726819,36.2140758369761],[-86.6896731277167,36.2142641439772],[-86.6894565018619,36.2140975156889]]]},"properties":{"id":"54903","parcel":"07300004200","address":"2800 MCGAVOCK PIKE","owner":"CATHOLIC DIOCESE OF NASHVILLE","point":[-86.69007774345195,36.21188509042483]}},{"type":"Feature","id":"180252","geometry":{"type":"Polygon","coordinates":[[[-86.6935666936721,36.2197092301658],[-86.6935586655676,36.2196626960811],[-86.6935277491939,36.2194619670388],[-86.6937111415075,36.2195015034123],[-86.6936265118547,36.2196717632734],[-86.6936071507565,36.2197089978354],[-86.6935937288456,36.2197518049608],[-86.6935814612013,36.2197948397806],[-86.6935666936721,36.2197092301658]]]},"properties":{"id":"180252","parcel":"06200010700","address":"0 MUSIC VALLEY DR","owner":"PINNACLE HOSPITALITY PARTNERS, LLC","point":[-86.69360862565733,36.219582032493484]}},{"type":"Feature","id":"182256","geometry":{"type":"Polygon","coordinates":[[[-86.693789613842,36.2172342701812],[-86.6939765079848,36.2170325817099],[-86.6944915196822,36.2170774831235],[-86.6943461293625,36.2180994400753],[-86.6936024237954,36.2180301758847],[-86.6936878278621,36.2179108780973],[-86.693789613842,36.2172342701812]]]},"properties":{"id":"182256","parcel":"06200012800","address":"2645 MCGAVOCK PIKE","owner":"TNPR1, LLC","point":[-86.69407977912489,36.217573446519594]}},{"type":"Feature","id":"182316","geometry":{"type":"Polygon","coordinates":[[[-86.6935277491939,36.2194619670388],[-86.6934601370282,36.2190077721046],[-86.6935499433339,36.2183904419212],[-86.6942137444731,36.2184504782218],[-86.6945250766151,36.218763404795],[-86.6944910418803,36.2187784765373],[-86.6944209571341,36.2188120644408],[-86.694420853047,36.2188121173117],[-86.6943527594535,36.2188482812151],[-86.6943526509807,36.2188483413211],[-86.694286645974,36.2188870310987],[-86.6942865807025,36.2188870711289],[-86.6942228513306,36.2189281820652],[-86.6942228126252,36.2189282075227],[-86.6942227816577,36.2189282275282],[-86.6942227440723,36.2189282538805],[-86.6941614727858,36.2189716641629],[-86.694161391005,36.2189717241154],[-86.6941026186534,36.2190173992654],[-86.6941025402486,36.2190174637047],[-86.6940464149015,36.2190652929223],[-86.6940463740662,36.219065329207],[-86.6940463486753,36.2190653509829],[-86.6940463155701,36.2190653809144],[-86.6939929907408,36.21911523985],[-86.6939929422148,36.2191152869938],[-86.6939425049862,36.219167085927],[-86.6939424322602,36.2191671638524],[-86.6938949763262,36.2192208058148],[-86.6938949235012,36.219220870107],[-86.6938505172681,36.2192762916215],[-86.6938111730811,36.2193306025397],[-86.6938111214628,36.21933067764],[-86.6937747795933,36.2193863087529],[-86.6937747148888,36.2193864136695],[-86.6937414159562,36.2194433034615],[-86.6937413666803,36.219443392067],[-86.6937111415075,36.2195015034123],[-86.6935277491939,36.2194619670388]]]},"properties":{"id":"182316","parcel":"06200015400","address":"2425 MUSIC VALLEY DR","owner":"HOBBS & SONS, L.P.","point":[-86.6938304625487,36.21894903430162]}},{"type":"Feature","id":"182321","geometry":{"type":"Polygon","coordinates":[[[-86.6938329775797,36.2199983897902],[-86.6938313317829,36.2199909278858],[-86.6938305703308,36.2199813168285],[-86.6938418171683,36.2199118803354],[-86.693857170495,36.2198429618996],[-86.6938765949937,36.2197747212435],[-86.6939000430901,36.2197073154561],[-86.6939211259278,36.2196585277487],[-86.6939449064383,36.2196105599955],[-86.6939713343244,36.2195635116213],[-86.6951662334342,36.2198203538013],[-86.6952722175236,36.2198444668231],[-86.6953133306368,36.2198936763081],[-86.695292047132,36.2199022345307],[-86.69527245469,36.2199131271652],[-86.6952549395773,36.2199261365902],[-86.6952398488026,36.2199410075579],[-86.6952274789866,36.2199574463569],[-86.6952180764258,36.2199751280217],[-86.6952118249129,36.2199937027115],[-86.6952106139261,36.2200163148257],[-86.6952057663756,36.2200386035946],[-86.6951973645636,36.2200601882166],[-86.6951855520583,36.2200806983524],[-86.6951705326449,36.2200997813406],[-86.6951525648285,36.2201171094397],[-86.6951161674385,36.2201409632056],[-86.6950772768071,36.2201620770899],[-86.6950362062117,36.220180280754],[-86.6949932869149,36.2201954253856],[-86.6949488648922,36.2202073909286],[-86.6949032963267,36.2202160797996],[-86.6948569498896,36.2202214231838],[-86.694810198914,36.220223376574],[-86.6947634214431,36.2202219251777],[-86.6947169913,36.2202170803633],[-86.694671285897,36.2202088823194],[-86.6938963060947,36.2200551093176],[-86.6938832064346,36.2200508387514],[-86.6938710486606,36.2200450207348],[-86.6938601086527,36.2200377870678],[-86.6938506358896,36.2200293030491],[-86.6938428444881,36.2200197603161],[-86.6938369143234,36.2200093777408],[-86.6938329775797,36.2199983897902]]]},"properties":{"id":"182321","parcel":"06200016500","address":"201 RUDY CIR","owner":"MCDONALD'S CORP.","point":[-86.69457421826067,36.21989609835445]}},{"type":"Feature","id":"182368","geometry":{"type":"Polygon","coordinates":[[[-86.6952017909699,36.2196998295969],[-86.6953873913717,36.2190609042784],[-86.6951629961191,36.2187457347516],[-86.6952508981757,36.2187141419608],[-86.695337522606,36.2186803114473],[-86.6954052220378,36.2186550733045],[-86.695471748535,36.218627864535],[-86.6955370156522,36.2185987207871],[-86.6956009369765,36.2185676813143],[-86.6958537322531,36.2188079457663],[-86.6958802679302,36.2188959062878],[-86.6958310318587,36.2193136191832],[-86.6969505096445,36.2194204803597],[-86.6970430142649,36.218993338047],[-86.6969860113369,36.2189885713475],[-86.6970274290814,36.2186625042881],[-86.697195859072,36.2186722542995],[-86.6972007049456,36.2186230279828],[-86.6976437503252,36.2186605491237],[-86.6976844665615,36.2183524162176],[-86.6978543796257,36.2183670874811],[-86.6978621088041,36.2183073394981],[-86.6978343742209,36.2183044255846],[-86.6978558283655,36.2181466071573],[-86.6978273497361,36.218144069758],[-86.6978397761238,36.2180681757708],[-86.697719629583,36.2180544463047],[-86.6977302347657,36.2179700162915],[-86.6980710663744,36.217997138261],[-86.6985870918602,36.2180686348178],[-86.698423020149,36.2188439550693],[-86.6984184866201,36.218843064714],[-86.6984148700418,36.2188423538125],[-86.6982306381595,36.2196340099851],[-86.6983032192747,36.2196377108798],[-86.6982853031577,36.2196820415023],[-86.6981178256454,36.2204516243553],[-86.697954795515,36.2204174052191],[-86.6952722175236,36.2198444668231],[-86.6951662334342,36.2198203538013],[-86.6952017909699,36.2196998295969]]]},"properties":{"id":"182368","parcel":"06200023300","address":"2416 MUSIC VALLEY DR","owner":"RUDY'S FARM COMPANY OF TENNESSEE, LLC","point":[-86.6976666259146,36.219192477573735]}},{"type":"Feature","id":"182385","geometry":{"type":"Polygon","coordinates":[[[-86.6993763778561,36.219005292138],[-86.6993333361216,36.2184277363141],[-86.6993334006833,36.218427742249],[-86.7007949076546,36.2185566150726],[-86.700793361773,36.2185635510529],[-86.7007932150515,36.2185641908908],[-86.7007641026596,36.2186917245108],[-86.7003154615041,36.2206555433434],[-86.7003154401275,36.2206556417036],[-86.7001606757068,36.2206367538347],[-86.6999394032657,36.2206097488208],[-86.6996397673201,36.2203067281635],[-86.6995980177609,36.220264504007],[-86.6995942199622,36.2202592717184],[-86.6995729927003,36.2202295326587],[-86.699569757474,36.2202247783783],[-86.6995555485047,36.2202028503531],[-86.6995455180993,36.2201867012723],[-86.6995405895891,36.2201784932951],[-86.6995210484211,36.2201435703844],[-86.6995143830101,36.22013074635],[-86.699503502654,36.220108521455],[-86.6994952946597,36.2200907918377],[-86.6994906553877,36.2200798144447],[-86.6994758218942,36.2200428130166],[-86.6994727254959,36.2200345033997],[-86.6994559596752,36.2199837159243],[-86.6994489342076,36.219960079873],[-86.6994471324551,36.2199544160376],[-86.6993763778561,36.219005292138]]]},"properties":{"id":"182385","parcel":"06200024100","address":"0 MCGAVOCK PIKE","owner":"MCGAVOCK ENVIRONMENTAL, LLC","point":[-86.69999756921854,36.21948132416769]}},{"type":"Feature","id":"182388","geometry":{"type":"Polygon","coordinates":[[[-86.6901593037772,36.2186065806091],[-86.6901097997368,36.2185598353722],[-86.6897545776697,36.2186797912793],[-86.6897512241253,36.2186809234746],[-86.6897438450465,36.2186638553916],[-86.6897239277964,36.2186209578974],[-86.6897158844597,36.2186047542993],[-86.6891064526908,36.2174228543602],[-86.6890788596341,36.21736600954],[-86.6890541353136,36.2173083029736],[-86.6890323206071,36.2172498317642],[-86.6890322463985,36.2172496113813],[-86.6890240101118,36.2172249929611],[-86.6890122297793,36.2171864866694],[-86.6890017053025,36.2171477424916],[-86.6889882456364,36.2170890190236],[-86.6889881339916,36.2170884581818],[-86.6889858707628,36.2170770783918],[-86.6889781317196,36.217032879277],[-86.6889720150596,36.2169885131873],[-86.6889670604751,36.2169382363787],[-86.6889641870165,36.2168878521648],[-86.6889633996372,36.2168374190988],[-86.6889634025356,36.2168372406347],[-86.6889640867381,36.2168021853143],[-86.688965569368,36.2167705709179],[-86.6889677590932,36.2167403341038],[-86.6889731222227,36.2166896469455],[-86.6889805967283,36.2166391361026],[-86.6889821746968,36.2166300181659],[-86.6889941070476,36.2165709470516],[-86.6890089281739,36.2165123064748],[-86.6890266155291,36.2164541902931],[-86.6890471387578,36.2163966897045],[-86.6890677719694,36.2163460902578],[-86.6890756217505,36.2163282836321],[-86.6891069737153,36.2162632814262],[-86.6891420111672,36.2161995262402],[-86.6891492891301,36.2161893853011],[-86.6891585868118,36.2161803927456],[-86.6891696328885,36.2161728105829],[-86.6891743123852,36.2161703063432],[-86.6891846921755,36.216165914802],[-86.6891957185499,36.2161627209367],[-86.6892071818233,36.2161607845249],[-86.689220249205,36.216160164697],[-86.6892332774271,36.2161611817617],[-86.6892459570959,36.2161638122495],[-86.6892579862729,36.2161679947963],[-86.6892690760133,36.2161736274075],[-86.6893433368989,36.2162177073039],[-86.689419038347,36.2162601449646],[-86.6894961289224,36.2163009091367],[-86.689524145468,36.2163151358439],[-86.6895403270241,36.2163232132916],[-86.689596168321,36.2163503258124],[-86.6896410721897,36.2163712893464],[-86.6897076669937,36.2164010378523],[-86.6897750588561,36.216429584909],[-86.6897915168507,36.2164363205851],[-86.6898160656501,36.2164461995718],[-86.6898759688662,36.2164694737709],[-86.6899364155725,36.2164918057328],[-86.6900145473441,36.2165189835882],[-86.690084539554,36.216541756627],[-86.6901551315344,36.2165632806703],[-86.6904500941402,36.2167235620379],[-86.6905195146574,36.2168131018048],[-86.6907093658072,36.2168675935843],[-86.6911342708122,36.2169567406284],[-86.6911529028966,36.2169760523402],[-86.6913515813587,36.2171819783249],[-86.6915005134341,36.2173363416967],[-86.6919676474885,36.2180470524643],[-86.6921386221527,36.2184351162153],[-86.6923460457118,36.2186228311158],[-86.6924058298472,36.2187850540283],[-86.6927518675236,36.2197139065331],[-86.6927774746341,36.2197826385537],[-86.6911534958971,36.2211612268961],[-86.6907183085544,36.2211448388581],[-86.6908093666398,36.2202255594245],[-86.6908159078206,36.2201375907203],[-86.690818123314,36.2200494800241],[-86.6908160099101,36.2199613679493],[-86.6908095699524,36.2198733941761],[-86.6907988157863,36.2197856974257],[-86.6907837608768,36.2196984173136],[-86.6907644331237,36.2196116906688],[-86.6907505904228,36.2195592459206],[-86.6907242516228,36.2194730838906],[-86.6906936710613,36.2193878473601],[-86.6906588977523,36.2193036712332],[-86.6906588523622,36.2193035678491],[-86.6906236442857,36.219228081341],[-86.6905866820567,36.2191566568695],[-86.690546658503,36.219086323277],[-86.6905036233285,36.2190171676976],[-86.6904576306533,36.2189492736352],[-86.6904087345972,36.2188827245932],[-86.6903908176182,36.2188596036119],[-86.6903349538694,36.2187913053872],[-86.690276010979,36.2187247298986],[-86.6902189026771,36.2186648473912],[-86.6901593037772,36.2186065806091]]]},"properties":{"id":"182388","parcel":"06200024900","address":"2750 PENNINGTON BEND RD","owner":"PARK HOLDINGS, LLC","point":[-86.69127638224823,36.21864627661331]}},{"type":"Feature","id":"183001","geometry":{"type":"Polygon","coordinates":[[[-86.6897100457141,36.2160286114368],[-86.6898393910988,36.2156562015558],[-86.6909083350558,36.2157094285448],[-86.690876974856,36.2157600139819],[-86.6908490415144,36.215811902843],[-86.69082461488,36.21586494056],[-86.690803769234,36.215918971695],[-86.6907865643848,36.2159738390902],[-86.6907628194206,36.2160533065663],[-86.6907425866985,36.216133409157],[-86.6907258898086,36.2162140448878],[-86.6907127501251,36.216295112698],[-86.6904973115943,36.2162751922744],[-86.6901482000053,36.2162428501136],[-86.6897590857056,36.2160934376909],[-86.6897100457141,36.2160286114368]]]},"properties":{"id":"183001","parcel":"06200011100","address":"2700 MCGAVOCK PIKE","owner":"RYMAN CORPORATE PROPERTIES, LLC","point":[-86.69024900205001,36.216001228278586]}},{"type":"Feature","id":"183036","geometry":{"type":"Polygon","coordinates":[[[-86.6946353366876,36.2189690866274],[-86.6951629961191,36.2187457347516],[-86.6953873913717,36.2190609042784],[-86.6952017909699,36.2196998295969],[-86.6951662334342,36.2198203538013],[-86.6939713343244,36.2195635116213],[-86.6940079199486,36.2195024418116],[-86.6940483435025,36.2194429820982],[-86.6940924973582,36.2193852899132],[-86.6941402638553,36.2193295200425],[-86.6941915152543,36.2192758192185],[-86.6942461148956,36.2192243315213],[-86.6943039193769,36.219175192958],[-86.6943647730315,36.2191285360017],[-86.6944285145387,36.2190844823429],[-86.694494975882,36.219043151007],[-86.6945639778456,36.2190046520713],[-86.6946353366876,36.2189690866274]]]},"properties":{"id":"183036","parcel":"06200011700","address":"2420 MUSIC VALLEY DR","owner":"RUDY PROPERTIES","point":[-86.69474109938224,36.219304138317824]}},{"type":"Feature","id":"183039","geometry":{"type":"Polygon","coordinates":[[[-86.6962869630609,36.2179225779932],[-86.6963152032966,36.2178706194275],[-86.6970913059822,36.2179944606338],[-86.6970236000786,36.2185219647117],[-86.6958415933257,36.2184212145044],[-86.6959027537325,36.218373432931],[-86.6959612436737,36.2183235046147],[-86.696016948322,36.2182715257538],[-86.6960697573633,36.2182175997301],[-86.6961195682855,36.2181618316834],[-86.6961662819536,36.2181043312399],[-86.6962098092667,36.2180452106718],[-86.6962500622765,36.2179845867508],[-86.6962869630609,36.2179225779932]]]},"properties":{"id":"183039","parcel":"06200011900","address":"2406 MUSIC VALLEY DR","owner":"RUDY PROPERTIES","point":[-86.69658029577226,36.21819094801635]}},{"type":"Feature","id":"183083","geometry":{"type":"Polygon","coordinates":[[[-86.696547330183,36.2172675611035],[-86.6966280765538,36.2172748668679],[-86.6971784857411,36.217316894873],[-86.6970913059822,36.2179944606338],[-86.6963152032966,36.2178706194275],[-86.6963345385765,36.2178300066648],[-86.6963611775003,36.2177701082914],[-86.6963844873601,36.2177093062257],[-86.6964044213846,36.2176477197045],[-86.6964209384188,36.2175854742406],[-86.6964340084063,36.2175226925787],[-86.696443603539,36.2174595001542],[-86.6964497049142,36.2173960232518],[-86.6964523003102,36.217332389019],[-86.6964544253064,36.217321320225],[-86.696458691605,36.2173106644731],[-86.6964649870194,36.2173006918839],[-86.696473155823,36.2172916539027],[-86.696482989828,36.2172837806474],[-86.6964942405324,36.2172772709245],[-86.6965066224245,36.2172722886052],[-86.6965198229768,36.2172689607654],[-86.6965335070388,36.2172673713515],[-86.696547330183,36.2172675611035]]]},"properties":{"id":"183083","parcel":"06200011800","address":"2400 MUSIC VALLEY DR","owner":"RUDY'S FARM COMPANY OF TENNESSEE, LLC","point":[-86.69677618364838,36.21761751858734]}},{"type":"Feature","id":"183325","geometry":{"type":"Polygon","coordinates":[[[-86.6977302347657,36.2179700162915],[-86.697805651226,36.2173696118686],[-86.6987081179958,36.217445716815],[-86.6985870918602,36.2180686348178],[-86.6980710663744,36.217997138261],[-86.6977302347657,36.2179700162915]]]},"properties":{"id":"183325","parcel":"06200023700","address":"2611 A MCGAVOCK PIKE","owner":"RUDY'S FARM COMPANY OF TENNESSEE, LLC","point":[-86.69821013931616,36.21770784477154]}},{"type":"Feature","id":"183388","geometry":{"type":"Polygon","coordinates":[[[-86.6959661782868,36.2167926556339],[-86.6944171670974,36.2167021297929],[-86.6943740797156,36.2166982570093],[-86.6940393030045,36.21656118235],[-86.6940281102916,36.2152822350515],[-86.6939989228159,36.2149681447274],[-86.6940314405964,36.2150042178886],[-86.6941032789509,36.2150735095793],[-86.6941784831443,36.2151404151955],[-86.6942569321296,36.215204828178],[-86.6943131452528,36.21524573184],[-86.6943716108831,36.2152845072893],[-86.6944322059669,36.2153210732164],[-86.6944948041524,36.2153553528374],[-86.6945592724618,36.2153872748138],[-86.6946254768361,36.2154167714185],[-86.6946932777098,36.2154437812653],[-86.6946953430842,36.2154473410419],[-86.6947607039949,36.2154786818772],[-86.69482814371,36.2155069843171],[-86.6948974467927,36.2155321594729],[-86.69520113477,36.2156419388115],[-86.6954089614973,36.2157217818864],[-86.6954737293606,36.2157496117743],[-86.6955364860743,36.2157803182861],[-86.6955970361891,36.2158138079192],[-86.6956551941607,36.215849975398],[-86.6957107777332,36.2158887100206],[-86.6957829245951,36.2159380154983],[-86.6958523971744,36.2159897814343],[-86.69591906785,36.216043913036],[-86.6959828123044,36.2161003118866],[-86.6961357878924,36.2163029840064],[-86.6961584609774,36.2163829051032],[-86.6961837266098,36.2164623146607],[-86.6962115665198,36.2165411578064],[-86.6962419601974,36.2166193778781],[-86.6962430235033,36.2166410450222],[-86.696241132468,36.2166626751227],[-86.6962363092382,36.2166840039849],[-86.6962286127011,36.2167047717092],[-86.6962181385086,36.2167247253933],[-86.6962058228717,36.2167366135852],[-86.696191193018,36.2167466342062],[-86.6961746745779,36.216754494599],[-86.6961567493599,36.2167599666732],[-86.6961198944312,36.2167708922696],[-86.6960827841913,36.2167813687008],[-86.6960444948933,36.2167885380176],[-86.696005474003,36.2167923138237],[-86.6959661782868,36.2167926556339]]]},"properties":{"id":"183388","parcel":"06200024500","address":"2644 MCGAVOCK PIKE","owner":"2644 MCGAVOCK LLC","point":[-86.6948580986902,36.21586724223722]}},{"type":"Feature","id":"183393","geometry":{"type":"Polygon","coordinates":[[[-86.6994392597012,36.2175098662789],[-86.6994682124346,36.2174245664728],[-86.6995050090986,36.2174278574214],[-86.7000503742784,36.2174772530668],[-86.7001362444199,36.2174849756122],[-86.7001351191559,36.2175366607468],[-86.7001344998072,36.2175625040931],[-86.7000753815941,36.2176180096325],[-86.7000551500611,36.217630073881],[-86.7000349130009,36.2176421426642],[-86.6999387962881,36.2176987394957],[-86.6998553262568,36.218266481972],[-86.6993359171351,36.2182096169811],[-86.6993358047026,36.2182096059159],[-86.6993392026177,36.2179414777607],[-86.6993454409292,36.2179129576177],[-86.6994232753929,36.2175569581625],[-86.6994392597012,36.2175098662789]]]},"properties":{"id":"183393","parcel":"06200024800","address":"2471 MCGAVOCK PIKE","owner":"HOBBS & SONS, L.P.","point":[-86.69964597713923,36.217805858610774]}},{"type":"Feature","id":"184040","geometry":{"type":"Polygon","coordinates":[[[-86.6935499433339,36.2183904419212],[-86.6936024237954,36.2180301758847],[-86.6943461293625,36.2180994400753],[-86.6944915196822,36.2170774831235],[-86.6951305124838,36.2171359698614],[-86.6958571203485,36.2172041659258],[-86.6960475728655,36.2172200705493],[-86.6960703415854,36.217223561452],[-86.6960920452388,36.2172301425679],[-86.6961120068346,36.2172395996969],[-86.6961120358852,36.2172396148508],[-86.6961120615993,36.2172396300238],[-86.6961120906815,36.2172396487824],[-86.6961297203837,36.2172516870114],[-86.6961297573223,36.217251713836],[-86.6961297830917,36.2172517353175],[-86.6961298167175,36.217251764865],[-86.6961446511668,36.217266053403],[-86.6961446814798,36.2172660856733],[-86.6961447017044,36.2172661089892],[-86.6961447286968,36.2172661430811],[-86.696156351754,36.2172822823702],[-86.6961563743373,36.2172823209938],[-86.6961563958243,36.2172823614262],[-86.6961644778367,36.2172999216684],[-86.696168762874,36.2173183825157],[-86.6961691046262,36.2173371680116],[-86.6961595517171,36.2174344607825],[-86.6961508509115,36.2175004779549],[-86.6961508435694,36.2175005284672],[-86.6961377661753,36.2175660391263],[-86.6961377468526,36.2175661185477],[-86.6961203226788,36.2176309720114],[-86.6961203021489,36.2176310406248],[-86.6960985860939,36.2176950301886],[-86.6960985578343,36.2176951051552],[-86.6960726073778,36.2177580646553],[-86.6960725801115,36.2177581260975],[-86.6960424462347,36.217819909235],[-86.696008272163,36.2178802348924],[-86.696008250236,36.2178802710688],[-86.6960082316061,36.2178803027198],[-86.6960082096791,36.2178803388962],[-86.6959700895962,36.2179390406974],[-86.6959700467595,36.2179391022292],[-86.6959280531999,36.2179960815163],[-86.6959280037139,36.2179961457902],[-86.695882286116,36.2180511953117],[-86.6958822222508,36.218051268681],[-86.6958328884324,36.2181042544268],[-86.6958328344106,36.218104308813],[-86.6957800485713,36.2181550576938],[-86.6957800154672,36.2181550876258],[-86.6957799889886,36.2181551121121],[-86.6957799558923,36.2181551429452],[-86.6957238414467,36.2182035235645],[-86.6956645861346,36.2182493834263],[-86.6956645364032,36.2182494197627],[-86.6956023379518,36.2182926036099],[-86.6956022682881,36.2182926499749],[-86.6955372881356,36.2183330496246],[-86.695537211783,36.2183330942255],[-86.6954696302279,36.2183705959789],[-86.6954695560522,36.2183706351597],[-86.6953995811912,36.2184051242567],[-86.6953995379903,36.218405144333],[-86.6953994992144,36.21840516168],[-86.6953994560135,36.2184051817562],[-86.6953272450689,36.2184365761752],[-86.6945588050282,36.2187492982406],[-86.6945250766151,36.218763404795],[-86.6942137444731,36.2184504782218],[-86.6935499433339,36.2183904419212]]]},"properties":{"id":"184040","parcel":"06200002900","address":"2401 MUSIC VALLEY DR","owner":"OLH, L.P.","point":[-86.69518142987548,36.21790763511658]}},{"type":"Feature","id":"184356","geometry":{"type":"Polygon","coordinates":[[[-86.6958310318587,36.2193136191832],[-86.6958802679302,36.2188959062878],[-86.6969860113369,36.2189885713475],[-86.6970430142649,36.218993338047],[-86.6969505096445,36.2194204803597],[-86.6958310318587,36.2193136191832]]]},"properties":{"id":"184356","parcel":"06200023400","address":"2412 MUSIC VALLEY DR","owner":"RUDY'S FARM COMPANY OF TENNESSEE, LLC","point":[-86.69642905142427,36.21915345993228]}},{"type":"Feature","id":"184357","geometry":{"type":"Polygon","coordinates":[[[-86.6982306381595,36.2196340099851],[-86.6984148700418,36.2188423538125],[-86.6984184866201,36.218843064714],[-86.698423020149,36.2188439550693],[-86.6985870918602,36.2180686348178],[-86.699121889774,36.2181438400087],[-86.6990953818705,36.2184038428509],[-86.6991490557861,36.2188298649885],[-86.699194016968,36.2195460264571],[-86.6991870341261,36.2196768247392],[-86.6991871649067,36.2196916576557],[-86.6983032192747,36.2196377108798],[-86.6982306381595,36.2196340099851]]]},"properties":{"id":"184357","parcel":"06200023500","address":"2511 MCGAVOCK PIKE","owner":"RUDY'S FARM COMPANY OF TENNESSEE, LLC","point":[-86.69875256021767,36.21919485053571]}},{"type":"Feature","id":"185576","geometry":{"type":"Polygon","coordinates":[[[-86.6985870918602,36.2180686348178],[-86.6987081179958,36.217445716815],[-86.6987710031178,36.2174543474753],[-86.6987884861948,36.2173831755059],[-86.6991932570303,36.2174220380481],[-86.699121889774,36.2181438400087],[-86.6985870918602,36.2180686348178]]]},"properties":{"id":"185576","parcel":"06200023600","address":"2515 MCGAVOCK PIKE","owner":"RUDY'S FARM COMPANY OF TENNESSEE, LLC","point":[-86.69890317859445,36.21776205533116]}},{"type":"Feature","id":"224899","geometry":{"type":"Polygon","coordinates":[[[-86.7017134806752,36.2173145675341],[-86.7011853725577,36.2172830267152],[-86.6975674434251,36.216939173571],[-86.6966243401907,36.2168495225183],[-86.696126270563,36.2168021712708],[-86.6959661782868,36.2167926556339],[-86.696005474003,36.2167923138237],[-86.6960444948933,36.2167885380176],[-86.6960827841913,36.2167813687008],[-86.6961198944312,36.2167708922696],[-86.6961567493599,36.2167599666732],[-86.6961746745779,36.216754494599],[-86.696191193018,36.2167466342062],[-86.6962058228717,36.2167366135852],[-86.6962181385086,36.2167247253933],[-86.6962286127011,36.2167047717092],[-86.6962363092382,36.2166840039849],[-86.696241132468,36.2166626751227],[-86.6962430235033,36.2166410450222],[-86.6962419601974,36.2166193778781],[-86.6962115665198,36.2165411578064],[-86.6961837266098,36.2164623146607],[-86.6961584609774,36.2163829051032],[-86.6961357878924,36.2163029840064],[-86.6959828123044,36.2161003118866],[-86.69591906785,36.216043913036],[-86.6958523971744,36.2159897814343],[-86.6957829245951,36.2159380154983],[-86.6957107777332,36.2158887100206],[-86.6956551941607,36.215849975398],[-86.6955970361891,36.2158138079192],[-86.6955364860743,36.2157803182861],[-86.6954737293606,36.2157496117743],[-86.6954089614973,36.2157217818864],[-86.69520113477,36.2156419388115],[-86.6948974467927,36.2155321594729],[-86.69482814371,36.2155069843171],[-86.6947607039949,36.2154786818772],[-86.6946953430842,36.2154473410419],[-86.6946932777098,36.2154437812653],[-86.6946254768361,36.2154167714185],[-86.6945592724618,36.2153872748138],[-86.6944948041524,36.2153553528374],[-86.6944322059669,36.2153210732164],[-86.6943716108831,36.2152845072893],[-86.6943131452528,36.21524573184],[-86.6942569321296,36.215204828178],[-86.6941784831443,36.2151404151955],[-86.6941032789509,36.2150735095793],[-86.6940314405964,36.2150042178886],[-86.6939989228159,36.2149681447274],[-86.6940281102916,36.2152822350515],[-86.6935213653355,36.2152494348992],[-86.6926839928283,36.2150877714264],[-86.6923157484106,36.2142223749333],[-86.6922223460812,36.2140075437928],[-86.6915970847387,36.2114794733513],[-86.69148867121,36.2110411197225],[-86.6911309905181,36.2095949402212],[-86.6924361536463,36.209492966465],[-86.6933397305088,36.2092081325355],[-86.6940892640198,36.2089065992357],[-86.6943492193714,36.2090578391809],[-86.6944458308057,36.2092133147714],[-86.6944272663446,36.2093771439254],[-86.6945354755474,36.2100053154081],[-86.6948183333569,36.2101391158587],[-86.6954931693233,36.2102486836014],[-86.6999761237546,36.2106359346203],[-86.7000190485982,36.2106985923237],[-86.7000527169537,36.2107494918569],[-86.7001442229975,36.2108626886041],[-86.7002062391166,36.2109375971301],[-86.7002532915668,36.2109898186469],[-86.7002971901821,36.2110438140731],[-86.7003378348705,36.2110994578171],[-86.7003572317862,36.2111258133058],[-86.7003793152403,36.2111507409482],[-86.7004039246243,36.2111740623255],[-86.7004308860872,36.2111956108114],[-86.700460839449,36.2112183216768],[-86.7004886924953,36.2112427237504],[-86.7005143017504,36.211268689888],[-86.7005375347949,36.2112960856714],[-86.7005615577386,36.2113260301154],[-86.7005885195855,36.21135428388],[-86.7006182363008,36.2113806605703],[-86.7006505116878,36.2114049819735],[-86.7006851307867,36.2114270862081],[-86.7007535636195,36.2114992101998],[-86.700812968005,36.2115410981632],[-86.7008697373047,36.211585320312],[-86.700923732658,36.2116317684042],[-86.7009748196035,36.2116803287649],[-86.7009928273621,36.2117115400477],[-86.7010140206612,36.2117414088971],[-86.7010382474847,36.2117697225971],[-86.7010653380939,36.2117962766458],[-86.70109783668,36.2118313440642],[-86.7011278987378,36.211867810844],[-86.7011554331989,36.2119055657602],[-86.7011803567391,36.211944493037],[-86.7012025938023,36.2119844750504],[-86.7012195293918,36.2120167929517],[-86.7012397679123,36.2120478371289],[-86.7012631661797,36.2120773876049],[-86.701289556623,36.212105233557],[-86.7013187506441,36.2121311760004],[-86.7013505419784,36.212155030473],[-86.7013869936694,36.2121856019401],[-86.7014212079207,36.2122178266701],[-86.7014530692302,36.2122515971854],[-86.7014824720804,36.2122868032467],[-86.7015093186496,36.2123233246563],[-86.7015288307553,36.2123637559378],[-86.7015514706519,36.212403102865],[-86.7015771457329,36.2124412055513],[-86.7016057534378,36.2124779104765],[-86.7016371779165,36.2125130705064],[-86.7016712933489,36.2125465430708],[-86.7017533495633,36.2126074712881],[-86.7018324111838,36.2126709466666],[-86.7019083561393,36.2127368734874],[-86.701981070094,36.2128051505795],[-86.7020504420312,36.2128756749499],[-86.7021163664375,36.212948337265],[-86.7021787433665,36.2130230290598],[-86.7022374761512,36.2130996355417],[-86.7022924781242,36.2131780409581],[-86.7023686954256,36.2132734909118],[-86.7024485068317,36.2133669921333],[-86.7025318381522,36.2134584549219],[-86.7026186074428,36.2135477932271],[-86.7027087338779,36.2136349218932],[-86.702770671963,36.213690841051],[-86.702829682117,36.2137488032301],[-86.7028856611218,36.2138087071939],[-86.7029385124065,36.2138704489634],[-86.702988143808,36.2139339200277],[-86.7030344698345,36.2139990118368],[-86.7030774094021,36.2140656113087],[-86.7031168891867,36.2141336026123],[-86.7031316994466,36.2141598879117],[-86.7031398593367,36.2141778140658],[-86.7031503154502,36.2141949409587],[-86.7031938800491,36.2142309113153],[-86.7032346406167,36.2142689816775],[-86.7032724412574,36.2143090051508],[-86.7033071405163,36.2143508329537],[-86.7033386079786,36.2143943072282],[-86.703366724302,36.2144392646438],[-86.7035007221392,36.214641214402],[-86.7035310554878,36.2146677733311],[-86.7035585379831,36.2146962973661],[-86.7035829776604,36.2147265857471],[-86.7036042013482,36.214758424987],[-86.7036220602688,36.2147915933449],[-86.7036333471585,36.2148094489726],[-86.7036479138389,36.2148256713487],[-86.7036654064981,36.2148398686866],[-86.7036854027875,36.2148516964639],[-86.7037074197263,36.2148608708959],[-86.7037505718523,36.2148825000339],[-86.7037915286528,36.2149067718018],[-86.703830045263,36.2149335398234],[-86.7038658878024,36.2149626423375],[-86.7038988434237,36.2149939066457],[-86.7039287136003,36.2150271446443],[-86.7039553186064,36.2150621564043],[-86.7039848537503,36.2151061338517],[-86.7040182240858,36.2151482711108],[-86.704055257509,36.2151883492762],[-86.7040957619765,36.2152261585716],[-86.7041319033856,36.215284386809],[-86.7041656619232,36.2153435473036],[-86.7041970025329,36.2154035753716],[-86.7031929842475,36.2153369035466],[-86.7032680316665,36.2154661259874],[-86.7031927093411,36.2154970566109],[-86.7034178998211,36.2158520333028],[-86.7034735970682,36.2159398882141],[-86.7033938656505,36.2159705706583],[-86.7039787860853,36.2169019727245],[-86.7040403203042,36.2169999576418],[-86.7041196459756,36.217458247249],[-86.7017134806752,36.2173145675341]]]},"properties":{"id":"224899","parcel":"07300003200","address":"2800 OPRYLAND DR","owner":"RHP HOTELS, LLC","point":[-86.69717655941375,36.21321283528955]}},{"type":"Feature","id":"225947","geometry":{"type":"Polygon","coordinates":[[[-86.6958065028116,36.2184458441524],[-86.6958067327362,36.2184456824053],[-86.6958124031925,36.2184417878804],[-86.6958211432556,36.2184357216828],[-86.6958276497584,36.2184311536129],[-86.6958321065633,36.2184279960918],[-86.6958339723435,36.2184266668136],[-86.6958358845659,36.2184253066251],[-86.6958377889793,36.218423943778],[-86.6958406372027,36.2184218932468],[-86.6958415933257,36.2184212145044],[-86.6970236000786,36.2185219647117],[-86.6970274290814,36.2186625042881],[-86.6969860113369,36.2189885713475],[-86.6958802679302,36.2188959062878],[-86.6958537322531,36.2188079457663],[-86.6956009369765,36.2185676813143],[-86.6956020076914,36.2185671325951],[-86.6956052309025,36.2185654800649],[-86.6956073789736,36.2185643789832],[-86.6956085470856,36.218563775628],[-86.6956119273952,36.2185620275616],[-86.6956282598973,36.2185534617431],[-86.6956315999385,36.2185516877718],[-86.6956528693954,36.218540178872],[-86.6956673347309,36.2185321519353],[-86.6956980668559,36.2185145366283],[-86.6957065371961,36.2185095453817],[-86.6957264334801,36.218497581136],[-86.6957373279748,36.2184908842766],[-86.6957548680769,36.2184798808129],[-86.6957716802563,36.2184690717036],[-86.6957900271485,36.2184569766792],[-86.6957940708132,36.2184542685597],[-86.6957992178245,36.2184508015398],[-86.6958065028116,36.2184458441524]]]},"properties":{"id":"225947","parcel":"06200027700","address":"2410 MUSIC VALLEY DR","owner":"SAI SATHYA, LLC","point":[-86.69639672438933,36.21873511521041]}},{"type":"Feature","id":"227440","geometry":{"type":"Polygon","coordinates":[[[-86.6970274290814,36.2186625042881],[-86.6970236000786,36.2185219647117],[-86.6970913059822,36.2179944606338],[-86.6971784857411,36.217316894873],[-86.697805651226,36.2173696118686],[-86.6977302347657,36.2179700162915],[-86.697719629583,36.2180544463047],[-86.6978397761238,36.2180681757708],[-86.6978273497361,36.218144069758],[-86.6978558283655,36.2181466071573],[-86.6978343742209,36.2183044255846],[-86.6978621088041,36.2183073394981],[-86.6978543796257,36.2183670874811],[-86.6976844665615,36.2183524162176],[-86.6976437503252,36.2186605491237],[-86.6972007049456,36.2186230279828],[-86.697195859072,36.2186722542995],[-86.6970274290814,36.2186625042881]]]},"properties":{"id":"227440","parcel":"06200027800","address":"2617 MCGAVOCK PIKE","owner":"SAI RAM OPRYLAND, LLC","point":[-86.6974107902785,36.21798223893952]}}]}