{"type":"FeatureCollection","features":[{"type":"Feature","id":"49613","geometry":{"type":"Polygon","coordinates":[[[-86.7003469855259,36.3212035758592],[-86.7003473967193,36.3212034779484],[-86.7003917435407,36.3217680542287],[-86.700577120607,36.3218300336315],[-86.700576473625,36.3218301671553],[-86.6994866640092,36.322055838286],[-86.699470068244,36.3219677406571],[-86.6994494381457,36.3218802043863],[-86.6994248026108,36.3217933473645],[-86.6993961961426,36.3217072919562],[-86.6993636565533,36.3216221569014],[-86.6993272305394,36.3215380581848],[-86.6992869670399,36.32145511358],[-86.7003469855259,36.3212035758592]]]},"properties":{"id":"49613","parcel":"02600016900","address":"306 NORTHCREEK BLVD","owner":"NORTHRIDGE, LLC","point":[-86.69988187567492,36.32166598574331]}},{"type":"Feature","id":"80363","geometry":{"type":"Polygon","coordinates":[[[-86.6980492153801,36.3254694000381],[-86.6986056800722,36.3248202348037],[-86.6986244498909,36.3248327588024],[-86.698609336477,36.3243997028258],[-86.6987990654646,36.3243952046138],[-86.6993249922837,36.3243827324923],[-86.699345072462,36.3249464566258],[-86.6993497272006,36.3250185229199],[-86.6993585416994,36.3250903344456],[-86.6993714978639,36.3251617326918],[-86.6993885664942,36.3252325628159],[-86.6994097117004,36.3253026691126],[-86.6994348842594,36.325371899558],[-86.6994640326966,36.3254400994376],[-86.6994970911383,36.3255071231315],[-86.6995339869961,36.3255728214539],[-86.6995746410545,36.3256370515655],[-86.6996189629839,36.3256996733944],[-86.6996668557878,36.3257605487099],[-86.6997182158259,36.3258195438255],[-86.6997729294899,36.325876531421],[-86.6998308776094,36.3259313851092],[-86.6998919321673,36.3259839857638],[-86.699955961836,36.3260342178831],[-86.7000228242056,36.3260819723374],[-86.7000923746613,36.3261271427142],[-86.7001644597576,36.3261696316641],[-86.700289523345,36.3262399373357],[-86.7003006488658,36.326247405323],[-86.700310047265,36.3262562919186],[-86.7003174456291,36.3262663400526],[-86.7003226286613,36.3262772589764],[-86.7003254465328,36.3262887305257],[-86.7003258183517,36.3263004235194],[-86.7003237310814,36.3263119973716],[-86.7003192474715,36.3263231173657],[-86.7003124971972,36.3263334601135],[-86.6990924918457,36.3277557332392],[-86.6987241073953,36.3275357345377],[-86.6983305784372,36.3273020831068],[-86.6977211037566,36.327250113351],[-86.6970387266552,36.3270919787391],[-86.6968801847537,36.3267721713203],[-86.6973230469765,36.3264827917144],[-86.6973230075292,36.3264827387698],[-86.6974736986167,36.3263843505366],[-86.6973327300044,36.3263052251054],[-86.6980492153801,36.3254694000381]]]},"properties":{"id":"80363","parcel":"01914001400","address":"123 NORTHCREEK BLVD","owner":"TOPVALCO, INC","point":[-86.69876961983269,36.32605502732161]}},{"type":"Feature","id":"82176","geometry":{"type":"Polygon","coordinates":[[[-86.6996159202351,36.3232530698809],[-86.6996302903977,36.3232521945772],[-86.6996346501776,36.3232524054763],[-86.6996715785354,36.3232541952576],[-86.6996808919631,36.323254646962],[-86.6996965314517,36.3232558812773],[-86.6997165597567,36.323257461502],[-86.6997518467327,36.3232619220638],[-86.6997553164672,36.3232624886836],[-86.6997872573084,36.3232677661771],[-86.6998070028084,36.3232718750496],[-86.6998219461014,36.323274984314],[-86.699849271623,36.3232818836605],[-86.6998559687638,36.3232835725482],[-86.6998593968224,36.3232845900172],[-86.6998896617454,36.3232935433529],[-86.6999141205244,36.3233019453899],[-86.6999353390787,36.3233099164648],[-86.6999665015129,36.3233227587671],[-86.6999864055144,36.3233314412958],[-86.7000138450956,36.3233451928368],[-86.7001755838463,36.3234198961281],[-86.7001755965028,36.3234199420171],[-86.7003213987145,36.3240552405957],[-86.7004510278586,36.3246258509412],[-86.6996026898374,36.3246620759609],[-86.6995951437689,36.324499501387],[-86.6995841434527,36.324211158771],[-86.6995579503597,36.3235171405974],[-86.6995518207748,36.3233810032257],[-86.6995486611661,36.3233108992257],[-86.6995516082276,36.3232990707644],[-86.6995563481795,36.32328987071],[-86.699557285428,36.3232880502277],[-86.6995585894409,36.3232863961524],[-86.6995652956486,36.3232778912822],[-86.699565338627,36.3232778396639],[-86.6995754495979,36.3232693547524],[-86.6995871516339,36.3232623359367],[-86.6996001245875,36.3232569770286],[-86.6996140133666,36.3232534242773],[-86.6996159202351,36.3232530698809]]]},"properties":{"id":"82176","parcel":"01914001300","address":"202 NORTHGATE CIR","owner":"MANGLAM HOTELS, LLC","point":[-86.6999139524018,36.32378612663616]}},{"type":"Feature","id":"86309","geometry":{"type":"Polygon","coordinates":[[[-86.6919263815255,36.3202682958276],[-86.6921030837734,36.3199794090483],[-86.6921232745911,36.3199851712684],[-86.6921443868716,36.3199880560155],[-86.6921657962329,36.3199879794443],[-86.6921868745785,36.3199849424458],[-86.6922070023871,36.3199790350836],[-86.6922255864911,36.3199704319857],[-86.6922420800584,36.3199593850202],[-86.6924411053014,36.3201274564342],[-86.6925572776742,36.3202245062441],[-86.6925573651972,36.3202245814456],[-86.6924940554398,36.3202377737848],[-86.6924408093161,36.3202488726084],[-86.6922306977316,36.3202885324227],[-86.6919263815255,36.3202682958276]]]},"properties":{"id":"86309","parcel":"02603001700","address":"309 CHISWICK CT","owner":"CARNEAL,  KATHY M.","point":[-86.69220715236939,36.320057535953104]}},{"type":"Feature","id":"86564","geometry":{"type":"Polygon","coordinates":[[[-86.6996946086433,36.3229772390634],[-86.6996763617891,36.3229774888244],[-86.6996693791083,36.3229777644404],[-86.6996571082857,36.3229771234645],[-86.6996450788186,36.3229750598639],[-86.6996335416587,36.3229716154456],[-86.699622738022,36.3229668645171],[-86.6996128915049,36.3229609040181],[-86.6996078032744,36.3229570248525],[-86.6996013746194,36.3229510553957],[-86.6995996980917,36.3229492437241],[-86.6995958364607,36.3229445292393],[-86.6995951206692,36.3229435564553],[-86.6995924638443,36.3229395740031],[-86.6995918501177,36.3229385564687],[-86.6995875540526,36.3229297971085],[-86.6995855280917,36.3229237291838],[-86.6995845606678,36.3229196116891],[-86.6995840516498,36.3229165793177],[-86.6995837453567,36.3229139287929],[-86.6995836400768,36.3229126010006],[-86.6995835726448,36.3229112711869],[-86.6995834762091,36.3229074145144],[-86.6995826198044,36.3228876241257],[-86.6995823717024,36.3228795839564],[-86.699577370348,36.3227500081389],[-86.6995743211205,36.3226955514067],[-86.6995627778655,36.3225428925684],[-86.6995468345408,36.3223904943923],[-86.699544693883,36.3223728265973],[-86.7005571663357,36.3222844797497],[-86.7005251925892,36.3223480902799],[-86.7005204175962,36.3223656485142],[-86.7004288976462,36.3227022074122],[-86.7003066113056,36.3231519008272],[-86.7001989505906,36.3230983246989],[-86.7001836220603,36.3230903123598],[-86.7001641860844,36.3230806484265],[-86.7001444540886,36.3230713872476],[-86.7001204048768,36.3230608073358],[-86.7000649197488,36.3230391936832],[-86.7000077447926,36.3230206872861],[-86.6999491446927,36.3230053722264],[-86.699889392938,36.3229933208197],[-86.6998287662065,36.3229845882402],[-86.6997675455106,36.3229792161193],[-86.6997402194736,36.3229779178522],[-86.6997174192268,36.3229773441123],[-86.6996946086433,36.3229772390634]]]},"properties":{"id":"86564","parcel":"02600007200","address":"300 NORTHCREEK BLVD","owner":"SIMMONS BANK","point":[-86.69999904223604,36.32272609826481]}},{"type":"Feature","id":"87142","geometry":{"type":"Polygon","coordinates":[[[-86.6934884825455,36.3211015422864],[-86.6934262147035,36.3211016415839],[-86.6933920789664,36.3211019553664],[-86.6932677052514,36.321103100086],[-86.6931803033121,36.3211045122201],[-86.6931440202729,36.3211051915195],[-86.6930040037247,36.3211087318505],[-86.6928455345017,36.3211140269725],[-86.6928455753586,36.3211139870846],[-86.6931635410145,36.3207684181695],[-86.6932490257871,36.3206755105311],[-86.6939027632524,36.3199740403134],[-86.6941881976189,36.3196229873931],[-86.6942580616785,36.3195368872741],[-86.6944150506888,36.3193623797971],[-86.6949257503486,36.3196539171497],[-86.697243540692,36.3198946678733],[-86.6977158462565,36.3196024170489],[-86.6985862986684,36.3196833010234],[-86.6985691472922,36.3197466794642],[-86.6985544784755,36.3198104653336],[-86.6985395829343,36.3198910990681],[-86.6985286545255,36.3199721478785],[-86.6984913013336,36.3199682270146],[-86.6984912964854,36.3199676772967],[-86.6977125739971,36.3198859191758],[-86.6976734086056,36.3199097688805],[-86.6975889311537,36.3204928804541],[-86.6975896225509,36.3204942499292],[-86.6978635774332,36.3211132016516],[-86.6980786563577,36.32159899085],[-86.696754371623,36.3217816071754],[-86.6966476846519,36.3217063172417],[-86.6965366107233,36.3216233866837],[-86.6964229923508,36.3215427444589],[-86.6963069023695,36.3214644415106],[-86.6962155721953,36.3214053064041],[-86.6961539482598,36.3213668148627],[-86.6961268799848,36.3213502989627],[-86.6960737388819,36.3213183834369],[-86.6960243795814,36.3212893507618],[-86.696001780364,36.3212761102903],[-86.6959707268728,36.321271697274],[-86.6959295294173,36.3212659457289],[-86.6958068233343,36.3212496781561],[-86.6956891241767,36.3212347821562],[-86.6955582362587,36.321219047156],[-86.695499078442,36.3212122569121],[-86.6954538152655,36.3212072928233],[-86.6954094485187,36.3212024461291],[-86.6952705136642,36.3211880197016],[-86.6951297290319,36.3211747329785],[-86.6950605618293,36.3211683497269],[-86.6949767980748,36.3211613707957],[-86.6949028890685,36.321155516684],[-86.6946926931679,36.3211402499445],[-86.694617627257,36.3211354296975],[-86.6945577173195,36.3211318796027],[-86.6945137901337,36.321129268692],[-86.6944018362137,36.3211233191268],[-86.6942973904132,36.3211184817212],[-86.6941656311397,36.3211130574969],[-86.6940614814226,36.3211095970581],[-86.6940579757687,36.3211094910061],[-86.6939279724017,36.3211061833303],[-86.6938231516634,36.3211040513333],[-86.6937165214525,36.3211025821098],[-86.6936724596939,36.3211021481173],[-86.6936022605121,36.3211016378094],[-86.6935578131974,36.3211014321931],[-86.6934884825455,36.3211015422864]]]},"properties":{"id":"87142","parcel":"02600016200","address":"333 NORTHCREEK BLVD","owner":"PRESTON RUN APARTMENTS, LLC","point":[-86.6954853303936,36.32058506810682]}},{"type":"Feature","id":"89148","geometry":{"type":"Polygon","coordinates":[[[-86.6999439736098,36.3208713896203],[-86.700227627912,36.320795887874],[-86.7002820463695,36.3209474260944],[-86.7003390361894,36.3211033365455],[-86.7003424391344,36.321144090854],[-86.7003473967193,36.3212034779484],[-86.7003469855259,36.3212035758592],[-86.6992869670399,36.32145511358],[-86.6991120853197,36.3210670569946],[-86.6999439736098,36.3208713896203]]]},"properties":{"id":"89148","parcel":"02600015700","address":"318 NORTHCREEK BLVD","owner":"NORTH CREEK PROPERTIES, LLC","point":[-86.69973849612902,36.32112220243735]}},{"type":"Feature","id":"89259","geometry":{"type":"Polygon","coordinates":[[[-86.6915522130542,36.3199457508647],[-86.6920365874723,36.3199056243871],[-86.6920432841192,36.3199236222304],[-86.6920536233661,36.3199404537746],[-86.6920673092468,36.3199556394599],[-86.6920839537902,36.3199687489187],[-86.6921030837734,36.3199794090483],[-86.6919263815255,36.3202682958276],[-86.6915522130542,36.3199457508647]]]},"properties":{"id":"89259","parcel":"02603001600","address":"311 CHISWICK CT","owner":"WALKER, DEBRA K.","point":[-86.69188639234137,36.32012352173454]}},{"type":"Feature","id":"89968","geometry":{"type":"Polygon","coordinates":[[[-86.6922667769491,36.3198334338995],[-86.692624295948,36.3198044664083],[-86.6926524425915,36.3199954896336],[-86.6926793461447,36.320202258008],[-86.692679372378,36.3202024561267],[-86.6926401547259,36.3202095687893],[-86.6925573651972,36.3202245814456],[-86.6925572776742,36.3202245062441],[-86.6924411053014,36.3201274564342],[-86.6922420800584,36.3199593850202],[-86.6922535970961,36.319948001544],[-86.6922627773243,36.3199353030413],[-86.6922693962794,36.319921600818],[-86.6922732909585,36.3199072301612],[-86.6922743664465,36.3198925439925],[-86.6922725969265,36.3198779011462],[-86.6922667769491,36.3198334338995]]]},"properties":{"id":"89968","parcel":"02602000300","address":"307 CHISWICK CT","owner":"WEAVER, MICHAEL R","point":[-86.69251173705699,36.32006138295936]}}]}