{"type":"FeatureCollection","features":[{"type":"Feature","id":"178813","geometry":{"type":"Polygon","coordinates":[[[-86.771336884288,36.0590563467482],[-86.7713159693635,36.0589998334496],[-86.7712992235354,36.0590039198195],[-86.7712790199267,36.0589493262219],[-86.7712903096822,36.0589465717297],[-86.7712560568951,36.0588540199607],[-86.7713329013103,36.058835269825],[-86.7713668954699,36.0589271274303],[-86.7714449912771,36.0589080726897],[-86.7714387970359,36.0588913356739],[-86.7715161176218,36.0588724697122],[-86.7715388257817,36.0589338330722],[-86.7714634042966,36.0589522353447],[-86.7714723115116,36.0589763014306],[-86.7714356726872,36.0589852406251],[-86.7714516268147,36.0590283491848],[-86.771336884288,36.0590563467482]]]},"properties":{"id":"178813","parcel":"160030A00100CO","address":"5181 A REGENT DR","owner":"CATALANO, HALEY FRAZIER & ROBERT","point":[-86.77139991149674,36.058940174518135]}},{"type":"Feature","id":"178814","geometry":{"type":"Polygon","coordinates":[[[-86.7716680625153,36.0589845948125],[-86.7716627128228,36.0589712755107],[-86.7716141440216,36.0589841351518],[-86.7715953694592,36.0589373854203],[-86.7716236750463,36.0589298911224],[-86.7716070014619,36.0588883725638],[-86.7716169714084,36.0588857328426],[-86.7715915709082,36.0588224850045],[-86.7716706970928,36.0588015335091],[-86.7716930639034,36.0588572262908],[-86.771698550968,36.0588557734259],[-86.7717050472865,36.0588719496932],[-86.7717006142349,36.0588731236196],[-86.7717047900129,36.0588835194323],[-86.7717575603814,36.0588695458918],[-86.7717550840462,36.0588633824852],[-86.7718013664712,36.0588511277737],[-86.7718408916686,36.0589495454906],[-86.7717954650278,36.05896157392],[-86.7717928350905,36.0589550248433],[-86.7717371893817,36.0589697594744],[-86.7717308966458,36.0589540884321],[-86.7717115977935,36.0589591988514],[-86.7717166324179,36.0589717351425],[-86.7716680625153,36.0589845948125]]]},"properties":{"id":"178814","parcel":"160030A00200CO","address":"5181 B REGENT DR","owner":"GUITEAU, JACFRANZ J & BOWERS, EVE N","point":[-86.77172007986293,36.058909331342264]}},{"type":"Feature","id":"178815","geometry":{"type":"Polygon","coordinates":[[[-86.7709423914927,36.0589350511214],[-86.7717656278895,36.0585949054864],[-86.7719939525044,36.0588338189418],[-86.7719560676858,36.0589043885613],[-86.771938684498,36.0589335855124],[-86.7719186706793,36.0589616492589],[-86.7718961357246,36.0589884249774],[-86.7718712069229,36.0590137613352],[-86.7718440205573,36.0590375186593],[-86.7718403016109,36.059037817369],[-86.7710215147495,36.0591394827148],[-86.7710126135871,36.0590970373997],[-86.7710001861074,36.0590551806527],[-86.7709842885739,36.0590141049893],[-86.7709649938721,36.0589740001147],[-86.7709423914927,36.0589350511214]],[[-86.771336884288,36.0590563467482],[-86.7714516268147,36.0590283491848],[-86.7714356726872,36.0589852406251],[-86.7714723115116,36.0589763014306],[-86.7714634042966,36.0589522353447],[-86.7715388257817,36.0589338330722],[-86.7715161176218,36.0588724697122],[-86.7714387970359,36.0588913356739],[-86.7714449912771,36.0589080726897],[-86.7713668954699,36.0589271274303],[-86.7713329013103,36.058835269825],[-86.7712560568951,36.0588540199607],[-86.7712903096822,36.0589465717297],[-86.7712790199267,36.0589493262219],[-86.7712992235354,36.0590039198195],[-86.7713159693635,36.0589998334496],[-86.771336884288,36.0590563467482]],[[-86.7716680625153,36.0589845948125],[-86.7717166324179,36.0589717351425],[-86.7717115977935,36.0589591988514],[-86.7717308966458,36.0589540884321],[-86.7717371893817,36.0589697594744],[-86.7717928350905,36.0589550248433],[-86.7717954650278,36.05896157392],[-86.7718408916686,36.0589495454906],[-86.7718013664712,36.0588511277737],[-86.7717550840462,36.0588633824852],[-86.7717575603814,36.0588695458918],[-86.7717047900129,36.0588835194323],[-86.7717006142349,36.0588731236196],[-86.7717050472865,36.0588719496932],[-86.771698550968,36.0588557734259],[-86.7716930639034,36.0588572262908],[-86.7716706970928,36.0588015335091],[-86.7715915709082,36.0588224850045],[-86.7716169714084,36.0588857328426],[-86.7716070014619,36.0588883725638],[-86.7716236750463,36.0589298911224],[-86.7715953694592,36.0589373854203],[-86.7716141440216,36.0589841351518],[-86.7716627128228,36.0589712755107],[-86.7716680625153,36.0589845948125]]]},"properties":{"id":"178815","parcel":"160030A90000CO","address":"5181 C REGENT DR","owner":"O.I.C. 5181 REGENTS DRIVE COMMONS","point":[-86.77147663766733,36.05886593136075]}},{"type":"Feature","id":"202861","geometry":{"type":"Polygon","coordinates":[[[-86.7697637554405,36.0599238646717],[-86.7700011233674,36.0595600001051],[-86.7705281035557,36.0597895903093],[-86.770446738231,36.0599120841414],[-86.7703356560315,36.0600754242412],[-86.7703271656387,36.0600865463749],[-86.7703164420702,36.0600963137173],[-86.7703038066272,36.0601044348995],[-86.770289634352,36.0601106659777],[-86.7702743530143,36.0601148203541],[-86.7702584187445,36.06011677434],[-86.7702423071715,36.0601164690157],[-86.770226501239,36.0601139130117],[-86.7702114756838,36.0601091844109],[-86.7700868685364,36.0600628349086],[-86.7699637770563,36.0600138861828],[-86.7698422837297,36.0599623728616],[-86.7697637554405,36.0599238646717]]]},"properties":{"id":"202861","parcel":"14615006800","address":"5420 ANCHORAGE DR","owner":"WEBB, YVONNE S.","point":[-86.77014983034859,36.059850190426026]}},{"type":"Feature","id":"206064","geometry":{"type":"Polygon","coordinates":[[[-86.7707405825227,36.0598250432653],[-86.7708971053526,36.0596028975373],[-86.7715489614841,36.0599050335208],[-86.7716553233688,36.0599527015534],[-86.7715223656367,36.0601974992144],[-86.7707405825227,36.0598250432653]]]},"properties":{"id":"206064","parcel":"14615002100","address":"5175 REGENT DR","owner":"DRISKELL, DANNY A & SHARON W TN COMM PROPERTY TRUST","point":[-86.77114361512862,36.05986503686569]}},{"type":"Feature","id":"246215","geometry":{"type":"Polygon","coordinates":[[[-86.7700011233674,36.0595600001051],[-86.7700354094377,36.0592575948228],[-86.7701062448112,36.05927032906],[-86.7701143773307,36.0592716506678],[-86.7707024569777,36.0595220021425],[-86.7706988019437,36.0595288933627],[-86.7705281035557,36.0597895903093],[-86.7700011233674,36.0595600001051]]]},"properties":{"id":"246215","parcel":"16003000100","address":"5176 REGENT DR","owner":"WERTZ, RICHARD S & LIZBETH L TRUST AGREEMENT","point":[-86.77035291067389,36.05952478214697]}},{"type":"Feature","id":"246980","geometry":{"type":"Polygon","coordinates":[[[-86.7707820401207,36.0587624570701],[-86.7714015995497,36.0582129102205],[-86.7717656278895,36.0585949054864],[-86.7709423914927,36.0589350511214],[-86.770916369886,36.058897086574],[-86.7708871765645,36.058860676307],[-86.7708549530436,36.0588259906584],[-86.7708198508184,36.0587931990015],[-86.7707820401207,36.0587624570701]]]},"properties":{"id":"246980","parcel":"16003005400","address":"5183 REGENT DR","owner":"ANDERSON, KEITH & JENNIFER","point":[-86.77138536783487,36.05840353009886]}},{"type":"Feature","id":"247935","geometry":{"type":"Polygon","coordinates":[[[-86.7701062448112,36.05927032906],[-86.7705727927126,36.0588506030324],[-86.7706351246374,36.0588936116648],[-86.7706784780496,36.058933442887],[-86.7707202722848,36.0589864699746],[-86.7707515561481,36.0590379166963],[-86.7707747588264,36.0590929860098],[-86.7707896305936,36.0591612945056],[-86.7707943222445,36.059226372075],[-86.7707911040786,36.0593132024506],[-86.7707751079728,36.0593731920297],[-86.7707489811885,36.059435169747],[-86.7707024569777,36.0595220021425],[-86.7701143773307,36.0592716506678],[-86.7701062448112,36.05927032906]]]},"properties":{"id":"247935","parcel":"16003002500","address":"5180 REGENT DR","owner":"GRAVES, MATTHEW & KATIE","point":[-86.77049226324863,36.05919325986795]}},{"type":"Feature","id":"247937","geometry":{"type":"Polygon","coordinates":[[[-86.7700354094377,36.0592575948228],[-86.7698957752825,36.0592326639044],[-86.7700120280408,36.0586951294418],[-86.770119602295,36.0587111313755],[-86.7702263077093,36.0587305943217],[-86.7703319763915,36.0587534878104],[-86.7704364392862,36.058779775972],[-86.7704727602833,36.0587944953404],[-86.770507708112,36.0588112640027],[-86.7705411076931,36.058829998358],[-86.7705727927126,36.0588506030324],[-86.7701062448112,36.05927032906],[-86.7700354094377,36.0592575948228]]]},"properties":{"id":"247937","parcel":"16003002600","address":"5188 REGENT DR","owner":"HIGH FAMILY TRUST, THE","point":[-86.77014869858033,36.05904146988412]}},{"type":"Feature","id":"248052","geometry":{"type":"Polygon","coordinates":[[[-86.7698533813491,36.0585236219465],[-86.7699152933956,36.0580345095215],[-86.7703288702761,36.0580840625925],[-86.7702009137325,36.0585656307716],[-86.7700856853567,36.0585483943748],[-86.7699697956711,36.0585343860165],[-86.7698533813491,36.0585236219465]]]},"properties":{"id":"248052","parcel":"16003005700","address":"5189 REGENT DR","owner":"KORNEGAY, GERALD L. ET UX","point":[-86.770075817029,36.05830381315001]}},{"type":"Feature","id":"248678","geometry":{"type":"Polygon","coordinates":[[[-86.7709790401242,36.0594694111848],[-86.7710150132863,36.059376050515],[-86.7718834618089,36.0595103239385],[-86.771743036936,36.0597873115915],[-86.7716809032685,36.0599041888497],[-86.7716553233688,36.0599527015534],[-86.7715489614841,36.0599050335208],[-86.7708971053526,36.0596028975373],[-86.7709491518514,36.0595272922962],[-86.7709790401242,36.0594694111848]]]},"properties":{"id":"248678","parcel":"16003005100","address":"5177 REGENT DR","owner":"WHITMAN, RANDALL D. ET UX","point":[-86.77144222248461,36.05969533826323]}},{"type":"Feature","id":"248784","geometry":{"type":"Polygon","coordinates":[[[-86.7710215147495,36.0591394827148],[-86.7718403016109,36.059037817369],[-86.771833948674,36.0590455496834],[-86.7717997875002,36.0590695859979],[-86.7717632450441,36.0590911914418],[-86.7717245862041,36.0591102110973],[-86.7716840838332,36.0591265089227],[-86.7716420298375,36.059139967682],[-86.7715987252226,36.0591504926135],[-86.7715544800493,36.0591580069238],[-86.7715096101556,36.0591624572166],[-86.7710251590385,36.0591663810123],[-86.7710215147495,36.0591394827148]]]},"properties":{"id":"248784","parcel":"16002003900","address":"0 REGENT DR","owner":"METRO GOV'T  P  PARKS","point":[-86.77154198521642,36.05910031661656]}},{"type":"Feature","id":"248808","geometry":{"type":"Polygon","coordinates":[[[-86.7698496348323,36.0516761055428],[-86.7700836436825,36.0503679744834],[-86.7708628009937,36.050469564967],[-86.7715006382071,36.0505527251282],[-86.7712553217629,36.0518561220864],[-86.7705040099122,36.051756810286],[-86.7698496348323,36.0516761055428]]]},"properties":{"id":"248808","parcel":"16007002200","address":"778 HILL RD","owner":"TURNER, GREGG & CELIA LIVING TRUST","point":[-86.77067251290613,36.051114413195464]}},{"type":"Feature","id":"249364","geometry":{"type":"Polygon","coordinates":[[[-86.7710150132863,36.059376050515],[-86.771022961952,36.0593584208579],[-86.7711917757293,36.0593570659471],[-86.7715169009103,36.0593558090153],[-86.77157544778,36.0593501463543],[-86.7716333063532,36.0593409315707],[-86.77169014968,36.0593282172311],[-86.7717456576636,36.0593120756873],[-86.7717995170336,36.0592925963724],[-86.7718514247202,36.0592698902858],[-86.7719010867007,36.0592440854939],[-86.7719482246588,36.0592153270874],[-86.7719925715543,36.059183778111],[-86.7720338771286,36.0591496150216],[-86.7720719090586,36.0591130321869],[-86.7721064528867,36.0590742346761],[-86.7721373131658,36.0590334418568],[-86.7721530325813,36.0590146582568],[-86.7718834618089,36.0595103239385],[-86.7710150132863,36.059376050515]]]},"properties":{"id":"249364","parcel":"16002003800","address":"5177 REGENT DR","owner":"WHITMAN, RANDALL D. ET UX","point":[-86.77194867324162,36.059257125677064]}},{"type":"Feature","id":"249367","geometry":{"type":"Polygon","coordinates":[[[-86.7717656278895,36.0585949054864],[-86.7714015995497,36.0582129102205],[-86.7722757704398,36.0583108797327],[-86.7719939525044,36.0588338189418],[-86.7717656278895,36.0585949054864]]]},"properties":{"id":"249367","parcel":"16002004000","address":"5180 FRANKLIN PIKE CIR","owner":"INGLE, JAMES BARRY & BONNIE RAY","point":[-86.77191432021193,36.058452690533]}},{"type":"Feature","id":"249942","geometry":{"type":"Polygon","coordinates":[[[-86.7705209313045,36.0586311669917],[-86.7707475291231,36.0581344055306],[-86.7714015995497,36.0582129102205],[-86.7707820401207,36.0587624570701],[-86.770743380255,36.058734800274],[-86.7707025225444,36.0587093107076],[-86.7706596523726,36.0586861043513],[-86.770614961651,36.0586652836247],[-86.7705686510995,36.0586469436808],[-86.7705209313045,36.0586311669917]]]},"properties":{"id":"249942","parcel":"16003005500","address":"5185 REGENT DR","owner":"JENKINS, FAYE P.","point":[-86.77089100748655,36.05842190516793]}},{"type":"Feature","id":"250074","geometry":{"type":"Polygon","coordinates":[[[-86.7691192575716,36.0565278849247],[-86.7692690249121,36.0554414837465],[-86.7691573755286,36.0554310338077],[-86.7632335200429,36.0548764284162],[-86.7634243836727,36.0535907615602],[-86.7641322142394,36.053683139588],[-86.7641328876998,36.05368322725],[-86.7648064822438,36.0537707963807],[-86.7653994083862,36.0538478747042],[-86.7660024865322,36.0539262699798],[-86.7666018684825,36.0540041819315],[-86.7671999602368,36.0540819224678],[-86.7677970758376,36.0541520178849],[-86.7683894525085,36.0542215943789],[-86.7689804734628,36.0542908963146],[-86.7695752221957,36.0543607240472],[-86.7695794058615,36.054361213774],[-86.7701300235923,36.0544256865748],[-86.770158114774,36.0544289761484],[-86.7707555752124,36.0544990547322],[-86.772273688248,36.0546846586467],[-86.7729599254829,36.0547687178314],[-86.7740031675824,36.0548960836906],[-86.773942056417,36.0550824580889],[-86.7738873443439,36.055235032503],[-86.7738295490657,36.0553868560755],[-86.7737686856836,36.0555378854429],[-86.7737047693431,36.0556880817476],[-86.773637819612,36.0558374043009],[-86.7735661087653,36.0559776948633],[-86.7732314551733,36.0559369867239],[-86.7725272236751,36.0572744180961],[-86.7697090838808,36.0569122875303],[-86.769087838275,36.0568324484551],[-86.7690774548717,36.0568311141033],[-86.7691192575716,36.0565278849247]]]},"properties":{"id":"250074","parcel":"16003010400","address":"5216 FRANKLIN PIKE CIR","owner":"TENNESSEE VALLEY AUTHORITY","point":[-86.77150965616488,36.05544065764843]}},{"type":"Feature","id":"250315","geometry":{"type":"Polygon","coordinates":[[[-86.7702009137325,36.0585656307716],[-86.7703288702761,36.0580840625925],[-86.7707475291231,36.0581344055306],[-86.7705209313045,36.0586311669917],[-86.7705124469798,36.0586284722879],[-86.7704558267736,36.058616197212],[-86.770371391898,36.0585975907583],[-86.7702864023522,36.0585807317918],[-86.7702009137325,36.0585656307716]]]},"properties":{"id":"250315","parcel":"16003005600","address":"5187 REGENT DR","owner":"HALL, DEREK C. & MARY ELIZABETH","point":[-86.7704536693824,36.05834997911669]}},{"type":"Feature","id":"252204","geometry":{"type":"Polygon","coordinates":[[[-86.772569562294,36.0520246203539],[-86.772758454753,36.0507167073438],[-86.7745417329636,36.050949170661],[-86.7745410156541,36.050966675708],[-86.7745281017638,36.0516444808014],[-86.7745162058784,36.0522739293096],[-86.7727426484108,36.0520465874131],[-86.772569562294,36.0520246203539]]]},"properties":{"id":"252204","parcel":"16006000600","address":"808 HILL RD","owner":"TURNER, GREGORY G.","point":[-86.77360423763132,36.051303825091274]}},{"type":"Feature","id":"254626","geometry":{"type":"Polygon","coordinates":[[[-86.770158114774,36.0544289761484],[-86.7703840797603,36.0532047756776],[-86.7709815978453,36.0532817232979],[-86.7707555752124,36.0544990547322],[-86.770158114774,36.0544289761484]]]},"properties":{"id":"254626","parcel":"16007000100","address":"726 BAXTER LN","owner":"PENDERGRASS, LARON & TAMBERLY","point":[-86.77056954462154,36.0538553498663]}},{"type":"Feature","id":"255844","geometry":{"type":"Polygon","coordinates":[[[-86.7696514146758,36.0539453495488],[-86.7698004817052,36.0531326833914],[-86.7703840797603,36.0532047756776],[-86.770158114774,36.0544289761484],[-86.7701300235923,36.0544256865748],[-86.7695794058615,36.054361213774],[-86.7695752221957,36.0543607240472],[-86.7695809753645,36.0543293556445],[-86.7696514146758,36.0539453495488]]]},"properties":{"id":"255844","parcel":"16007000200","address":"720 BAXTER LN","owner":"FISHER, CHARLES B. & LESLIE H.","point":[-86.77001753419945,36.05357506277865]}},{"type":"Feature","id":"256046","geometry":{"type":"Polygon","coordinates":[[[-86.7710140403793,36.0531386615796],[-86.7712553217629,36.0518561220864],[-86.772569562294,36.0520246203539],[-86.7727426484108,36.0520465874131],[-86.7725017037915,36.0533266528652],[-86.7713080499353,36.0531758153578],[-86.7710140403793,36.0531386615796]]]},"properties":{"id":"256046","parcel":"16006000400","address":"735 BAXTER LN","owner":"HARWOOD, JOHN EDWARD, JR.","point":[-86.77187831771089,36.05259262759617]}},{"type":"Feature","id":"256413","geometry":{"type":"Polygon","coordinates":[[[-86.7725017037915,36.0533266528652],[-86.7727426484108,36.0520465874131],[-86.7745162058784,36.0522739293096],[-86.7745076557408,36.0524379891737],[-86.774496569672,36.0525756538011],[-86.7744818075185,36.0527130905851],[-86.7744633763978,36.0528502345854],[-86.7744412856564,36.0529870217481],[-86.7742847419479,36.0535520150497],[-86.7725017037915,36.0533266528652]]]},"properties":{"id":"256413","parcel":"16006000500","address":"0 FRANKLIN PIKE CIR","owner":"HARWOOD, JOHN EDWARD, JR.","point":[-86.77353877166634,36.05277990229327]}},{"type":"Feature","id":"256751","geometry":{"type":"Polygon","coordinates":[[[-86.7728668663584,36.0493732877089],[-86.7729004471229,36.0491401876796],[-86.7736175984054,36.0494502642591],[-86.7736179316574,36.0494504081296],[-86.7737847327534,36.0495224115452],[-86.7737847266474,36.049522468366],[-86.7736660795526,36.0507175771677],[-86.7726910149839,36.0505873001684],[-86.7726950899924,36.0505591671713],[-86.7728668663584,36.0493732877089]]]},"properties":{"id":"256751","parcel":"16000001900","address":"801 HILL RD","owner":"JONES, PAUL DAVID","point":[-86.77325173853112,36.05004084140981]}},{"type":"Feature","id":"256810","geometry":{"type":"Polygon","coordinates":[[[-86.7712553217629,36.0518561220864],[-86.7715006382071,36.0505527251282],[-86.772758454753,36.0507167073438],[-86.772569562294,36.0520246203539],[-86.7712553217629,36.0518561220864]]]},"properties":{"id":"256810","parcel":"16006000700","address":"790 HILL RD","owner":"TURNER, GREGORY G.","point":[-86.77201938627736,36.05128644087381]}},{"type":"Feature","id":"256964","geometry":{"type":"Polygon","coordinates":[[[-86.7737847266474,36.049522468366],[-86.7737847327534,36.0495224115452],[-86.7741450414408,36.0496781315099],[-86.7746421061959,36.049892952609],[-86.7746421507815,36.0498929721509],[-86.7746421886731,36.0498929881307],[-86.7746264709851,36.0508458856566],[-86.7736660795526,36.0507175771677],[-86.7737847266474,36.049522468366]]]},"properties":{"id":"256964","parcel":"16000001800","address":"811 HILL RD","owner":"SULLIVAN, WILLIAM CHAD & JENA L.","point":[-86.77417123406362,36.05030531587197]}},{"type":"Feature","id":"257153","geometry":{"type":"Polygon","coordinates":[[[-86.7707555752124,36.0544990547322],[-86.7709815978453,36.0532817232979],[-86.7713094868365,36.053323863508],[-86.7724679403146,36.0534727454993],[-86.772273688248,36.0546846586467],[-86.7707555752124,36.0544990547322]]]},"properties":{"id":"257153","parcel":"16006000300","address":"734 BAXTER LN","owner":"HOBSON, DAVID S REVOCABLE LIVING TRUST","point":[-86.77161828808143,36.05398591564483]}},{"type":"Feature","id":"259135","geometry":{"type":"Polygon","coordinates":[[[-86.7702698767863,36.053045071725],[-86.7705040099122,36.051756810286],[-86.7712553217629,36.0518561220864],[-86.7710140403793,36.0531386615796],[-86.7702698767863,36.053045071725]]]},"properties":{"id":"259135","parcel":"16007001300","address":"727 BAXTER LN","owner":"STEVENS, C. ERIC ET UX","point":[-86.77076070084684,36.052450594324085]}},{"type":"Feature","id":"259138","geometry":{"type":"Polygon","coordinates":[[[-86.7696192115594,36.0529643419781],[-86.7698496348323,36.0516761055428],[-86.7705040099122,36.051756810286],[-86.7702698767863,36.053045071725],[-86.7696192115594,36.0529643419781]]]},"properties":{"id":"259138","parcel":"16007001400","address":"717 BAXTER LN","owner":"TROTTER, DONALD F. ETUX","point":[-86.77006074271954,36.05236057531973]}}]}