{"type":"FeatureCollection","features":[{"type":"Feature","id":"57167","geometry":{"type":"Polygon","coordinates":[[[-86.744251071161,36.3528600868986],[-86.7444036740979,36.3519201002135],[-86.7460107007945,36.3525517625791],[-86.7459437393781,36.3529671766729],[-86.7443447332222,36.3541126609052],[-86.7434719805542,36.3537055243025],[-86.744251071161,36.3528600868986]]]},"properties":{"id":"57167","parcel":"01200025400","address":"1882 BAKER RD","owner":"CUNNINGHAM, JACQUELYN","point":[-86.74462010219442,36.353336169378814]}},{"type":"Feature","id":"61120","geometry":{"type":"Polygon","coordinates":[[[-86.7399116667866,36.3586186286938],[-86.7406202478558,36.3575149540213],[-86.7419341476318,36.3582921120117],[-86.7414793154838,36.3593970800601],[-86.7399116667866,36.3586186286938]]]},"properties":{"id":"61120","parcel":"01200025500","address":"1903 BAKER RD","owner":"PILKINGTON, CARL EDWARD, III","point":[-86.74094192402316,36.3584554158697]}},{"type":"Feature","id":"64965","geometry":{"type":"Polygon","coordinates":[[[-86.7403342859729,36.3573019383019],[-86.7411258293115,36.3562513341699],[-86.7429100063299,36.3543153424061],[-86.7434719805542,36.3537055243025],[-86.7443447332222,36.3541126609052],[-86.7412705268648,36.3563147846005],[-86.7404939914068,36.3573420050171],[-86.7404419639716,36.3573256266131],[-86.7403886398598,36.3573122490559],[-86.7403342859729,36.3573019383019]]]},"properties":{"id":"64965","parcel":"01200025300","address":"0 BAKER RD","owner":"CUNNINGHAM, JACQUELYN","point":[-86.74236316337098,36.355284086605025]}},{"type":"Feature","id":"73745","geometry":{"type":"Polygon","coordinates":[[[-86.7404829428755,36.3560546436975],[-86.7410636065305,36.3533993831545],[-86.7416453831835,36.3534246328689],[-86.7415476569069,36.353844804717],[-86.7410203296615,36.3561119567433],[-86.7401530933703,36.3572865068536],[-86.740042957154,36.3572789767828],[-86.739831922993,36.3572626594339],[-86.7404829428755,36.3560546436975]]]},"properties":{"id":"73745","parcel":"01200014000","address":"1874 BAKER RD","owner":"BIGGS, LESLIE ET UX","point":[-86.74100761873551,36.35494970886095]}},{"type":"Feature","id":"73780","geometry":{"type":"Polygon","coordinates":[[[-86.7399460872225,36.3559973295263],[-86.7404561536472,36.3533187025877],[-86.7410636065305,36.3533993831545],[-86.7404829428755,36.3560546436975],[-86.739831922993,36.3572626594339],[-86.7395165967706,36.3572375065326],[-86.7399460872225,36.3559973295263]]]},"properties":{"id":"73780","parcel":"01200017700","address":"1870 BAKER RD","owner":"MILLER, LEONARD M.","point":[-86.74048649392525,36.35469831794761]}},{"type":"Feature","id":"75781","geometry":{"type":"Polygon","coordinates":[[[-86.7430192082204,36.3587220912142],[-86.7434597509857,36.3579700313241],[-86.74347599325,36.3579406807898],[-86.74349570623,36.3579127553757],[-86.743518696325,36.357886521227],[-86.7435447486482,36.3578622320027],[-86.7435736102051,36.3578401172628],[-86.7436050066729,36.3578203895758],[-86.7436386356649,36.3578032391521],[-86.7436741767156,36.3577888292771],[-86.7437112879549,36.3577772981339],[-86.7437438058465,36.3577683078017],[-86.7437809748727,36.3577629288762],[-86.7438186040559,36.3577603958509],[-86.7438563604456,36.3577607287966],[-86.743893912002,36.3577639261498],[-86.7439309264399,36.3577699602137],[-86.7439670779043,36.3577787762159],[-86.7440020481357,36.3577902977083],[-86.7440355264269,36.3578044220619],[-86.7443281316836,36.3579344737257],[-86.7447073915785,36.3572399194197],[-86.7476436147907,36.3574563969035],[-86.7456726967426,36.3587700455792],[-86.7455937765661,36.3587468741347],[-86.7455136034534,36.3587267132066],[-86.7454323516184,36.3587096058785],[-86.7453501997048,36.3586955925036],[-86.7452673262375,36.3586847008194],[-86.7451839152946,36.3586769567271],[-86.7451001475096,36.3586723753351],[-86.7450162068242,36.3586709681269],[-86.7449322759813,36.3586727375821],[-86.7448485398925,36.3586776798584],[-86.7447651811819,36.35868578482],[-86.744682381275,36.3586970333267],[-86.7437209240726,36.3588029321874],[-86.7436317837688,36.3588054906817],[-86.7435425969469,36.3588044021804],[-86.7434535920606,36.358799669786],[-86.7433649954111,36.3587913047257],[-86.7432770356298,36.3587793290273],[-86.7431899369752,36.3587637737587],[-86.7431039215534,36.3587446781122],[-86.7430192082204,36.3587220912142]]]},"properties":{"id":"75781","parcel":"01200008600","address":"0 BAKER RD","owner":"SANDERS, JOE K. & KAREN J.","point":[-86.74479806962938,36.3583216998227]}},{"type":"Feature","id":"75824","geometry":{"type":"Polygon","coordinates":[[[-86.7416453831835,36.3534246328689],[-86.7410636065305,36.3533993831545],[-86.7404561536472,36.3533187025877],[-86.7398486451909,36.3532381391781],[-86.7391610765905,36.3531605266985],[-86.7393337815145,36.3524042929011],[-86.7387915560182,36.3507674534872],[-86.7380906888023,36.3501890379861],[-86.7376949204526,36.3499162112332],[-86.7372494299885,36.3496272047364],[-86.736117876197,36.3474980933127],[-86.7364086720935,36.3474397370043],[-86.7362095180517,36.3470558318409],[-86.7362510200758,36.3470470411368],[-86.7362916296976,36.3470358495989],[-86.7363311358032,36.3470223170919],[-86.7363693307128,36.3470065133738],[-86.7365329397754,36.3469538370751],[-86.7366951878833,36.3468984732986],[-86.7368560061661,36.3468404449994],[-86.7370153291045,36.3467797760139],[-86.7371730878378,36.3467164901989],[-86.7377627575948,36.3480495427587],[-86.7371708219163,36.3482602688671],[-86.7375678810605,36.3490736828551],[-86.7393042020416,36.3498849613732],[-86.7407585755556,36.3502826086161],[-86.7408126123159,36.3498155771071],[-86.7436363183445,36.3497968801315],[-86.7447368004614,36.3497998529511],[-86.7445105682454,36.3512616524153],[-86.7444036740979,36.3519201002135],[-86.744251071161,36.3528600868986],[-86.7434059218099,36.3525173881436],[-86.7426125345464,36.3534693478539],[-86.7416453831835,36.3534246328689]]]},"properties":{"id":"75824","parcel":"01200007000","address":"0 LICKTON PIKE","owner":"RABBIT, JAMES TRUST","point":[-86.74273992868329,36.350063158171515]}},{"type":"Feature","id":"75843","geometry":{"type":"Polygon","coordinates":[[[-86.7406436571384,36.3574192323893],[-86.7438476860177,36.3553789565806],[-86.7440032106912,36.3558114633922],[-86.7436961503828,36.3561660544854],[-86.7431733442653,36.3567636976742],[-86.7422862886792,36.3577761597329],[-86.7415337342411,36.3579225145994],[-86.7406436571384,36.3574192323893]]]},"properties":{"id":"75843","parcel":"01200014600","address":"1904 BAKER RD","owner":"SANDERS, JOE K & KAREN J","point":[-86.74279075418397,36.356463491873654]}},{"type":"Feature","id":"75846","geometry":{"type":"Polygon","coordinates":[[[-86.7420767062853,36.3582422225001],[-86.7437035926462,36.3569582175445],[-86.7439584585733,36.3567588727038],[-86.7461474981017,36.3550258265484],[-86.7462432001396,36.3545868298776],[-86.7465636062804,36.3547128592571],[-86.748692018319,36.3530444167814],[-86.7486872884579,36.3529752235964],[-86.7476519284935,36.3529431694617],[-86.7476396843668,36.353013017317],[-86.7438476860177,36.3553789565806],[-86.7406436571384,36.3574192323893],[-86.7405811918619,36.3573839113174],[-86.7405535069973,36.3573681166493],[-86.7405243804925,36.3573541197097],[-86.7404939914068,36.3573420050171],[-86.7412705268648,36.3563147846005],[-86.7443447332222,36.3541126609052],[-86.7459437393781,36.3529671766729],[-86.7460107007945,36.3525517625791],[-86.7460186751989,36.352502296094],[-86.7476904815679,36.3527105425772],[-86.7478803487604,36.3512408684895],[-86.7480688866082,36.3498470165075],[-86.7492979563453,36.3499712622584],[-86.7506474743817,36.3501200202111],[-86.7515936761616,36.3502075406754],[-86.7518528283929,36.350249332174],[-86.7518530438291,36.3504184173007],[-86.751853464471,36.3507454215038],[-86.7518465827747,36.3509791076233],[-86.7518395998058,36.3512163289285],[-86.7517910106002,36.3524648293899],[-86.7517910058943,36.352464920442],[-86.7517580063367,36.3531374793175],[-86.7517264186872,36.354102392047],[-86.7517131650261,36.3548523811318],[-86.7516902552673,36.3550145919077],[-86.751680011229,36.3556524886309],[-86.7516391261589,36.3567114019343],[-86.7516044042615,36.3577757712765],[-86.7513739361075,36.3577530294045],[-86.7476436147907,36.3574563969035],[-86.7447073915785,36.3572399194197],[-86.7443281316836,36.3579344737257],[-86.7440355264269,36.3578044220619],[-86.7440020481357,36.3577902977083],[-86.7439670779043,36.3577787762159],[-86.7439309264399,36.3577699602137],[-86.743893912002,36.3577639261498],[-86.7438563604456,36.3577607287966],[-86.7438186040559,36.3577603958509],[-86.7437809748727,36.3577629288762],[-86.7437438058465,36.3577683078017],[-86.7437112879549,36.3577772981339],[-86.7436741767156,36.3577888292771],[-86.7436386356649,36.3578032391521],[-86.7436050066729,36.3578203895758],[-86.7435736102051,36.3578401172628],[-86.7435447486482,36.3578622320027],[-86.743518696325,36.357886521227],[-86.74349570623,36.3579127553757],[-86.74347599325,36.3579406807898],[-86.7434597509857,36.3579700313241],[-86.7430192082204,36.3587220912142],[-86.74294679765,36.3586997062893],[-86.7428756340506,36.3586748425346],[-86.7428058471077,36.3586475460192],[-86.7427375631807,36.3586178646356],[-86.7426709075902,36.3585858543934],[-86.7426060012165,36.3585515731325],[-86.7420767062853,36.3582422225001]]]},"properties":{"id":"75846","parcel":"01200014900","address":"1922 BAKER RD","owner":"SANDERS, JOSEPH & KAREN LIVING TRUST","point":[-86.74937197889795,36.354358372128715]}},{"type":"Feature","id":"76021","geometry":{"type":"Polygon","coordinates":[[[-86.7447368004614,36.3497998529511],[-86.7447966122884,36.349461672412],[-86.7460465646912,36.3495904854781],[-86.7464808069383,36.3496352325544],[-86.7460186751989,36.352502296094],[-86.7460107007945,36.3525517625791],[-86.7444036740979,36.3519201002135],[-86.7445105682454,36.3512616524153],[-86.7447368004614,36.3497998529511]]]},"properties":{"id":"76021","parcel":"01200014700","address":"0 BAKER RD","owner":"LESTER, LESLIE LANCE REVOCABLE LIVING TRUST","point":[-86.74547978126664,36.35053257927147]}},{"type":"Feature","id":"76022","geometry":{"type":"Polygon","coordinates":[[[-86.7415476569069,36.353844804717],[-86.7416453831835,36.3534246328689],[-86.7426125345464,36.3534693478539],[-86.7434059218099,36.3525173881436],[-86.744251071161,36.3528600868986],[-86.7434719805542,36.3537055243025],[-86.7429100063299,36.3543153424061],[-86.7415476569069,36.353844804717]]]},"properties":{"id":"76022","parcel":"01200015100","address":"1880 BAKER RD","owner":"RAINS, THOMAS D. ET UX","point":[-86.74343702569476,36.35314341749055]}},{"type":"Feature","id":"76032","geometry":{"type":"Polygon","coordinates":[[[-86.7402604295833,36.357292479533],[-86.7402420922699,36.357292591723],[-86.7401530933703,36.3572865068536],[-86.7410203296615,36.3561119567433],[-86.7415476569069,36.353844804717],[-86.7429100063299,36.3543153424061],[-86.7411258293115,36.3562513341699],[-86.7403342859729,36.3573019383019],[-86.7402974885805,36.3572965416744],[-86.7402604295833,36.357292479533]]]},"properties":{"id":"76032","parcel":"01200017800","address":"1878 BAKER RD","owner":"RAINS, THOMAS D. ET UX","point":[-86.74165578199171,36.355212984895275]}},{"type":"Feature","id":"84479","geometry":{"type":"Polygon","coordinates":[[[-86.7475932956499,36.3599673827015],[-86.7487319619924,36.3582012218462],[-86.7475627519341,36.3581716422119],[-86.7462630632164,36.3590713120143],[-86.7461872144116,36.3590234341362],[-86.7461113620292,36.3589744576517],[-86.7460433301702,36.358933735791],[-86.7459730673558,36.3588955744794],[-86.7459007180625,36.3588600530306],[-86.7458264356451,36.3588272470988],[-86.7457503756007,36.3587972233132],[-86.7456726967426,36.3587700455792],[-86.7476436147907,36.3574563969035],[-86.7513739361075,36.3577530294045],[-86.7489173407882,36.3608524884764],[-86.7486984127678,36.3607235250196],[-86.7484818333807,36.3605919934967],[-86.7482676485897,36.3604579224747],[-86.7480559021282,36.3603213405347],[-86.7478466410623,36.3601822753356],[-86.747786956672,36.360125803709],[-86.7477247811047,36.3600711165313],[-86.7476601997268,36.3600182862696],[-86.7475932956499,36.3599673827015]]]},"properties":{"id":"84479","parcel":"01200001200","address":"1986 BAKER RD","owner":"UNDERWOOD, DANIEL W. & BELINDA LEIGH","point":[-86.74892489111403,36.35952356158658]}},{"type":"Feature","id":"85971","geometry":{"type":"Polygon","coordinates":[[[-86.7438476860177,36.3553789565806],[-86.7476396843668,36.353013017317],[-86.7476519284935,36.3529431694617],[-86.7486872884579,36.3529752235964],[-86.748692018319,36.3530444167814],[-86.7465636062804,36.3547128592571],[-86.7462432001396,36.3545868298776],[-86.7461474981017,36.3550258265484],[-86.7439584585733,36.3567588727038],[-86.7437035926462,36.3569582175445],[-86.7420767062853,36.3582422225001],[-86.7415337342411,36.3579225145994],[-86.7422862886792,36.3577761597329],[-86.7431733442653,36.3567636976742],[-86.7436961503828,36.3561660544854],[-86.7440032106912,36.3558114633922],[-86.7438476860177,36.3553789565806]]]},"properties":{"id":"85971","parcel":"01200001300","address":"0 BAKER RD","owner":"SANDERS, JOSEPH & KAREN LIVING TRUST","point":[-86.74467485978138,36.35559681369]}}]}