{"type":"FeatureCollection","features":[{"type":"Feature","id":"38836","geometry":{"type":"Polygon","coordinates":[[[-86.7658683821689,36.3680064603728],[-86.7724214229636,36.3656211478473],[-86.7722732982307,36.3665219803229],[-86.7607767737857,36.3713405939303],[-86.7606743821184,36.3712514480181],[-86.7603291326723,36.3709535302616],[-86.7663795138028,36.3684581109434],[-86.7658683821689,36.3680064603728]]]},"properties":{"id":"38836","parcel":"00600009800","address":"205 BAKER RD","owner":"UPTON, ROY & RITA","point":[-86.76401281958013,36.36970716161713]}},{"type":"Feature","id":"39022","geometry":{"type":"Polygon","coordinates":[[[-86.7598206571416,36.370518334639],[-86.7658683821689,36.3680064603728],[-86.7663795138028,36.3684581109434],[-86.7603291326723,36.3709535302616],[-86.7601510376792,36.3707998496737],[-86.7598206571416,36.370518334639]]]},"properties":{"id":"39022","parcel":"00600009400","address":"2248 BAKER RD","owner":"HUFNAGEL, RICHARD E. & SANDRA R.","point":[-86.76309142265066,36.36948825078492]}},{"type":"Feature","id":"43636","geometry":{"type":"Polygon","coordinates":[[[-86.7607767737857,36.3713405939303],[-86.7722732982307,36.3665219803229],[-86.7720593498839,36.367569366881],[-86.7720193046472,36.3677816834388],[-86.7719900182246,36.3679591642997],[-86.7621299339804,36.3725204529036],[-86.7620006806391,36.3724061415237],[-86.7607767737857,36.3713405939303]]]},"properties":{"id":"43636","parcel":"00600007800","address":"2264 BAKER RD","owner":"UPTON, ROY H., JR. ET UX","point":[-86.7665725742451,36.369650380880564]}}]}