{"type":"FeatureCollection","features":[{"type":"Feature","id":"80317","geometry":{"type":"Polygon","coordinates":[[[-86.7072837640256,36.3336745662125],[-86.7072853535012,36.3336245626682],[-86.7072845733024,36.3335372156282],[-86.707289647043,36.3334970807894],[-86.7072947992936,36.3334657359863],[-86.7072945146866,36.333433873231],[-86.7072961788693,36.3333921099975],[-86.7073027035312,36.333362404597],[-86.7073125837589,36.3333282852269],[-86.7073160222874,36.3332765468306],[-86.7073218456714,36.3332249467935],[-86.7075761951233,36.3320543688842],[-86.7066145878073,36.3296778571472],[-86.7065187401492,36.3295130521018],[-86.7064742224142,36.3294699102561],[-86.706419955117,36.3293993570332],[-86.7063897727752,36.3293649219335],[-86.7063233679676,36.3293037789026],[-86.7062884824186,36.3292748650841],[-86.7062570552367,36.329253073235],[-86.7061818390194,36.3291936290087],[-86.7061476966303,36.3291718529842],[-86.7061129151895,36.3291544759342],[-86.7060828457374,36.329132676113],[-86.7060337867957,36.3291131843119],[-86.7059820115064,36.3290937092476],[-86.7059056828689,36.3290617405495],[-86.7057831233638,36.3290229003136],[-86.7057185028734,36.3290095427774],[-86.7056667766754,36.3289955602321],[-86.7056082857091,36.3289843649521],[-86.7055293143697,36.3289606521965],[-86.7054503637719,36.3289391373458],[-86.705391173927,36.32892574796],[-86.7053176588173,36.3289047510669],[-86.7052577527341,36.3288869705392],[-86.7052087957741,36.3288790152371],[-86.7051495924517,36.3288639774793],[-86.7050951365153,36.3288483622721],[-86.7050481970345,36.3288381979676],[-86.7050019075889,36.3288247331906],[-86.7049502023185,36.3288129482949],[-86.7048929909727,36.3287929547045],[-86.7048637333884,36.3287859830409],[-86.7048296942142,36.3287757425696],[-86.7048051997944,36.3287698426237],[-86.7047554943241,36.3287481019219],[-86.7047043470944,36.3287286767252],[-86.7046743515195,36.3287151168861],[-86.7046320628793,36.3286933878956],[-86.7045952449853,36.3286760222738],[-86.7045167228055,36.3286264853661],[-86.7044784593726,36.3285992390336],[-86.7044374747136,36.3285714587934],[-86.7043930270584,36.3285360076895],[-86.7043554359633,36.3285082076574],[-86.7043225505059,36.3284748872704],[-86.7042814926794,36.3284388666402],[-86.7042567334635,36.3284033008381],[-86.7042265622111,36.3283699637189],[-86.7042018188124,36.3283360461458],[-86.7041791161878,36.3283026655291],[-86.7041544059093,36.3282725932622],[-86.7040768321741,36.3281650506748],[-86.7039956700419,36.3280592574637],[-86.7039627604966,36.3280231892939],[-86.7039352667949,36.3279854421621],[-86.7039050811861,36.3279504567105],[-86.7038660461556,36.3279127767315],[-86.7037894254571,36.3278478453408],[-86.7037518311371,36.3278194962934],[-86.7037196439924,36.3277883688518],[-86.703677926957,36.3277545490247],[-86.7036430392936,36.3277250856073],[-86.7035986266344,36.327693479513],[-86.7035596493298,36.3276623915291],[-86.7035220942172,36.327638436535],[-86.7034958001852,36.327620350569],[-86.7036692816466,36.3275650031593],[-86.7039633049167,36.3276838818507],[-86.7055132337289,36.3269848225545],[-86.7051174622809,36.3263424265453],[-86.7055888460111,36.3261361302393],[-86.705594310824,36.3261402187424],[-86.7073665958612,36.3295127070932],[-86.709494771231,36.3336804509792],[-86.7094510703671,36.3336662688683],[-86.7093981704287,36.3336629246878],[-86.7093451117051,36.3336624950584],[-86.7092739628758,36.3336788440483],[-86.7092448408772,36.333687255565],[-86.709166341004,36.3337168333388],[-86.7091352715261,36.3337351453295],[-86.7091055930682,36.333757294661],[-86.7090326381805,36.3337994758387],[-86.7089760135561,36.333845406758],[-86.7089226252042,36.3338737376913],[-86.7088829255112,36.3339140755334],[-86.708817541629,36.3339677496187],[-86.7087581668983,36.3340098501431],[-86.7087021170185,36.334044241051],[-86.7086535498404,36.3340802355226],[-86.7086042846462,36.3341140359889],[-86.7085044406634,36.3341865904462],[-86.7084456210383,36.3342149538783],[-86.7083990329166,36.3342443442332],[-86.70835307883,36.3342687858659],[-86.7083043885043,36.3342910463309],[-86.7082529838203,36.3343133226697],[-86.7081960722893,36.3343273904789],[-86.7081527462243,36.3343419284686],[-86.7080930995535,36.334353814168],[-86.7080469488264,36.3343562824028],[-86.7079926113388,36.3343544023914],[-86.7079306868426,36.3343393828229],[-86.7078233696295,36.3343356156272],[-86.7077785040771,36.3343298345881],[-86.7076825868182,36.3343100688054],[-86.7076308273596,36.334292791537],[-86.7075817255661,36.3342689053789],[-86.7075401900089,36.3342559635098],[-86.7074924263562,36.3342298723153],[-86.707458266709,36.3342064484516],[-86.7074090423334,36.3341688292588],[-86.7073767960695,36.3341316595987],[-86.7073465831741,36.334093928295],[-86.7073265892206,36.3340599836303],[-86.7073044883332,36.334018359375],[-86.7072915239522,36.3339450101368],[-86.7072828041685,36.3338712512552],[-86.7072820730393,36.3337893977689],[-86.7072776269718,36.3337476702694],[-86.7072837640256,36.3336745662125]]]},"properties":{"id":"80317","parcel":"01913009400","address":"322 E CEDAR ST","owner":"METROPOLITAN BAPTIST CH.OF NSHV.,INC.","point":[-86.70757712353428,36.330867293659686]}}]}