{"type":"FeatureCollection","features":[{"type":"Feature","id":"152316","geometry":{"type":"Polygon","coordinates":[[[-86.6919651847008,36.096261137491],[-86.6903871668322,36.0948991024337],[-86.6900607916057,36.0946171946996],[-86.6899535817278,36.094538396454],[-86.6898436740697,36.0944620857558],[-86.6897311557831,36.0943883242874],[-86.6897640676206,36.0939686526531],[-86.6897902142151,36.0939783928252],[-86.6901273481676,36.0940965124185],[-86.6903733992673,36.0942107570398],[-86.6906589253505,36.0943492240755],[-86.6906935982055,36.0943663327462],[-86.6909400906318,36.0945311201385],[-86.6911745352489,36.0946338923536],[-86.6914663632957,36.0947572123099],[-86.6915715914516,36.0948305056534],[-86.6915981525192,36.0948487619499],[-86.6918227998639,36.0951480040046],[-86.692063468342,36.0953040323322],[-86.6922239725075,36.0954278291882],[-86.6924133282215,36.0955608010235],[-86.6926881415338,36.0957119616061],[-86.6928763535699,36.0957523616809],[-86.6931159330297,36.0957834002508],[-86.6932752505652,36.0957709471287],[-86.6934628724663,36.0957050365794],[-86.6936042373613,36.0955748349757],[-86.6937164675325,36.0954030445381],[-86.6938519163468,36.0952544707349],[-86.6940786262835,36.0950910871345],[-86.6943111580382,36.0949743720777],[-86.6944837480828,36.0949316201195],[-86.6946749161061,36.0948843671507],[-86.6951409832487,36.0947660281861],[-86.6952607999435,36.0947653374114],[-86.6954951281694,36.0948540915357],[-86.6958848843066,36.0951433104328],[-86.6964081555028,36.0956811951847],[-86.6967356652224,36.0960122521713],[-86.6971454407112,36.0963057468392],[-86.697441444568,36.0965559445936],[-86.6976437276766,36.096887724196],[-86.6977321914179,36.0972479070428],[-86.6978196733929,36.0974578288046],[-86.6979346609486,36.09760056227],[-86.6981070959995,36.0977707089437],[-86.6983651223385,36.0979354143978],[-86.6986621443709,36.0980309419172],[-86.6988565679498,36.098122392914],[-86.6990803340602,36.0982782294166],[-86.6994640742691,36.0985347821567],[-86.6995368337951,36.0985711710462],[-86.6999081088827,36.0987569189972],[-86.699905053099,36.0987558371725],[-86.6998949378218,36.0988372101775],[-86.6997779198863,36.0996750629457],[-86.6997293636608,36.1000227227848],[-86.6997089205442,36.1001612949417],[-86.6996584267914,36.1004582663209],[-86.6995671924299,36.1009948400647],[-86.6995251089072,36.1012423472368],[-86.6990730102377,36.1012015795047],[-86.6987575184164,36.1011725094367],[-86.6984211248219,36.1011419643359],[-86.6980847614498,36.1011111630614],[-86.697748427557,36.1010801470764],[-86.6964121148184,36.1009583577773],[-86.6957562402939,36.1008984114775],[-86.6952358776128,36.1008508652517],[-86.6936719898954,36.1006972426435],[-86.6937638890613,36.10005718945],[-86.6928255221158,36.0998977575014],[-86.6928840987169,36.0997831415628],[-86.6929268696875,36.0996774498418],[-86.6929654689505,36.0995707041456],[-86.6929998563919,36.0994630146645],[-86.6930299952219,36.0993544906682],[-86.6930558586616,36.0992452431713],[-86.6930774165776,36.0991353805031],[-86.6930946499972,36.0990250172373],[-86.6931075410187,36.0989142634347],[-86.6931160739941,36.098803232748],[-86.6931202421507,36.0986920378767],[-86.6931200431588,36.0985807914947],[-86.6931154724751,36.0984696071894],[-86.6931065399771,36.098358596662],[-86.6930932511239,36.0982478743427],[-86.6930756202344,36.0981375519066],[-86.693053667188,36.0980277418975],[-86.6930274118554,36.0979185559574],[-86.6929968818569,36.0978101029798],[-86.6929621092855,36.097702495437],[-86.6929231273128,36.0975958421895],[-86.6928799768828,36.0974902520531],[-86.6928327011364,36.0973858311264],[-86.6927813498841,36.0972826863707],[-86.6927259729121,36.0971809220435],[-86.6926666288816,36.0970806414494],[-86.6926033764447,36.0969819469917],[-86.6925362797891,36.0968849392391],[-86.69246540752,36.0967897160307],[-86.692390832675,36.0966963742788],[-86.6923126293855,36.0966050090868],[-86.6922308784287,36.096515713717],[-86.6921456627621,36.096428576913],[-86.6920570675863,36.0963436901089],[-86.6919651847008,36.096261137491]]]},"properties":{"id":"152316","parcel":"13400001300","address":"570 KNIGHT VALLEY DR","owner":"UNITED STATES POSTAL SERVICE","point":[-86.69546977820532,36.097655617991144]}},{"type":"Feature","id":"160104","geometry":{"type":"Polygon","coordinates":[[[-86.6977321914179,36.0972479070428],[-86.6976437276766,36.096887724196],[-86.697441444568,36.0965559445936],[-86.6971454407112,36.0963057468392],[-86.6974682228815,36.0960206514385],[-86.6975296061315,36.0960686455226],[-86.6975881940063,36.0961144584272],[-86.6983484102188,36.0966506907057],[-86.6984020286987,36.0966873308307],[-86.6984572720547,36.0967223437238],[-86.6985140676849,36.0967556820355],[-86.6985723374506,36.0967873002512],[-86.698734865727,36.0968704182299],[-86.6987598302169,36.0968847886774],[-86.6987824941602,36.0969014833314],[-86.6988025300481,36.0969202607455],[-86.6988196500945,36.0969408504025],[-86.6988336073855,36.0969629572135],[-86.698844201432,36.0969862614861],[-86.6988499845927,36.0970279842441],[-86.6988623970159,36.0970537348642],[-86.6988791946495,36.0970778125293],[-86.698900710037,36.0970993897386],[-86.698925921156,36.097117923534],[-86.6989544880106,36.097133141895],[-86.6989853932062,36.0971447758263],[-86.6990182931983,36.097152276636],[-86.6990521717152,36.097155377126],[-86.6990863481969,36.0971543525261],[-86.6991198132796,36.0971492158981],[-86.6991518859831,36.0971396899916],[-86.6991818937603,36.0971263293887],[-86.6992088264817,36.0971096906299],[-86.6992323430315,36.0970895008048],[-86.7001136797007,36.0978469830276],[-86.6998912945554,36.0981163918922],[-86.6998654204386,36.0981475758068],[-86.6998424209608,36.0981802103151],[-86.699822420061,36.0982141189499],[-86.699805522793,36.0982491244525],[-86.6997918218842,36.0982850370173],[-86.6997813889555,36.09832166606],[-86.6997742800338,36.0983588156787],[-86.6997583297607,36.0983871119636],[-86.6997395394601,36.0984142350373],[-86.6997180363037,36.0984399975959],[-86.6996939719817,36.0984642221072],[-86.6996675104721,36.0984867390789],[-86.6996388358936,36.0985073960263],[-86.6995368337951,36.0985711710462],[-86.6994640742691,36.0985347821567],[-86.6990803340602,36.0982782294166],[-86.6988565679498,36.098122392914],[-86.6986621443709,36.0980309419172],[-86.6983651223385,36.0979354143978],[-86.6981070959995,36.0977707089437],[-86.6979346609486,36.09760056227],[-86.6978196733929,36.0974578288046],[-86.6977321914179,36.0972479070428]]]},"properties":{"id":"160104","parcel":"13400020300","address":"520 HARDING INDUSTRIAL DR","owner":"NAS 521 555 HARDING LP C/O STOLTZ REAL ESTATE PARTNER","point":[-86.6986599376897,36.09735509426267]}},{"type":"Feature","id":"161029","geometry":{"type":"Polygon","coordinates":[[[-86.6998949378218,36.0988372101775],[-86.699905053099,36.0987558371725],[-86.6999081088827,36.0987569189972],[-86.7000055725496,36.0987926144387],[-86.7000272737723,36.0987968840032],[-86.7000571790961,36.098809896112],[-86.7003026798665,36.0999336849848],[-86.6997293636608,36.1000227227848],[-86.6997779198863,36.0996750629457],[-86.6998949378218,36.0988372101775]]]},"properties":{"id":"161029","parcel":"13402004200","address":"648 BEL AIR DR","owner":"KINDT, EDWARD M.","point":[-86.69999563320953,36.099256535292966]}}]}