{"type":"FeatureCollection","features":[{"type":"Feature","id":"71306","geometry":{"type":"Polygon","coordinates":[[[-86.7568941942942,36.3509290743926],[-86.7568846848461,36.3507868432936],[-86.7583663409559,36.3509240388456],[-86.7583883174465,36.3511754553519],[-86.7584136710181,36.3514115308622],[-86.7584143266685,36.3514632233115],[-86.756929939922,36.3513290761869],[-86.7569057387041,36.3510710169806],[-86.7568941942942,36.3509290743926]]]},"properties":{"id":"71306","parcel":"01100007100","address":"0 FREEMAN HOLLOW RD","owner":"REESE, BILLY W. & MELBA W.","point":[-86.75764718965235,36.351123238792624]}},{"type":"Feature","id":"74915","geometry":{"type":"Polygon","coordinates":[[[-86.7557181627934,36.3519871170662],[-86.7567926669463,36.3519598031914],[-86.7567970253319,36.3519891700408],[-86.7568034118972,36.3520332726282],[-86.7568097468784,36.3520769898162],[-86.7568149887653,36.3521146306227],[-86.7568255426158,36.3521900154355],[-86.7568261608077,36.3521945455936],[-86.7568324117287,36.3522377414992],[-86.7568362615025,36.3522680938535],[-86.7568398882125,36.3522960900178],[-86.7568484485558,36.3523552347392],[-86.7568502114876,36.3523668133675],[-86.7568501624867,36.3523668154764],[-86.7568501123717,36.3523668175924],[-86.7558297060505,36.3524068084672],[-86.7558009548499,36.3523371103881],[-86.7557181627934,36.3519871170662]]]},"properties":{"id":"74915","parcel":"01100008400","address":"3124 FREEMAN HOLLOW RD","owner":"SWACK, JAMES C.,III  ET UX","point":[-86.75628849763073,36.35215123966789]}},{"type":"Feature","id":"74918","geometry":{"type":"Polygon","coordinates":[[[-86.7556383841058,36.3516392344088],[-86.7567401418854,36.3515453174836],[-86.7567449399698,36.3516023886248],[-86.7567475683073,36.3516289788341],[-86.7567502829555,36.3516548078756],[-86.7567588834187,36.351730051716],[-86.7567588894283,36.3517300976405],[-86.7567681963441,36.3517975424284],[-86.7567752540415,36.3518434423558],[-86.756775260051,36.3518434882803],[-86.7567851172177,36.3519066055807],[-86.7567906917917,36.3519453690288],[-86.7567926669463,36.3519598031914],[-86.7557181627934,36.3519871170662],[-86.7556383841058,36.3516392344088]]]},"properties":{"id":"74918","parcel":"01100008500","address":"3120 FREEMAN HOLLOW RD","owner":"CRENSHAW, MORGAN A.","point":[-86.75621499218683,36.351762702187976]}},{"type":"Feature","id":"75072","geometry":{"type":"Polygon","coordinates":[[[-86.755544866817,36.3512468542232],[-86.7567115846609,36.3511328951828],[-86.7567163378215,36.3511859706137],[-86.7567297345854,36.3513089030474],[-86.7567305275022,36.3513918542807],[-86.7567322426205,36.3514209294541],[-86.7567361853141,36.3514881671779],[-86.7567401418854,36.3515453174836],[-86.7556383841058,36.3516392344088],[-86.7556182265304,36.3515509860074],[-86.755544866817,36.3512468542232]]]},"properties":{"id":"75072","parcel":"01100008600","address":"3116 FREEMAN HOLLOW RD","owner":"DOOLEY, ALEX R. & ELIZABETH L.","point":[-86.75614969875726,36.3513491956142]}},{"type":"Feature","id":"75075","geometry":{"type":"Polygon","coordinates":[[[-86.7568723908098,36.3503888918756],[-86.7568748562639,36.3502594245878],[-86.7568802266799,36.3501300148229],[-86.7568885024484,36.3500007049354],[-86.7568996783989,36.3498715382153],[-86.7569137515886,36.3497425579385],[-86.7569261692292,36.3496562264513],[-86.7599998570814,36.3498896745429],[-86.7600005956897,36.3501808427438],[-86.7599977704858,36.3505939969694],[-86.7599986409777,36.3506846729769],[-86.7568723908098,36.3503888918756]]]},"properties":{"id":"75075","parcel":"01100008900","address":"3097 FREEMAN HOLLOW RD","owner":"REESE, BILLY WAYNE ETUX","point":[-86.75843992097957,36.350155437976795]}},{"type":"Feature","id":"75328","geometry":{"type":"Polygon","coordinates":[[[-86.7592258556885,36.3509757798539],[-86.7583663409559,36.3509240388456],[-86.7568846848461,36.3507868432936],[-86.7568801328012,36.3507014426195],[-86.7568752679037,36.3505973012698],[-86.7568726875108,36.3504931068722],[-86.7568723908098,36.3503888918756],[-86.7599986409777,36.3506846729769],[-86.7600018840515,36.3510224904424],[-86.7592258556885,36.3509757798539]]]},"properties":{"id":"75328","parcel":"01100007500","address":"3105 FREEMAN HOLLOW RD","owner":"REESE, BILLY W. & MELBA W.","point":[-86.75844084047976,36.350747303432904]}},{"type":"Feature","id":"75334","geometry":{"type":"Polygon","coordinates":[[[-86.7554561975939,36.3508418347099],[-86.7554244604637,36.3506960193723],[-86.7554245050506,36.3506960217976],[-86.7554245552076,36.350696024188],[-86.7566817739202,36.3507672818101],[-86.7566834361041,36.3508029443227],[-86.7566857609891,36.3508459304928],[-86.756689573056,36.3508996255449],[-86.7566923473668,36.3509318177198],[-86.7566947818634,36.3509585299115],[-86.7566985995889,36.3510003441711],[-86.7567049290737,36.3510585367737],[-86.7567115846609,36.3511328951828],[-86.755544866817,36.3512468542232],[-86.7555319560273,36.3511933268167],[-86.7555248188526,36.351157111794],[-86.7554561975939,36.3508418347099]]]},"properties":{"id":"75334","parcel":"01100008700","address":"3114 FREEMAN HOLLOW RD","owner":"COLVERT, KEVIN NORRIS","point":[-86.75609114992531,36.350978202586475]}},{"type":"Feature","id":"77588","geometry":{"type":"Polygon","coordinates":[[[-86.7563930945371,36.3534645897974],[-86.7563897251102,36.3534673577722],[-86.7563896417738,36.3534672645667],[-86.7549221678617,36.3518443067084],[-86.7538392561968,36.3514533058144],[-86.7531506419847,36.3512089982025],[-86.751853464471,36.3507454215038],[-86.7518530438291,36.3504184173007],[-86.7518528283929,36.350249332174],[-86.7524647135074,36.3503093342335],[-86.7529907837761,36.3503609218556],[-86.7534401474753,36.3504065358082],[-86.7539772340355,36.3504610443864],[-86.7543959449172,36.3505035230326],[-86.7553790906227,36.3505874824017],[-86.7553791396828,36.3505874866015],[-86.7553791831985,36.3505874935395],[-86.7553792322586,36.3505874977393],[-86.7554012268694,36.3505892718926],[-86.7554244604637,36.3506960193723],[-86.7554561975939,36.3508418347099],[-86.7555248188526,36.351157111794],[-86.7555319560273,36.3511933268167],[-86.755544866817,36.3512468542232],[-86.7556182265304,36.3515509860074],[-86.7556383841058,36.3516392344088],[-86.7557181627934,36.3519871170662],[-86.7558009548499,36.3523371103881],[-86.7558297060505,36.3524068084672],[-86.7558402193288,36.3524322959048],[-86.7558468422756,36.3524483484684],[-86.7561288517701,36.3528201670279],[-86.7562130862081,36.3529387877881],[-86.7566038684383,36.3534890881521],[-86.7566030557469,36.3534895032882],[-86.7565940260862,36.3534936233435],[-86.7565851804019,36.353496709453],[-86.7565845918073,36.3534969077966],[-86.7565802454126,36.3534979398335],[-86.756570157327,36.3535000784208],[-86.756558201715,36.3535011427188],[-86.756546174885,36.3535010502982],[-86.7565371370007,36.3535002299285],[-86.7565347011936,36.3534999639799],[-86.7565230773804,36.3534917959341],[-86.7565173784045,36.3534883952284],[-86.7565107818608,36.3534844557996],[-86.7565032746312,36.3534809366246],[-86.7564936575015,36.3534767457168],[-86.7564835036194,36.3534728150111],[-86.7564726329616,36.3534695430699],[-86.7564649499089,36.353467677824],[-86.7564542297742,36.353465583732],[-86.7564422973258,36.3534639415188],[-86.7564316429378,36.353463131248],[-86.7564288865107,36.3534630078918],[-86.7564261270513,36.3534629169982],[-86.7564095630971,36.3534631341104],[-86.7563930945371,36.3534645897974]]]},"properties":{"id":"77588","parcel":"01100010200","address":"108 FREEMAN HOLLOW CT","owner":"CONNALLY, DORATHA E.","point":[-86.7553440396161,36.35191576143264]}},{"type":"Feature","id":"85902","geometry":{"type":"Polygon","coordinates":[[[-86.7574116056751,36.3532961502363],[-86.7573553569117,36.3531945161075],[-86.7573026794204,36.3530916375454],[-86.7572581875813,36.3529980803838],[-86.7572166142877,36.3529036487809],[-86.7571779857227,36.352808402056],[-86.757142325858,36.3527124013446],[-86.7571096564198,36.3526157059937],[-86.7570716138256,36.352402061723],[-86.7570368000311,36.3521880565631],[-86.7570052208993,36.351973723825],[-86.7569768822678,36.3517590941157],[-86.7569517877713,36.3515442007597],[-86.756929939922,36.3513290761869],[-86.7584143266685,36.3514632233115],[-86.7584136710181,36.3514115308622],[-86.7583883174465,36.3511754553519],[-86.7583663409559,36.3509240388456],[-86.7592258556885,36.3509757798539],[-86.7593648865704,36.3511693297573],[-86.7602894326985,36.3524458859533],[-86.7576286411067,36.3535770165177],[-86.7574261085796,36.3533213313766],[-86.7574116056751,36.3532961502363]]]},"properties":{"id":"85902","parcel":"01100017300","address":"0 FREEMAN HOLLOW RD","owner":"WILSON, JANET & BILLICA, LINDA","point":[-86.75861949060618,36.35229823127489]}}]}