{"type":"FeatureCollection","features":[{"type":"Feature","id":"72302","geometry":{"type":"Polygon","coordinates":[[[-86.7268918662899,36.3697482565385],[-86.7283649883054,36.3694208192418],[-86.7283727225217,36.3694493401591],[-86.7284349126748,36.3696374026065],[-86.728491491365,36.3697996944377],[-86.7270931951285,36.3701384723658],[-86.7270467296219,36.3700435017379],[-86.7269418343047,36.3698435171104],[-86.7268918662899,36.3697482565385]]]},"properties":{"id":"72302","parcel":"00715004500","address":"2046 GRACELAND DR","owner":"SMITH, ALBERT E. ET UX","point":[-86.72769378485569,36.36977398296505]}},{"type":"Feature","id":"73245","geometry":{"type":"Polygon","coordinates":[[[-86.7268234872674,36.3694665163432],[-86.7282163744816,36.3690316544325],[-86.7282521489576,36.3691078906372],[-86.7282849283873,36.3691850028073],[-86.7283146808498,36.3692629136331],[-86.7283413766441,36.3693415448902],[-86.7283649883054,36.3694208192418],[-86.7268918662899,36.3697482565385],[-86.7268683426155,36.3697034085205],[-86.7268474315595,36.369615056904],[-86.7268315777006,36.3695465069405],[-86.7268275406434,36.369476760388],[-86.7268233361456,36.3694665632125],[-86.7268234872674,36.3694665163432]]]},"properties":{"id":"73245","parcel":"00715004400","address":"2050 GRACELAND DR","owner":"ANGELL, MARGO G. & CHARLES D.","point":[-86.72772955502438,36.36937976249186]}},{"type":"Feature","id":"73712","geometry":{"type":"Polygon","coordinates":[[[-86.7289234127112,36.3623430950932],[-86.7291193808159,36.3620117371298],[-86.7295344716711,36.3623394124674],[-86.7298583780287,36.3625984151732],[-86.7301314272264,36.3628181678688],[-86.728672706618,36.3642548002207],[-86.728553614427,36.3637879946462],[-86.7287068116886,36.3627207253383],[-86.7289234127112,36.3623430950932]]]},"properties":{"id":"73712","parcel":"01200004100","address":"1229 SPRINGFIELD HWY","owner":"RODDY, FAIRRA A.","point":[-86.7291309186772,36.36330260436571]}},{"type":"Feature","id":"73722","geometry":{"type":"Polygon","coordinates":[[[-86.7269086072796,36.3598863000073],[-86.7280485179672,36.3599777859459],[-86.7281511170311,36.3593909788706],[-86.7289351715737,36.359489541493],[-86.7288268492101,36.3601181369316],[-86.7286788018025,36.3607848772932],[-86.7284572598219,36.3608467232076],[-86.7282262329395,36.3609112122789],[-86.7280690449119,36.3608068289421],[-86.7279144173538,36.3606999732899],[-86.7277624096933,36.360590685529],[-86.7276130824879,36.360479007662],[-86.7274664918372,36.3603649817183],[-86.727322694987,36.3602486533252],[-86.727181744709,36.3601300663349],[-86.7270436993607,36.3600092663681],[-86.7269086072796,36.3598863000073]]]},"properties":{"id":"73722","parcel":"01200004600","address":"1702 WILLIAMSON RD","owner":"FEATHERS, MARC & ROBIN","point":[-86.7280312334039,36.36019113556475]}},{"type":"Feature","id":"73762","geometry":{"type":"Polygon","coordinates":[[[-86.7289427690249,36.3665105745898],[-86.7293445031609,36.3664664007784],[-86.7295418735674,36.3671706143211],[-86.7295183654114,36.3671762525327],[-86.729496112255,36.3671845804989],[-86.7294755804915,36.3671954223766],[-86.7294572026051,36.3672085502564],[-86.7294413638418,36.3672236887503],[-86.7294283966881,36.367240520431],[-86.72862647056,36.3668965235061],[-86.728626428044,36.3668965048366],[-86.7286263811622,36.3668964961068],[-86.7287304764778,36.3667667653582],[-86.7287953521115,36.3666884775526],[-86.7289427690249,36.3665105745898]]]},"properties":{"id":"73762","parcel":"01203001400","address":"608 SUNNYSLOPE CT","owner":"GRAHAM, LEE A. & MICHELE L.","point":[-86.72906289175607,36.36683250321188]}},{"type":"Feature","id":"74123","geometry":{"type":"Polygon","coordinates":[[[-86.7263295779953,36.3661921072439],[-86.7272590989845,36.3660603250202],[-86.7273365229105,36.3664653020196],[-86.7261530974372,36.3666020639521],[-86.7261441566518,36.366567377718],[-86.7260573120363,36.3662307079612],[-86.7263295779953,36.3661921072439]]]},"properties":{"id":"74123","parcel":"01203003200","address":"2090 GRACELAND DR","owner":"MILLER, KENNETH L. & CONNIE L.","point":[-86.72670078854303,36.36634801555675]}},{"type":"Feature","id":"74842","geometry":{"type":"Polygon","coordinates":[[[-86.727511819451,36.3664697420271],[-86.7288517391867,36.3662883497735],[-86.7289077562144,36.3664114783178],[-86.728923646769,36.3664469813473],[-86.7289427690249,36.3665105745898],[-86.7287953521115,36.3666884775526],[-86.7287304764778,36.3667667653582],[-86.7275959805242,36.3669054429558],[-86.727511819451,36.3664697420271]]]},"properties":{"id":"74842","parcel":"01203003000","address":"2079 GRACELAND DR","owner":"FORST, WILLIAM FREDERICK & STACY ANN","point":[-86.72820268186088,36.366598012007856]}},{"type":"Feature","id":"74845","geometry":{"type":"Polygon","coordinates":[[[-86.7261530974372,36.3666020639521],[-86.7273365229105,36.3664653020196],[-86.7274065566734,36.3668423046902],[-86.7261567054634,36.3669948477578],[-86.7261530974372,36.3666020639521]]]},"properties":{"id":"74845","parcel":"01203003300","address":"2086 GRACELAND DR","owner":"OWENS, MICHELLE L & MOORE, MAHLON D","point":[-86.72676934351233,36.36672216198995]}},{"type":"Feature","id":"74847","geometry":{"type":"Polygon","coordinates":[[[-86.7261567054634,36.3669948477578],[-86.7274065566734,36.3668423046902],[-86.7274737999109,36.3672110833798],[-86.7262362313657,36.3673596952914],[-86.7262361823877,36.3673597009927],[-86.726236133418,36.367359707595],[-86.7262276926907,36.3673123743849],[-86.7262067725207,36.3671950703479],[-86.72615671366,36.3669948909668],[-86.7261567054634,36.3669948477578]]]},"properties":{"id":"74847","parcel":"01203003400","address":"2082 GRACELAND DR","owner":"KEEF, ROBBIN N.","point":[-86.72681745136384,36.367096435903484]}},{"type":"Feature","id":"74850","geometry":{"type":"Polygon","coordinates":[[[-86.7263483252521,36.367732053505],[-86.7275478828941,36.3675847640102],[-86.7275971437872,36.3678448745152],[-86.727601447041,36.3678695706568],[-86.7276068027242,36.3678952905539],[-86.7276092221353,36.367906221212],[-86.7276096115872,36.3679079780338],[-86.7276097563469,36.3679093001409],[-86.7276114600269,36.3679249223],[-86.7276184558471,36.3679463813229],[-86.7276388534178,36.3680223479015],[-86.7264103409528,36.3682013138726],[-86.7264102853135,36.3682013223175],[-86.7264079114235,36.3679426665672],[-86.7264064170152,36.3679322151849],[-86.7264050071708,36.3679223571928],[-86.7264047450008,36.3678937912872],[-86.726397229378,36.3678520833078],[-86.7263482384301,36.3677320639394],[-86.7263483252521,36.367732053505]]]},"properties":{"id":"74850","parcel":"01203003600","address":"2074 GRACELAND DR","owner":"CRICK, EARL G. & RAMONA","point":[-86.72700316390265,36.36788105893785]}},{"type":"Feature","id":"75812","geometry":{"type":"Polygon","coordinates":[[[-86.7292390997605,36.3608507239411],[-86.7286788018025,36.3607848772932],[-86.7288268492101,36.3601181369316],[-86.7306960071011,36.3601085110765],[-86.7307046473831,36.3601511836205],[-86.7307159146348,36.3601934527772],[-86.730729780041,36.360235214179],[-86.7307575797876,36.3603146126082],[-86.7307819055937,36.3603947529812],[-86.7308027242315,36.3604755372684],[-86.730820012484,36.3605568655771],[-86.7308337459863,36.3606386344165],[-86.7308439115565,36.3607207447336],[-86.7308504926367,36.360803093891],[-86.7308464609534,36.3608192229221],[-86.7308393932216,36.3608346538263],[-86.7308294609368,36.3608490142677],[-86.7308169004748,36.3608619594555],[-86.7308020164928,36.3608731784329],[-86.7307851663807,36.3608823995778],[-86.7307667559211,36.3608894032463],[-86.730747227,36.3608940182422],[-86.7307270510463,36.3608961353748],[-86.730515003718,36.3608814480752],[-86.7303026941793,36.360869489959],[-86.7300901770359,36.3608602643002],[-86.7298775057795,36.3608537743797],[-86.7296647327542,36.360850019881],[-86.729451912557,36.3608490031779],[-86.7292390997605,36.3608507239411]]]},"properties":{"id":"75812","parcel":"01200005400","address":"1734 WILLIAMSON RD","owner":"JOHNSON, RANDALL G.","point":[-86.72977543467681,36.360513863057996]}},{"type":"Feature","id":"75817","geometry":{"type":"Polygon","coordinates":[[[-86.7261178558134,36.3618715649649],[-86.7271945750549,36.3604790119185],[-86.7274702930793,36.360695184038],[-86.7277193525466,36.3608928364176],[-86.7278931569542,36.361031882731],[-86.7270475143223,36.3619203707346],[-86.7269917296766,36.3623547163324],[-86.726785959151,36.3639128956462],[-86.7263517527628,36.3639698909874],[-86.7261178558134,36.3618715649649]]]},"properties":{"id":"75817","parcel":"01200004200","address":"1151 SPRINGFIELD HWY","owner":"MARTIN, SHANNON","point":[-86.72658345143623,36.36213654622878]}},{"type":"Feature","id":"75818","geometry":{"type":"Polygon","coordinates":[[[-86.7278202923234,36.3638187780747],[-86.728553614427,36.3637879946462],[-86.728672706618,36.3642548002207],[-86.7287853334942,36.3646831871404],[-86.7258128352957,36.3650526565325],[-86.7257406035791,36.3648794857796],[-86.7256828771461,36.3647325983403],[-86.7255841438043,36.364410154695],[-86.725530508816,36.3641907248219],[-86.7254943622916,36.3641008428982],[-86.7263517527628,36.3639698909874],[-86.726785959151,36.3639128956462],[-86.7271630566405,36.3638507472583],[-86.7278202923234,36.3638187780747]]]},"properties":{"id":"75818","parcel":"01200005900","address":"2093 GRACELAND DR","owner":"PORTER, NELDA B REVOCABLE LIVING TRUST","point":[-86.72718761834108,36.36454668821054]}},{"type":"Feature","id":"75820","geometry":{"type":"Polygon","coordinates":[[[-86.7260146347359,36.3599488033814],[-86.7263448848603,36.3597424514428],[-86.7264192466449,36.3598043734832],[-86.7264907182808,36.3598684829515],[-86.7264481861582,36.3598967570312],[-86.7266324766001,36.3600687049876],[-86.7266052971316,36.3602155532496],[-86.7265550206742,36.3606581037918],[-86.726200656903,36.3607536283028],[-86.7262261674185,36.3606468950551],[-86.7262500676838,36.360512702493],[-86.7262460056152,36.3603660427506],[-86.7261832786107,36.3601180989989],[-86.7260146347359,36.3599488033814]]]},"properties":{"id":"75820","parcel":"01200004300","address":"0 SPRINGFIELD HWY","owner":"HAGER, JOSEPH T. III","point":[-86.72641177936929,36.360290766373545]}},{"type":"Feature","id":"75845","geometry":{"type":"Polygon","coordinates":[[[-86.7287154575997,36.3678245739108],[-86.7286829505128,36.3678020825788],[-86.7285996125702,36.3677520408713],[-86.7294330333283,36.3673750901668],[-86.7294490096369,36.3673921628346],[-86.729467545819,36.3674074500903],[-86.7294883387229,36.3674207041247],[-86.7295110475934,36.3674317079966],[-86.7295353063955,36.3674402827682],[-86.7295607171448,36.3674462893481],[-86.7294848190098,36.3678346083155],[-86.7294185356858,36.3682344074285],[-86.7293351532228,36.3682530387647],[-86.7287154575997,36.3678245739108]]]},"properties":{"id":"75845","parcel":"01203001600","address":"617 SUNNYSLOPE CT","owner":"COBB, HILDA D. IRREVOCBLE TRUST","point":[-86.72909391622979,36.36781422389614]}},{"type":"Feature","id":"75848","geometry":{"type":"Polygon","coordinates":[[[-86.7294848190098,36.3678346083155],[-86.7295607171448,36.3674462893481],[-86.7295859823374,36.3674470220116],[-86.7296111264929,36.3674448994616],[-86.7296356596811,36.3674399625032],[-86.7296591025156,36.3674323077531],[-86.7296809961406,36.367422083074],[-86.7297009134075,36.3674094911112],[-86.7297184654353,36.3673947757353],[-86.729733309436,36.3673782246985],[-86.7297587917281,36.3673524703225],[-86.729787392477,36.3673289555691],[-86.7298188141975,36.3673079264584],[-86.7298527279652,36.3672896030653],[-86.7301161843478,36.3678297020231],[-86.7302151243282,36.3680620419324],[-86.7294185356858,36.3682344074285],[-86.7294848190098,36.3678346083155]]]},"properties":{"id":"75848","parcel":"01203001700","address":"613 SUNNYSLOPE CT","owner":"SEALS, BILLY D. ET UX","point":[-86.7297731801464,36.36763818613873]}},{"type":"Feature","id":"75862","geometry":{"type":"Polygon","coordinates":[[[-86.7290185661661,36.3658157021075],[-86.7295416138461,36.3657422291745],[-86.7295417615987,36.3657423012818],[-86.7296332829793,36.365788638608],[-86.72972274211,36.3658375378288],[-86.72981003148,36.3658889401171],[-86.7298950412992,36.3659427812526],[-86.7299776695762,36.3659989969679],[-86.7300578153746,36.3660575166811],[-86.7301353777487,36.3661182689091],[-86.7297720501788,36.3664226196993],[-86.7293445031609,36.3664664007784],[-86.7289427690249,36.3665105745898],[-86.728923646769,36.3664469813473],[-86.7289077562144,36.3664114783178],[-86.7288517391867,36.3662883497735],[-86.7286596916727,36.3658662109517],[-86.7290185661661,36.3658157021075]]]},"properties":{"id":"75862","parcel":"01203001100","address":"2012 SUNNYSLOPE LN","owner":"WHEELER, DWIGHT & CORNELIA R.","point":[-86.72942237533296,36.366203149881215]}},{"type":"Feature","id":"75865","geometry":{"type":"Polygon","coordinates":[[[-86.7293445031609,36.3664664007784],[-86.7297720501788,36.3664226196993],[-86.7302079793655,36.3669929927151],[-86.7301459683367,36.3670237710605],[-86.7300820347395,36.3670518573392],[-86.7300163561699,36.3670771756764],[-86.7299491169436,36.3670996537618],[-86.7298805036972,36.3671192291848],[-86.729810707608,36.3671358485199],[-86.7297399243608,36.3671494637221],[-86.7296683519694,36.3671600375473],[-86.7295961885141,36.3671675399612],[-86.7295689138326,36.3671677251329],[-86.7295418735674,36.3671706143211],[-86.7293445031609,36.3664664007784]]]},"properties":{"id":"75865","parcel":"01203001300","address":"604 SUNNYSLOPE CT","owner":"SCHUTTE, RYAN M","point":[-86.72971260698286,36.36672955358912]}},{"type":"Feature","id":"75867","geometry":{"type":"Polygon","coordinates":[[[-86.7270475143223,36.3619203707346],[-86.7278931569542,36.361031882731],[-86.7280109760399,36.3611227191149],[-86.7281260806329,36.3612158049233],[-86.7282384022877,36.3613110883052],[-86.7282600101298,36.361334032008],[-86.7276682258676,36.3620550810888],[-86.7277096577536,36.3623504007912],[-86.727773063579,36.3628191906332],[-86.7278202923234,36.3638187780747],[-86.7271630566405,36.3638507472583],[-86.726785959151,36.3639128956462],[-86.7269917296766,36.3623547163324],[-86.7270475143223,36.3619203707346]]]},"properties":{"id":"75867","parcel":"01200017300","address":"0 SPRINGFIELD HWY","owner":"CARROLL, CHANNING J. ET AL","point":[-86.72735147580846,36.3625868835687]}},{"type":"Feature","id":"76011","geometry":{"type":"Polygon","coordinates":[[[-86.7276682258676,36.3620550810888],[-86.7282600101298,36.361334032008],[-86.7284632214379,36.3614945214956],[-86.7291193808159,36.3620117371298],[-86.7289234127112,36.3623430950932],[-86.7287068116886,36.3627207253383],[-86.728553614427,36.3637879946462],[-86.7278202923234,36.3638187780747],[-86.727773063579,36.3628191906332],[-86.7277096577536,36.3623504007912],[-86.7276682258676,36.3620550810888]]]},"properties":{"id":"76011","parcel":"01200005600","address":"1215 SPRINGFIELD HWY","owner":"CARROLL, CHANNING J. ET AL","point":[-86.7282733927016,36.36253571230626]}},{"type":"Feature","id":"76012","geometry":{"type":"Polygon","coordinates":[[[-86.7258128352957,36.3650526565325],[-86.7287853334942,36.3646831871404],[-86.7288191043939,36.364846698786],[-86.7290185661661,36.3658157021075],[-86.7286596916727,36.3658662109517],[-86.7274286953898,36.3660359570327],[-86.7272590989845,36.3660603250202],[-86.7263295779953,36.3661921072439],[-86.7260573120363,36.3662307079612],[-86.7261858640643,36.3656569337948],[-86.7260409548551,36.3654841993804],[-86.7258498507951,36.3652375748916],[-86.7258128352957,36.3650526565325]]]},"properties":{"id":"76012","parcel":"01200006000","address":"2089 GRACELAND DR","owner":"CAMPBELL, DAVIS & BONNIE LIVING TRUST","point":[-86.72743587383798,36.36536429666629]}},{"type":"Feature","id":"76025","geometry":{"type":"Polygon","coordinates":[[[-86.7286129392967,36.3669118868193],[-86.7286263811622,36.3668964961068],[-86.728626428044,36.3668965048366],[-86.72862647056,36.3668965235061],[-86.7294283966881,36.367240520431],[-86.7294187685534,36.3672589793972],[-86.7294124762465,36.3672783564158],[-86.7294096454198,36.3672982596043],[-86.7294103358767,36.367318285761],[-86.7294145316339,36.3673380303385],[-86.7294221487798,36.3673570937043],[-86.7294330333283,36.3673750901668],[-86.7285996125702,36.3677520408713],[-86.7285921302663,36.3673081872303],[-86.7285853762347,36.3669434401616],[-86.7286129392967,36.3669118868193]]]},"properties":{"id":"76025","parcel":"01203001500","address":"612 SUNNYSLOPE CT","owner":"CHOATIE, STEVEN R. ET UX","point":[-86.72900243465352,36.36732722878331]}},{"type":"Feature","id":"76030","geometry":{"type":"Polygon","coordinates":[[[-86.726200656903,36.3607536283028],[-86.7265550206742,36.3606581037918],[-86.7266052971316,36.3602155532496],[-86.7266324766001,36.3600687049876],[-86.7267811484582,36.3602079038403],[-86.72682165796,36.3601812901152],[-86.7269481990089,36.3602786873522],[-86.727072518922,36.3603779389806],[-86.7271945750549,36.3604790119185],[-86.7261178558134,36.3618715649649],[-86.7263517527628,36.3639698909874],[-86.7254943622916,36.3641008428982],[-86.725452944053,36.3640285734077],[-86.7254352987497,36.3638819925465],[-86.7254047123837,36.363657481254],[-86.7253666593304,36.3634335626353],[-86.7254766803423,36.363060970127],[-86.7254227825068,36.3625163113207],[-86.7253833515834,36.3623643690001],[-86.7253065241282,36.3620599232673],[-86.7252511847472,36.3618767627137],[-86.725389838462,36.3616638708649],[-86.7258457634014,36.3613100847043],[-86.7259489813891,36.3612330994223],[-86.7260549653391,36.361087426844],[-86.7261550161602,36.3608874015777],[-86.726200656903,36.3607536283028]]]},"properties":{"id":"76030","parcel":"01200017200","address":"0 SPRINGFIELD HWY","owner":"CARROLL, CHANNING J. ET AL","point":[-86.72575048213997,36.36221307768271]}},{"type":"Feature","id":"76037","geometry":{"type":"Polygon","coordinates":[[[-86.7305996958764,36.3609699720762],[-86.7312036614444,36.3613140820871],[-86.7299325310375,36.3622793270318],[-86.7296503043428,36.3620585297255],[-86.7292968954506,36.361778828564],[-86.7289708241893,36.3615170904626],[-86.7287213804616,36.3613150477679],[-86.7284979237242,36.3611320763752],[-86.7286908862295,36.3609908227073],[-86.7292487190987,36.3609363695225],[-86.7294740622042,36.3609347038781],[-86.7296994098246,36.3609359460012],[-86.7299247040395,36.3609400953402],[-86.7301498880343,36.3609471504358],[-86.7303749050026,36.3609571107306],[-86.7305996958764,36.3609699720762]]]},"properties":{"id":"76037","parcel":"01200019100","address":"1711 WILLIAMSON RD","owner":"KEITH, JOSEPH D., JR. & PAULA D.","point":[-86.72994650294586,36.36164979911254]}},{"type":"Feature","id":"76039","geometry":{"type":"Polygon","coordinates":[[[-86.7288191043939,36.364846698786],[-86.7295684739114,36.3645293110381],[-86.7299552950398,36.3646742118764],[-86.7301464564118,36.3646683893748],[-86.7316303907376,36.3654472368208],[-86.7316304205085,36.3654504575719],[-86.7316304212082,36.3654505332694],[-86.7315711111412,36.365458445815],[-86.7315096586889,36.3654666452509],[-86.7313753621149,36.3654883336022],[-86.7302905853807,36.3656388231917],[-86.7299274551741,36.3656908313683],[-86.7297940109877,36.3657099416595],[-86.7297168930566,36.3657198063732],[-86.7295416138461,36.3657422291745],[-86.7290185661661,36.3658157021075],[-86.7288191043939,36.364846698786]]]},"properties":{"id":"76039","parcel":"01200025000","address":"2041 SUNNYSLOPE LN","owner":"GENTRY, SUSAN LYNN","point":[-86.72997109029814,36.36514640305697]}},{"type":"Feature","id":"76937","geometry":{"type":"Polygon","coordinates":[[[-86.7285920167193,36.3673081996297],[-86.7285921302663,36.3673081872303],[-86.7285996125702,36.3677520408713],[-86.7286829505128,36.3678020825788],[-86.7286827724122,36.3678021034779],[-86.7283490857005,36.3678403509671],[-86.7277873773178,36.3679217447642],[-86.7277727327375,36.3678438186217],[-86.7276930601685,36.3674163316205],[-86.7285920167193,36.3673081996297]]]},"properties":{"id":"76937","parcel":"01203002800","address":"2067 GRACELAND DR","owner":"CARTER, STEFANIE & COREY","point":[-86.72816048251408,36.36758421929347]}},{"type":"Feature","id":"77689","geometry":{"type":"Polygon","coordinates":[[[-86.7275959805242,36.3669054429558],[-86.7287304764778,36.3667667653582],[-86.7286263811622,36.3668964961068],[-86.7286129392967,36.3669118868193],[-86.7285853762347,36.3669434401616],[-86.7285921302663,36.3673081872303],[-86.7285920167193,36.3673081996297],[-86.7276930601685,36.3674163316205],[-86.7275959805242,36.3669054429558]]]},"properties":{"id":"77689","parcel":"01203002900","address":"2073 GRACELAND DR","owner":"CAPPS, JOSEPH E. & LISA ANN","point":[-86.72811309865861,36.36712473221595]}},{"type":"Feature","id":"77692","geometry":{"type":"Polygon","coordinates":[[[-86.7274286953898,36.3660359570327],[-86.7286596916727,36.3658662109517],[-86.7288517391867,36.3662883497735],[-86.727511819451,36.3664697420271],[-86.7274286953898,36.3660359570327]]]},"properties":{"id":"77692","parcel":"01203003100","address":"2085 GRACELAND DR","owner":"RADER, ROBERT D. ET UX","point":[-86.72812379153417,36.366162118144416]}},{"type":"Feature","id":"77695","geometry":{"type":"Polygon","coordinates":[[[-86.7262362313657,36.3673596952914],[-86.7274737999109,36.3672110833798],[-86.7275478653848,36.3675846775992],[-86.7275478828941,36.3675847640102],[-86.7263483252521,36.367732053505],[-86.7263482384301,36.3677320639394],[-86.7262739891935,36.3675616526369],[-86.726236133418,36.367359707595],[-86.7262361823877,36.3673597009927],[-86.7262362313657,36.3673596952914]]]},"properties":{"id":"77695","parcel":"01203003500","address":"2078 GRACELAND DR","owner":"MURRAY, ANGELA","point":[-86.72688945945139,36.367462131981746]}},{"type":"Feature","id":"77708","geometry":{"type":"Polygon","coordinates":[[[-86.7280121551565,36.3684313134003],[-86.7293351532228,36.3682530387647],[-86.7293777994179,36.368679100389],[-86.7283814506339,36.3689949513678],[-86.7283397592334,36.3689100324997],[-86.7282942709084,36.3688263981617],[-86.7282450446396,36.3687441597448],[-86.7281921482962,36.3686634258828],[-86.728135649738,36.3685843043079],[-86.728075625705,36.3685068990941],[-86.7280121551565,36.3684313134003]]]},"properties":{"id":"77708","parcel":"00715003900","address":"2055 GRACELAND DR","owner":"JORDAN, JAMES DARRELL & DOROTHY SHACKLETT","point":[-86.72876822214154,36.36862523857146]}},{"type":"Feature","id":"77711","geometry":{"type":"Polygon","coordinates":[[[-86.7286827724122,36.3678021034779],[-86.7286829505128,36.3678020825788],[-86.7287154575997,36.3678245739108],[-86.7293351532228,36.3682530387647],[-86.7280121551565,36.3684313134003],[-86.7279834284224,36.3683957982759],[-86.7279574694125,36.3683589155799],[-86.7279343774819,36.3683208062064],[-86.7279015791695,36.3682601032824],[-86.727872221517,36.3681982594483],[-86.727846361408,36.3681354023362],[-86.7278240557339,36.3680716604792],[-86.7278053491698,36.3680071669897],[-86.7277902785659,36.3679420523232],[-86.7277873773178,36.3679217447642],[-86.7283490857005,36.3678403509671],[-86.7286827724122,36.3678021034779]]]},"properties":{"id":"77711","parcel":"00715004000","address":"2061 GRACELAND DR","owner":"LIQUORI, JENNIFER & THOMAS, RYAN","point":[-86.72847917946565,36.368104996646906]}},{"type":"Feature","id":"77714","geometry":{"type":"Polygon","coordinates":[[[-86.7267194860596,36.3692220108363],[-86.7279996677868,36.3686733653905],[-86.7280083738545,36.3686845997765],[-86.728055305591,36.3687518370246],[-86.7280996125958,36.3688202282749],[-86.7281412541361,36.3688897070858],[-86.7281801872422,36.3689602061277],[-86.7282163744816,36.3690316544325],[-86.7268234872674,36.3694665163432],[-86.7268233361456,36.3694665632125],[-86.7267862497355,36.3693765657897],[-86.7267850980491,36.369373592404],[-86.7267194860596,36.3692220108363]]]},"properties":{"id":"77714","parcel":"00715004300","address":"2058 GRACELAND DR","owner":"PARIJA, GOPAL C. ET UX","point":[-86.7274263271957,36.36912674007277]}},{"type":"Feature","id":"78803","geometry":{"type":"Polygon","coordinates":[[[-86.7294378010099,36.3692929444102],[-86.7294023771718,36.3689135373893],[-86.7294024340917,36.3689135469595],[-86.7304070064966,36.3691272289808],[-86.7303940557685,36.3691715728133],[-86.7303850969681,36.369216556742],[-86.7303801780829,36.3692619461636],[-86.7303793236839,36.3693075048131],[-86.7303825393745,36.3693529938358],[-86.7303898073828,36.3693981772218],[-86.7294624810176,36.3695279169568],[-86.7294624320468,36.3695279235604],[-86.7294623841903,36.3695279301574],[-86.7294378010099,36.3692929444102]]]},"properties":{"id":"78803","parcel":"00715002100","address":"1917 NORMERLE DR","owner":"WALDEN, DONALD L. & ANN","point":[-86.72990761242316,36.36923817851063]}},{"type":"Feature","id":"78808","geometry":{"type":"Polygon","coordinates":[[[-86.7283814506339,36.3689949513678],[-86.7293777994179,36.368679100389],[-86.7294023771718,36.3689135373893],[-86.7294378010099,36.3692929444102],[-86.7285645868519,36.369481697587],[-86.7285240972045,36.3693587449829],[-86.7284800613705,36.3692365914536],[-86.7284325045097,36.3691153053356],[-86.7283814506339,36.3689949513678]]]},"properties":{"id":"78808","parcel":"00715003800","address":"2049 GRACELAND DR","owner":"ACKEMA, DEBORAH JEAN","point":[-86.72891139410298,36.36905627395501]}},{"type":"Feature","id":"78878","geometry":{"type":"Polygon","coordinates":[[[-86.7293777994179,36.368679100389],[-86.7293351532228,36.3682530387647],[-86.7293352227148,36.3682530825052],[-86.7305797798763,36.3688575396194],[-86.7305462069828,36.3688918414147],[-86.7305154085179,36.368927804506],[-86.7304875101896,36.368965284844],[-86.7304626264641,36.3690041276327],[-86.7304408572975,36.3690441754599],[-86.7304222914455,36.3690852646725],[-86.7304070064966,36.3691272289808],[-86.7294024340917,36.3689135469595],[-86.7294023771718,36.3689135373893],[-86.7293777994179,36.368679100389]]]},"properties":{"id":"78878","parcel":"00715002200","address":"1913 NORMERLE DR","owner":"TRAYLOR, MARK ANTHONY & SARAH","point":[-86.72989252099694,36.36876812650933]}},{"type":"Feature","id":"78882","geometry":{"type":"Polygon","coordinates":[[[-86.7287671269121,36.370009529946],[-86.7295658196927,36.369694867763],[-86.729565880687,36.3696949566152],[-86.7296664022226,36.3698469885531],[-86.7296663401625,36.369847025877],[-86.7289740641641,36.37027692982],[-86.7289180082674,36.3702123244713],[-86.7288647909525,36.3701461681392],[-86.728814475363,36.3700785415559],[-86.7287671269121,36.370009529946]]]},"properties":{"id":"78882","parcel":"00715003600","address":"2033 GRACELAND DR","owner":"SMITH, JACOB & COURTNEY","point":[-86.72925454932799,36.36992836446226]}},{"type":"Feature","id":"78885","geometry":{"type":"Polygon","coordinates":[[[-86.7285645868519,36.369481697587],[-86.7294378010099,36.3692929444102],[-86.7294623841903,36.3695279301574],[-86.7294624385236,36.3695280217533],[-86.7295658196927,36.369694867763],[-86.7287671269121,36.370009529946],[-86.7287245469544,36.3699239433802],[-86.7286854439962,36.3698372787409],[-86.7286498612172,36.3697496276949],[-86.7286178351354,36.3696610846523],[-86.7285894000235,36.3695717422341],[-86.7285645868519,36.369481697587]]]},"properties":{"id":"78885","parcel":"00715003700","address":"2041 GRACELAND DR","owner":"NEU, ROBERT D. & PAMELA","point":[-86.72906105542373,36.36961745169266]}},{"type":"Feature","id":"79258","geometry":{"type":"Polygon","coordinates":[[[-86.7264103409528,36.3682013138726],[-86.7276388534178,36.3680223479015],[-86.727644461971,36.3680412684423],[-86.7276612645887,36.3681029156647],[-86.7276814286557,36.3681638992056],[-86.7277049163142,36.3682241003312],[-86.7277316796863,36.3682834012689],[-86.7277616664279,36.3683416833717],[-86.7277948186725,36.3683988334327],[-86.726447905495,36.3685849959781],[-86.7264226591544,36.3685133832354],[-86.7264149629289,36.368493043151],[-86.7264129129244,36.3684876211572],[-86.7264102853135,36.3682013223175],[-86.7264103409528,36.3682013138726]]]},"properties":{"id":"79258","parcel":"00715004100","address":"2068 GRACELAND DR","owner":"MITCHELL, RALPH O., JR. & FRY, DAVID E.","point":[-86.72707897553897,36.36831101893363]}},{"type":"Feature","id":"79261","geometry":{"type":"Polygon","coordinates":[[[-86.726447905495,36.3685849959781],[-86.7277948186725,36.3683988334327],[-86.7278110217535,36.3684248296358],[-86.7279004199139,36.3685432346096],[-86.7279996677868,36.3686733653905],[-86.7267194860596,36.3692220108363],[-86.7267004844713,36.3691781116334],[-86.7265670349995,36.3689229052062],[-86.726447905495,36.3685849959781]]]},"properties":{"id":"79261","parcel":"00715004200","address":"2064 GRACELAND DR","owner":"MEYERS, JEFFREY E. ET UX","point":[-86.72711435969441,36.368797751581006]}}]}