{"type":"FeatureCollection","features":[{"type":"Feature","id":"55100","geometry":{"type":"Polygon","coordinates":[[[-86.723433870598,36.3027556460874],[-86.7233425373355,36.3024986373984],[-86.723142759932,36.3019453879403],[-86.7231247434448,36.3019048403292],[-86.722826882635,36.3018417959838],[-86.7227941470638,36.3018373584646],[-86.7227725169598,36.3018344271947],[-86.7219930100168,36.3017989816246],[-86.7218859186374,36.3017606302803],[-86.7218043864942,36.3017314314514],[-86.7210789962735,36.3014522744717],[-86.7212492723975,36.3011446983699],[-86.7215895198208,36.3005054392563],[-86.7216346770932,36.3004216644817],[-86.7218403722827,36.3000400616725],[-86.7219700596101,36.2998020808709],[-86.7219557719228,36.2997983206398],[-86.7220901481652,36.2995739130532],[-86.7221033982914,36.2995565573344],[-86.7221147344322,36.2995383361488],[-86.7221710545612,36.2994490879895],[-86.7222256828143,36.2994722549423],[-86.7222421151074,36.2994792233269],[-86.7228047769029,36.2997165929202],[-86.7228660152841,36.29971178103],[-86.7228926093611,36.2997245970346],[-86.7229966036974,36.2997747027384],[-86.7229972613194,36.2997750268536],[-86.7230955754728,36.2998264876428],[-86.7231918029592,36.2998804734632],[-86.7231918477221,36.2998804984299],[-86.723264045269,36.2999235013398],[-86.7233349175909,36.2999679252638],[-86.7234044210314,36.3000137443298],[-86.7234088372118,36.3000167280149],[-86.7234088697037,36.3000167503512],[-86.7234092439463,36.3000170103699],[-86.7234093996766,36.3000171166845],[-86.7234214008583,36.3000252947369],[-86.7234333589524,36.3000335090952],[-86.723513501416,36.3000904847533],[-86.7235915534481,36.3001493303041],[-86.723667448911,36.3002099965798],[-86.7237235503508,36.3002572078689],[-86.7237239992026,36.3002575909085],[-86.7237859529732,36.3003122716792],[-86.7238461924293,36.3003681937614],[-86.7239046782824,36.300425322245],[-86.7239739441618,36.3004969653474],[-86.7240404532924,36.3005702994037],[-86.7241041426988,36.3006452563018],[-86.7241649527032,36.3007217634038],[-86.7242228258703,36.3007997498609],[-86.7242777069411,36.3008791394036],[-86.7243295429157,36.3009598593537],[-86.724329623058,36.3009599787371],[-86.7243610305558,36.3010120772293],[-86.7243620697506,36.3010138256979],[-86.724398317268,36.3010774976158],[-86.7244326894187,36.30114184857],[-86.7244651669179,36.3012068399246],[-86.7244847285173,36.3012482730107],[-86.7245433333722,36.301375261095],[-86.7238447152441,36.3015901270131],[-86.7241499968464,36.3022420734602],[-86.7241591347315,36.3022626722074],[-86.7242955263341,36.3025702820988],[-86.7234630180351,36.3028257937086],[-86.723433870598,36.3027556460874]],[[-86.724172903966,36.3025204774594],[-86.7240981680417,36.302363799311],[-86.7239932535481,36.3023954686324],[-86.7238785231578,36.3024299426768],[-86.7237871473051,36.3024576825107],[-86.7236842627637,36.3024887914622],[-86.723567500829,36.3025238298222],[-86.7234625858867,36.3025554959781],[-86.7235393971957,36.3027165564784],[-86.7236436281363,36.3026843428001],[-86.7237586968877,36.3026493172086],[-86.7238564930572,36.3026187902123],[-86.7239519266361,36.3025893758811],[-86.724065292512,36.3025540853165],[-86.724172903966,36.3025204774594]],[[-86.7234387436703,36.3023974142942],[-86.723560581509,36.3023604251602],[-86.7236563385717,36.3023296356491],[-86.7237365338061,36.3023038833589],[-86.7238143681634,36.3022797934972],[-86.7239074279767,36.3022506682814],[-86.724028912444,36.3022125848916],[-86.7239237626828,36.3019956531934],[-86.7238080342138,36.3020323312534],[-86.723712609062,36.3020628440282],[-86.7236313986677,36.302088599678],[-86.723552546869,36.3021126982165],[-86.7234567741454,36.3021421142686],[-86.7233349424356,36.3021793772394],[-86.7234387436703,36.3023974142942]],[[-86.7236849515677,36.3020069720216],[-86.7237830912724,36.3019767169915],[-86.7238974549788,36.3019392234017],[-86.7237887016895,36.3016992416678],[-86.723672976102,36.3017361944619],[-86.7235734911974,36.3017681049046],[-86.7234943123659,36.3017933012618],[-86.7234103630651,36.3018166028855],[-86.7233135479711,36.3018432781176],[-86.7231876214865,36.3018780942709],[-86.7233059257712,36.3021235132809],[-86.7234301173979,36.302084861843],[-86.7235262268466,36.3020548949473],[-86.7236047340288,36.3020302514413],[-86.7236849515677,36.3020069720216]],[[-86.7230886202249,36.3017396906567],[-86.7230408883111,36.3016410850868],[-86.7229911191156,36.3015424925795],[-86.7229434225432,36.3014477332035],[-86.7228202910391,36.3014913219618],[-86.72274109498,36.3015148695821],[-86.7227895156048,36.3016145697532],[-86.722839962619,36.3017131582876],[-86.7228917496548,36.301810090438],[-86.7230886202249,36.3017396906567]],[[-86.7224094126389,36.3017618799324],[-86.722416099962,36.3016019672563],[-86.7223183677212,36.3016025511689],[-86.7223181322904,36.3015767314463],[-86.7222631378206,36.3015748627846],[-86.722202055608,36.3015752276595],[-86.7221430096913,36.3015755803412],[-86.7221432350507,36.3016003015252],[-86.7220495754042,36.3016008608958],[-86.7220455877571,36.3017591090762],[-86.7221406047537,36.3017585416027],[-86.7222037234091,36.3017581645955],[-86.7222648057627,36.3017577997199],[-86.7223177891045,36.301762427344],[-86.7224094126389,36.3017618799324]],[[-86.7218526814608,36.301668513078],[-86.7219572961726,36.3015294415595],[-86.7218509193542,36.3014751377575],[-86.7218017835588,36.3014457635286],[-86.7217527217738,36.3014246305826],[-86.7217035610296,36.301392510416],[-86.7215992108446,36.301337094795],[-86.7214932686158,36.3014794697282],[-86.7215969497849,36.3015359880305],[-86.7216460266126,36.3015587692983],[-86.7216992249976,36.3015870198396],[-86.721750362105,36.3016125366158],[-86.7218526814608,36.301668513078]],[[-86.7224663516213,36.3015676050182],[-86.722502339273,36.3016805645814],[-86.7226953783951,36.3016371080617],[-86.7226617485264,36.3015219363613],[-86.7226387751949,36.3014588938691],[-86.7226157016748,36.301384864178],[-86.7225946923306,36.3013141188428],[-86.7225570007528,36.3011995211284],[-86.7223681248161,36.3012533915089],[-86.7224016990249,36.3013625190826],[-86.7224226881732,36.3014310673721],[-86.7224457392626,36.3015029000341],[-86.7224663516213,36.3015676050182]],[[-86.7226683840905,36.3013565300694],[-86.7227120739625,36.3014584557494],[-86.7229163814428,36.3013852648342],[-86.7228723955003,36.3012880102657],[-86.7228505725019,36.3012395202972],[-86.7228173135162,36.3011650017836],[-86.722804857424,36.3011387053664],[-86.7225997560938,36.3011992656056],[-86.7226455360879,36.301307221567],[-86.7226683840905,36.3013565300694]],[[-86.7221941276984,36.3011522441254],[-86.7223172708188,36.3010355869262],[-86.7221717788239,36.3009342692067],[-86.7220774339405,36.3008595664922],[-86.7220057502963,36.300813845312],[-86.7219463144317,36.3007713476543],[-86.721845897286,36.300700526564],[-86.7217024566838,36.3006008443784],[-86.7215794034079,36.3007273896241],[-86.7217208328322,36.300829830906],[-86.7218218941225,36.3008968027046],[-86.7218826871633,36.3009392923187],[-86.7219523646036,36.3009883213471],[-86.7220548034935,36.301057484626],[-86.7221941276984,36.3011522441254]],[[-86.7224394015582,36.3008079591072],[-86.7225055166231,36.3009130466743],[-86.7226805100196,36.3008257468173],[-86.7226178522411,36.3007277800241],[-86.7225724885262,36.3006654210755],[-86.7225372989909,36.3006024506561],[-86.7224960118429,36.3005406161641],[-86.7224319756762,36.300439911458],[-86.7222757975189,36.3005067713292],[-86.7222762082669,36.3005518213576],[-86.7223216328888,36.3006207707479],[-86.7223608686391,36.3006809692043],[-86.722400109462,36.3007417173672],[-86.7224042872198,36.3007532299496],[-86.7224394015582,36.3008079591072]],[[-86.7219232203968,36.3004715184091],[-86.7219613042387,36.3004053642342],[-86.7219932803362,36.3003392465189],[-86.7220320231479,36.3002708902834],[-86.7220813948714,36.3001771991647],[-86.7219016488157,36.3001156415629],[-86.7218523002865,36.3002115305702],[-86.721813503397,36.3002738434236],[-86.7217835673359,36.3003404986635],[-86.7217441512627,36.3004094076846],[-86.7216914784544,36.3005135573055],[-86.7218712441571,36.3005773122977],[-86.7219232203968,36.3004715184091]],[[-86.722421022861,36.300132317721],[-86.7225520932873,36.3001408739279],[-86.7225592121261,36.3001400076595],[-86.7225614590574,36.3001259846104],[-86.7226470507117,36.3001339887781],[-86.7227632004737,36.3001437325363],[-86.7228087093351,36.3001475808992],[-86.7228786636236,36.300152656564],[-86.7229014371565,36.2999706720005],[-86.7227856297004,36.2999612012048],[-86.7226698147498,36.2999509057176],[-86.7225842283052,36.299943451286],[-86.722580481506,36.299979184019],[-86.7224419164966,36.2999673759275],[-86.722421022861,36.300132317721]],[[-86.7222403734378,36.299971327001],[-86.7223251508978,36.2998900595087],[-86.7223012469401,36.2998737206227],[-86.7223793126244,36.2998007349356],[-86.7224479361592,36.2997343981152],[-86.7222532815198,36.2996004108309],[-86.7221846468101,36.2996656490105],[-86.7221079493349,36.2997397250024],[-86.72213253122,36.2997560598777],[-86.7220477548191,36.2998373272317],[-86.7219690146809,36.2999108664796],[-86.7219030698153,36.2999733414787],[-86.722054698514,36.3000779186879],[-86.7221074838792,36.3000982055522],[-86.7221636707157,36.300044854202],[-86.7222403734378,36.299971327001]],[[-86.7231002014189,36.3001084792079],[-86.722856630424,36.3001926190599],[-86.7228946721661,36.300270680561],[-86.7229247617006,36.3003325818778],[-86.7229579677938,36.3004013319228],[-86.7229904772661,36.3004681628986],[-86.7230022176964,36.3004903431582],[-86.7232276492884,36.3004123209348],[-86.7232461253924,36.3004059261359],[-86.7232452824711,36.3004042089277],[-86.723202556898,36.3003171857853],[-86.7231690135661,36.3002487117957],[-86.7231382408516,36.3001862657742],[-86.7231002014189,36.3001084792079]],[[-86.7232342099321,36.3004760446122],[-86.7230531263682,36.30052794625],[-86.7231207020102,36.3006813721383],[-86.7231712917669,36.3007956167749],[-86.7232295045427,36.3009271230059],[-86.7232800946214,36.3010413684894],[-86.7233369255162,36.3011701350779],[-86.7235183527143,36.3011187798257],[-86.7234608354539,36.3009886439515],[-86.7234105922188,36.3008752183868],[-86.7233534110064,36.3007456319959],[-86.7233028184847,36.3006311098702],[-86.7232342099321,36.3004760446122]],[[-86.7230992826923,36.3006771049454],[-86.7230347759866,36.3005253090418],[-86.7228520129963,36.3005791409405],[-86.7228438690267,36.3005791896306],[-86.7229041976052,36.300719475772],[-86.7229063792598,36.3007353946693],[-86.7229521103897,36.3008378578271],[-86.7229825536712,36.3009014044531],[-86.7230116749566,36.3009688054249],[-86.7230540079054,36.3010707391093],[-86.7231144074164,36.3012187139969],[-86.723303225357,36.3011587991465],[-86.7232411438796,36.3010124836605],[-86.7231981340996,36.3009108289622],[-86.7231686530466,36.3008412320856],[-86.7231419476356,36.300778211997],[-86.7230992826923,36.3006771049454]],[[-86.7235125072268,36.3011844675943],[-86.7233994424963,36.3012153605665],[-86.7234601497141,36.3013597618648],[-86.7234533853957,36.3013622744133],[-86.7234697102157,36.301403380954],[-86.7234775007621,36.3014016859879],[-86.7234903443494,36.3014331990378],[-86.723503674138,36.3014806420167],[-86.7235111301442,36.3014794988006],[-86.7235243208484,36.3015118334931],[-86.7236363683632,36.3014809464973],[-86.7236040971358,36.3014031264917],[-86.7235725215505,36.3013272246358],[-86.7235125072268,36.3011844675943]],[[-86.7234613980602,36.3015336358535],[-86.7234201281992,36.3014366410084],[-86.7233850941128,36.301353617553],[-86.7233531816999,36.3012779925305],[-86.7233233583306,36.3012081264757],[-86.7231311479335,36.3012680589425],[-86.7231562470498,36.301340977826],[-86.7231935539116,36.3014127223808],[-86.723222841093,36.3014982541409],[-86.7232644352722,36.3015935996624],[-86.7234613980602,36.3015336358535]],[[-86.7228119273886,36.3005002706313],[-86.7229338067058,36.3003940592713],[-86.7228428100298,36.3003143920718],[-86.7228106516224,36.300286016242],[-86.7227785272092,36.3002614857487],[-86.7227501243604,36.3002355595251],[-86.7227118221452,36.3002033739458],[-86.7226268108011,36.300132302785],[-86.7226264949393,36.3001323398209],[-86.7224933363112,36.3002472574733],[-86.7225754192911,36.3003170890109],[-86.7226184971043,36.3003519930385],[-86.7227128469087,36.3004272450628],[-86.722805185686,36.3005052559842],[-86.7228119273886,36.3005002706313]]]},"properties":{"id":"55100","parcel":"033040A90000CO","address":"0 DICKERSON PIKE","owner":"O.I.C. ROLLING MEADOWS","point":[-86.72395435914942,36.30113026621443]}},{"type":"Feature","id":"79342","geometry":{"type":"Polygon","coordinates":[[[-86.7254921425293,36.3094886645921],[-86.7225758732972,36.3092137431877],[-86.7214447188801,36.309499595793],[-86.7203921581085,36.3094062558324],[-86.7169390639176,36.3091095154724],[-86.7170018444406,36.3089920404699],[-86.7214325102241,36.3093658336706],[-86.7223708780757,36.3087124381354],[-86.7223766755908,36.3087059146616],[-86.722816659214,36.308754830148],[-86.7255626533251,36.3089330068594],[-86.7254921425293,36.3094886645921]]]},"properties":{"id":"79342","parcel":"02500021900","address":"0 DICKERSON PIKE","owner":"ALSL, GP","point":[-86.72370682003013,36.309066536163506]}},{"type":"Feature","id":"82475","geometry":{"type":"Polygon","coordinates":[[[-86.7203777720719,36.3095498052015],[-86.7186718067686,36.3094115613782],[-86.7186500417834,36.3094812348292],[-86.7182886249711,36.3094487760649],[-86.7181255755965,36.309433258366],[-86.7181370065254,36.3093463869849],[-86.7177634047173,36.309317289401],[-86.7168754159824,36.3092286114795],[-86.7169390639176,36.3091095154724],[-86.7203921581085,36.3094062558324],[-86.7214447188801,36.309499595793],[-86.7225758732972,36.3092137431877],[-86.7254921425293,36.3094886645921],[-86.7254277769999,36.3099958921043],[-86.7238675239352,36.3098537407036],[-86.7228820547196,36.3097610156815],[-86.7222464832563,36.3097012085934],[-86.721233395142,36.309619131712],[-86.7203777720719,36.3095498052015]]]},"properties":{"id":"82475","parcel":"02500006000","address":"0 DICKERSON PIKE","owner":"ALSL, GP","point":[-86.72314209741072,36.309589903033746]}},{"type":"Feature","id":"82476","geometry":{"type":"Polygon","coordinates":[[[-86.7192546147279,36.3068389234273],[-86.7183355882228,36.3065279908534],[-86.7183354485645,36.3065279385106],[-86.718389633556,36.3064296260752],[-86.7184062339045,36.3063995102453],[-86.7193008841149,36.3067018498962],[-86.7193626801357,36.3066311711616],[-86.7193921869757,36.3066516328303],[-86.7195102342181,36.3067335676345],[-86.7195905744007,36.3066701847245],[-86.7196638964334,36.3066123365152],[-86.7213919930908,36.3079851280355],[-86.7222914209228,36.308696436551],[-86.7222912370821,36.3086964241307],[-86.7191475743954,36.3085064077306],[-86.719360932037,36.3076332549978],[-86.7192552756708,36.3075844412786],[-86.7194352081887,36.307216928014],[-86.7192546147279,36.3068389234273]]]},"properties":{"id":"82476","parcel":"02500006400","address":"825 DICKERSON PIKE","owner":"AHJ COLONY MANOR, LLC","point":[-86.72000269595146,36.30740222627447]}},{"type":"Feature","id":"82477","geometry":{"type":"Polygon","coordinates":[[[-86.7208575282482,36.3047491131435],[-86.7216344308878,36.3027449726471],[-86.7227485517776,36.3025553710699],[-86.7228321159698,36.3026383785299],[-86.7230007591529,36.3028208649955],[-86.7224158719856,36.3029166631634],[-86.72223800606,36.3048482807423],[-86.7220520805078,36.3049001700153],[-86.721864827046,36.3049488342209],[-86.7216763334473,36.3049942502987],[-86.7214815400012,36.3050374938598],[-86.721285621362,36.3050772695813],[-86.7210886709061,36.3051135579755],[-86.7208907864723,36.3051463404297],[-86.7206920592525,36.3051756019763],[-86.7208575282482,36.3047491131435]]]},"properties":{"id":"82477","parcel":"02500006900","address":"740 OLD DICKERSON PIKE","owner":"HILL, KEITH B & LINDY B","point":[-86.72177222275332,36.30383320623902]}},{"type":"Feature","id":"82663","geometry":{"type":"Polygon","coordinates":[[[-86.7196638964334,36.3066123365152],[-86.7186468577802,36.3059506025846],[-86.7187984026993,36.3056711609911],[-86.7188490947317,36.3056848692199],[-86.7188853078989,36.3056363075318],[-86.7191548083558,36.305415498259],[-86.7192330154723,36.3054253530426],[-86.7193117420835,36.3054319638682],[-86.7193907831602,36.3054353148312],[-86.7194699314951,36.3054353954481],[-86.7195489833356,36.3054322078321],[-86.7196277305248,36.305425759531],[-86.7197059683115,36.3054160652825],[-86.7198423074625,36.305405913342],[-86.7199935583242,36.3053934761602],[-86.7214689060963,36.3074492884476],[-86.7216607331382,36.3077178938337],[-86.7213919930908,36.3079851280355],[-86.7196638964334,36.3066123365152]]]},"properties":{"id":"82663","parcel":"02500018600","address":"835 DICKERSON PIKE","owner":"LANIUS, NOEL E. & SHEILA","point":[-86.72067958048977,36.30703108037484]}},{"type":"Feature","id":"84316","geometry":{"type":"Polygon","coordinates":[[[-86.720222502892,36.3101865990394],[-86.7203777720719,36.3095498052015],[-86.721233395142,36.309619131712],[-86.7213442907265,36.3102832847772],[-86.7210081889268,36.3102543177508],[-86.7205771008332,36.3102171622474],[-86.7203388868273,36.3101966303775],[-86.720222502892,36.3101865990394]]]},"properties":{"id":"84316","parcel":"02500018000","address":"107 ROANOKE DR","owner":"GARRETT, GLEN G., III ET UX","point":[-86.72078646028477,36.309903003124745]}},{"type":"Feature","id":"84427","geometry":{"type":"Polygon","coordinates":[[[-86.7213442907265,36.3102832847772],[-86.721233395142,36.309619131712],[-86.7222464832563,36.3097012085934],[-86.7221542547287,36.3103530880651],[-86.7219224365476,36.310333110516],[-86.7213442907265,36.3102832847772]]]},"properties":{"id":"84427","parcel":"02500016200","address":"0 ROANOKE DR","owner":"GARRETT, GLEN G. III & CARI WILSON","point":[-86.72175033644311,36.309992142700764]}},{"type":"Feature","id":"84852","geometry":{"type":"Polygon","coordinates":[[[-86.7253266155648,36.3106567263984],[-86.7254312106139,36.3099962049593],[-86.7254277769999,36.3099958921043],[-86.7254921425293,36.3094886645921],[-86.7255626533251,36.3089330068594],[-86.722816659214,36.308754830148],[-86.7210718354628,36.3060342316406],[-86.7208919199834,36.3052837394724],[-86.7210928504441,36.3052507559047],[-86.7212928961595,36.3052144156972],[-86.7214919704168,36.3051747364949],[-86.7216899887144,36.3051317341277],[-86.7218868654542,36.3050854262348],[-86.7220825172902,36.3050358331462],[-86.7222768597803,36.3049829770017],[-86.7224698107015,36.3049268790267],[-86.7226612878728,36.3048675649532],[-86.722851207976,36.3048050578167],[-86.7229466195098,36.304772899306],[-86.7231042621911,36.3047172926011],[-86.7231733167429,36.3046921570947],[-86.7232612054194,36.3046594917753],[-86.7233545501256,36.3046240477063],[-86.7235764786934,36.3045524392753],[-86.7237996416682,36.3044833897435],[-86.7240239935516,36.3044169137963],[-86.7242494899427,36.3043530243105],[-86.7244760842062,36.3042917332755],[-86.7247037308371,36.3042330544765],[-86.7248669358821,36.304694421037],[-86.7250074012342,36.3050915002371],[-86.7251459956897,36.3054832849204],[-86.7252845915243,36.3058750702982],[-86.7254082044288,36.3062245002085],[-86.7255331614873,36.3065777223757],[-86.7256820920507,36.3069727968428],[-86.7258120330274,36.3073174910614],[-86.7259171614171,36.3075963641748],[-86.7260311191432,36.3078986557463],[-86.7261508193292,36.308216175899],[-86.7262003643361,36.3083476036361],[-86.7263174574118,36.3086776816337],[-86.7264362043052,36.3090124170129],[-86.7265504714228,36.3093345250255],[-86.7266652870002,36.309658176114],[-86.7267964141792,36.310027804283],[-86.7269294172166,36.3104027121038],[-86.7270511802503,36.3107459370852],[-86.7271611530871,36.3110559225538],[-86.7272692532095,36.3113606271547],[-86.7273918159411,36.3117060963612],[-86.7274124975127,36.3117643912945],[-86.7266804111573,36.3116483800378],[-86.7253266155648,36.3106567263984]]]},"properties":{"id":"84852","parcel":"02500006700","address":"733 OLD DICKERSON PIKE","owner":"GOODLETTSVILLE PENTECOSTAL CHURCH, INC., TRS","point":[-86.72422741121879,36.308053131662106]}},{"type":"Feature","id":"84867","geometry":{"type":"Polygon","coordinates":[[[-86.7199272120643,36.3052631164929],[-86.7201882813488,36.3045632872026],[-86.7207677052086,36.3047241042011],[-86.7208575282482,36.3047491131435],[-86.7206920592525,36.3051756019763],[-86.7206425539474,36.3051808411812],[-86.7205897066866,36.3051910453233],[-86.7202581254932,36.3052276326505],[-86.7199272120643,36.3052631164929]]]},"properties":{"id":"84867","parcel":"02500007001","address":"710 OLD DICKERSON PIKE","owner":"TRADY, LLC","point":[-86.72040742243082,36.30496149902547]}},{"type":"Feature","id":"84868","geometry":{"type":"Polygon","coordinates":[[[-86.7196664839216,36.3040584823514],[-86.7208043133653,36.3019593515827],[-86.7210789962735,36.3014522744717],[-86.7218043864942,36.3017314314514],[-86.7218859186374,36.3017606302803],[-86.7219930100168,36.3017989816246],[-86.7227725169598,36.3018344271947],[-86.7227941470638,36.3018373584646],[-86.722826882635,36.3018417959838],[-86.7231247434448,36.3019048403292],[-86.723142759932,36.3019453879403],[-86.7233425373355,36.3024986373984],[-86.723433870598,36.3027556460874],[-86.7230007591529,36.3028208649955],[-86.7228321159698,36.3026383785299],[-86.7227485517776,36.3025553710699],[-86.7216344308878,36.3027449726471],[-86.7208575282482,36.3047491131435],[-86.7207677052086,36.3047241042011],[-86.7208044994647,36.3046277390858],[-86.72035951236,36.3045089757149],[-86.7202386405075,36.3044283860332],[-86.7196664839216,36.3040584823514]]]},"properties":{"id":"84868","parcel":"02500007100","address":"919 DICKERSON PIKE","owner":"MEADOW CREEK, L.P.","point":[-86.72068434781147,36.30343817026095]}},{"type":"Feature","id":"84922","geometry":{"type":"Polygon","coordinates":[[[-86.7198269720831,36.3019256183534],[-86.7201605734919,36.301664868985],[-86.720592226975,36.3018122806352],[-86.7205087416304,36.3019611133199],[-86.7204490229157,36.3020740940112],[-86.7203893040307,36.302187074669],[-86.7203892527593,36.3021870686659],[-86.7197548325649,36.3019790635363],[-86.7198269720831,36.3019256183534]]]},"properties":{"id":"84922","parcel":"02516001400","address":"920 DICKERSON PIKE","owner":"SMITH, ANDREW CARY","point":[-86.72023018960395,36.30186899828987]}},{"type":"Feature","id":"86673","geometry":{"type":"Polygon","coordinates":[[[-86.7223766755908,36.3087059146616],[-86.7222914209228,36.308696436551],[-86.7213919930908,36.3079851280355],[-86.7216607331382,36.3077178938337],[-86.7214689060963,36.3074492884476],[-86.7199935583242,36.3053934761602],[-86.720219106998,36.305371419945],[-86.7204440750625,36.3053457717675],[-86.7206683746117,36.3053165411671],[-86.7208919199834,36.3052837394724],[-86.7210718354628,36.3060342316406],[-86.722816659214,36.308754830148],[-86.7223766755908,36.3087059146616]]]},"properties":{"id":"86673","parcel":"02500006600","address":"723 OLD DICKERSON PIKE","owner":"LANIUS, RICHARD W.","point":[-86.72124329554651,36.30674169712043]}},{"type":"Feature","id":"94945","geometry":{"type":"Polygon","coordinates":[[[-86.7199882971678,36.30108079338],[-86.719962909449,36.3010154810459],[-86.7199351648876,36.3009507991805],[-86.7199050873846,36.3008868044173],[-86.7206379661146,36.3006472994686],[-86.720633652478,36.3011380501452],[-86.7205597154003,36.3011269127141],[-86.7204850884528,36.3011193707487],[-86.7204100379908,36.3011154533026],[-86.7203348324482,36.3011151731953],[-86.7202597401441,36.3011185306305],[-86.7201850304128,36.3011255149917],[-86.7201109702309,36.3011361012574],[-86.7200994846345,36.3011404063452],[-86.7200873586576,36.3011433444757],[-86.720074840033,36.3011448546921],[-86.7200621823394,36.3011449066448],[-86.7200492894184,36.3011429655759],[-86.7200369395009,36.3011393954539],[-86.7200254429458,36.3011342881582],[-86.7200150926182,36.3011277708211],[-86.7200061460999,36.3011200086362],[-86.7199988334181,36.3011111976034],[-86.7199933358501,36.3011015601483],[-86.7199897947816,36.3010913396625],[-86.7199882971678,36.30108079338]]]},"properties":{"id":"94945","parcel":"03304002200","address":"101 DRAPER DR","owner":"LEONARD, SUSANNAH & TEMPLE, JEREMY L.","point":[-86.72027784552755,36.300919639246]}},{"type":"Feature","id":"94946","geometry":{"type":"Polygon","coordinates":[[[-86.7197730429488,36.3006964028199],[-86.7206218616208,36.3002199691978],[-86.7206379661146,36.3006472994686],[-86.7199050873846,36.3008868044173],[-86.7198776732153,36.3008367835756],[-86.7198464425565,36.3007882517507],[-86.7198115207043,36.3007413965505],[-86.7197730429488,36.3006964028199]]]},"properties":{"id":"94946","parcel":"03304002300","address":"103 DRAPER DR","owner":"SWAFFORD, SCOTT A. & ROWENA M.","point":[-86.72043636142416,36.30043318192268]}},{"type":"Feature","id":"95740","geometry":{"type":"Polygon","coordinates":[[[-86.7196004567544,36.300526020762],[-86.7205481393469,36.2997259568932],[-86.7206785287176,36.2999581215515],[-86.7206887417183,36.3001855085718],[-86.7206218616208,36.3002199691978],[-86.7197730429488,36.3006964028199],[-86.7197332524543,36.3006516431],[-86.7196911744011,36.300608275865],[-86.7196468829662,36.3005663772755],[-86.7196004567544,36.300526020762]]]},"properties":{"id":"95740","parcel":"03304002400","address":"105 DRAPER DR","owner":"STROUD, RACHEL & JAMES M","point":[-86.72032027431275,36.30020195566266]}},{"type":"Feature","id":"95918","geometry":{"type":"Polygon","coordinates":[[[-86.720633652478,36.3011380501452],[-86.7206379661146,36.3006472994686],[-86.7206218616208,36.3002199691978],[-86.7206887417183,36.3001855085718],[-86.7206785287176,36.2999581215515],[-86.7205481393469,36.2997259568932],[-86.7205026227033,36.2996422560452],[-86.7205025818536,36.299642171573],[-86.720538859603,36.2996424988177],[-86.7205391702742,36.2996425032748],[-86.7205392359596,36.2996425028833],[-86.7217045651458,36.2997146640953],[-86.7217047178831,36.2997146866156],[-86.7217331093292,36.2997188890028],[-86.7210964825524,36.3009126679928],[-86.7210719421916,36.3009012777114],[-86.7209597910413,36.3011068690269],[-86.7209397403964,36.3011410505614],[-86.7209365233785,36.3011506687407],[-86.7209314722247,36.3011597562174],[-86.7209247140226,36.3011680860249],[-86.7209164160877,36.3011754471787],[-86.7209060689109,36.30118213111],[-86.7208944686671,36.301187292224],[-86.7208819524651,36.3011907807086],[-86.7208688845688,36.3011924943551],[-86.7208556475309,36.3011923831175],[-86.7208426266233,36.3011904510074],[-86.7208302020264,36.301186754338],[-86.7207657858382,36.3011676997445],[-86.720700207212,36.301151450364],[-86.720633652478,36.3011380501452]]]},"properties":{"id":"95918","parcel":"03304001900","address":"1004 DICKERSON PIKE","owner":"FAIRFIELD MISSIONARY BAPTIST CHURCH","point":[-86.72099048196442,36.30043447630302]}},{"type":"Feature","id":"96103","geometry":{"type":"Polygon","coordinates":[[[-86.7201605734919,36.301664868985],[-86.7200499093795,36.3012880958899],[-86.7200986998509,36.3012795644669],[-86.7201529361256,36.3012726471336],[-86.7202122658706,36.3012623901203],[-86.7202722815549,36.301255205789],[-86.7203327407404,36.3012511244226],[-86.7203933975102,36.3012501610042],[-86.7204540069709,36.3012523205978],[-86.7205143240893,36.3012575929475],[-86.7205741048639,36.3012659587799],[-86.720633108485,36.3012773825807],[-86.7206910962791,36.3012918189096],[-86.7207478327975,36.3013092096908],[-86.7207627342731,36.3013137144256],[-86.7207764966982,36.3013201717037],[-86.7207887331704,36.3013283981787],[-86.7207990986833,36.301338165193],[-86.7208073023493,36.3013491960014],[-86.7208131153317,36.3013611810444],[-86.7208163720156,36.3013737842499],[-86.7208169812075,36.3013866501761],[-86.720816863825,36.3013883109407],[-86.7208160244676,36.3013957907426],[-86.7208136874553,36.301404601577],[-86.7208106623826,36.3014117014735],[-86.720592226975,36.3018122806352],[-86.7201605734919,36.301664868985]]]},"properties":{"id":"96103","parcel":"03304000100","address":"102 GARRETT DR","owner":"BOLIN, THOMAS E. & ANGELIA P.","point":[-86.72043222770836,36.30153816084313]}}]}