{"type":"FeatureCollection","features":[{"type":"Feature","id":"200694","geometry":{"type":"Polygon","coordinates":[[[-86.7571153070944,36.0600473853684],[-86.7571421598439,36.0597409100883],[-86.7575511462351,36.0597702071958],[-86.7575641385157,36.0597734215594],[-86.7575763579079,36.0597782324603],[-86.7575875113705,36.0597845236715],[-86.7575973288357,36.0597921436711],[-86.757605572106,36.0598009073895],[-86.7576124103671,36.0598114455687],[-86.7576170336707,36.059822748446],[-86.7576193181446,36.0598345139662],[-86.7576192008172,36.0598464243694],[-86.7576138104885,36.0598843692751],[-86.7576048121918,36.0599391531547],[-86.7575928598871,36.0599935626372],[-86.7575766412645,36.0600537410608],[-86.7575570073029,36.0601132433479],[-86.7575339989878,36.0601719448607],[-86.7571153070944,36.0600473853684]]]},"properties":{"id":"200694","parcel":"14616019100","address":"498 OAKLEY DR","owner":"HERRING, GEOFFREY ROBERT BURNS & KIMBERLY DAWN","point":[-86.7573606635463,36.05996587606062]}},{"type":"Feature","id":"204324","geometry":{"type":"Polygon","coordinates":[[[-86.7518291828435,36.0600906220316],[-86.7522164378568,36.0598392908759],[-86.7527236889139,36.059853803831],[-86.7527190488079,36.0599924054177],[-86.7527179882021,36.0600241050417],[-86.7527148682236,36.0601172954926],[-86.7518291828435,36.0600906220316]]]},"properties":{"id":"204324","parcel":"14616022700","address":"5117 KINCANNON DR","owner":"WHITEHURST, SHARON KAYE","point":[-86.75240533855101,36.05992245231802]}},{"type":"Feature","id":"213523","geometry":{"type":"Polygon","coordinates":[[[-86.7504310820223,36.0601249828483],[-86.7505249062325,36.0598325678549],[-86.7506397628067,36.0597600701828],[-86.7510183146868,36.059785036473],[-86.750992249893,36.0600077844097],[-86.7509893591444,36.0600348880176],[-86.7509862397371,36.0600730329631],[-86.7509837507063,36.0601254954938],[-86.7504310820223,36.0601249828483]]]},"properties":{"id":"213523","parcel":"14713001500","address":"5002 KINCANNON DR","owner":"BEEM, GREG MICHAEL ETUX","point":[-86.75074970645636,36.05992015791474]}},{"type":"Feature","id":"248153","geometry":{"type":"Polygon","coordinates":[[[-86.7552731398181,36.0590216223313],[-86.7547900373924,36.0589894847555],[-86.7547949476987,36.0589111516046],[-86.7548036484975,36.0588330362604],[-86.754816125377,36.058755258684],[-86.7548323594946,36.0586779397654],[-86.7548523242215,36.0586011986402],[-86.7554646103371,36.0587344470628],[-86.7554122790186,36.0590306393293],[-86.7552731398181,36.0590216223313]]]},"properties":{"id":"248153","parcel":"16004005700","address":"5204 STALLWORTH DR","owner":"KENDY, WILLIAM A. ET UX","point":[-86.75513185851291,36.05879480556788]}},{"type":"Feature","id":"248154","geometry":{"type":"Polygon","coordinates":[[[-86.7548523242215,36.0586011986402],[-86.7548720209786,36.0585365653367],[-86.7548944416666,36.0584725197349],[-86.7549195592419,36.0584091368098],[-86.7549473422299,36.0583464924654],[-86.7549517518799,36.0583362901636],[-86.7549581218345,36.0583267948135],[-86.7549662879584,36.058318255298],[-86.7549760392174,36.0583108910513],[-86.7549871188138,36.0583048947552],[-86.7549992429519,36.058300421407],[-86.7550120941878,36.0582975892613],[-86.7550253379836,36.0582964698132],[-86.7550386327392,36.058297092241],[-86.7550516297671,36.0582994407035],[-86.7550639943976,36.0583034560093],[-86.7551423581617,36.0583341055894],[-86.7552220767095,36.0583623582069],[-86.7553030386655,36.0583881749002],[-86.7553851293494,36.0584115194326],[-86.7554682385547,36.0584323591447],[-86.755552246119,36.0584506650452],[-86.7554646103371,36.0587344470628],[-86.7548523242215,36.0586011986402]]]},"properties":{"id":"248154","parcel":"16004005800","address":"5208 STALLWORTH DR","owner":"CHAMBERLAIN, WILLIAM G. III ET UX","point":[-86.75520921412922,36.058505208623544]}},{"type":"Feature","id":"250650","geometry":{"type":"Polygon","coordinates":[[[-86.7529624317686,36.0584948922145],[-86.7529807972298,36.0584040507788],[-86.7530033476931,36.0583138339246],[-86.7530300488142,36.0582243671435],[-86.7530608651395,36.058135775934],[-86.7538770019811,36.0583240721534],[-86.7538720186011,36.0583337183015],[-86.753850200427,36.0585302759317],[-86.7538433461698,36.0585924042662],[-86.7529624317686,36.0584948922145]]]},"properties":{"id":"250650","parcel":"16004010600","address":"5208 KINCANNON DR","owner":"DAVIS, SARAH N. & DEGUIRA, PATRICK","point":[-86.75342891302593,36.05836889052138]}},{"type":"Feature","id":"250651","geometry":{"type":"Polygon","coordinates":[[[-86.7522158449178,36.0581124817563],[-86.7522540600361,36.0578248925896],[-86.7529415385727,36.0580038341947],[-86.7528623155502,36.0582122876771],[-86.7528504772533,36.0582483492911],[-86.7528383353561,36.0582879837167],[-86.7522076312238,36.0581740695939],[-86.7522158449178,36.0581124817563]]]},"properties":{"id":"250651","parcel":"16004010900","address":"5213 KINCANNON DR","owner":"BOYD, JAMES R. ET UX","point":[-86.75257189279243,36.058058144492826]}},{"type":"Feature","id":"250670","geometry":{"type":"Polygon","coordinates":[[[-86.7522164378568,36.0598392908759],[-86.7522507065186,36.0594272842871],[-86.7526564812007,36.0594516374935],[-86.752670609005,36.0594534708233],[-86.7526841532496,36.0594572113227],[-86.7526967288534,36.0594627514392],[-86.7527079735655,36.0594699330055],[-86.7527175668775,36.0594785516279],[-86.7527252333783,36.0594883593692],[-86.7527307561847,36.0594990763812],[-86.7527339736543,36.0595103954321],[-86.7527347961371,36.0595219926173],[-86.7527236889139,36.059853803831],[-86.7522164378568,36.0598392908759]]]},"properties":{"id":"250670","parcel":"16004001100","address":"5119 KINCANNON DR","owner":"TYNE ENTERPRISES, LLC","point":[-86.75247957183787,36.05968065019569]}},{"type":"Feature","id":"250671","geometry":{"type":"Polygon","coordinates":[[[-86.7511563597555,36.0600642028507],[-86.751159199561,36.0600338296723],[-86.7511606535026,36.0600207762267],[-86.7511907766805,36.0597633393043],[-86.7515780271419,36.0597910373177],[-86.7518342923073,36.0600358385328],[-86.7518291828435,36.0600906220316],[-86.7511563597555,36.0600642028507]]]},"properties":{"id":"250671","parcel":"16004001400","address":"5005 KINCANNON DR","owner":"WILSON, ANTHONY","point":[-86.75143656651981,36.05990604636539]}},{"type":"Feature","id":"250673","geometry":{"type":"Polygon","coordinates":[[[-86.7594507916313,36.0594063432959],[-86.7599369035331,36.0595758000997],[-86.7599295373483,36.0598316051825],[-86.7598067212014,36.0598263056589],[-86.7596841258039,36.0598183187698],[-86.7595618389227,36.0598076511731],[-86.7594399516464,36.0597943086051],[-86.7594260902735,36.0597927339608],[-86.7594127353813,36.0597893337122],[-86.7594002474981,36.0597842002234],[-86.7593889676207,36.0597774728491],[-86.7593792005049,36.0597693317305],[-86.7593712113613,36.05976000052],[-86.759365216821,36.0597497302147],[-86.7593613805129,36.059738800987],[-86.7593598040547,36.0597275087219],[-86.7593658947003,36.0596725663665],[-86.7593756650595,36.0596179757641],[-86.7593890855882,36.0595638984311],[-86.7594061156258,36.059510494151],[-86.7594267045398,36.0594579245725],[-86.7594507916313,36.0594063432959]]]},"properties":{"id":"250673","parcel":"16004002000","address":"511 OAKLEY DR","owner":"WISE, RACHEL D.","point":[-86.75965282517662,36.059645836874985]}},{"type":"Feature","id":"250674","geometry":{"type":"Polygon","coordinates":[[[-86.7552210695173,36.059487863109],[-86.7552731398181,36.0590216223313],[-86.7554122790186,36.0590306393293],[-86.7557704587755,36.0590544917088],[-86.7557109409742,36.0595196816384],[-86.7552210695173,36.059487863109]]]},"properties":{"id":"250674","parcel":"16004002900","address":"479 OAKLEY DR","owner":"JORDAN, ANDREW & LYDIA JADE","point":[-86.75549399867023,36.059271174128064]}},{"type":"Feature","id":"250792","geometry":{"type":"Polygon","coordinates":[[[-86.7590894022324,36.0585155235209],[-86.7591834099972,36.0581207171485],[-86.7600824989178,36.0581727404718],[-86.7600714804127,36.058230921661],[-86.7600571328591,36.058288621822],[-86.7600394861386,36.0583457163868],[-86.7600185778938,36.058402079837],[-86.7599944546817,36.0584575902029],[-86.7599671686267,36.0585121272821],[-86.759936779623,36.058565570823],[-86.7599367162554,36.0585656766737],[-86.7599208187441,36.058564735014],[-86.7591692927023,36.0585202406241],[-86.7590894022324,36.0585155235209]]]},"properties":{"id":"250792","parcel":"16004014100","address":"5238 TROUSDALE DR","owner":"CHEATHAM, RICHARD & KELLY L.","point":[-86.75959268866974,36.058316256273145]}},{"type":"Feature","id":"251086","geometry":{"type":"Polygon","coordinates":[[[-86.7547894892897,36.0590029489759],[-86.7547900373924,36.0589894847555],[-86.7552731398181,36.0590216223313],[-86.7552210695173,36.059487863109],[-86.7548215938436,36.0594620703644],[-86.7548078109904,36.0594615005393],[-86.7547943583403,36.0594589998812],[-86.7547816428698,36.0594546433528],[-86.7547700498956,36.0594485628338],[-86.7547599308221,36.0594409426913],[-86.7547515919828,36.0594320135407],[-86.7547452868094,36.0594220459852],[-86.7547412035296,36.0594113407792],[-86.7547394684534,36.0594002243007],[-86.7547656751529,36.0592025412833],[-86.7547894892897,36.0590029489759]]]},"properties":{"id":"251086","parcel":"16004003000","address":"475 OAKLEY DR","owner":"GARDINER, KIMBERLEY SUE","point":[-86.75499717803982,36.05930188295639]}},{"type":"Feature","id":"251090","geometry":{"type":"Polygon","coordinates":[[[-86.7533012508536,36.0593539400506],[-86.7533565991716,36.0588891163269],[-86.7538071901806,36.0589181660539],[-86.7539619018825,36.0589281869055],[-86.7538931761932,36.0593922203465],[-86.7533012508536,36.0593539400506]]]},"properties":{"id":"251090","parcel":"16004003200","address":"467 OAKLEY DR","owner":"SHELTON, NICKOLAS R.","point":[-86.75362847825647,36.0591410575715]}},{"type":"Feature","id":"251094","geometry":{"type":"Polygon","coordinates":[[[-86.7519058361598,36.059268857661],[-86.7519509591547,36.0587851136133],[-86.7521248309726,36.0587974597824],[-86.7523520275886,36.058813591755],[-86.7523073173155,36.0592929549158],[-86.7519058361598,36.059268857661]]]},"properties":{"id":"251094","parcel":"16004003500","address":"455 OAKLEY DR","owner":"BRAY, MITCHELL & OWEN, JESSICA","point":[-86.7521289329091,36.05904122492325]}},{"type":"Feature","id":"251097","geometry":{"type":"Polygon","coordinates":[[[-86.7510627664015,36.0587858567137],[-86.7510904051171,36.058703268607],[-86.751310037759,36.0587337297358],[-86.7513292704011,36.0587363966408],[-86.7515568723946,36.0587542328265],[-86.7515111847597,36.0592440170843],[-86.7511724512333,36.0592226941737],[-86.7511195327612,36.0592186968664],[-86.7510668062003,36.059213277004],[-86.7510198012837,36.0592072230096],[-86.7509730376759,36.0592000399782],[-86.7509265576075,36.0591917330547],[-86.7510430281074,36.0588443148837],[-86.7510627664015,36.0587858567137]]]},"properties":{"id":"251097","parcel":"16004003700","address":"451 OAKLEY DR","owner":"MEEK, DAVID A & KATIE G","point":[-86.75125847638114,36.05901859217215]}},{"type":"Feature","id":"251101","geometry":{"type":"Polygon","coordinates":[[[-86.7594507916313,36.0594063432959],[-86.7594777248797,36.0593568657203],[-86.759507856683,36.0593086180739],[-86.759541101788,36.0592617396908],[-86.759577365968,36.0592163600467],[-86.7596165483374,36.0591726086597],[-86.7596585368519,36.0591306088087],[-86.7597032127651,36.0590904793085],[-86.7601647088154,36.0593749212321],[-86.7599369035331,36.0595758000997],[-86.7594507916313,36.0594063432959]]]},"properties":{"id":"251101","parcel":"16004003900","address":"5225 TROUSDALE DR","owner":"BRECKER, LAUREN A","point":[-86.7597955165829,36.05933334885833]}},{"type":"Feature","id":"251117","geometry":{"type":"Polygon","coordinates":[[[-86.7557809544219,36.0590552505777],[-86.7558635661316,36.0584923923715],[-86.7559538433194,36.0585003352795],[-86.7560443717507,36.0585060999246],[-86.7561350692489,36.0585096832167],[-86.7562074950582,36.0585122121054],[-86.7561647493995,36.0590687763967],[-86.7561631702589,36.0590805995321],[-86.7557809544219,36.0590552505777]]]},"properties":{"id":"251117","parcel":"16004005500","address":"406 EATHERLY DR","owner":"BOLTON, LORI","point":[-86.7560037346785,36.05878375089506]}},{"type":"Feature","id":"251120","geometry":{"type":"Polygon","coordinates":[[[-86.7557704587755,36.0590544917088],[-86.7554122790186,36.0590306393293],[-86.7554646103371,36.0587344470628],[-86.755552246119,36.0584506650452],[-86.7556554728984,36.0584671775958],[-86.755759279947,36.0584810906996],[-86.7558635661316,36.0584923923715],[-86.7557809544219,36.0590552505777],[-86.7557704587755,36.0590544917088]]]},"properties":{"id":"251120","parcel":"16004005600","address":"404 EATHERLY DR","owner":"HARDISON, STEPHEN & DAPHNE","point":[-86.7556223189088,36.05888291817364]}},{"type":"Feature","id":"251383","geometry":{"type":"Polygon","coordinates":[[[-86.7529125231207,36.0592638937616],[-86.752929298526,36.0588615868162],[-86.7533565991716,36.0588891163269],[-86.7533012508536,36.0593539400506],[-86.7529903668506,36.0593338334671],[-86.7529763563041,36.0593319561803],[-86.7529629284915,36.0593282023682],[-86.7529504640299,36.0593226769069],[-86.7529393140545,36.0593155362306],[-86.7529297923807,36.0593069811697],[-86.7529221677085,36.0592972542959],[-86.7529166557337,36.0592866273535],[-86.7529134102767,36.0592754022158],[-86.7529125231207,36.0592638937616]]]},"properties":{"id":"251383","parcel":"16004003300","address":"463 OAKLEY DR","owner":"PENDER, PATRICIA ALICE & BERNITT, DONALD MICHAEL","point":[-86.75312729623718,36.05907649029308]}},{"type":"Feature","id":"251385","geometry":{"type":"Polygon","coordinates":[[[-86.7523073173155,36.0592929549158],[-86.7523520275886,36.058813591755],[-86.7527629264335,36.0588427669567],[-86.7527626283178,36.0588491445537],[-86.7527440126983,36.0592471061225],[-86.7527424170111,36.0592586427022],[-86.7527384500541,36.0592697966215],[-86.7527322253393,36.059280247213],[-86.7527239209866,36.0592896977406],[-86.7527137753086,36.0592978781306],[-86.7527020780006,36.0593045522376],[-86.7526891613881,36.0593095314188],[-86.752675397072,36.0593126718504],[-86.7526611782715,36.0593138854539],[-86.7526532301067,36.0593137142708],[-86.7523073173155,36.0592929549158]]]},"properties":{"id":"251385","parcel":"16004003400","address":"459 OAKLEY DR","owner":"GRINESTAFF, GERALD WAYNE","point":[-86.75254177733109,36.059047688856005]}},{"type":"Feature","id":"251387","geometry":{"type":"Polygon","coordinates":[[[-86.7515111847597,36.0592440170843],[-86.7515568723946,36.0587542328265],[-86.7519509591547,36.0587851136133],[-86.7519058361598,36.059268857661],[-86.7515111847597,36.0592440170843]]]},"properties":{"id":"251387","parcel":"16004003600","address":"453 OAKLEY DR","owner":"THIGPEN, NATHAN & WHITTAM, ELIZABETH","point":[-86.75173107230937,36.05901456555676]}},{"type":"Feature","id":"251391","geometry":{"type":"Polygon","coordinates":[[[-86.7590952168067,36.0586283953373],[-86.7591692927023,36.0585202406241],[-86.7599208187441,36.058564735014],[-86.7599367162554,36.0585656766737],[-86.7599526250092,36.0585664010491],[-86.7599050042596,36.0586344595225],[-86.759854607914,36.0587011871413],[-86.7598014940962,36.0587665105309],[-86.7597457220411,36.0588303563098],[-86.7596873532209,36.0588926528847],[-86.7596264535744,36.0589533313383],[-86.7590952168067,36.0586283953373]]]},"properties":{"id":"251391","parcel":"16004004300","address":"5232 TROUSDALE DR","owner":"SHELTON, NICKOLAS","point":[-86.75954691432982,36.058733285270144]}},{"type":"Feature","id":"251399","geometry":{"type":"Polygon","coordinates":[[[-86.7568338277265,36.0591252888298],[-86.7568818065596,36.0585502852375],[-86.7572349100134,36.0585741678385],[-86.757215837745,36.0588094409757],[-86.7571886226231,36.0591488833604],[-86.7569435156137,36.0591325665364],[-86.7568338277265,36.0591252888298]]]},"properties":{"id":"251399","parcel":"16004005200","address":"416 EATHERLY DR","owner":"STEPHENS, DORIS ANN","point":[-86.75702509113773,36.058967365581424]}},{"type":"Feature","id":"251401","geometry":{"type":"Polygon","coordinates":[[[-86.7564898661127,36.0591024490429],[-86.7565409166141,36.0585298994638],[-86.7567423242693,36.0585407223053],[-86.7568818065596,36.0585502852375],[-86.7568338277265,36.0591252888298],[-86.7565596055201,36.0591072315898],[-86.7564898661127,36.0591024490429]]]},"properties":{"id":"251401","parcel":"16004005300","address":"412 EATHERLY DR","owner":"LUCAS, JOHN E. & SUSAN A.","point":[-86.75668662722923,36.05882636891322]}},{"type":"Feature","id":"251402","geometry":{"type":"Polygon","coordinates":[[[-86.7561647493995,36.0590687763967],[-86.7562074950582,36.0585122121054],[-86.7565409166141,36.0585298994638],[-86.7564898661127,36.0591024490429],[-86.7561631702589,36.0590805995321],[-86.7561647493995,36.0590687763967]]]},"properties":{"id":"251402","parcel":"16004005400","address":"410 EATHERLY DR","owner":"HARLIN, LLC","point":[-86.7563511660616,36.05879933469707]}},{"type":"Feature","id":"251560","geometry":{"type":"Polygon","coordinates":[[[-86.7538931761932,36.0593922203465],[-86.7539619018825,36.0589281869055],[-86.7546200192021,36.0589707696022],[-86.7545686335207,36.0593687654192],[-86.7545658817241,36.0593803290905],[-86.7545607381584,36.0593913399214],[-86.7545533529397,36.059401475211],[-86.7545439419107,36.0594104370829],[-86.754532785625,36.0594179624056],[-86.7545202094279,36.059423829227],[-86.7545065835336,36.059427864885],[-86.7544923086384,36.0594299506044],[-86.7544778048643,36.0594300260726],[-86.7538931761932,36.0593922203465]]]},"properties":{"id":"251560","parcel":"16004003100","address":"471 OAKLEY DR","owner":"ANDREWS, JD  WEBSTER & ANGELA KAY","point":[-86.75426032595121,36.05916908331782]}},{"type":"Feature","id":"251612","geometry":{"type":"Polygon","coordinates":[[[-86.7530704414701,36.0581109909698],[-86.7531613925454,36.0578906517271],[-86.7539923016489,36.0581027553021],[-86.7539800106752,36.0581267326415],[-86.7538770019811,36.0583240721534],[-86.7530608651395,36.058135775934],[-86.7530704414701,36.0581109909698]]]},"properties":{"id":"251612","parcel":"16004010500","address":"5212 KINCANNON DR","owner":"SCOTFORD, NATASHA & PAUL","point":[-86.75353111918376,36.05810687350325]}},{"type":"Feature","id":"251615","geometry":{"type":"Polygon","coordinates":[[[-86.7523520275886,36.058813591755],[-86.7521248309726,36.0587974597824],[-86.7521732106756,36.0584336138902],[-86.7522076312238,36.0581740695939],[-86.7528383353561,36.0582879837167],[-86.752818783082,36.0583603028942],[-86.7528023313432,36.0584331281543],[-86.7527890015268,36.058506372841],[-86.7527788094622,36.0585799494311],[-86.7527717665305,36.0586537695279],[-86.7527629264335,36.0588427669567],[-86.7523520275886,36.058813591755]]]},"properties":{"id":"251615","parcel":"16004010800","address":"5205 KINCANNON DR","owner":"RISSE, PETER J. & MCGUIRE, CHRISTINE","point":[-86.75247136079957,36.05854251620158]}},{"type":"Feature","id":"251897","geometry":{"type":"Polygon","coordinates":[[[-86.7566682725051,36.060214745871],[-86.7567132486899,36.0597153076052],[-86.7571421598439,36.0597409100883],[-86.7571153070944,36.0600473853684],[-86.7567847932508,36.0602293984617],[-86.7567604166,36.0602273541664],[-86.7566682725051,36.060214745871]]]},"properties":{"id":"251897","parcel":"16004000100","address":"494 OAKLEY DR","owner":"GABELMAN, JONATHAN","point":[-86.75691297793006,36.05989371042069]}},{"type":"Feature","id":"251899","geometry":{"type":"Polygon","coordinates":[[[-86.7551691641935,36.0599714111734],[-86.7552043553294,36.0596162594539],[-86.7555930073224,36.0596418447954],[-86.7555431687067,36.0600935122037],[-86.7554111298221,36.0600841759533],[-86.7552811330073,36.0600761994287],[-86.7551691641935,36.0599714111734]]]},"properties":{"id":"251899","parcel":"16004000500","address":"478 OAKLEY DR","owner":"HORNE, DONALD W. ETUX","point":[-86.75538015637062,36.05980662627832]}},{"type":"Feature","id":"251901","geometry":{"type":"Polygon","coordinates":[[[-86.7546715177843,36.0599294166652],[-86.7547018753778,36.0596516964636],[-86.754704433577,36.0596399690658],[-86.7547094499859,36.0596287769647],[-86.7547167712856,36.0596184564002],[-86.7547261784306,36.0596093187879],[-86.7547373898598,36.0596016380803],[-86.7547500658842,36.0595956453319],[-86.7547638263694,36.0595915204773],[-86.7547782573608,36.0595893886838],[-86.7547929254528,36.0595893139533],[-86.7552043553294,36.0596162594539],[-86.7551691641935,36.0599714111734],[-86.7546715177843,36.0599294166652]]]},"properties":{"id":"251901","parcel":"16004000600","address":"5130 STALLWORTH DR","owner":"HERNDON, NEIL EZELL & LOGAN PAIGE","point":[-86.75493683997463,36.05979106818651]}},{"type":"Feature","id":"251903","geometry":{"type":"Polygon","coordinates":[[[-86.7539590013958,36.0598665592733],[-86.7539932014241,36.059536476339],[-86.7544556927225,36.0595663838558],[-86.7544701293185,36.0595683493346],[-86.7544839321355,36.0595723061262],[-86.7544966882467,36.0595781369442],[-86.7545080152385,36.0595856648255],[-86.7545175735485,36.0595946665737],[-86.7545250775647,36.0596048726883],[-86.7545303023621,36.0596159754347],[-86.7545330904999,36.0596276432225],[-86.7545333598505,36.0596395268649],[-86.7545047914473,36.0599010423212],[-86.7539590013958,36.0598665592733]]]},"properties":{"id":"251903","parcel":"16004000700","address":"5129 STALLWORTH DR","owner":"RUDESHEIM, JOHN HARRISON & HANCOCK, TYLER","point":[-86.75424585950391,36.05975304275661]}},{"type":"Feature","id":"251905","geometry":{"type":"Polygon","coordinates":[[[-86.7532620517109,36.0599612957019],[-86.753292663815,36.0594911720526],[-86.7536226668479,36.0595125147613],[-86.7535761157152,36.0600629323425],[-86.7532620517109,36.0599612957019]]]},"properties":{"id":"251905","parcel":"16004000900","address":"462 OAKLEY DR","owner":"MURPHY REVOCABLE LIVING TRUST, THE","point":[-86.75344017317546,36.05973690087612]}},{"type":"Feature","id":"251907","geometry":{"type":"Polygon","coordinates":[[[-86.7529754549558,36.0594724082244],[-86.7529849589182,36.0594717116376],[-86.7529945000228,36.0594718890706],[-86.753292663815,36.0594911720526],[-86.7532620517109,36.0599612957019],[-86.7528884564351,36.0599826994495],[-86.7529032344985,36.0595384941113],[-86.7529046048759,36.0595278989844],[-86.7529079772262,36.0595176040999],[-86.7529132706426,36.0595078569168],[-86.7529203552442,36.0594988907793],[-86.7529290632503,36.0594909221437],[-86.7529391844714,36.0594841433967],[-86.7529504751302,36.0594787164904],[-86.752962662309,36.0594747738168],[-86.7529754549558,36.0594724082244]]]},"properties":{"id":"251907","parcel":"16004001000","address":"458 OAKLEY DR","owner":"COATS, MELINDA","point":[-86.7530860027577,36.05974990196363]}},{"type":"Feature","id":"251909","geometry":{"type":"Polygon","coordinates":[[[-86.7515780271419,36.0597910373177],[-86.7516232132857,36.059388833786],[-86.7518930616492,36.0594058191491],[-86.7518342923073,36.0600358385328],[-86.7515780271419,36.0597910373177]]]},"properties":{"id":"251909","parcel":"16004001300","address":"448 OAKLEY DR","owner":"WILSON FAMILY REVOCABLE TRUST, THE","point":[-86.75173738281346,36.05959843214797]}},{"type":"Feature","id":"252130","geometry":{"type":"Polygon","coordinates":[[[-86.7592543914546,36.0575120520239],[-86.7592507091784,36.0574453192178],[-86.7600045587747,36.0573460666293],[-86.7600271080726,36.0574621271367],[-86.7600461560599,36.0575786008773],[-86.7600616931696,36.0576954176125],[-86.7592686204658,36.0577619528688],[-86.7592543914546,36.0575120520239]]]},"properties":{"id":"252130","parcel":"16004016000","address":"5300 TROUSDALE DR","owner":"COCHRAN, GREGORY J. & LISA M.","point":[-86.75964854175338,36.057545323631565]}},{"type":"Feature","id":"252448","geometry":{"type":"Polygon","coordinates":[[[-86.7519509591547,36.0587851136133],[-86.7515568723946,36.0587542328265],[-86.7513292704011,36.0587363966408],[-86.751310037759,36.0587337297358],[-86.7510904051171,36.058703268607],[-86.7508564823336,36.0586707897855],[-86.7507702657158,36.0586588358638],[-86.7507699756316,36.0586587962114],[-86.7508383817996,36.0586047901272],[-86.7509095512123,36.0585531921624],[-86.7509833559962,36.0585040959419],[-86.7510596637966,36.0584575906122],[-86.7510972244679,36.0584221935705],[-86.7511828697854,36.0583560025501],[-86.7512425580793,36.0582995891361],[-86.7513081442625,36.0582228093984],[-86.7513615251405,36.0581433594758],[-86.7518093776172,36.0583125376652],[-86.7520660708823,36.0584098331335],[-86.7521732106756,36.0584336138902],[-86.7521248309726,36.0587974597824],[-86.7519509591547,36.0587851136133]]]},"properties":{"id":"252448","parcel":"16100000100","address":"5205 COCHRAN DR","owner":"ALDRED, DOROTHY A. C. ETVIR","point":[-86.75159406254754,36.05848203104617]}},{"type":"Feature","id":"252756","geometry":{"type":"Polygon","coordinates":[[[-86.7562834422782,36.0601644157767],[-86.7563344179748,36.0596904889245],[-86.7567132486899,36.0597153076052],[-86.7566682725051,36.060214745871],[-86.7562834422782,36.0601644157767]]]},"properties":{"id":"252756","parcel":"16004000200","address":"490 OAKLEY DR","owner":"JENT, MARK HARRIS & REBECCA ELIZABETH","point":[-86.75650031418763,36.059939865887785]}},{"type":"Feature","id":"252758","geometry":{"type":"Polygon","coordinates":[[[-86.7518342923073,36.0600358385328],[-86.7518930616492,36.0594058191491],[-86.7522507065186,36.0594272842871],[-86.7522164378568,36.0598392908759],[-86.7518291828435,36.0600906220316],[-86.7518342923073,36.0600358385328]]]},"properties":{"id":"252758","parcel":"16004001200","address":"450 OAKLEY DR","owner":"BURGESS, CAMERON & LISA","point":[-86.75205274255212,36.059632913709784]}},{"type":"Feature","id":"252763","geometry":{"type":"Polygon","coordinates":[[[-86.7511907766805,36.0597633393043],[-86.7512296959344,36.059430815049],[-86.7512324797397,36.0594192981248],[-86.7512376386492,36.0594083351116],[-86.7512450202862,36.0593982460159],[-86.7512544098618,36.0593893241945],[-86.7512655334453,36.0593818300248],[-86.7512780667757,36.0593759836401],[-86.7512916418274,36.0593719549739],[-86.7513058645606,36.0593698627487],[-86.751320317065,36.0593697663508],[-86.7516232132857,36.059388833786],[-86.7515780271419,36.0597910373177],[-86.7511907766805,36.0597633393043]]]},"properties":{"id":"252763","parcel":"16004001500","address":"446 OAKLEY DR","owner":"GONZALEZ, IGNACIO & MARICELA","point":[-86.75140498177026,36.05959748118624]}},{"type":"Feature","id":"252772","geometry":{"type":"Polygon","coordinates":[[[-86.7572682329621,36.0596211665084],[-86.7573375834954,36.0591589360118],[-86.7577705808226,36.0591875326],[-86.7577463414104,36.0592535126284],[-86.7577252433762,36.0593202011455],[-86.757707315742,36.0593874979273],[-86.7576925875473,36.0594553045517],[-86.7576810789351,36.0595235208501],[-86.7576804194389,36.0595481852341],[-86.7576765801504,36.0595726578035],[-86.7576695995482,36.0595966670272],[-86.7576659276639,36.0596019094885],[-86.7576552627032,36.0596132057207],[-86.7576424379949,36.0596229076239],[-86.7576278061867,36.0596307470997],[-86.7576117747784,36.0596365043748],[-86.7575947896098,36.0596400225255],[-86.7575773203714,36.0596412012596],[-86.7572682329621,36.0596211665084]]]},"properties":{"id":"252772","parcel":"16004002400","address":"499 OAKLEY DR","owner":"VAUGHAN, DAVID E.","point":[-86.75749913914504,36.05942099518867]}},{"type":"Feature","id":"252775","geometry":{"type":"Polygon","coordinates":[[[-86.7568789094122,36.0595958656767],[-86.7569435156137,36.0591325665364],[-86.7571886226231,36.0591488833604],[-86.7573375834954,36.0591589360118],[-86.7572682329621,36.0596211665084],[-86.7568789094122,36.0595958656767]]]},"properties":{"id":"252775","parcel":"16004002500","address":"495 OAKLEY DR","owner":"BRECHAK, BARRY G.","point":[-86.75710708838686,36.05937739872234]}},{"type":"Feature","id":"252780","geometry":{"type":"Polygon","coordinates":[[[-86.756485521816,36.0595700402098],[-86.7565596055201,36.0591072315898],[-86.7568338277265,36.0591252888298],[-86.7569435156137,36.0591325665364],[-86.7568789094122,36.0595958656767],[-86.756485521816,36.0595700402098]]]},"properties":{"id":"252780","parcel":"16004002600","address":"491 OAKLEY DR","owner":"ALVAREZ, JOANN","point":[-86.75671677806369,36.05935130818211]}},{"type":"Feature","id":"252783","geometry":{"type":"Polygon","coordinates":[[[-86.7560978929371,36.0595450011158],[-86.7561631702589,36.0590805995321],[-86.7564898661127,36.0591024490429],[-86.7565596055201,36.0591072315898],[-86.756485521816,36.0595700402098],[-86.7561449497045,36.059548041593],[-86.7560978929371,36.0595450011158]]]},"properties":{"id":"252783","parcel":"16004002700","address":"487 OAKLEY DR","owner":"ERVIN, GABRIEL & RALLO, JESSICA","point":[-86.75632661061853,36.0593261122332]}},{"type":"Feature","id":"253526","geometry":{"type":"Polygon","coordinates":[[[-86.7559142270617,36.060119206806],[-86.755962021536,36.0596661784867],[-86.756146188241,36.0596782001341],[-86.7563344179748,36.0596904889245],[-86.7562834422782,36.0601644157767],[-86.7561777624613,36.0601518929391],[-86.7559311558078,36.0601204742031],[-86.7559142270617,36.060119206806]]]},"properties":{"id":"253526","parcel":"16004000300","address":"486 OAKLEY DR","owner":"CUNNINGHAM, MARY E.","point":[-86.75612410142126,36.05990484760445]}},{"type":"Feature","id":"253530","geometry":{"type":"Polygon","coordinates":[[[-86.7555431687067,36.0600935122037],[-86.7555930073224,36.0596418447954],[-86.755962021536,36.0596661784867],[-86.7559142270617,36.060119206806],[-86.7557930197893,36.0601103519282],[-86.7555431687067,36.0600935122037]]]},"properties":{"id":"253530","parcel":"16004000400","address":"482 OAKLEY DR","owner":"ROSS REVOCABLE LIVING TRUST","point":[-86.75575311345608,36.05987984658906]}},{"type":"Feature","id":"253533","geometry":{"type":"Polygon","coordinates":[[[-86.7535761157152,36.0600629323425],[-86.7536226668479,36.0595125147613],[-86.7539932014241,36.059536476339],[-86.7539590013958,36.0598665592733],[-86.75372278861,36.060110398342],[-86.7535761157152,36.0600629323425]]]},"properties":{"id":"253533","parcel":"16004000800","address":"464 OAKLEY DR","owner":"METRO GOV'T  NE  POWER BOARD","point":[-86.75379142387024,36.05970113865857]}},{"type":"Feature","id":"253542","geometry":{"type":"Polygon","coordinates":[[[-86.7557109409742,36.0595196816384],[-86.7557704587755,36.0590544917088],[-86.7557809544219,36.0590552505777],[-86.7561631702589,36.0590805995321],[-86.7560978929371,36.0595450011158],[-86.7557109409742,36.0595196816384]]]},"properties":{"id":"253542","parcel":"16004002800","address":"483 OAKLEY DR","owner":"DEBUSK, JOSEPH T. & CUNNINGHAM, LINDSAY A.","point":[-86.75593566833746,36.059300137979285]}},{"type":"Feature","id":"253618","geometry":{"type":"Polygon","coordinates":[[[-86.7588643186811,36.0589660987671],[-86.7589053594031,36.0589059531293],[-86.7590952168067,36.0586283953373],[-86.7596264535744,36.0589533313383],[-86.7595758424086,36.0589991403025],[-86.7595278392738,36.0590467633335],[-86.7594825431442,36.0590961033723],[-86.7594400451905,36.0591470598043],[-86.7594004343132,36.0591995266209],[-86.7588643186811,36.0589660987671]]]},"properties":{"id":"253618","parcel":"16004004400","address":"5228 TROUSDALE DR","owner":"STAUFFER, LUKE RILEY & EMMELINE GRACE","point":[-86.75923924739936,36.05892958923797]}},{"type":"Feature","id":"254606","geometry":{"type":"Polygon","coordinates":[[[-86.7533565991716,36.0588891163269],[-86.752929298526,36.0588615868162],[-86.7529359715138,36.0587016425203],[-86.7529425117873,36.058632542012],[-86.7529513346745,36.058563608402],[-86.7529624317686,36.0584948922145],[-86.7538433461698,36.0585924042662],[-86.7538071901806,36.0589181660539],[-86.7533565991716,36.0588891163269]]]},"properties":{"id":"254606","parcel":"16004010700","address":"5204 KINCANNON DR","owner":"ANDERSON, GREGORY MICHAEL & MALIKA WRIGHT","point":[-86.75337738891308,36.058782530462544]}},{"type":"Feature","id":"257396","geometry":{"type":"Polygon","coordinates":[[[-86.7591834099972,36.0581207171485],[-86.7592094317839,36.0580117663953],[-86.7592686204658,36.0577619528688],[-86.7600616931696,36.0576954176125],[-86.7600713458135,36.0577849136313],[-86.7600834068009,36.0578490744613],[-86.7600914025764,36.0579136520869],[-86.7600953159793,36.0579784780755],[-86.7600951331527,36.0580433812692],[-86.7600908580156,36.0581081922004],[-86.7600824989178,36.0581727404718],[-86.7591834099972,36.0581207171485]]]},"properties":{"id":"257396","parcel":"16004016100","address":"5242 TROUSDALE DR","owner":"MANGRUM, BOYD WADE JR","point":[-86.75965938503468,36.057945195824225]}},{"type":"Feature","id":"259735","geometry":{"type":"Polygon","coordinates":[[[-86.7518718545678,36.0579786448709],[-86.751881194096,36.0579645760328],[-86.7522158449178,36.0581124817563],[-86.7522076312238,36.0581740695939],[-86.7521732106756,36.0584336138902],[-86.7520660708823,36.0584098331335],[-86.7518093776172,36.0583125376652],[-86.7517828921251,36.0580162888479],[-86.7518240955501,36.058008611504],[-86.7518500285028,36.057996087623],[-86.7518718545678,36.0579786448709]]]},"properties":{"id":"259735","parcel":"161010B00200CO","address":"604 GLENMORE PL","owner":"FLATT, BEN & PAIGE","point":[-86.75200077364188,36.05824328780309]}},{"type":"Feature","id":"262535","geometry":{"type":"Polygon","coordinates":[[[-86.7503761246064,36.0596829578813],[-86.7505713247141,36.0592386200185],[-86.7505799009344,36.0592417085124],[-86.7506510878452,36.0592656784565],[-86.7507234896282,36.0592871144729],[-86.7507969715743,36.0593059750376],[-86.7506397628067,36.0597600701828],[-86.7505249062325,36.0598325678549],[-86.7503761246064,36.0596829578813]]]},"properties":{"id":"262535","parcel":"16101000200","address":"442 OAKLEY DR","owner":"FLY, BENJAMIN","point":[-86.75059532891909,36.059494484916605]}},{"type":"Feature","id":"264813","geometry":{"type":"Polygon","coordinates":[[[-86.7500028428441,36.0596128498742],[-86.7500197243227,36.0595598552684],[-86.7500400198977,36.0595076550825],[-86.7500636743422,36.0594563965687],[-86.7500906212628,36.0594062198383],[-86.7501207853955,36.0593572659591],[-86.7501540825378,36.059309669745],[-86.7501904229213,36.0592635642419],[-86.7502297022896,36.0592190762769],[-86.750270303931,36.0591755606722],[-86.7502771626097,36.0591690899698],[-86.7502849573528,36.0591633597092],[-86.7502935669092,36.0591584598726],[-86.7503040966625,36.0591540185561],[-86.7503152885912,36.0591508177995],[-86.7503291304566,36.0591487127384],[-86.7503432122057,36.0591485015977],[-86.7503564826706,36.0591500674442],[-86.7503692817355,36.0591533162307],[-86.7503812867358,36.0591581670474],[-86.750443283566,36.0591870513863],[-86.7505066630001,36.0592138838574],[-86.7505713247141,36.0592386200185],[-86.7503761246064,36.0596829578813],[-86.7500028428441,36.0596128498742]]]},"properties":{"id":"264813","parcel":"16101000300","address":"5135 COCHRAN DR","owner":"BERRYS CHAPEL PARTNERS, LLC","point":[-86.75028172469439,36.05943173453005]}},{"type":"Feature","id":"264814","geometry":{"type":"Polygon","coordinates":[[[-86.7499060547373,36.0601039706843],[-86.7499143583094,36.060041581237],[-86.7499252111505,36.0599752652256],[-86.7499381198057,36.0599091932888],[-86.7499885137822,36.0596707217033],[-86.7500028428441,36.0596128498742],[-86.7503761246064,36.0596829578813],[-86.7505249062325,36.0598325678549],[-86.7504310820223,36.0601249828483],[-86.7504324423859,36.0601524322063],[-86.7499060547373,36.0601039706843]]]},"properties":{"id":"264814","parcel":"16101000400","address":"5133 COCHRAN DR","owner":"PALKO, THOMAS K. & MARIE C.","point":[-86.7502293835512,36.059870876494465]}},{"type":"Feature","id":"265498","geometry":{"type":"Polygon","coordinates":[[[-86.750763875914,36.0586629963693],[-86.7507702657158,36.0586588358638],[-86.7508564823336,36.0586707897855],[-86.7510904051171,36.058703268607],[-86.7510627664015,36.0587858567137],[-86.7510430281074,36.0588443148837],[-86.7509265576075,36.0591917330547],[-86.7509148599521,36.0591894571687],[-86.7508632421346,36.0591784963821],[-86.7508120964063,36.0591661599662],[-86.7507480169107,36.0591485360008],[-86.750684908084,36.0591287320416],[-86.750622885722,36.0591067852233],[-86.7505593732056,36.0590816057083],[-86.7504972814985,36.0590541893214],[-86.7504860580382,36.0590479375499],[-86.7504762123949,36.0590403072358],[-86.7504679984055,36.0590314959843],[-86.7504616280015,36.0590217305027],[-86.7504577718392,36.0590127965798],[-86.7504554653144,36.059003517728],[-86.7504547511539,36.058994069433],[-86.7504556454801,36.0589846309513],[-86.7504586508309,36.0589739959302],[-86.7504636812711,36.0589638782593],[-86.7504665589691,36.0589595900238],[-86.7504816677686,36.0589393160393],[-86.7504843891302,36.0589357516124],[-86.7505051940277,36.0589093214889],[-86.7505197028794,36.0588916947221],[-86.7505257546016,36.0588845251213],[-86.7505335859902,36.0588753931428],[-86.7505469873702,36.0588601508749],[-86.7505629926519,36.0588425418227],[-86.7505938048336,36.0588103081396],[-86.7506035988467,36.0588004879655],[-86.7506037142918,36.05880037098],[-86.7506112147942,36.0587929922656],[-86.7506266444288,36.0587781357277],[-86.7506423511601,36.058763472141],[-86.7506977573559,36.0587153577259],[-86.7507561575687,36.0586696373918],[-86.750763875914,36.0586629963693]]]},"properties":{"id":"265498","parcel":"16101000800","address":"443 OAKLEY DR","owner":"VENKATASESHU, SRIKANTH","point":[-86.7507556163442,36.05892307912102]}},{"type":"Feature","id":"265558","geometry":{"type":"Polygon","coordinates":[[[-86.7506397628067,36.0597600701828],[-86.7507969715743,36.0593059750376],[-86.7508158643362,36.0593103683121],[-86.7508739980353,36.059322745013],[-86.7509326160669,36.0593335143704],[-86.7509916483819,36.0593426642018],[-86.7510046822431,36.0593453814989],[-86.7510170190073,36.0593497416854],[-86.7510283479533,36.059355635839],[-86.7510383835053,36.0593629143224],[-86.7510468697234,36.0593713921636],[-86.7510535925896,36.0593808570903],[-86.7510583821936,36.059391065912],[-86.751061117352,36.0594017634171],[-86.7510617690127,36.0594092887423],[-86.7510614006953,36.0594168267324],[-86.7510183146868,36.059785036473],[-86.7506397628067,36.0597600701828]]]},"properties":{"id":"265558","parcel":"16101000100","address":"5000 KINCANNON DR","owner":"PARKINSON, R. JEFFREY ET UX","point":[-86.75087027988123,36.05958848958415]}},{"type":"Feature","id":"277080","geometry":{"type":"Polygon","coordinates":[[[-86.7539800106752,36.0581267326415],[-86.7539923016489,36.0581027553021],[-86.7541099264353,36.0578770290791],[-86.7541172366191,36.0578629727619],[-86.7548568529086,36.0581520125087],[-86.754822342311,36.0582169999655],[-86.7547899151362,36.0582826908908],[-86.7547595953961,36.0583490418737],[-86.7539800106752,36.0581267326415]]]},"properties":{"id":"277080","parcel":"16004008100","address":"5213 STALLWORTH DR","owner":"GARDINER, JEANNE K. TRUSTEE","point":[-86.75437586451717,36.05811554307997]}},{"type":"Feature","id":"277084","geometry":{"type":"Polygon","coordinates":[[[-86.753850200427,36.0585302759317],[-86.7538720186011,36.0583337183015],[-86.7538770019811,36.0583240721534],[-86.7539800106752,36.0581267326415],[-86.7547595953961,36.0583490418737],[-86.7547283733107,36.0584232370311],[-86.7546994346412,36.0584980388707],[-86.7546828773329,36.0585714914544],[-86.7546676767134,36.0586452095324],[-86.753850200427,36.0585302759317]]]},"properties":{"id":"277084","parcel":"16004008200","address":"5209 STALLWORTH DR","owner":"HERRON, BRIANNA","point":[-86.75430519188977,36.05838524095208]}},{"type":"Feature","id":"284364","geometry":{"type":"Polygon","coordinates":[[[-86.7539619018825,36.0589281869055],[-86.7538071901806,36.0589181660539],[-86.7538433461698,36.0585924042662],[-86.753850200427,36.0585302759317],[-86.7546676767134,36.0586452095324],[-86.7546487010812,36.0587534211369],[-86.7546328121013,36.0588619613083],[-86.7546200192021,36.0589707696022],[-86.7539619018825,36.0589281869055]]]},"properties":{"id":"284364","parcel":"16004008300","address":"5205 STALLWORTH DR","owner":"PARKS, CAMERON MICHAEL","point":[-86.75424492859497,36.0586984688605]}}]}