{"type":"FeatureCollection","features":[{"type":"Feature","id":"181442","geometry":{"type":"Polygon","coordinates":[[[-86.7645744300478,36.0737511012455],[-86.7646417643975,36.0736163766994],[-86.7646597412568,36.0736222977045],[-86.7646617367303,36.0736183049548],[-86.7646914680007,36.0736280981406],[-86.7646893036834,36.0736324272414],[-86.7647037266054,36.0736371774768],[-86.7647051447971,36.0736343411369],[-86.7647392597682,36.0736455792096],[-86.76472523155,36.0736736469148],[-86.7647865173562,36.0736938345575],[-86.7647569251292,36.0737530450033],[-86.7646611979785,36.0737215140774],[-86.7646362359861,36.0737714596143],[-86.7645744300478,36.0737511012455]]]},"properties":{"id":"181442","parcel":"146070B00100CO","address":"624 FARRELL PKWY","owner":"GEISINGER, JUSTIN PETER & JASMINE MARIE","point":[-86.76468790281439,36.073707603751835]}},{"type":"Feature","id":"181446","geometry":{"type":"Polygon","coordinates":[[[-86.7648229266822,36.0739330255861],[-86.7646587440477,36.0738775481763],[-86.7646850899554,36.0738261626107],[-86.764747080387,36.0738471091956],[-86.7647857730888,36.0737716403503],[-86.7648581511251,36.073796097293],[-86.7648330770618,36.0738450007901],[-86.7648490193778,36.0738503875927],[-86.7648448619771,36.073858495828],[-86.7648637459303,36.0738648761128],[-86.7648348490288,36.0739212385969],[-86.7648298378904,36.0739195462239],[-86.7648229266822,36.0739330255861]]]},"properties":{"id":"181446","parcel":"146070B00200CO","address":"4903 STILLWOOD DR","owner":"FOUST, MATTHEW JARROD & CHRISTINE ELIZABETH","point":[-86.7647588544638,36.07385426886165]}},{"type":"Feature","id":"181449","geometry":{"type":"Polygon","coordinates":[[[-86.7644731236366,36.0738748174336],[-86.7647122471675,36.0734051893048],[-86.7650381191801,36.0735108086258],[-86.765052348711,36.0735155366134],[-86.7650654202757,36.0735221069728],[-86.765076976877,36.0735303399098],[-86.7650867021327,36.0735400076038],[-86.7650943281504,36.0735508449741],[-86.7650996455795,36.0735625559242],[-86.7651025103329,36.0735748196088],[-86.7651028414453,36.0735872985585],[-86.7651006311769,36.0735996503326],[-86.7650959395499,36.0736115365665],[-86.7650611155397,36.0736820842612],[-86.7648967876898,36.0740149807417],[-86.7644731236366,36.0738748174336]],[[-86.7648229266822,36.0739330255861],[-86.7648298378904,36.0739195462239],[-86.7648348490288,36.0739212385969],[-86.7648637459303,36.0738648761128],[-86.7648448619771,36.073858495828],[-86.7648490193778,36.0738503875927],[-86.7648330770618,36.0738450007901],[-86.7648581511251,36.073796097293],[-86.7647857730888,36.0737716403503],[-86.764747080387,36.0738471091956],[-86.7646850899554,36.0738261626107],[-86.7646587440477,36.0738775481763],[-86.7648229266822,36.0739330255861]],[[-86.7645744300478,36.0737511012455],[-86.7646362359861,36.0737714596143],[-86.7646611979785,36.0737215140774],[-86.7647569251292,36.0737530450033],[-86.7647865173562,36.0736938345575],[-86.76472523155,36.0736736469148],[-86.7647392597682,36.0736455792096],[-86.7647051447971,36.0736343411369],[-86.7647037266054,36.0736371774768],[-86.7646893036834,36.0736324272414],[-86.7646914680007,36.0736280981406],[-86.7646617367303,36.0736183049548],[-86.7646597412568,36.0736222977045],[-86.7646417643975,36.0736163766994],[-86.7645744300478,36.0737511012455]]]},"properties":{"id":"181449","parcel":"146070B90000CO","address":"4903 B STILLWOOD DR","owner":"O.I.C. HOMES AT FARRELL AND STILLWOOD","point":[-86.76491385770468,36.073708047138865]}},{"type":"Feature","id":"194005","geometry":{"type":"Polygon","coordinates":[[[-86.7664318993298,36.0737508464028],[-86.7662651254132,36.0736956733568],[-86.7662650775119,36.0736956565368],[-86.7662585238568,36.0736934602929],[-86.7662527353812,36.0736915196576],[-86.7662423899544,36.0736869789263],[-86.7662329043104,36.0736813367617],[-86.7662244548513,36.073674695691],[-86.7662164037397,36.0736661900245],[-86.7662100989931,36.073656763857],[-86.7662056927484,36.0736466514584],[-86.7662032973254,36.0736361026733],[-86.7662029707593,36.073625379408],[-86.766204721164,36.0736147474914],[-86.7662085044508,36.07360447038],[-86.7664263593164,36.0731759816905],[-86.766474177594,36.0730819246544],[-86.7668191692202,36.0732050026647],[-86.766577427221,36.0736724147292],[-86.766577407595,36.0736724518068],[-86.7665773890705,36.0736724879762],[-86.7665215240058,36.0737804949838],[-86.7664318993298,36.0737508464028]]]},"properties":{"id":"194005","parcel":"14607005401","address":"5007 REGENT DR","owner":"METRO GOV'T  NE  POWER BOARD","point":[-86.7665129607556,36.07340473520933]}},{"type":"Feature","id":"194008","geometry":{"type":"Polygon","coordinates":[[[-86.7637583530904,36.0718948174856],[-86.7640067159761,36.0718229169719],[-86.7635422331681,36.0727862583485],[-86.7630724122103,36.0726309983702],[-86.7633938917562,36.0719982209651],[-86.7637583530904,36.0718948174856]]]},"properties":{"id":"194008","parcel":"14607006100","address":"605 FARRELL PKWY","owner":"BEHR TRUST","point":[-86.76350114329331,36.07231513885669]}},{"type":"Feature","id":"194014","geometry":{"type":"Polygon","coordinates":[[[-86.7640717882945,36.0712708802521],[-86.7640550613484,36.0712204383512],[-86.7649393660579,36.0708456151105],[-86.7649660429629,36.0708907662764],[-86.7649940724086,36.0709353743881],[-86.7650451133893,36.0710136348152],[-86.7650987356747,36.0710907477182],[-86.7641696575126,36.0715955208354],[-86.7640717882945,36.0712708802521]]]},"properties":{"id":"194014","parcel":"14607006800","address":"612 BARRYWOOD DR","owner":"MADDOX, DAVID C., JR.","point":[-86.7645938414688,36.07115562744812]}},{"type":"Feature","id":"194244","geometry":{"type":"Polygon","coordinates":[[[-86.7651744606267,36.0733319296887],[-86.7655650144456,36.0725646475755],[-86.7655813625743,36.0725755322731],[-86.7658420759336,36.0726617844218],[-86.765915417593,36.0726876910937],[-86.7655220742255,36.0734462008771],[-86.7651744606267,36.0733319296887]]]},"properties":{"id":"194244","parcel":"14607005600","address":"625 FARRELL PKWY","owner":"HARDISON, ROBERT E. & GLENNA","point":[-86.7655433990952,36.07300980796269]}},{"type":"Feature","id":"194245","geometry":{"type":"Polygon","coordinates":[[[-86.7640067159761,36.0718229169719],[-86.76421998792,36.0717622269281],[-86.7644296471662,36.071888365164],[-86.7645276452077,36.0719448836387],[-86.7640175145589,36.0729458774819],[-86.7635422331681,36.0727862583485],[-86.7640067159761,36.0718229169719]]]},"properties":{"id":"194245","parcel":"14607006000","address":"607 FARRELL PKWY","owner":"BEEHAN, NICHOLAS G. & MARY HILL","point":[-86.76402916111023,36.07236556065056]}},{"type":"Feature","id":"194246","geometry":{"type":"Polygon","coordinates":[[[-86.763239953581,36.0709091321355],[-86.7632711671621,36.0708580567098],[-86.7633039478523,36.0708076319975],[-86.7633462407199,36.0707397900068],[-86.7633856394771,36.0706708099727],[-86.7634221004966,36.0706007723891],[-86.7634555790672,36.0705297604604],[-86.7638926733129,36.0706610519497],[-86.7639460270434,36.0708607054973],[-86.7640550613484,36.0712204383512],[-86.7640717882945,36.0712708802521],[-86.763239953581,36.0709091321355]]]},"properties":{"id":"194246","parcel":"14607006600","address":"5017 STILLWOOD DR","owner":"HARLIN, LLC","point":[-86.76360436986802,36.07088494177987]}},{"type":"Feature","id":"194247","geometry":{"type":"Polygon","coordinates":[[[-86.7639460270434,36.0708607054973],[-86.7648096711642,36.0705893063932],[-86.7648493473354,36.0706759092448],[-86.7648925951901,36.0707613781291],[-86.7649393660579,36.0708456151105],[-86.7640550613484,36.0712204383512],[-86.7639460270434,36.0708607054973]]]},"properties":{"id":"194247","parcel":"14607006700","address":"608 BARRYWOOD DR","owner":"HEAD, DAVID & BETHEL, TRACI","point":[-86.764238873871,36.07104104094951]}},{"type":"Feature","id":"194248","geometry":{"type":"Polygon","coordinates":[[[-86.7652546280513,36.0723798125889],[-86.7651429851955,36.0723123927908],[-86.7657706018448,36.0717062353644],[-86.7658553002075,36.0717674311236],[-86.7659425268785,36.0718262385649],[-86.7660321812673,36.0718825880215],[-86.7654942323955,36.0725233403298],[-86.7652546280513,36.0723798125889]]]},"properties":{"id":"194248","parcel":"14607007200","address":"628 BARRYWOOD DR","owner":"FRODERMAN, ARIEL","point":[-86.76560863556816,36.072097532406524]}},{"type":"Feature","id":"194249","geometry":{"type":"Polygon","coordinates":[[[-86.7654942323955,36.0725233403298],[-86.7660321812673,36.0718825880215],[-86.7660972009094,36.0719228320033],[-86.7663098556256,36.0720434536887],[-86.7658420759336,36.0726617844218],[-86.7655813625743,36.0725755322731],[-86.7655650144456,36.0725646475755],[-86.7654942323955,36.0725233403298]]]},"properties":{"id":"194249","parcel":"14607007300","address":"632 BARRYWOOD DR","owner":"HOOD, JOHN R. & WHITEHEAD, KAILEY","point":[-86.76591200895474,36.07228341717174]}},{"type":"Feature","id":"194366","geometry":{"type":"Polygon","coordinates":[[[-86.7640192595425,36.073972195783],[-86.7643646137654,36.0732887176701],[-86.7647122471675,36.0734051893048],[-86.7644731236366,36.0738748174336],[-86.7640192595425,36.073972195783]]]},"properties":{"id":"194366","parcel":"14607005300","address":"620 FARRELL PKWY","owner":"MILES, RYAN DAVID & ROBERTS, EFFIE PRISCILLA","point":[-86.7643901009066,36.07363960538352]}},{"type":"Feature","id":"194367","geometry":{"type":"Polygon","coordinates":[[[-86.7648322621734,36.0732176249475],[-86.7652546280513,36.0723798125889],[-86.7654942323955,36.0725233403298],[-86.7655650144456,36.0725646475755],[-86.7651744606267,36.0733319296887],[-86.7648322621734,36.0732176249475]]]},"properties":{"id":"194367","parcel":"14607005700","address":"619 FARRELL PKWY","owner":"ALTOM, CLAYTON & JILL","point":[-86.76519784239969,36.07289113527385]}},{"type":"Feature","id":"194368","geometry":{"type":"Polygon","coordinates":[[[-86.7626708769759,36.0716929206263],[-86.7628578069702,36.0714258151147],[-86.7637583530904,36.0718948174856],[-86.7633938917562,36.0719982209651],[-86.7626708769759,36.0716929206263]]]},"properties":{"id":"194368","parcel":"14607006300","address":"5005 STILLWOOD DR","owner":"MILLION, STEPHEN L.","point":[-86.76323718129585,36.071793914865815]}},{"type":"Feature","id":"194369","geometry":{"type":"Polygon","coordinates":[[[-86.763052941662,36.0711674476298],[-86.7631095226395,36.0710950746342],[-86.76316361365,36.0710214564696],[-86.7632151697292,36.0709466502054],[-86.763239953581,36.0709091321355],[-86.7640717882945,36.0712708802521],[-86.7641696575126,36.0715955208354],[-86.76421998792,36.0717622269281],[-86.763052941662,36.0711674476298]]]},"properties":{"id":"194369","parcel":"14607006500","address":"5013 STILLWOOD DR","owner":"CLOSE, EVA & BULLOCK, LAWRENCE A","point":[-86.7638464932094,36.071432660583795]}},{"type":"Feature","id":"194370","geometry":{"type":"Polygon","coordinates":[[[-86.7656211051061,36.0713621442524],[-86.7661481172351,36.0709917790782],[-86.7665302751789,36.0710398966674],[-86.7659375200886,36.0716106729059],[-86.7658555067291,36.0715510247833],[-86.7657753978799,36.0714896935157],[-86.7656972472265,36.0714267202252],[-86.7656211051061,36.0713621442524]]]},"properties":{"id":"194370","parcel":"14607007700","address":"623 BARRYWOOD DR","owner":"MCCLELLAN, CREED C & KAITLIN","point":[-86.76610668365959,36.071201081808375]}},{"type":"Feature","id":"194416","geometry":{"type":"Polygon","coordinates":[[[-86.76421998792,36.0717622269281],[-86.7641696575126,36.0715955208354],[-86.7650987356747,36.0710907477182],[-86.7651641500606,36.0711661030402],[-86.7652325593914,36.0712396845036],[-86.7653038896486,36.071311414161],[-86.7644296471662,36.071888365164],[-86.76421998792,36.0717622269281]]]},"properties":{"id":"194416","parcel":"14607006900","address":"616 BARRYWOOD DR","owner":"STERNBERG, JENNIFER A. & ANDREW L.","point":[-86.7647599081748,36.07145351424889]}},{"type":"Feature","id":"194418","geometry":{"type":"Polygon","coordinates":[[[-86.7645276452077,36.0719448836387],[-86.7644296471662,36.071888365164],[-86.7653038896486,36.071311414161],[-86.7653764907492,36.0713826372939],[-86.7654520827243,36.0714517783394],[-86.7655305737654,36.0715187567592],[-86.7647890322708,36.0721014604941],[-86.7645276452077,36.0719448836387]]]},"properties":{"id":"194418","parcel":"14607007000","address":"620 BARRYWOOD DR","owner":"EGGEBEEN, BENJAMIN D. & LISA A.","point":[-86.76500254482937,36.07170360621661]}},{"type":"Feature","id":"194422","geometry":{"type":"Polygon","coordinates":[[[-86.7658420759336,36.0726617844218],[-86.7663098556256,36.0720434536887],[-86.7664160090547,36.0721036050672],[-86.766647379286,36.0722347054319],[-86.7666596485285,36.0722443108578],[-86.7666698217566,36.0722554140363],[-86.7666776252042,36.0722677165799],[-86.7666828502977,36.0722808881409],[-86.7666853559718,36.0722945763115],[-86.7666850742724,36.0723084119951],[-86.7666820149452,36.0723220246999],[-86.7666762588445,36.0723350497905],[-86.7666761310474,36.0723352669127],[-86.7666700947023,36.0723444461806],[-86.7666039725869,36.0724416444428],[-86.7665405873625,36.0725400374966],[-86.7664799707344,36.0726395737712],[-86.7664221555273,36.0727402025898],[-86.7663949922856,36.0727892242644],[-86.7663689597385,36.0728386479292],[-86.765915417593,36.0726876910937],[-86.7658420759336,36.0726617844218]]]},"properties":{"id":"194422","parcel":"14607007400","address":"636 BARRYWOOD DR","owner":"WELLS, LAUREN M.","point":[-86.76634164424505,36.07239246984902]}},{"type":"Feature","id":"194424","geometry":{"type":"Polygon","coordinates":[[[-86.7664140969145,36.0719053812993],[-86.766381437454,36.0718869610824],[-86.7663414307325,36.0718658854982],[-86.7663025127849,36.071843508728],[-86.7666131854971,36.0714964927466],[-86.7671297243837,36.0717239666547],[-86.7670652909252,36.071809906351],[-86.7669983058324,36.0718945508688],[-86.7669288096876,36.0719778494735],[-86.7668568430999,36.0720597541342],[-86.7668559317235,36.0720611434112],[-86.7668482836124,36.0720705717836],[-86.766838861662,36.0720788749131],[-86.7668279135611,36.0720858349144],[-86.7668157239899,36.0720912706196],[-86.7668026146277,36.0720950384795],[-86.7667889286729,36.0720970389717],[-86.7667750242251,36.0720972211486],[-86.766761266497,36.0720955808845],[-86.7667480144669,36.0720921582569],[-86.7667356154058,36.0720870456924],[-86.766724395884,36.0720803763079],[-86.7664140969145,36.0719053812993]]]},"properties":{"id":"194424","parcel":"14607007500","address":"633 BARRYWOOD DR","owner":"MCGILL, ERIN K.","point":[-86.76673491848238,36.07176623141986]}},{"type":"Feature","id":"195976","geometry":{"type":"Polygon","coordinates":[[[-86.7644819228848,36.0731011681136],[-86.7649469651879,36.0721971577667],[-86.7651429851955,36.0723123927908],[-86.7652546280513,36.0723798125889],[-86.7648322621734,36.0732176249475],[-86.7644819228848,36.0731011681136]]]},"properties":{"id":"195976","parcel":"14607005800","address":"615 FARRELL PKWY","owner":"WILTSEY, BRUCE & TUCKER, JULIE M.","point":[-86.76487013276893,36.072740494631326]}},{"type":"Feature","id":"195978","geometry":{"type":"Polygon","coordinates":[[[-86.7640175145589,36.0729458774819],[-86.7645276452077,36.0719448836387],[-86.7647890322708,36.0721014604941],[-86.7649469651879,36.0721971577667],[-86.7644819228848,36.0731011681136],[-86.7640175145589,36.0729458774819]]]},"properties":{"id":"195978","parcel":"14607005900","address":"611 FARRELL PKWY","owner":"ALDRED, LEE ANNE","point":[-86.76448134276502,36.072571516778034]}},{"type":"Feature","id":"195980","geometry":{"type":"Polygon","coordinates":[[[-86.7626708769759,36.0716929206263],[-86.7633938917562,36.0719982209651],[-86.7630724122103,36.0726309983702],[-86.7624341928045,36.0724174635738],[-86.7624211186117,36.0724121971118],[-86.7624093565476,36.072405182862],[-86.7623992550126,36.0723966313254],[-86.7623911161957,36.0723867965574],[-86.7623851827115,36.0723759717457],[-86.7623816319617,36.0723644802326],[-86.762380567134,36.0723526629545],[-86.7623820238196,36.0723408738929],[-86.7624060065929,36.0722566950293],[-86.762433527692,36.072173231936],[-86.7624645547544,36.0720905839572],[-86.7624990531717,36.0720088477469],[-86.7625369816669,36.0719281191],[-86.7625782934041,36.0718484929448],[-86.7626229437513,36.071770062393],[-86.7626708769759,36.0716929206263]]]},"properties":{"id":"195980","parcel":"14607006200","address":"5001 STILLWOOD DR","owner":"HINTZE, JOHN R & ALEXANDRA M","point":[-86.7628870669794,36.072132775256705]}},{"type":"Feature","id":"195982","geometry":{"type":"Polygon","coordinates":[[[-86.7629630376301,36.0712842208271],[-86.763052941662,36.0711674476298],[-86.76421998792,36.0717622269281],[-86.7640067159761,36.0718229169719],[-86.7637583530904,36.0718948174856],[-86.7628578069702,36.0714258151147],[-86.7629630376301,36.0712842208271]]]},"properties":{"id":"195982","parcel":"14607006400","address":"5009 STILLWOOD DR","owner":"CLARK, THOMAS A. JR. ET UX","point":[-86.76353536410575,36.0715940159858]}},{"type":"Feature","id":"195984","geometry":{"type":"Polygon","coordinates":[[[-86.7649469651879,36.0721971577667],[-86.7647890322708,36.0721014604941],[-86.7655305737654,36.0715187567592],[-86.7656081817516,36.0715832540781],[-86.7656882175753,36.0716457666084],[-86.7657706018448,36.0717062353644],[-86.7651429851955,36.0723123927908],[-86.7649469651879,36.0721971577667]]]},"properties":{"id":"195984","parcel":"14607007100","address":"624 BARRYWOOD DR","owner":"MACK, ERIC EATON & SUZANNE ROBERTSON HOWELL","point":[-86.76530326120111,36.071903894846564]}},{"type":"Feature","id":"195986","geometry":{"type":"Polygon","coordinates":[[[-86.7659375200886,36.0716106729059],[-86.7665302751789,36.0710398966674],[-86.7665588281248,36.071193554442],[-86.7666131854971,36.0714964927466],[-86.7663025127849,36.071843508728],[-86.7662084547309,36.0717882554889],[-86.7661162282234,36.0717310049958],[-86.7660258947039,36.071671796519],[-86.7659375200886,36.0716106729059]]]},"properties":{"id":"195986","parcel":"14607007600","address":"627 BARRYWOOD DR","owner":"SINGLETON, TOBE J.","point":[-86.76640007978023,36.07134466139252]}},{"type":"Feature","id":"195988","geometry":{"type":"Polygon","coordinates":[[[-86.7654686003794,36.0709323620921],[-86.7655548431174,36.070885261009],[-86.7656387550412,36.0708354617848],[-86.7657202058755,36.070783040059],[-86.7657990731431,36.0707280741253],[-86.7661481172351,36.0709917790782],[-86.7656211051061,36.0713621442524],[-86.7655453497466,36.0712946032363],[-86.7654717918512,36.0712254799745],[-86.7654004807233,36.0711548219265],[-86.7653314645558,36.0710826765584],[-86.7653245952461,36.0710729258555],[-86.7653198331525,36.0710623794549],[-86.7653173110302,36.0710513348406],[-86.7653171029197,36.0710401024878],[-86.7653192118934,36.0710290014333],[-86.7653235809995,36.0710183429837],[-86.7653300854748,36.0710084289614],[-86.7653385415038,36.0709995390318],[-86.7653487116911,36.0709919225562],[-86.765360308357,36.0709857949663],[-86.7654147979769,36.0709595387214],[-86.7654686003794,36.0709323620921]]]},"properties":{"id":"195988","parcel":"14607007800","address":"619 BARRYWOOD DR","owner":"CAVEZZA, STEPHEN & EMILY","point":[-86.76569323966557,36.07104645431454]}},{"type":"Feature","id":"195990","geometry":{"type":"Polygon","coordinates":[[[-86.7667233892755,36.0708540609709],[-86.7668736597013,36.0707168472072],[-86.7676038891933,36.0709275726733],[-86.7675341154752,36.0710607057363],[-86.7675028527189,36.0711172191733],[-86.7667233892755,36.0708540609709]]]},"properties":{"id":"195990","parcel":"14607007900","address":"5026 REGENT DR","owner":"LISTER FAMILY TRUST","point":[-86.76715448988634,36.070890799857345]}},{"type":"Feature","id":"196266","geometry":{"type":"Polygon","coordinates":[[[-86.7598450748848,36.0703174182283],[-86.7602468987763,36.0698753429657],[-86.7603123680904,36.0699276753171],[-86.7605271766895,36.0700274170174],[-86.7601119033587,36.070478366483],[-86.7598450748848,36.0703174182283]]]},"properties":{"id":"196266","parcel":"14612009900","address":"507 ARROWWOOD DR","owner":"GROENEWOUD, HEATHER","point":[-86.76018525978023,36.0701724163783]}},{"type":"Feature","id":"196318","geometry":{"type":"Polygon","coordinates":[[[-86.7608125691911,36.0738232528505],[-86.7612004285045,36.0733351133958],[-86.7612895262415,36.0733103736949],[-86.7613188279611,36.0735431456762],[-86.7613357010616,36.0736089701951],[-86.7614257150597,36.0739622323319],[-86.7614285701349,36.0739775983961],[-86.7613582511711,36.0739846354506],[-86.7613093172274,36.0739883234196],[-86.7612601749407,36.0739885751692],[-86.7612111873525,36.0739853902093],[-86.7611627199401,36.0739787905675],[-86.7611151329064,36.0739688271461],[-86.7610687811099,36.0739555725129],[-86.7610240074563,36.0739391263503],[-86.7609811450573,36.0739196091325],[-86.7609405128419,36.0738971675609],[-86.7608125691911,36.0738232528505]]]},"properties":{"id":"196318","parcel":"14608009300","address":"509 BRAMBLEWOOD DR","owner":"BINGHAM, SCOTT F. & DEBORAH C.","point":[-86.76113056385503,36.07371622428009]}},{"type":"Feature","id":"196319","geometry":{"type":"Polygon","coordinates":[[[-86.7606168036903,36.0737102074804],[-86.7604586841423,36.0736189013461],[-86.7604470046277,36.0736111166854],[-86.7604371391979,36.0736018244411],[-86.7604293769002,36.0735912976833],[-86.7604239494248,36.0735798485995],[-86.760421014315,36.0735678141794],[-86.7604206593476,36.0735555498787],[-86.7604228957514,36.0735434170432],[-86.7604276559007,36.073531773911],[-86.7604348009746,36.0735209638473],[-86.7604441186414,36.0735113054447],[-86.7604809281652,36.0734655563571],[-86.7605145059788,36.073418198115],[-86.7605447469279,36.0733693791961],[-86.760571555936,36.0733192570269],[-86.7605948468089,36.0732679889776],[-86.7606145456161,36.0732157377489],[-86.7612004285045,36.0733351133958],[-86.7608125691911,36.0738232528505],[-86.7606168036903,36.0737102074804]]]},"properties":{"id":"196319","parcel":"14608009400","address":"4903 MONTEREY DR","owner":"ABSTON, JAMES & FRALEY, JESSICA","point":[-86.76074753914968,36.073516749997545]}},{"type":"Feature","id":"196320","geometry":{"type":"Polygon","coordinates":[[[-86.7605309395375,36.0721174110429],[-86.7611310951545,36.0720323080247],[-86.7611545209232,36.0722167675582],[-86.7611692134753,36.0723375493697],[-86.7605825248976,36.0724159746614],[-86.7605309395375,36.0721174110429]]]},"properties":{"id":"196320","parcel":"14608009800","address":"4915 MONTEREY DR","owner":"SMITH, BRETT ALAN & DEANA C.","point":[-86.76086009976927,36.072276556779705]}},{"type":"Feature","id":"196321","geometry":{"type":"Polygon","coordinates":[[[-86.7604265046989,36.0713884312445],[-86.7611112472333,36.0713731213652],[-86.7611012073207,36.071738004102],[-86.7604792914725,36.0718122557505],[-86.7604505397439,36.0716366226533],[-86.7604382981192,36.0715750652163],[-86.760430197616,36.0715130580486],[-86.7604262633052,36.0714507857573],[-86.7604265046989,36.0713884312445]]]},"properties":{"id":"196321","parcel":"14608010000","address":"4925 MONTEREY DR","owner":"CRAFTS, ALICE & LUECK, MISTI D.","point":[-86.76077461321577,36.07160650340028]}},{"type":"Feature","id":"196322","geometry":{"type":"Polygon","coordinates":[[[-86.7605354184387,36.0709635866118],[-86.7605653870532,36.0709084522343],[-86.7605727717953,36.0708981192265],[-86.7605820618251,36.0708888548429],[-86.7605930295425,36.0708808894467],[-86.7606054015143,36.0708744203422],[-86.7606188695406,36.0708696081009],[-86.7606331017217,36.0708665728853],[-86.7606477457361,36.0708653890215],[-86.7606624355098,36.0708660858582],[-86.7607767728114,36.0708820679212],[-86.760891757777,36.0708946127769],[-86.7610072337122,36.0709037051892],[-86.7611230461511,36.07090933081],[-86.7611112472333,36.0713731213652],[-86.7604265046989,36.0713884312445],[-86.7604299173827,36.0713261423483],[-86.7604374333364,36.071264092546],[-86.7604490331317,36.0712024568095],[-86.760464681851,36.0711414156155],[-86.7604843356187,36.0710811413856],[-86.7605079361453,36.0710218084343],[-86.7605354184387,36.0709635866118]]]},"properties":{"id":"196322","parcel":"14608010100","address":"4929 MONTEREY DR","owner":"HARVICK, DAVID & JOHN MARK & MARLA","point":[-86.76079619232429,36.07111192089581]}},{"type":"Feature","id":"196509","geometry":{"type":"Polygon","coordinates":[[[-86.7604274773129,36.0706412040069],[-86.7607664519663,36.0701379879443],[-86.7608725035515,36.070187865625],[-86.7611052933777,36.0701863960577],[-86.7609890628386,36.0707695232761],[-86.7609060164971,36.070760807484],[-86.7608235883506,36.0707488259668],[-86.7607419740801,36.0707336081348],[-86.7606613672062,36.0707151897213],[-86.7605819579965,36.0706936145925],[-86.7605039323379,36.0706689329514],[-86.7604274773129,36.0706412040069]]]},"properties":{"id":"196509","parcel":"14612009700","address":"513 ARROWWOOD DR","owner":"CARTER, MICHAEL L. & MARIA M.","point":[-86.76081995854348,36.07041487430644]}},{"type":"Feature","id":"196612","geometry":{"type":"Polygon","coordinates":[[[-86.7606145456161,36.0732157377489],[-86.7606317910822,36.0731571325877],[-86.7606453045379,36.0730978849186],[-86.7606550486466,36.0730381527043],[-86.760660998266,36.0729780920271],[-86.761245468709,36.072950228286],[-86.7612837541347,36.0732730490188],[-86.7612895262415,36.0733103736949],[-86.7612004285045,36.0733351133958],[-86.7606145456161,36.0732157377489]]]},"properties":{"id":"196612","parcel":"14608009500","address":"4905 MONTEREY DR","owner":"MCKENZIE, JACOB & RICHELLE","point":[-86.76095259494325,36.07312813549266]}},{"type":"Feature","id":"196615","geometry":{"type":"Polygon","coordinates":[[[-86.7606314041439,36.0727145544122],[-86.7612044759857,36.0726274237119],[-86.7612426347583,36.0729370594232],[-86.761245468709,36.072950228286],[-86.760660998266,36.0729780920271],[-86.7606592879857,36.072923067415],[-86.7606551505083,36.0728681266153],[-86.7606485931983,36.0728133425859],[-86.7606314041439,36.0727145544122]]]},"properties":{"id":"196615","parcel":"14608009600","address":"4909 MONTEREY DR","owner":"MCCANLESS, ALLISON L.","point":[-86.76093072125994,36.072764528712746]}},{"type":"Feature","id":"196617","geometry":{"type":"Polygon","coordinates":[[[-86.7596620775736,36.0718459783286],[-86.7603058177093,36.0717891756065],[-86.7603517566036,36.0720635987749],[-86.7597242354428,36.0721181030694],[-86.7596931956851,36.0719864337914],[-86.7596620775736,36.0718459783286]]]},"properties":{"id":"196617","parcel":"14608010400","address":"4916 MONTEREY DR","owner":"ROWAN, PHYLLIS R.","point":[-86.76000246857059,36.071916856904494]}},{"type":"Feature","id":"196620","geometry":{"type":"Polygon","coordinates":[[[-86.7597242354428,36.0721181030694],[-86.7603517566036,36.0720635987749],[-86.760397699154,36.072338022788],[-86.7597837281693,36.0723946392454],[-86.7597695630924,36.0723287974325],[-86.7597242354428,36.0721181030694]]]},"properties":{"id":"196620","parcel":"14608010500","address":"4912 MONTEREY DR","owner":"MOORE, TRAVIS C.","point":[-86.76006281449331,36.072224083062636]}},{"type":"Feature","id":"196624","geometry":{"type":"Polygon","coordinates":[[[-86.7597703904509,36.0729815110444],[-86.7597858972522,36.0729044937173],[-86.7598269591189,36.0726690796321],[-86.7604435944024,36.0726080514798],[-86.7604809520115,36.0728341817431],[-86.7604871255081,36.0728852990548],[-86.760490326506,36.0729365955471],[-86.7604905450402,36.0729879586217],[-86.7597703904509,36.0729815110444]]]},"properties":{"id":"196624","parcel":"14608010700","address":"4904 MONTEREY DR","owner":"HUBBS, WILLIAM THOMAS","point":[-86.76014004861541,36.07275160330459]}},{"type":"Feature","id":"197473","geometry":{"type":"Polygon","coordinates":[[[-86.7609890628386,36.0707695232761],[-86.7611052933777,36.0701863960577],[-86.7611567239838,36.0701860713234],[-86.7614436707655,36.0701864573755],[-86.7615653322244,36.070735115804],[-86.7615204736603,36.0707396316487],[-86.7614761110948,36.0707466706579],[-86.7614789859865,36.0707642312466],[-86.7614286601396,36.0707691276882],[-86.7613781320109,36.0707723787305],[-86.7613274848179,36.0707739793414],[-86.7611488317986,36.070775107512],[-86.7610688608076,36.0707739468498],[-86.7609890628386,36.0707695232761]]]},"properties":{"id":"197473","parcel":"14612009600","address":"517 ARROWWOOD DR","owner":"UNDERHILL, HELEN C.","point":[-86.76127764481383,36.07046064131849]}},{"type":"Feature","id":"197499","geometry":{"type":"Polygon","coordinates":[[[-86.7604792914725,36.0718122557505],[-86.7611012073207,36.071738004102],[-86.7610988587378,36.0717753800708],[-86.7611018388671,36.071803931221],[-86.7611310951545,36.0720323080247],[-86.7605309395375,36.0721174110429],[-86.7604792914725,36.0718122557505]]]},"properties":{"id":"197499","parcel":"14608009900","address":"4917 MONTEREY DR","owner":"AGEE, WILLIAM E.","point":[-86.76080744482785,36.07192228682391]}},{"type":"Feature","id":"197519","geometry":{"type":"Polygon","coordinates":[[[-86.7611012073207,36.071738004102],[-86.7611112472333,36.0713731213652],[-86.7611230461511,36.07090933081],[-86.76119157393,36.0709123752871],[-86.7612601923322,36.0709134065738],[-86.761328811443,36.0709124261391],[-86.761418076038,36.0709052694137],[-86.7615088551362,36.0716211488939],[-86.7610988587378,36.0717753800708],[-86.7611012073207,36.071738004102]]]},"properties":{"id":"197519","parcel":"14607010000","address":"514 ARROWWOOD DR","owner":"MARCUM, AUSTIN LEE & JOY","point":[-86.76128271003914,36.071143457200236]}},{"type":"Feature","id":"197612","geometry":{"type":"Polygon","coordinates":[[[-86.7658666817638,36.0733539056757],[-86.7658184977922,36.0733402021425],[-86.7658128706152,36.0733531488575],[-86.7656849447563,36.0733166003127],[-86.7657154027481,36.0732466299457],[-86.7658429899169,36.0732831806098],[-86.7658575548964,36.0732495727393],[-86.7658256583846,36.0732404353133],[-86.7658398953709,36.0732079291011],[-86.765919975786,36.0732307709368],[-86.7659057388284,36.0732632771583],[-86.7658996289748,36.0732613926253],[-86.7658847231992,36.073295002666],[-86.7658911727567,36.0732968850416],[-86.7658666817638,36.0733539056757]]]},"properties":{"id":"197612","parcel":"146070A00100CO","address":"627 FARRELL PKWY","owner":"LOWRY, JACOB","point":[-86.7657558833565,36.0732729973988]}},{"type":"Feature","id":"197842","geometry":{"type":"Polygon","coordinates":[[[-86.7612895262415,36.0733103736949],[-86.7612837541347,36.0732730490188],[-86.7621144724398,36.0732348372916],[-86.7621269850935,36.0733259911586],[-86.7621432021614,36.0734167592845],[-86.7621631071631,36.0735070426304],[-86.7613357010616,36.0736089701951],[-86.7613188279611,36.0735431456762],[-86.7612895262415,36.0733103736949]]]},"properties":{"id":"197842","parcel":"14607009200","address":"4956 STILLWOOD DR","owner":"DAVIDSON, STEVEN M. ET UX","point":[-86.76173077198445,36.07346106205189]}},{"type":"Feature","id":"197844","geometry":{"type":"Polygon","coordinates":[[[-86.761245468709,36.072950228286],[-86.7612426347583,36.0729370594232],[-86.7620955773393,36.0729580429189],[-86.762098086934,36.0730504605484],[-86.7621043867352,36.0731427595794],[-86.7621144724398,36.0732348372916],[-86.7612837541347,36.0732730490188],[-86.761245468709,36.072950228286]]]},"properties":{"id":"197844","parcel":"14607009300","address":"4960 STILLWOOD DR","owner":"BEECKMAN, ANDREW DAVID & JOHNSON, KELLEE","point":[-86.76168193405688,36.07309577710221]}},{"type":"Feature","id":"197846","geometry":{"type":"Polygon","coordinates":[[[-86.7611018388671,36.071803931221],[-86.7610988587378,36.0717753800708],[-86.7615088551362,36.0716211488939],[-86.7617327280551,36.0715362219079],[-86.761737594269,36.0714790503192],[-86.7624166808293,36.0717209012021],[-86.7623742742592,36.0717970462383],[-86.7623355256736,36.0718744650803],[-86.7623004928108,36.0719530420014],[-86.7622692278506,36.0720326604087],[-86.7622417773796,36.0721131992378],[-86.7611018388671,36.071803931221]]]},"properties":{"id":"197846","parcel":"14607009700","address":"5004 STILLWOOD DR","owner":"MARCUM, GARY A.","point":[-86.76173972644726,36.07178622113216]}},{"type":"Feature","id":"197900","geometry":{"type":"Polygon","coordinates":[[[-86.7655220742255,36.0734462008771],[-86.765915417593,36.0726876910937],[-86.7663689597385,36.0728386479292],[-86.7663319848658,36.0729054332848],[-86.7662974350231,36.0729730675489],[-86.7662653396587,36.0730414955579],[-86.7660129034756,36.0735331894024],[-86.7660078931388,36.0735437861507],[-86.7660006928873,36.0735535162543],[-86.7659915207881,36.0735620827044],[-86.7659806563489,36.0735692277585],[-86.7659684294077,36.0735747321097],[-86.7659552113993,36.0735784302641],[-86.7659414031438,36.0735802106188],[-86.7659274226524,36.0735800173418],[-86.7659136974081,36.0735778558285],[-86.7659074033154,36.0735764402354],[-86.7658941567709,36.0735713050296],[-86.7655220742255,36.0734462008771]],[[-86.7658847231992,36.073295002666],[-86.7658996289748,36.0732613926253],[-86.7659057388284,36.0732632771583],[-86.765919975786,36.0732307709368],[-86.7659338778922,36.0731985408328],[-86.765920982148,36.0731947787683],[-86.7659289279832,36.0731765952461],[-86.7659767732923,36.0731903017883],[-86.7659926660776,36.0731539383338],[-86.7659797729706,36.0731504493495],[-86.7660122107445,36.0730752460557],[-86.7659260206216,36.0730505197486],[-86.7658697425488,36.0731799932943],[-86.765853794856,36.0731754241297],[-86.7658398953709,36.0732079291011],[-86.7658256583846,36.0732404353133],[-86.7658575548964,36.0732495727393],[-86.7658429899169,36.0732831806098],[-86.7657154027481,36.0732466299457],[-86.7656849447563,36.0733166003127],[-86.7658128706152,36.0733531488575],[-86.7658184977922,36.0733402021425],[-86.7658666817638,36.0733539056757],[-86.7658911727567,36.0732968850416],[-86.7658847231992,36.073295002666]]]},"properties":{"id":"197900","parcel":"146070A00300CO","address":"627 B FARRELL PKWY","owner":"O.I.C. FARRELL CONDOMINIUMS","point":[-86.76611223328013,36.07311307458527]}},{"type":"Feature","id":"198017","geometry":{"type":"Polygon","coordinates":[[[-86.7666938898015,36.0708828185795],[-86.7667233892755,36.0708540609709],[-86.7675028527189,36.0711172191733],[-86.7674044808798,36.0713024548266],[-86.7665758895063,36.0709978525589],[-86.7666938898015,36.0708828185795]]]},"properties":{"id":"198017","parcel":"14607008000","address":"5024 REGENT DR","owner":"PRICE, JACOB LEE","point":[-86.76703218739205,36.07105752279976]}},{"type":"Feature","id":"198018","geometry":{"type":"Polygon","coordinates":[[[-86.7665588281248,36.071193554442],[-86.7665302751789,36.0710398966674],[-86.7665758895063,36.0709978525589],[-86.7674044808798,36.0713024548266],[-86.7673725509719,36.0713597989551],[-86.7673331723712,36.071422382818],[-86.7672952604368,36.0714855602941],[-86.7665588281248,36.071193554442]]]},"properties":{"id":"198018","parcel":"14607008100","address":"5022 REGENT DR","owner":"HICKERSON, FAY F.","point":[-86.76697628332701,36.07124799493796]}},{"type":"Feature","id":"198019","geometry":{"type":"Polygon","coordinates":[[[-86.7666131854971,36.0714964927466],[-86.7665588281248,36.071193554442],[-86.7672952604368,36.0714855602941],[-86.767242671773,36.0715662026268],[-86.7671874806861,36.07164568982],[-86.7671297243837,36.0717239666547],[-86.7666131854971,36.0714964927466]]]},"properties":{"id":"198019","parcel":"14607008200","address":"5018 REGENT DR","owner":"STANDLEY, CARL A.","point":[-86.76675597508387,36.07133922516964]}},{"type":"Feature","id":"198021","geometry":{"type":"Polygon","coordinates":[[[-86.7612426347583,36.0729370594232],[-86.7612044759857,36.0726274237119],[-86.7612014326269,36.0725922800396],[-86.7621092235302,36.0726876384393],[-86.7621006621965,36.0727776195791],[-86.7620961105145,36.0728677943813],[-86.7620955773393,36.0729580429189],[-86.7612426347583,36.0729370594232]]]},"properties":{"id":"198021","parcel":"14607009400","address":"4964 STILLWOOD DR","owner":"MILES, DIANE E & WILLIS F & JONATHAN ERIC ET AL","point":[-86.76166108325677,36.07273174723624]}},{"type":"Feature","id":"198022","geometry":{"type":"Polygon","coordinates":[[[-86.7611545209232,36.0722167675582],[-86.7611310951545,36.0720323080247],[-86.7611018388671,36.071803931221],[-86.7622417773796,36.0721131992378],[-86.7622318295767,36.0721309652603],[-86.7622238630023,36.0721493784986],[-86.7622179417539,36.0721682925387],[-86.7621920316058,36.0722512073263],[-86.7621702632474,36.0723349034751],[-86.7621526720114,36.0724192437681],[-86.7611545209232,36.0722167675582]]]},"properties":{"id":"198022","parcel":"14607009600","address":"5000 STILLWOOD DR","owner":"HAUBER, FREDERICK A & NICHOLS, D. TRS.","point":[-86.76161589462242,36.072072614643666]}},{"type":"Feature","id":"198023","geometry":{"type":"Polygon","coordinates":[[[-86.761737594269,36.0714790503192],[-86.7617915192129,36.0708919215159],[-86.7618543989851,36.0708936313486],[-86.7619170526519,36.0708982735707],[-86.761979275797,36.0709058323504],[-86.762040858367,36.0709162828788],[-86.7621016002126,36.070929591272],[-86.7621612988602,36.0709457128456],[-86.7621847361589,36.0709531697409],[-86.7622216658694,36.0709655389697],[-86.7622579673686,36.0709790793294],[-86.7623503255844,36.0710200104781],[-86.7624411924291,36.0710630870449],[-86.7625304920659,36.07110827256],[-86.7626181486486,36.0711555296524],[-86.7627040907537,36.0712048191209],[-86.7627127895548,36.0712139004541],[-86.7627196272574,36.0712239759676],[-86.762724433847,36.0712347979815],[-86.7627270912848,36.0712460977573],[-86.7627275347218,36.0712575963057],[-86.7627257525337,36.0712690079917],[-86.7627217886619,36.0712800531373],[-86.7627157403768,36.0712904562336],[-86.7624966857695,36.0715951258792],[-86.7624835727517,36.0716141422063],[-86.7624490690601,36.071667084965],[-86.7624166808293,36.0717209012021],[-86.761737594269,36.0714790503192]]]},"properties":{"id":"198023","parcel":"14607009800","address":"5008 STILLWOOD DR","owner":"MARCUM, ADRIA & JOSHUA","point":[-86.76219684213291,36.07138469510781]}},{"type":"Feature","id":"198024","geometry":{"type":"Polygon","coordinates":[[[-86.761418076038,36.0709052694137],[-86.7615019255352,36.0708981468296],[-86.7615075711913,36.0709222855498],[-86.7615633926837,36.0709112724563],[-86.7616198615542,36.0709027085564],[-86.7616768148558,36.0708966192137],[-86.7617340895471,36.0708930198784],[-86.7617915192129,36.0708919215159],[-86.761737594269,36.0714790503192],[-86.7617327280551,36.0715362219079],[-86.7615088551362,36.0716211488939],[-86.761418076038,36.0709052694137]]]},"properties":{"id":"198024","parcel":"14607009900","address":"518 ARROWWOOD DR","owner":"BEHR TRUST, THE","point":[-86.76160931465363,36.0712006416079]}},{"type":"Feature","id":"198058","geometry":{"type":"Polygon","coordinates":[[[-86.7638926733129,36.0706610519497],[-86.7645395106055,36.0700833488544],[-86.7645760118171,36.0701239881348],[-86.7646096718895,36.0701662136694],[-86.7646403840862,36.0702098936478],[-86.7646680560755,36.0702548934645],[-86.7646926010316,36.0703010739723],[-86.7647139420849,36.0703482923557],[-86.7647320145235,36.070396400314],[-86.7647550182255,36.0704614518757],[-86.7647809158744,36.070525781165],[-86.7648096711642,36.0705893063932],[-86.7639460270434,36.0708607054973],[-86.7638926733129,36.0706610519497]]]},"properties":{"id":"198058","parcel":"14611006500","address":"604 BARRYWOOD DR","owner":"MOSS, SHEILA E.","point":[-86.76442481227761,36.07049294259363]}},{"type":"Feature","id":"198441","geometry":{"type":"Polygon","coordinates":[[[-86.7613357010616,36.0736089701951],[-86.7621631071631,36.0735070426304],[-86.7622046654517,36.0737001784431],[-86.7622254435615,36.0737967463478],[-86.7622265684095,36.0738089183515],[-86.7622253217661,36.0738210819161],[-86.7622217340382,36.0738329349176],[-86.7622158945481,36.0738441829709],[-86.7622079493739,36.0738545457524],[-86.7621980958768,36.0738637651467],[-86.7621865783301,36.0738716124841],[-86.7621736857154,36.0738778903573],[-86.7621597363025,36.0738824453372],[-86.7621450775966,36.0738851625656],[-86.7614257150597,36.0739622323319],[-86.7613357010616,36.0736089701951]]]},"properties":{"id":"198441","parcel":"14607009100","address":"4952 STILLWOOD DR","owner":"HENNINGER, ALLEN & STAVRUM, MADELINE MAE","point":[-86.76179293582317,36.07374762423007]}},{"type":"Feature","id":"198442","geometry":{"type":"Polygon","coordinates":[[[-86.7612014326269,36.0725922800396],[-86.7611692134753,36.0723375493697],[-86.7611545209232,36.0722167675582],[-86.7621526720114,36.0724192437681],[-86.7621346231778,36.0725083124083],[-86.762120135463,36.0725978082733],[-86.7621092235302,36.0726876384393],[-86.7612014326269,36.0725922800396]]]},"properties":{"id":"198442","parcel":"14607009500","address":"4968 STILLWOOD DR","owner":"BROWN, EMMETT R.","point":[-86.76166429286121,36.07246282588741]}},{"type":"Feature","id":"198468","geometry":{"type":"Polygon","coordinates":[[[-86.7658398953709,36.0732079291011],[-86.765853794856,36.0731754241297],[-86.7658697425488,36.0731799932943],[-86.7659260206216,36.0730505197486],[-86.7660122107445,36.0730752460557],[-86.7659797729706,36.0731504493495],[-86.7659926660776,36.0731539383338],[-86.7659767732923,36.0731903017883],[-86.7659289279832,36.0731765952461],[-86.765920982148,36.0731947787683],[-86.7659338778922,36.0731985408328],[-86.765919975786,36.0732307709368],[-86.7658398953709,36.0732079291011]]]},"properties":{"id":"198468","parcel":"146070A00200CO","address":"5002 REGENT DR","owner":"FINCH, WILLIAM HADDEN IV & HANNAH","point":[-86.76594750141375,36.07311275302626]}},{"type":"Feature","id":"198474","geometry":{"type":"Polygon","coordinates":[[[-86.7634555790672,36.0705297604604],[-86.7634888130321,36.0704514379073],[-86.7635188604229,36.0703722711896],[-86.7635456865394,36.0702923452508],[-86.7635692633596,36.0702117467942],[-86.7635942164344,36.0701152922362],[-86.7636158516727,36.0700183107037],[-86.7636341531623,36.0699208780077],[-86.7636491072117,36.0698230699447],[-86.7636499355569,36.0698079563765],[-86.7636539700028,36.0697931866187],[-86.7636610893784,36.0697792057745],[-86.7636710801419,36.0697664351973],[-86.7636836395813,36.0697552589508],[-86.7636983912777,36.0697460156003],[-86.7637148882714,36.0697389810674],[-86.7637326363816,36.0697343693842],[-86.7637510985089,36.0697323182452],[-86.7638217055328,36.0697393750115],[-86.7638916234173,36.0697500376576],[-86.7639605720051,36.0697642637971],[-86.7640282765414,36.069781995688],[-86.7640944665985,36.0698031638447],[-86.7641588782522,36.0698276825175],[-86.7642212541339,36.0698554551004],[-86.7642813467082,36.0698863687022],[-86.7643389128014,36.0699203022926],[-86.7643937257419,36.0699571194151],[-86.7644455654221,36.069996673658],[-86.7644942260426,36.0700388059004],[-86.7645395106055,36.0700833488544],[-86.7638926733129,36.0706610519497],[-86.7634555790672,36.0705297604604]]]},"properties":{"id":"198474","parcel":"14611006600","address":"5019 STILLWOOD DR","owner":"WEST, MARK E. & SHERRI A.","point":[-86.76401478868317,36.07016437286832]}},{"type":"Feature","id":"199447","geometry":{"type":"Polygon","coordinates":[[[-86.7601119033587,36.070478366483],[-86.7605271766895,36.0700274170174],[-86.7606984861761,36.0701076486366],[-86.7607664519663,36.0701379879443],[-86.7604274773129,36.0706412040069],[-86.7603610620171,36.0706130574811],[-86.7602961815233,36.070582643509],[-86.76023295182,36.0705500172411],[-86.7601714889213,36.0705152365325],[-86.7601119033587,36.070478366483]]]},"properties":{"id":"199447","parcel":"14612009800","address":"509 ARROWWOOD DR","owner":"NUSSMEYER, SCOTT & ASHLEY","point":[-86.76046023313833,36.07030821974366]}},{"type":"Feature","id":"199601","geometry":{"type":"Polygon","coordinates":[[[-86.7605825248976,36.0724159746614],[-86.7611692134753,36.0723375493697],[-86.7612014326269,36.0725922800396],[-86.7612044759857,36.0726274237119],[-86.7606314041439,36.0727145544122],[-86.7605825248976,36.0724159746614]]]},"properties":{"id":"199601","parcel":"14608009700","address":"4913 MONTEREY DR","owner":"LAMOTTE, CHRISTOPHER H & TATUM S","point":[-86.76089360882364,36.07250413100175]}},{"type":"Feature","id":"199604","geometry":{"type":"Polygon","coordinates":[[[-86.7595607798974,36.0711609320878],[-86.7595086775276,36.071090933674],[-86.759966510164,36.0705605984078],[-86.7600046379252,36.0705845324148],[-86.7600684494044,36.0706241338169],[-86.7601342009226,36.0706615841924],[-86.7602017841941,36.0706968211306],[-86.7602710853988,36.0707297840588],[-86.760341989675,36.070760419621],[-86.7603579265938,36.0707654555468],[-86.760372545398,36.070772659274],[-86.7603854043751,36.0707818127736],[-86.7603961123076,36.0707926382127],[-86.760404345219,36.0708048077636],[-86.7604098520108,36.0708179525809],[-86.7604124667688,36.0708316726378],[-86.7604121111467,36.0708455538355],[-86.7604087933177,36.0708591743191],[-86.7604026170096,36.0708721206434],[-86.760378119022,36.0709180705842],[-86.7603557181539,36.0709647202115],[-86.7603300375834,36.0710261950979],[-86.760308150741,36.0710886302582],[-86.7602901127753,36.071151871226],[-86.7602759666076,36.0712157618094],[-86.7595607798974,36.0711609320878]]]},"properties":{"id":"199604","parcel":"14608010101","address":"4928 MONTEREY DR","owner":"MCKINNEY, KARA ELIZABETH","point":[-86.76003467039513,36.07089438404139]}},{"type":"Feature","id":"199615","geometry":{"type":"Polygon","coordinates":[[[-86.7597837281693,36.0723946392454],[-86.760397699154,36.072338022788],[-86.7604435944024,36.0726080514798],[-86.7598269591189,36.0726690796321],[-86.7598346593685,36.0726250770399],[-86.7597837281693,36.0723946392454]]]},"properties":{"id":"199615","parcel":"14608010600","address":"4908 MONTEREY DR","owner":"PENNINGTON, J. KELVIN","point":[-86.76011637045626,36.07250135123884]}},{"type":"Feature","id":"199617","geometry":{"type":"Polygon","coordinates":[[[-86.7597164449029,36.0732851347026],[-86.7597703904509,36.0729815110444],[-86.7604905450402,36.0729879586217],[-86.7604854353029,36.0730406693882],[-86.7604763254201,36.0730930232417],[-86.7604632467732,36.0731448198973],[-86.7604462529722,36.0731958616331],[-86.7604254065349,36.0732459533747],[-86.7604007866659,36.0732949035474],[-86.7603724903935,36.0733425267724],[-86.7603406225261,36.0733886385236],[-86.7603053068405,36.0734330640684],[-86.7602968827757,36.0734427114169],[-86.7602866349575,36.0734511156728],[-86.7602748365615,36.0734580515932],[-86.7602618044386,36.0734633333165],[-86.7602478847345,36.073466819861],[-86.760233450696,36.0734684178423],[-86.7602188904847,36.0734680842544],[-86.7602045905505,36.0734658292785],[-86.7601909355805,36.0734617108749],[-86.7601782896944,36.073455842113],[-86.7601836186209,36.0734470173389],[-86.7600585123888,36.0733862706926],[-86.7600049013546,36.0733626731659],[-86.7599496688718,36.0733416842524],[-86.7598930076965,36.0733233766408],[-86.7598351149476,36.0733078148805],[-86.7597761920801,36.0732950526787],[-86.7597164449029,36.0732851347026]]]},"properties":{"id":"199617","parcel":"14608010800","address":"501 BRAMBLEWOOD DR","owner":"DUNCAN, GEORGE R. & DUNCAN, MARIE H.","point":[-86.76008196888831,36.07322019972437]}},{"type":"Feature","id":"200390","geometry":{"type":"Polygon","coordinates":[[[-86.7590526895826,36.0766320258247],[-86.7590601807074,36.0765660503431],[-86.7597699382941,36.0766143218576],[-86.7608562747707,36.0766909830882],[-86.7607309164134,36.0777356846784],[-86.7604786145131,36.0779636394069],[-86.7595738269169,36.0779056106404],[-86.7596552224956,36.0773578691708],[-86.759675576192,36.0772214833124],[-86.7596752189602,36.0771841244759],[-86.7597022898539,36.0771839538888],[-86.7597249308957,36.0770036013936],[-86.7597597610626,36.0766825152598],[-86.7590526895826,36.0766320258247]]]},"properties":{"id":"200390","parcel":"14604019200","address":"4813 B TROUSDALE DR","owner":"CUBESMART, L.P.","point":[-86.76022478305623,36.07729079661734]}},{"type":"Feature","id":"200446","geometry":{"type":"Polygon","coordinates":[[[-86.7669811405227,36.0703535411433],[-86.7670309376433,36.0701840008027],[-86.767852750238,36.0703479923337],[-86.7678332561842,36.0704138583977],[-86.7678113214862,36.0704792163533],[-86.7677869688846,36.0705440074706],[-86.7669811405227,36.0703535411433]]]},"properties":{"id":"200446","parcel":"14611001000","address":"5032 REGENT DR","owner":"CHENG, SHIH-ZEN","point":[-86.76747409893007,36.07038383032704]}},{"type":"Feature","id":"200473","geometry":{"type":"Polygon","coordinates":[[[-86.7660299787624,36.0705310109214],[-86.7660796930373,36.0704736676843],[-86.7661257345276,36.0704143369901],[-86.7661679815037,36.0703531737372],[-86.7662063245091,36.0702903390549],[-86.7669234360615,36.0705451088146],[-86.7668736597013,36.0707168472072],[-86.7667233892755,36.0708540609709],[-86.7666938898015,36.0708828185795],[-86.7660299787624,36.0705310109214]]]},"properties":{"id":"200473","parcel":"14611004000","address":"5021 DOVECOTE DR","owner":"FAISON, LAURA BAKER","point":[-86.76655733466667,36.07063031396657]}},{"type":"Feature","id":"200474","geometry":{"type":"Polygon","coordinates":[[[-86.7661481172351,36.0709917790782],[-86.7657990731431,36.0707280741253],[-86.7658790128064,36.0706647094162],[-86.7659560165852,36.0705989920137],[-86.7660299787624,36.0705310109214],[-86.7666938898015,36.0708828185795],[-86.7665758895063,36.0709978525589],[-86.7665302751789,36.0710398966674],[-86.7661481172351,36.0709917790782]]]},"properties":{"id":"200474","parcel":"14611004100","address":"5017 DOVECOTE DR","owner":"HOFFMAN, AMANDA MILLS & MILLS, JAMES","point":[-86.7662247909783,36.07080540488532]}},{"type":"Feature","id":"200475","geometry":{"type":"Polygon","coordinates":[[[-86.7653960189618,36.0701965900051],[-86.7653880646946,36.0699329176895],[-86.7660535301236,36.0701660407604],[-86.7660379299119,36.0701921538265],[-86.7660242637279,36.070218972027],[-86.7659924714066,36.0702695723775],[-86.7659580647264,36.0703190329757],[-86.7659211060992,36.0703672641951],[-86.7658816601837,36.0704141790989],[-86.7658397994447,36.0704596943055],[-86.7653960189618,36.0701965900051]]]},"properties":{"id":"200475","parcel":"14611004300","address":"5016 DOVECOTE DR","owner":"RICHARDSON, STEPHANIE D. REVOCABLE TRUST","point":[-86.76571620723823,36.070194370845975]}},{"type":"Feature","id":"201812","geometry":{"type":"Polygon","coordinates":[[[-86.7624086961941,36.0737098767691],[-86.763144085769,36.0736107226254],[-86.7633240941838,36.0737502363043],[-86.7634413806459,36.0738417972986],[-86.7624681572745,36.073982016196],[-86.7624086961941,36.0737098767691]]]},"properties":{"id":"201812","parcel":"14607004600","address":"4945 STILLWOOD DR","owner":"RARIG, JEFFREY & STEPHANIE","point":[-86.76290492082052,36.07379507259863]}},{"type":"Feature","id":"201814","geometry":{"type":"Polygon","coordinates":[[[-86.7630322552339,36.0735235214927],[-86.7633325689873,36.0729414235739],[-86.7636774917602,36.0730579171494],[-86.7633240941838,36.0737502363043],[-86.763144085769,36.0736107226254],[-86.7630322552339,36.0735235214927]]]},"properties":{"id":"201814","parcel":"14607005000","address":"610 FARRELL PKWY","owner":"WEHBY, JOHN C & ANN","point":[-86.76335551020317,36.0732907210185]}},{"type":"Feature","id":"201816","geometry":{"type":"Polygon","coordinates":[[[-86.7636132126792,36.073974768495],[-86.7640196912207,36.0731722278554],[-86.7643646137654,36.0732887176701],[-86.7640192595425,36.073972195783],[-86.763943612269,36.073988059288],[-86.7636950346495,36.0740379839235],[-86.7636132126792,36.073974768495]]]},"properties":{"id":"201816","parcel":"14607005200","address":"616 FARRELL PKWY","owner":"BURTON, PAUL M. & MELISSA","point":[-86.76398997215733,36.073630059354954]}},{"type":"Feature","id":"201820","geometry":{"type":"Polygon","coordinates":[[[-86.7618901354556,36.0707308660498],[-86.7619390896211,36.0701899199167],[-86.7622801922911,36.0701921590048],[-86.7624128517169,36.0701935173957],[-86.7623367152778,36.070440142897],[-86.762336117221,36.0704420276705],[-86.7622263579865,36.0707880787551],[-86.7621606755364,36.0707712523841],[-86.762094048344,36.0707570862476],[-86.7620266388236,36.0707456153689],[-86.7619586115489,36.0707368684489],[-86.7618901354556,36.0707308660498]]]},"properties":{"id":"201820","parcel":"14611009600","address":"525 ARROWWOOD DR","owner":"SMOTHERMAN, AMY E.","point":[-86.76209672112905,36.07058641451053]}},{"type":"Feature","id":"202227","geometry":{"type":"Polygon","coordinates":[[[-86.7624681572745,36.073982016196],[-86.7634413806459,36.0738417972986],[-86.7636132126792,36.073974768495],[-86.7636950346495,36.0740379839235],[-86.7636631843417,36.0741041167739],[-86.7625276198723,36.0742541555688],[-86.7624681572745,36.073982016196]]]},"properties":{"id":"202227","parcel":"14607004500","address":"4943 STILLWOOD DR","owner":"SHARP, NATALIE ROWAN","point":[-86.76308310294279,36.07406987375273]}},{"type":"Feature","id":"202228","geometry":{"type":"Polygon","coordinates":[[[-86.7623367152778,36.070440142897],[-86.7624128517169,36.0701935173957],[-86.762655288111,36.0700689127222],[-86.7633632124613,36.0702138755757],[-86.7633553726664,36.070233420117],[-86.7633500571338,36.0702535173868],[-86.7633248728828,36.0703255979741],[-86.7632970646946,36.0703970408331],[-86.7632666574804,36.0704677818127],[-86.7632336795079,36.0705377594442],[-86.7623367152778,36.070440142897]]]},"properties":{"id":"202228","parcel":"14611009400","address":"5016 STILLWOOD DR","owner":"GREENLEAF HOLDINGS, LLC","point":[-86.7628606251855,36.070288615252785]}},{"type":"Feature","id":"203071","geometry":{"type":"Polygon","coordinates":[[[-86.7650895764989,36.0740752928555],[-86.7652896692353,36.0736806335632],[-86.76529414058,36.0736718140043],[-86.7653034597468,36.0736612178727],[-86.7653147077847,36.0736519352911],[-86.7653276060244,36.0736441960546],[-86.7653418354498,36.0736381905571],[-86.7653570477651,36.0736340661171],[-86.7653728675885,36.0736319242593],[-86.765388905748,36.0736318179264],[-86.7654047670433,36.0736337505291],[-86.7655391390959,36.0736790496094],[-86.7657822856251,36.0737610178539],[-86.765551268027,36.0742283992805],[-86.7650895764989,36.0740752928555]]]},"properties":{"id":"203071","parcel":"14607003400","address":"628 FARRELL PKWY","owner":"BOCK, GERHARD O. & DONNA F.","point":[-86.76543693303896,36.073918157819236]}},{"type":"Feature","id":"203080","geometry":{"type":"Polygon","coordinates":[[[-86.7624363438472,36.0726416158938],[-86.7629822331668,36.0728249677814],[-86.7627404368405,36.0732990049878],[-86.7623295052789,36.0733565468773],[-86.7623146586929,36.0732635367136],[-86.7623036744739,36.0731701731519],[-86.7622965658489,36.0730765633631],[-86.7622933404681,36.0729828118489],[-86.7622940026686,36.0728890249342],[-86.7622985512453,36.0727953098799],[-86.7623069805353,36.0727017721719],[-86.7623089961357,36.0726911891079],[-86.7623127578009,36.0726809248742],[-86.7623181962808,36.0726711673766],[-86.7623252111811,36.0726620984089],[-86.7623357676281,36.0726530322808],[-86.7623480488018,36.0726455325006],[-86.7623617070446,36.0726398130694],[-86.7623763531232,36.0726360359763],[-86.7623915728539,36.07263430839],[-86.7624069337384,36.0726346799127],[-86.7624219993592,36.0726371388838],[-86.7624363438472,36.0726416158938]]]},"properties":{"id":"203080","parcel":"14607004800","address":"4959 STILLWOOD DR","owner":"BUCK, ROBERT H.","point":[-86.76258608758977,36.07303026462274]}},{"type":"Feature","id":"203393","geometry":{"type":"Polygon","coordinates":[[[-86.7640192595425,36.073972195783],[-86.7644731236366,36.0738748174336],[-86.7648967876898,36.0740149807417],[-86.7647719920738,36.0742685092389],[-86.763943612269,36.073988059288],[-86.7640192595425,36.073972195783]]]},"properties":{"id":"203393","parcel":"14607003500","address":"4905 STILLWOOD DR","owner":"KHAIROLLAHI, FARID","point":[-86.7646147001604,36.07414131377304]}},{"type":"Feature","id":"203400","geometry":{"type":"Polygon","coordinates":[[[-86.7623295052789,36.0733565468773],[-86.7627404368405,36.0732990049878],[-86.7630322552339,36.0735235214927],[-86.763144085769,36.0736107226254],[-86.7624086961941,36.0737098767691],[-86.7624061517714,36.0736989043471],[-86.7623561115883,36.0734832665838],[-86.7623465700685,36.073442149737],[-86.7623295052789,36.0733565468773]]]},"properties":{"id":"203400","parcel":"14607004700","address":"4953 STILLWOOD DR","owner":"SALTSMAN, JOHN & MILLS, KATHERINE M.","point":[-86.76268376402156,36.0735033738856]}},{"type":"Feature","id":"203403","geometry":{"type":"Polygon","coordinates":[[[-86.7627404368405,36.0732990049878],[-86.7629822331668,36.0728249677814],[-86.7633325689873,36.0729414235739],[-86.7630322552339,36.0735235214927],[-86.7627404368405,36.0732990049878]]]},"properties":{"id":"203403","parcel":"14607004900","address":"608 FARRELL PKWY","owner":"STEWART, THOMAS B. & BABETTE A.","point":[-86.76303598077195,36.07312021361809]}},{"type":"Feature","id":"203406","geometry":{"type":"Polygon","coordinates":[[[-86.7633240941838,36.0737502363043],[-86.7636774917602,36.0730579171494],[-86.7640196912207,36.0731722278554],[-86.7636132126792,36.073974768495],[-86.7634413806459,36.0738417972986],[-86.7633240941838,36.0737502363043]]]},"properties":{"id":"203406","parcel":"14607005100","address":"612 FARRELL PKWY","owner":"GITTINGS, HOLLY ABERNATHY & MARK ANTHONY & ETAL","point":[-86.76367246662763,36.073461233725276]}},{"type":"Feature","id":"203409","geometry":{"type":"Polygon","coordinates":[[[-86.762336117221,36.0704420276705],[-86.7623367152778,36.070440142897],[-86.7632336795079,36.0705377594442],[-86.7631948098705,36.070609822096],[-86.7631538456614,36.0706811156745],[-86.7630996902155,36.0707716974205],[-86.7630417874656,36.0708607391218],[-86.7629802041321,36.070948137604],[-86.7629353429063,36.071007759732],[-86.7629162891783,36.0710320547065],[-86.7629077897982,36.0710405049095],[-86.7628977401112,36.0710477463799],[-86.762886395905,36.0710535945367],[-86.7628740499388,36.0710578997153],[-86.762861016453,36.0710605526735],[-86.7628476278396,36.0710614846122],[-86.7628342280158,36.0710606708226],[-86.7628211580268,36.0710581343828],[-86.762808754867,36.0710539389544],[-86.7627973337436,36.0710481915993],[-86.7627069835222,36.0709980044623],[-86.7626144983091,36.070950451714],[-86.7625201652117,36.0709057208043],[-86.7624239510959,36.0708637145991],[-86.7623259752375,36.0708244846146],[-86.7622263579865,36.0707880787551],[-86.762336117221,36.0704420276705]]]},"properties":{"id":"203409","parcel":"14611009500","address":"5012 STILLWOOD DR","owner":"JIMENEZ, JUAN & GALLAGHER, EMILY","point":[-86.76268661987903,36.07072553592951]}},{"type":"Feature","id":"203412","geometry":{"type":"Polygon","coordinates":[[[-86.7614436707655,36.0701864573755],[-86.7615952761234,36.0701876969903],[-86.7619390896211,36.0701899199167],[-86.7618901354556,36.0707308660498],[-86.7618252226187,36.0707266752171],[-86.7617601374431,36.0707250036413],[-86.7616950287277,36.0707258557895],[-86.7616300440925,36.0707292289265],[-86.7615653322244,36.070735115804],[-86.7614436707655,36.0701864573755]]]},"properties":{"id":"203412","parcel":"14611009700","address":"521 ARROWWOOD DR","owner":"HAYNES, WILLIAM J. & MELISSA J.","point":[-86.76170923882016,36.07045718283572]}},{"type":"Feature","id":"203837","geometry":{"type":"Polygon","coordinates":[[[-86.7668736597013,36.0707168472072],[-86.7669234360615,36.0705451088146],[-86.7677049028624,36.0707357306799],[-86.767675177599,36.0707974943037],[-86.7676432214763,36.0708585186467],[-86.767609059517,36.0709187512731],[-86.7676038891933,36.0709275726733],[-86.7668736597013,36.0707168472072]]]},"properties":{"id":"203837","parcel":"14611000800","address":"5028 REGENT DR","owner":"DORRIS, DAVID T.","point":[-86.76736589518015,36.07076598382478]}},{"type":"Feature","id":"203944","geometry":{"type":"Polygon","coordinates":[[[-86.7662063245091,36.0702903390549],[-86.766240607912,36.0702270768148],[-86.7662723951649,36.0701629615874],[-86.7663016546972,36.070098057567],[-86.766328357185,36.0700324316372],[-86.7670334966506,36.0701686004015],[-86.7670309376433,36.0701840008027],[-86.7669811405227,36.0703535411433],[-86.7669234360615,36.0705451088146],[-86.7662063245091,36.0702903390549]]]},"properties":{"id":"203944","parcel":"14611003900","address":"5025 DOVECOTE DR","owner":"LINCOLN, SCOTT & VALERIE","point":[-86.76661600601741,36.07025947287848]}},{"type":"Feature","id":"205443","geometry":{"type":"Polygon","coordinates":[[[-86.7669234360615,36.0705451088146],[-86.7669811405227,36.0703535411433],[-86.7677869688846,36.0705440074706],[-86.7677618098497,36.0706085261205],[-86.7677344468995,36.0706724504296],[-86.7677049028624,36.0707357306799],[-86.7669234360615,36.0705451088146]]]},"properties":{"id":"205443","parcel":"14611000900","address":"5030 REGENT DR","owner":"PATTON, KATHERINE WALLER","point":[-86.76735514093947,36.07054455880083]}},{"type":"Feature","id":"205447","geometry":{"type":"Polygon","coordinates":[[[-86.7670309376433,36.0701840008027],[-86.7670334966506,36.0701686004015],[-86.7670806921168,36.0700100651133],[-86.767913051412,36.0701454191237],[-86.7678841738606,36.0702469558442],[-86.767852750238,36.0703479923337],[-86.7670309376433,36.0701840008027]]]},"properties":{"id":"205447","parcel":"14611001100","address":"5034 REGENT DR","owner":"PATTERSON, ALEXANDER GRAY & BROWN, ABIGAIL ELIZABETH","point":[-86.76746800241438,36.070177146797114]}},{"type":"Feature","id":"205549","geometry":{"type":"Polygon","coordinates":[[[-86.7649043229312,36.0702986077074],[-86.7653960189618,36.0701965900051],[-86.7658397994447,36.0704596943055],[-86.765781620417,36.0705129344676],[-86.7657207205791,36.0705641306336],[-86.765657208936,36.0706131892741],[-86.7655911990116,36.0706600249431],[-86.7655228098904,36.0707045530601],[-86.76545216293,36.0707466944385],[-86.7653793839641,36.0707863734683],[-86.7653046044125,36.0708235181097],[-86.7652909190488,36.0708315543669],[-86.7652758526908,36.070837752647],[-86.7652597779853,36.0708419591672],[-86.7652430891488,36.0708440695788],[-86.765226198689,36.070844034396],[-86.7652095240142,36.0708418518703],[-86.7651934753086,36.0708375770807],[-86.7651784499215,36.07083131566],[-86.76516481679,36.0708232202886],[-86.7651529131267,36.0708134925179],[-86.7651003026986,36.0707239660587],[-86.7650513086063,36.0706330980374],[-86.7650059783837,36.0705409836933],[-86.7649643640479,36.0704477227435],[-86.7649265064707,36.0703534104692],[-86.7649166632009,36.0703256762516],[-86.7649043229312,36.0702986077074]]]},"properties":{"id":"205549","parcel":"14611004200","address":"615 BARRYWOOD DR","owner":"HARTLINE, WESLEY & MILES","point":[-86.76538172567386,36.07052693607591]}},{"type":"Feature","id":"213072","geometry":{"type":"Polygon","coordinates":[[[-86.7665215240058,36.0737804949838],[-86.7665773890705,36.0736724879762],[-86.766577407595,36.0736724518068],[-86.766577427221,36.0736724147292],[-86.7668191692202,36.0732050026647],[-86.766474177594,36.0730819246544],[-86.7666796654796,36.0726542540244],[-86.7668669965945,36.0723421013993],[-86.7670575408596,36.0721195927955],[-86.7673198764254,36.0717878854317],[-86.7675353065376,36.0714660144645],[-86.7676648084792,36.0712496157629],[-86.7677245380953,36.0711080636581],[-86.7678031291866,36.0709275539037],[-86.7679956568233,36.0709834404154],[-86.7679481858456,36.0712109724237],[-86.7678969047446,36.071437959055],[-86.7678418252819,36.0716643569673],[-86.7677829559327,36.0718901273459],[-86.7677203084419,36.0721152250458],[-86.7676538923958,36.0723396112446],[-86.7675837228792,36.0725632416768],[-86.7675098116996,36.072786077505],[-86.7674321717314,36.0730080753785],[-86.7673508192148,36.07322919553],[-86.7672657670429,36.0734493964105],[-86.7671770314483,36.0736686373508],[-86.7671221824518,36.0737993497619],[-86.767066024125,36.0739296955377],[-86.7665215240058,36.0737804949838]]]},"properties":{"id":"213072","parcel":"14607010500","address":"0 REGENT DR","owner":"CRIEVE HALL YOUTH ATHLETIC ASSOCIATION","point":[-86.76720965645492,36.07245264157671]}}]}