{"type":"FeatureCollection","features":[{"type":"Feature","id":"33038","geometry":{"type":"Polygon","coordinates":[[[-86.7058048722547,36.2719379597199],[-86.7058112944733,36.2718941329285],[-86.7063418914672,36.2719323449075],[-86.7063227772413,36.2720699682066],[-86.7057911871009,36.2720313176299],[-86.7058048722547,36.2719379597199]]]},"properties":{"id":"33038","parcel":"04305027400","address":"822 BROOKS AVE","owner":"PERDOMO, CONCEPCION","point":[-86.70606623753545,36.27198529814224]}},{"type":"Feature","id":"35241","geometry":{"type":"Polygon","coordinates":[[[-86.7052171851545,36.2722588211422],[-86.7052449138533,36.2720769520304],[-86.7057785673432,36.272121210368],[-86.705771838873,36.2721691449767],[-86.7057529074397,36.2723040408618],[-86.7052171851545,36.2722588211422]]]},"properties":{"id":"35241","parcel":"04305027800","address":"805 CEDARCREST AVE","owner":"WALKER, KENNETH L., JR.","point":[-86.70549478776782,36.27221398406053]}},{"type":"Feature","id":"35323","geometry":{"type":"Polygon","coordinates":[[[-86.7057529074397,36.2723040408618],[-86.705771838873,36.2721691449767],[-86.7063035981492,36.2722078135798],[-86.7062845222951,36.2723448868821],[-86.7057529074397,36.2723040408618]]]},"properties":{"id":"35323","parcel":"04305027200","address":"826 BROOKS AVE","owner":"DAVIS, TEIA & SHERON","point":[-86.70602828145805,36.27225592760877]}},{"type":"Feature","id":"35324","geometry":{"type":"Polygon","coordinates":[[[-86.7057785673432,36.272121210368],[-86.7057911871009,36.2720313176299],[-86.7063227772413,36.2720699682066],[-86.7063035981492,36.2722078135798],[-86.705771838873,36.2721691449767],[-86.7057785673432,36.272121210368]]]},"properties":{"id":"35324","parcel":"04305027300","address":"824 BROOKS AVE","owner":"TAYLOR, THOMAS JAMES, III","point":[-86.70605068873732,36.27209558963751]}},{"type":"Feature","id":"35325","geometry":{"type":"Polygon","coordinates":[[[-86.7058112944733,36.2718941329285],[-86.7058314813255,36.271756382678],[-86.705831606069,36.2717563927643],[-86.7063610303207,36.271794495245],[-86.7063563742937,36.2718280358455],[-86.7063418914672,36.2719323449075],[-86.7058112944733,36.2718941329285]]]},"properties":{"id":"35325","parcel":"04305027500","address":"820 BROOKS AVE","owner":"HENLEY, AMANDA G.","point":[-86.70608396413161,36.27186108501674]}},{"type":"Feature","id":"35433","geometry":{"type":"Polygon","coordinates":[[[-86.7057146215147,36.2725762152412],[-86.7057335201341,36.2724418693198],[-86.7062651760098,36.2724827196955],[-86.7062462386156,36.272617610277],[-86.7057146215147,36.2725762152412]]]},"properties":{"id":"35433","parcel":"04305027000","address":"830 BROOKS AVE","owner":"PARKER, JACKIE D.","point":[-86.70598990541119,36.27252946780204]}},{"type":"Feature","id":"35434","geometry":{"type":"Polygon","coordinates":[[[-86.7057335201341,36.2724418693198],[-86.7057529074397,36.2723040408618],[-86.7062845222951,36.2723448868821],[-86.7062651760098,36.2724827196955],[-86.7057335201341,36.2724418693198]]]},"properties":{"id":"35434","parcel":"04305027100","address":"828 BROOKS AVE","owner":"NEELEY, ROBERT D.","point":[-86.70600902863669,36.27239337843707]}},{"type":"Feature","id":"37691","geometry":{"type":"Polygon","coordinates":[[[-86.7052812013356,36.2718343148426],[-86.7052998104432,36.2717083945109],[-86.7058314813255,36.271756382678],[-86.7058112944733,36.2718941329285],[-86.7058048722547,36.2719379597199],[-86.705272433686,36.2718936385368],[-86.7052812013356,36.2718343148426]]]},"properties":{"id":"37691","parcel":"04305027600","address":"801 CEDARCREST AVE","owner":"COLEMAN, LEONARD O., II & DEBRA J.","point":[-86.70555636585313,36.271795349137584]}},{"type":"Feature","id":"37692","geometry":{"type":"Polygon","coordinates":[[[-86.7052449138533,36.2720769520304],[-86.705272433686,36.2718936385368],[-86.7058048722547,36.2719379597199],[-86.7057911871009,36.2720313176299],[-86.7057785673432,36.272121210368],[-86.7052449138533,36.2720769520304]]]},"properties":{"id":"37692","parcel":"04305027700","address":"803 CEDARCREST AVE","owner":"GALVEZ, WILLIAMS ADALBERTO & NORMA LISSETTE","point":[-86.70552850064256,36.27198397535389]}},{"type":"Feature","id":"55413","geometry":{"type":"Polygon","coordinates":[[[-86.7045750375314,36.2731424470124],[-86.7046405661916,36.2726959358962],[-86.7048089004917,36.2727099302056],[-86.7048094847767,36.2727101764407],[-86.7047443020226,36.2731512989461],[-86.7045750375314,36.2731424470124]]]},"properties":{"id":"55413","parcel":"04305028000","address":"328 ANDERSON LN","owner":"MCDOUGALL, LACY ELVA JEAN","point":[-86.70469215218253,36.27292631151953]}},{"type":"Feature","id":"55420","geometry":{"type":"Polygon","coordinates":[[[-86.7042621112069,36.2731236433474],[-86.7043286422877,36.2726700049972],[-86.7044711348374,36.2726818495124],[-86.7044719249783,36.2726829669462],[-86.7044059110855,36.2731323422203],[-86.704405834583,36.273132876198],[-86.7042621112069,36.2731236433474]]]},"properties":{"id":"55420","parcel":"04305028200","address":"829 BIXLER AVE","owner":"CROCHET, CHRIS","point":[-86.70436699168808,36.27290330513223]}},{"type":"Feature","id":"56224","geometry":{"type":"Polygon","coordinates":[[[-86.7044719249783,36.2726829669462],[-86.7044711348374,36.2726818495124],[-86.7046405661916,36.2726959358962],[-86.7045750375314,36.2731424470124],[-86.7045428156128,36.2731406250922],[-86.704405834583,36.273132876198],[-86.7044059110855,36.2731323422203],[-86.7044719249783,36.2726829669462]]]},"properties":{"id":"56224","parcel":"04305028100","address":"332 ANDERSON LN","owner":"CHAMPION, WILLIAM","point":[-86.70452325449638,36.272914139159646]}},{"type":"Feature","id":"98588","geometry":{"type":"Polygon","coordinates":[[[-86.7032858085778,36.2730479313824],[-86.7033533170744,36.2725850421201],[-86.7035138480869,36.272600582398],[-86.7034474451792,36.2730690529828],[-86.7032846186295,36.2730575707188],[-86.7032858085778,36.2730479313824]]]},"properties":{"id":"98588","parcel":"04305029100","address":"418 ANDERSON LN","owner":"DEJONGE, CHRISTOPHER & RACHEL","point":[-86.70340028694048,36.27282425808677]}},{"type":"Feature","id":"118001","geometry":{"type":"Polygon","coordinates":[[[-86.7072854648959,36.2745706748303],[-86.7073115829588,36.2742282496482],[-86.7074395428902,36.2742321222775],[-86.7075701603207,36.274236075646],[-86.7075560728524,36.2744013628084],[-86.7075480524528,36.2744954780792],[-86.7075480472581,36.2744955195665],[-86.7075446474822,36.2745323486534],[-86.7075412443643,36.2745691777595],[-86.7075150230545,36.2749000650416],[-86.7075131602411,36.2749193065189],[-86.7073122078467,36.2749062882157],[-86.7072565378403,36.2749026809964],[-86.7072854648959,36.2745706748303]]]},"properties":{"id":"118001","parcel":"04301012300","address":"140 SARVER AVE","owner":"GUTIERREZ, ROXANA DEL","point":[-86.70739959626162,36.2747353684081]}},{"type":"Feature","id":"118382","geometry":{"type":"Polygon","coordinates":[[[-86.7056468559229,36.2733482882318],[-86.70564686324,36.2733482350161],[-86.705787936292,36.2733568724639],[-86.7058871772434,36.2733627646716],[-86.7058871742176,36.2733627998375],[-86.7058232668026,36.2740715825441],[-86.7055807194075,36.2740600903386],[-86.7055806036363,36.2740600883107],[-86.7056152169047,36.2736881885299],[-86.7056468559229,36.2733482882318]]]},"properties":{"id":"118382","parcel":"04305026800","address":"301 ANDERSON LN","owner":"TURNER, TERRANCE D. & SHERILYN R.","point":[-86.70571946292742,36.273874437581114]}},{"type":"Feature","id":"119449","geometry":{"type":"Polygon","coordinates":[[[-86.7019311204697,36.2703990706445],[-86.7019311289259,36.2703990201261],[-86.7021837133285,36.270421176991],[-86.7025483368216,36.2704539439492],[-86.7025263619174,36.2706115628203],[-86.7025225026693,36.2706392406053],[-86.7029444430774,36.2706760640134],[-86.702944494319,36.2706760691228],[-86.7029400416786,36.2707096075107],[-86.7027312188108,36.2706904440321],[-86.7018977501768,36.2706140273728],[-86.7019069492937,36.2705547708038],[-86.7019311204697,36.2703990706445]]]},"properties":{"id":"119449","parcel":"04305026700","address":"413 ROOSEVELT AVE","owner":"WEBB, CAMELLIA A.","point":[-86.70222804794626,36.270504358815174]}},{"type":"Feature","id":"120495","geometry":{"type":"Polygon","coordinates":[[[-86.7004970704609,36.271497340182],[-86.7005641574326,36.2714112455468],[-86.7011462324232,36.2714820382801],[-86.7011094282246,36.2716932195205],[-86.7007616598192,36.2716490868241],[-86.7004970704609,36.271497340182]]]},"properties":{"id":"120495","parcel":"04306018800","address":"312 BECKLEA DR","owner":"RUIZ, KILMANY W. FUENTES","point":[-86.70087974467826,36.27157384004392]}},{"type":"Feature","id":"120497","geometry":{"type":"Polygon","coordinates":[[[-86.7001062595614,36.270574423217],[-86.7003315701898,36.2705044435907],[-86.7005392897542,36.2707471711589],[-86.7003995970613,36.270832038227],[-86.7003442506271,36.2708592671798],[-86.7002881223034,36.2708854263633],[-86.7001062595614,36.270574423217]]]},"properties":{"id":"120497","parcel":"04306020600","address":"506 A ROOSEVELT AVE","owner":"SANDERS, LLC","point":[-86.70031110183801,36.27066076813539]}},{"type":"Feature","id":"120498","geometry":{"type":"Polygon","coordinates":[[[-86.7012906076791,36.2716196485658],[-86.7013277945531,36.2714134092253],[-86.70176685035,36.2714614046961],[-86.7017340788457,36.2716681673918],[-86.7012906076791,36.2716196485658]]]},"properties":{"id":"120498","parcel":"04306021300","address":"317 BECKLEA DR","owner":"HUNTER, CHRISTOPHER L. & CRYSTAL D.","point":[-86.70152959764641,36.271540529036805]}},{"type":"Feature","id":"120499","geometry":{"type":"Polygon","coordinates":[[[-86.7012551286442,36.2718269756776],[-86.7012906076791,36.2716196485658],[-86.7017340788457,36.2716681673918],[-86.7016999699794,36.2718771359448],[-86.7012551286442,36.2718269756776]]]},"properties":{"id":"120499","parcel":"04306021400","address":"321 BECKLEA DR","owner":"WATSON, ELFRIEDE P.","point":[-86.70149491954388,36.27174757256371]}},{"type":"Feature","id":"120803","geometry":{"type":"Polygon","coordinates":[[[-86.7005641574326,36.2714112455468],[-86.7006688267386,36.2712787842816],[-86.7006963514878,36.2712456610802],[-86.7011768143214,36.2712577080232],[-86.7011773532525,36.2712828944572],[-86.7011755367928,36.2713080422844],[-86.7011713736728,36.2713330063549],[-86.7011462324232,36.2714820382801],[-86.7005641574326,36.2714112455468]]]},"properties":{"id":"120803","parcel":"04306018900","address":"308 BECKLEA DR","owner":"ECHANDI, ARMANDO ALEXEI MAS ET AL","point":[-86.70088012808968,36.27137215725621]}},{"type":"Feature","id":"120804","geometry":{"type":"Polygon","coordinates":[[[-86.7006440803451,36.2708586405905],[-86.7008512744739,36.2707349242499],[-86.7008638740707,36.2707293563448],[-86.7008773546,36.2707253640988],[-86.7008914163428,36.2707230357683],[-86.7009057514628,36.2707224227067],[-86.7009200384268,36.2707235375933],[-86.7009338197092,36.270726621008],[-86.7009468829997,36.270731325404],[-86.7009589391235,36.2707375470139],[-86.7009697230943,36.2707451485844],[-86.7009789941307,36.2707539611786],[-86.7010113547779,36.2707919687919],[-86.7010409857738,36.2708314080726],[-86.7010677936043,36.2708721506881],[-86.7010916880696,36.2709140655829],[-86.7011125944862,36.2709570144015],[-86.7011304415169,36.2710008596702],[-86.7008332171626,36.2710712587067],[-86.7006440803451,36.2708586405905]]]},"properties":{"id":"120804","parcel":"04306019100","address":"300 BECKLEA DR","owner":"WHITESIDE, WILLIE R. JR. ETUX","point":[-86.7008767895088,36.27089260072077]}},{"type":"Feature","id":"120805","geometry":{"type":"Polygon","coordinates":[[[-86.7005003176555,36.2709435313664],[-86.7006440803451,36.2708586405905],[-86.7008332171626,36.2710712587067],[-86.7006963514878,36.2712456610802],[-86.7006688267386,36.2712787842816],[-86.7004462763265,36.2709702156634],[-86.7005003176555,36.2709435313664]]]},"properties":{"id":"120805","parcel":"04306019200","address":"505 ROOSEVELT AVE","owner":"PROGRESS RESIDENTIAL BORROWER 20 LLC","point":[-86.70063551833537,36.27102072675762]}},{"type":"Feature","id":"120811","geometry":{"type":"Polygon","coordinates":[[[-86.7012299959711,36.2708272230276],[-86.7015105676378,36.2707151662687],[-86.7018533365167,36.2709000737701],[-86.7018541551171,36.2709005151285],[-86.7013096050614,36.2710064136105],[-86.7012867266985,36.2709456453019],[-86.7012601687541,36.2708858662664],[-86.7012299959711,36.2708272230276]]]},"properties":{"id":"120811","parcel":"04306021000","address":"305 BECKLEA DR","owner":"PARR, GEORGANNE DANIEL","point":[-86.70151008966224,36.270857206329545]}},{"type":"Feature","id":"120812","geometry":{"type":"Polygon","coordinates":[[[-86.7013096050614,36.2710064136105],[-86.7018541551171,36.2709005151285],[-86.7018321182798,36.271036732537],[-86.701820705196,36.2711072818249],[-86.7018131701286,36.2711587789804],[-86.7018079101238,36.271194710284],[-86.7013439785638,36.2712105884644],[-86.7013409701268,36.2711590182407],[-86.7013342208437,36.2711076815148],[-86.7013237534221,36.2710567538954],[-86.7013096050614,36.2710064136105]]]},"properties":{"id":"120812","parcel":"04306021100","address":"309 BECKLEA DR","owner":"FRYE, ELMER L. JR., ETUX","point":[-86.70157557820598,36.27104673760363]}},{"type":"Feature","id":"120926","geometry":{"type":"Polygon","coordinates":[[[-86.7006963514878,36.2712456610802],[-86.7008332171626,36.2710712587067],[-86.7011304415169,36.2710008596702],[-86.7011474738078,36.2710511129482],[-86.7011606696846,36.2711021175806],[-86.7011699784659,36.2711536809979],[-86.7011753672683,36.271205609626],[-86.7011768143214,36.2712577080232],[-86.7006963514878,36.2712456610802]]]},"properties":{"id":"120926","parcel":"04306019000","address":"304 BECKLEA DR","owner":"CRUZ, ANA M & LAZARO, FIDEL PEREZ","point":[-86.70097741444675,36.27112742962611]}},{"type":"Feature","id":"120929","geometry":{"type":"Polygon","coordinates":[[[-86.7002326879996,36.2710615535672],[-86.7003051217196,36.27103303152],[-86.7003763440705,36.271002574284],[-86.7004462763265,36.2709702156634],[-86.7006688267386,36.2712787842816],[-86.7005641574326,36.2714112455468],[-86.7004970704609,36.271497340182],[-86.7004787675142,36.2714990946255],[-86.7002326879996,36.2710615535672]]]},"properties":{"id":"120929","parcel":"04306019300","address":"509 ROOSEVELT AVE","owner":"VALLES, ARMANDO & MORENO, CARMELA","point":[-86.70044214774366,36.271170147559545]}},{"type":"Feature","id":"120940","geometry":{"type":"Polygon","coordinates":[[[-86.6998786909698,36.2706191439196],[-86.7000927082154,36.2705766998329],[-86.7001062595614,36.270574423217],[-86.7002881223034,36.2708854263633],[-86.7002117205015,36.2709164128419],[-86.7001341538648,36.2709454404226],[-86.7000554989339,36.2709724798204],[-86.6998786909698,36.2706191439196]]]},"properties":{"id":"120940","parcel":"04306020500","address":"508 ROOSEVELT AVE","owner":"TURNER, E. MARK","point":[-86.70007779663,36.27075227124925]}},{"type":"Feature","id":"120943","geometry":{"type":"Polygon","coordinates":[[[-86.7013834023929,36.270452195249],[-86.7015105676378,36.2707151662687],[-86.7012299959711,36.2708272230276],[-86.7011951379079,36.2707730113072],[-86.7011566405391,36.2707204393107],[-86.701114619918,36.2706696667816],[-86.7011069623595,36.2706593091303],[-86.701101591738,36.27064804779],[-86.7010986645518,36.2706362117058],[-86.7010982661923,36.2706241437538],[-86.7011004086951,36.27061219805],[-86.701105029451,36.2706007201313],[-86.7011119923198,36.2705900469484],[-86.7011210974788,36.270580487883],[-86.7011320769475,36.2705723220704],[-86.7011788505766,36.2705438005473],[-86.7012275264951,36.2705174480602],[-86.7012779507373,36.2704933475125],[-86.7013299637017,36.2704715737299],[-86.7013834023929,36.270452195249]]]},"properties":{"id":"120943","parcel":"04306020900","address":"501 ROOSEVELT AVE","owner":"NASIM, MINA","point":[-86.70128791546213,36.27064259891043]}},{"type":"Feature","id":"120985","geometry":{"type":"Polygon","coordinates":[[[-86.7067550700398,36.2742117266415],[-86.7068211357228,36.2734031810671],[-86.7069921650149,36.2734087732827],[-86.7069260863683,36.2742156706744],[-86.7068527931148,36.2742139021285],[-86.7067550700398,36.2742117266415]]]},"properties":{"id":"120985","parcel":"04305001200","address":"215 ANDERSON LN","owner":"MOONEYHAM, LANNY","point":[-86.706873580962,36.27381024994599]}},{"type":"Feature","id":"121051","geometry":{"type":"Polygon","coordinates":[[[-86.7054902322774,36.2741976902464],[-86.7054979625877,36.2741042247999],[-86.7055018704554,36.2740569772203],[-86.7055412737725,36.2740585325575],[-86.7055806036363,36.2740600883107],[-86.7055807194075,36.2740600903386],[-86.7058232668026,36.2740715825441],[-86.7058871742176,36.2733627998375],[-86.7058871772434,36.2733627646716],[-86.7059300576123,36.2733653612292],[-86.7063745343163,36.2733922761991],[-86.7064078605873,36.273394609388],[-86.7064078553841,36.2733946499741],[-86.7063336232191,36.2741992631673],[-86.7063336151508,36.274199356943],[-86.7062419864303,36.2741954970646],[-86.7060386971635,36.2741867955128],[-86.7057821252355,36.2741756578083],[-86.7057807875836,36.274189050777],[-86.7057783900972,36.2742130385567],[-86.7057782765195,36.2742130329113],[-86.7054903503069,36.2741976958661],[-86.7054902322774,36.2741976902464]]]},"properties":{"id":"121051","parcel":"04305001400","address":"265 ANDERSON LN","owner":"DUARTE, BASILIO DUBON","point":[-86.70611583630047,36.273726210136736]}},{"type":"Feature","id":"121194","geometry":{"type":"Polygon","coordinates":[[[-86.7018643667905,36.2729727731878],[-86.7019303507635,36.2724559591281],[-86.7021012300452,36.2724719053157],[-86.7022019675532,36.272481301263],[-86.7022101232533,36.2724829022391],[-86.7021413314999,36.2729887448989],[-86.7020272671468,36.272980067989],[-86.7018643667905,36.2729727731878]]]},"properties":{"id":"121194","parcel":"04306001900","address":"506 ANDERSON LN","owner":"HASTINGS, JOE B. ET UX","point":[-86.70203622509027,36.27272783530354]}},{"type":"Feature","id":"121601","geometry":{"type":"Polygon","coordinates":[[[-86.7000161906861,36.2711309330882],[-86.7000892597348,36.2711096822729],[-86.7001614495488,36.271086547515],[-86.7002326879996,36.2710615535672],[-86.7004787675142,36.2714990946255],[-86.7002204241811,36.2715165237197],[-86.7001695755194,36.2715206620835],[-86.7000161906861,36.2711309330882]]]},"properties":{"id":"121601","parcel":"04306019400","address":"513 ROOSEVELT AVE","owner":"MURPHY, JOHN JR & DAEMANI & JOYNER, DAISHA","point":[-86.70023194991533,36.27131497516028]}},{"type":"Feature","id":"121607","geometry":{"type":"Polygon","coordinates":[[[-86.7003315701898,36.2705044435907],[-86.7006281177613,36.2703576842973],[-86.7006598483655,36.2704018853537],[-86.7006947246965,36.2704445027153],[-86.7007326275066,36.2704853919716],[-86.7007734253132,36.2705244096846],[-86.7007803058475,36.2705368933738],[-86.7007844086228,36.270550153813],[-86.7007856087768,36.270563789775],[-86.7007838726017,36.2705773877875],[-86.7007792487608,36.2705905357032],[-86.7007718806419,36.270602835245],[-86.7007619886548,36.2706139138247],[-86.7007498758915,36.2706234353257],[-86.7005392897542,36.2707471711589],[-86.7003315701898,36.2705044435907]]]},"properties":{"id":"121607","parcel":"04306020700","address":"502 ROOSEVELT AVE","owner":"MEHR, ETHY","point":[-86.70058032695435,36.27055645954826]}},{"type":"Feature","id":"121610","geometry":{"type":"Polygon","coordinates":[[[-86.7007740399418,36.2702870654287],[-86.7011146007604,36.2701307101922],[-86.7012468422202,36.2703540958757],[-86.7011888219829,36.2703796914735],[-86.7011324695577,36.2704076232869],[-86.7010779267631,36.2704378192977],[-86.7010253342817,36.2704702047907],[-86.7010061880164,36.270474104645],[-86.7009864990146,36.2704752805017],[-86.7009668535077,36.2704736983186],[-86.7009478362103,36.2704694042725],[-86.7009300136428,36.2704625266586],[-86.700913916277,36.2704532705867],[-86.7008637380539,36.270399865901],[-86.7008170698736,36.2703444139589],[-86.7007740399418,36.2702870654287]]]},"properties":{"id":"121610","parcel":"04306020800","address":"500 ROOSEVELT AVE","owner":"NIX, EDWIN LEE ET UX","point":[-86.70101016294504,36.27031627638698]}},{"type":"Feature","id":"121613","geometry":{"type":"Polygon","coordinates":[[[-86.7013277945531,36.2714134092253],[-86.7013403966151,36.2713424646607],[-86.7013439168296,36.2712985612244],[-86.7013451113166,36.2712545757527],[-86.7013439785638,36.2712105884644],[-86.7018079101238,36.271194710284],[-86.7017993758268,36.2712476164648],[-86.701777041505,36.2713860814568],[-86.7017713797502,36.2714279272005],[-86.70176685035,36.2714614046961],[-86.7013277945531,36.2714134092253]]]},"properties":{"id":"121613","parcel":"04306021200","address":"313 BECKLEA DR","owner":"WALDEN, MARYLYN P.","point":[-86.70156479758691,36.27132106870333]}},{"type":"Feature","id":"121616","geometry":{"type":"Polygon","coordinates":[[[-86.7012492720142,36.2718577760661],[-86.7012551286442,36.2718269756776],[-86.7016999699794,36.2718771359448],[-86.7016896993587,36.2719431228183],[-86.7016691910088,36.2720789428441],[-86.7012162251392,36.2720315765663],[-86.7012492720142,36.2718577760661]]]},"properties":{"id":"121616","parcel":"04306021500","address":"325 BECKLEA DR","owner":"ANDERTON, BARRY L. & MARILYN E.","point":[-86.70145383872871,36.27198735211497]}},{"type":"Feature","id":"121678","geometry":{"type":"Polygon","coordinates":[[[-86.708355371248,36.2744094775898],[-86.7083044475404,36.2744053834068],[-86.7083016444818,36.2744713270593],[-86.7081468965068,36.2744656412926],[-86.707943249683,36.274455393106],[-86.707941292934,36.2744879031411],[-86.7079391222054,36.2745239950402],[-86.7077435776214,36.2745092145082],[-86.707710499145,36.2745068928519],[-86.7075480472581,36.2744955195665],[-86.7075480524528,36.2744954780792],[-86.7075560728524,36.2744013628084],[-86.7075701603207,36.274236075646],[-86.7074395428902,36.2742321222775],[-86.7073115829588,36.2742282496482],[-86.7071704046765,36.27422248232],[-86.7072339292787,36.2734337298985],[-86.7072990785464,36.273435312449],[-86.7096397634873,36.273492235246],[-86.7096465239033,36.2735003174953],[-86.7096561520874,36.2735118301354],[-86.7095571346971,36.2744539159671],[-86.7095479879406,36.2745409317482],[-86.7093721676814,36.2745309759261],[-86.7093763265482,36.2744650242873],[-86.7093063142269,36.2744615211163],[-86.7091699708753,36.2744546976333],[-86.7090219049995,36.2744459798725],[-86.708966315024,36.2744427073307],[-86.7088816110162,36.2744377219411],[-86.7087626592343,36.2744307166851],[-86.7086851591304,36.2744261530495],[-86.7085590023852,36.2744187248016],[-86.708355371248,36.2744094775898]]]},"properties":{"id":"121678","parcel":"04305000700","address":"101 ANDERSON LN","owner":"M.E.B. PARTNERS","point":[-86.70840887872731,36.273867151981555]}},{"type":"Feature","id":"121681","geometry":{"type":"Polygon","coordinates":[[[-86.7011793842097,36.2722383626766],[-86.7012162251392,36.2720315765663],[-86.7016691910088,36.2720789428441],[-86.7016611502084,36.2721373256518],[-86.7016494284315,36.2722224469777],[-86.7016428478979,36.2722550666749],[-86.7016357790131,36.2722901036183],[-86.7011793842097,36.2722383626766]]]},"properties":{"id":"121681","parcel":"04306021600","address":"329 BECKLEA DR","owner":"JUSTICE, JANE E. & JIMMY RANDALL","point":[-86.70142264930853,36.27217930575513]}},{"type":"Feature","id":"121690","geometry":{"type":"Polygon","coordinates":[[[-86.7000931324258,36.2702404675995],[-86.7002251932242,36.2702133314464],[-86.7003315701898,36.2705044435907],[-86.7001062595614,36.270574423217],[-86.7000927082154,36.2705766998329],[-86.6999976499912,36.2702607983056],[-86.7000931324258,36.2702404675995]]]},"properties":{"id":"121690","parcel":"04306025100","address":"505 SINGER DR","owner":"MANSFIELD, IAN HARROLD & JULIA","point":[-86.70016068788658,36.27038261123244]}},{"type":"Feature","id":"121693","geometry":{"type":"Polygon","coordinates":[[[-86.7002251932242,36.2702133314464],[-86.7004364679165,36.2701676059042],[-86.7004485331292,36.2701640409825],[-86.7004611537465,36.2701621175977],[-86.7004739941199,36.2701618881643],[-86.7004867070494,36.2701633573982],[-86.700498954977,36.2701664876017],[-86.7005104077124,36.2701711932688],[-86.7005207591986,36.2701773490992],[-86.7005297297372,36.2701847899857],[-86.7005370827381,36.2701933172253],[-86.7005426180652,36.270202701262],[-86.7005680768301,36.2702554391631],[-86.7005965982175,36.2703071391046],[-86.7006281177613,36.2703576842973],[-86.7003315701898,36.2705044435907],[-86.7002251932242,36.2702133314464]]]},"properties":{"id":"121693","parcel":"04306025200","address":"501 SINGER DR","owner":"KISAK, MICHAEL","point":[-86.70044037504769,36.270331981066086]}},{"type":"Feature","id":"121716","geometry":{"type":"Polygon","coordinates":[[[-86.7064078553841,36.2733946499741],[-86.7064078605873,36.273394609388],[-86.7068211357228,36.2734031810671],[-86.7067550700398,36.2742117266415],[-86.7066491970175,36.2742085001191],[-86.706445599835,36.2742030977732],[-86.7063336151508,36.274199356943],[-86.7063336232191,36.2741992631673],[-86.7064078553841,36.2733946499741]]]},"properties":{"id":"121716","parcel":"04305001300","address":"243 ANDERSON LN","owner":"MCBRIDE, ROBERT A.","point":[-86.70657948135769,36.27380122753833]}},{"type":"Feature","id":"121719","geometry":{"type":"Polygon","coordinates":[[[-86.7053132917652,36.2733375467645],[-86.7053142098712,36.2733262786575],[-86.70564686324,36.2733482350161],[-86.7056468559229,36.2733482882318],[-86.7056152169047,36.2736881885299],[-86.7055806036363,36.2740600883107],[-86.7055412737725,36.2740585325575],[-86.7055018704554,36.2740569772203],[-86.7052473319483,36.2740452767595],[-86.7052756588315,36.2737413444382],[-86.7053132847446,36.2733376333241],[-86.7053132917652,36.2733375467645]]]},"properties":{"id":"121719","parcel":"04305001500","address":"315 ANDERSON LN","owner":"CARTER REALTY INVESTMENTS","point":[-86.7054454396132,36.27371476660904]}},{"type":"Feature","id":"121723","geometry":{"type":"Polygon","coordinates":[[[-86.7027837619635,36.273164851779],[-86.7027862569617,36.2731648129377],[-86.7027870304638,36.2731648093412],[-86.7027870307915,36.2731648462899],[-86.7027911827093,36.2731648951474],[-86.7037076330451,36.273227634834],[-86.7053132917652,36.2733375467645],[-86.7053132847446,36.2733376333241],[-86.7052756588315,36.2737413444382],[-86.7052473319483,36.2740452767595],[-86.705228036291,36.2742843484709],[-86.7052039423769,36.2745828378008],[-86.705188818083,36.2747509948179],[-86.7051888162661,36.2747510407916],[-86.7030771736949,36.2746131320791],[-86.7026554180903,36.2745855889069],[-86.702646839467,36.2745851458034],[-86.7026383806817,36.2745839080139],[-86.7026332886552,36.2745829075037],[-86.7026308943517,36.274582257212],[-86.7026227855733,36.2745796970765],[-86.7026139210118,36.2745760021719],[-86.7026056634866,36.2745714782061],[-86.7025981304258,36.2745661884839],[-86.702597193191,36.2745654269806],[-86.7025904138713,36.2745587819242],[-86.702581868418,36.2745480194742],[-86.7025810859208,36.2745466334161],[-86.7025807090888,36.2745459344453],[-86.7025803333777,36.2745452363691],[-86.7025796241122,36.2745438246507],[-86.7025789603584,36.2745423991493],[-86.7025783299054,36.2745409635406],[-86.7025766583934,36.2745365968564],[-86.7025765577923,36.2745362973297],[-86.7025761756447,36.2745351243397],[-86.7025757295597,36.2745336444],[-86.7025753290263,36.2745321551832],[-86.7025749740524,36.2745306575903],[-86.7025746568791,36.2745291552717],[-86.7025743162138,36.2745276395709],[-86.7025739766616,36.2745261238638],[-86.7025737549816,36.2745244704836],[-86.7025736079249,36.2745144117452],[-86.7025737619733,36.2745129562552],[-86.7025739572252,36.2745115032295],[-86.7025744383987,36.2745077765264],[-86.7026987717838,36.2732219057229],[-86.7026993832973,36.2732184450259],[-86.7027007997271,36.2732152599334],[-86.7027032553745,36.2732091514976],[-86.7027043079585,36.2732069824111],[-86.7027052808256,36.2732053626409],[-86.7027062894426,36.2732037579839],[-86.7027118744294,36.2731959712765],[-86.7027130976179,36.273194465409],[-86.7027143532496,36.2731929782788],[-86.7027201404501,36.2731872857693],[-86.7027224972845,36.2731853470258],[-86.7027283057742,36.273181051308],[-86.7027389382919,36.2731750314148],[-86.7027504471134,36.2731701834398],[-86.7027549014787,36.2731688192042],[-86.7027598777115,36.2731673149461],[-86.702764639264,36.2731664527149],[-86.7027667106775,36.2731660900896],[-86.7027713727743,36.2731654339183],[-86.702773844315,36.2731652600283],[-86.7027763194342,36.2731651131545],[-86.702778798132,36.273164993297],[-86.7027803491884,36.2731649410186],[-86.7027812793754,36.273164909474],[-86.7027837619635,36.273164851779]]]},"properties":{"id":"121723","parcel":"04305001600","address":"319 ANDERSON LN","owner":"METRO GOV'T  S  AMQUI","point":[-86.70394798842466,36.27389006631739]}},{"type":"Feature","id":"122427","geometry":{"type":"Polygon","coordinates":[[[-86.7069260863683,36.2742156706744],[-86.7069921650149,36.2734087732827],[-86.707236466131,36.2734139365212],[-86.7072339292787,36.2734337298985],[-86.7071704046765,36.27422248232],[-86.7070564088513,36.2742215017952],[-86.7069260863683,36.2742156706744]]]},"properties":{"id":"122427","parcel":"04305001100","address":"211 ANDERSON LN","owner":"MOONEYHAM, LANNY","point":[-86.70708027286354,36.27382470104905]}},{"type":"Feature","id":"122430","geometry":{"type":"Polygon","coordinates":[[[-86.7019311289259,36.2703990201261],[-86.7019311204697,36.2703990706445],[-86.7019069492937,36.2705547708038],[-86.7018977501768,36.2706140273728],[-86.7018650654145,36.2708301291727],[-86.7018541551171,36.2709005151285],[-86.7018533365167,36.2709000737701],[-86.7015105676378,36.2707151662687],[-86.7013834023929,36.270452195249],[-86.7014454434272,36.2704352398109],[-86.7015087419772,36.2704216674943],[-86.7015730147709,36.2704115376209],[-86.7016320754169,36.2704030259514],[-86.7016916105421,36.2703970701094],[-86.7017514533365,36.2703936845813],[-86.7018114336276,36.2703928811698],[-86.7018713822601,36.2703946608571],[-86.7019311289259,36.2703990201261]]]},"properties":{"id":"122430","parcel":"04306023200","address":"417 ROOSEVELT AVE","owner":"LOPEZ, AIDE GUILLEN & TORREZ, JULIO CESAR TORRES","point":[-86.70168794095177,36.270664556527514]}},{"type":"Feature","id":"122439","geometry":{"type":"Polygon","coordinates":[[[-86.7006664578371,36.2700899073624],[-86.7011003357496,36.2699753142688],[-86.7011146007604,36.2701307101922],[-86.7007740399418,36.2702870654287],[-86.7007422261168,36.2702396222334],[-86.7007136381848,36.2701908517301],[-86.700688356432,36.2701408976536],[-86.7006664578371,36.2700899073624]]]},"properties":{"id":"122439","parcel":"04306025300","address":"297 BECKLEA DR","owner":"POWERS, TOMMY, JR. & WANDA","point":[-86.70089417442964,36.270135785846314]}},{"type":"Feature","id":"122832","geometry":{"type":"Polygon","coordinates":[[[-86.7064152916147,36.2726298082946],[-86.7064382615488,36.2724665033617],[-86.7069862629619,36.2725187881507],[-86.7069719245825,36.2726344691296],[-86.7069666377997,36.2726771285421],[-86.7069659327417,36.2726770686785],[-86.7064152916147,36.2726298082946]]]},"properties":{"id":"122832","parcel":"04305004700","address":"827 A BROOKS AVE","owner":"NECHIFOR, GICA & VERONICA","point":[-86.7067012465961,36.27257429971501]}},{"type":"Feature","id":"122836","geometry":{"type":"Polygon","coordinates":[[[-86.7064382615488,36.2724665033617],[-86.706461298844,36.2723108900763],[-86.7070092724643,36.2723604279505],[-86.7069862629619,36.2725187881507],[-86.7064382615488,36.2724665033617]]]},"properties":{"id":"122836","parcel":"04305004800","address":"825 A BROOKS AVE","owner":"ZLAVOG, MARICICA & GABRIEL","point":[-86.70672384067005,36.27241346617817]}},{"type":"Feature","id":"122840","geometry":{"type":"Polygon","coordinates":[[[-86.7065282250411,36.2718270313525],[-86.7065505989012,36.2716730702585],[-86.7071009098982,36.2717176210123],[-86.7071012384589,36.2717176470283],[-86.7070782701001,36.2718809512229],[-86.7070779370547,36.2718809216281],[-86.706527586456,36.2718314304171],[-86.7065282250411,36.2718270313525]]]},"properties":{"id":"122840","parcel":"04305005200","address":"817 A BROOKS AVE","owner":"MPES2, LLC & TAG REALTY LLC","point":[-86.70681486111471,36.27177233985139]}},{"type":"Feature","id":"122844","geometry":{"type":"Polygon","coordinates":[[[-86.7065711774171,36.2715345848723],[-86.706581322316,36.2714663181577],[-86.7071299298254,36.2715114555246],[-86.7071197214902,36.2715840359776],[-86.7071088745769,36.2716610145948],[-86.7071012384589,36.2717176470283],[-86.7071009098982,36.2717176210123],[-86.7065505989012,36.2716730702585],[-86.7065711774171,36.2715345848723]]]},"properties":{"id":"122844","parcel":"04305005300","address":"815 BROOKS AVE","owner":"CHANDLER, STEVEN R. & DEBRA H.","point":[-86.70683630514192,36.27162184418759]}},{"type":"Feature","id":"122930","geometry":{"type":"Polygon","coordinates":[[[-86.7066086729986,36.2712617829699],[-86.7066393569121,36.2710506357254],[-86.7071853207289,36.2711040300991],[-86.7071579961,36.2713113122537],[-86.7066086729986,36.2712617829699]]]},"properties":{"id":"122930","parcel":"04305005500","address":"809 BROOKS AVE","owner":"BALL, RICHARD ARLEN REVOCABLE LIVING TRUST","point":[-86.7068975335609,36.27118290819847]}},{"type":"Feature","id":"122934","geometry":{"type":"Polygon","coordinates":[[[-86.7076846135934,36.2713252604848],[-86.7077327624619,36.2709425999082],[-86.7079274030605,36.2709594585623],[-86.7080179362747,36.2709673007223],[-86.7080178749528,36.2709677868483],[-86.707969794357,36.2713499640806],[-86.7078818870128,36.2713425850598],[-86.7077477669517,36.2713314832242],[-86.7076846135934,36.2713252604848]]]},"properties":{"id":"122934","parcel":"04305005900","address":"221 ROOSEVELT AVE","owner":"KAZEMI, ESSY M.","point":[-86.70785124607465,36.2711465237905]}},{"type":"Feature","id":"122938","geometry":{"type":"Polygon","coordinates":[[[-86.7080178749528,36.2709677868483],[-86.7080179362747,36.2709673007223],[-86.7081132847102,36.2709765691986],[-86.7083004237586,36.2709947626771],[-86.7082529194318,36.2713730252812],[-86.7080666233954,36.2713578504371],[-86.707969794357,36.2713499640806],[-86.7080178749528,36.2709677868483]]]},"properties":{"id":"122938","parcel":"04305006000","address":"219 ROOSEVELT AVE","owner":"MEHR, ETHY","point":[-86.7081351288134,36.271172363544736]}},{"type":"Feature","id":"122942","geometry":{"type":"Polygon","coordinates":[[[-86.7059496083783,36.2709266531106],[-86.7059725483468,36.2707600570428],[-86.706502149506,36.2708047594059],[-86.7064792516329,36.2709724584464],[-86.7064639365513,36.271084624894],[-86.705930940508,36.2710388435781],[-86.7059496083783,36.2709266531106]]]},"properties":{"id":"122942","parcel":"04305007100","address":"804 BROOKS AVE","owner":"ALEX HOLDING, LLC","point":[-86.70622591456308,36.27086570666559]}},{"type":"Feature","id":"122946","geometry":{"type":"Polygon","coordinates":[[[-86.7059214820647,36.2711207581705],[-86.705930940508,36.2710388435781],[-86.7064639365513,36.271084624894],[-86.7064409583828,36.2712468304415],[-86.7063993125432,36.2715223215045],[-86.7059268650196,36.2714839134536],[-86.7058698349419,36.271479277128],[-86.7058697223928,36.2714792615631],[-86.7058926773469,36.2713143111109],[-86.7059091085254,36.2712038992465],[-86.7059214820647,36.2711207581705]]]},"properties":{"id":"122946","parcel":"04305007200","address":"812 BROOKS AVE","owner":"ALEX HOLDING LLC","point":[-86.70616677742298,36.27128057099137]}},{"type":"Feature","id":"122950","geometry":{"type":"Polygon","coordinates":[[[-86.7056858967166,36.2727791088903],[-86.7057146215147,36.2725762152412],[-86.7062462386156,36.272617610277],[-86.7062188691755,36.2728199481864],[-86.7060396179817,36.2728050624996],[-86.7058631989042,36.2727921174924],[-86.7056858967166,36.2727791088903]]]},"properties":{"id":"122950","parcel":"04305007700","address":"832 BROOKS AVE","owner":"ROSAS, OSCAR CARAPIA","point":[-86.70596632442377,36.27269836054422]}},{"type":"Feature","id":"122954","geometry":{"type":"Polygon","coordinates":[[[-86.7050821621829,36.2731732526298],[-86.7051461599216,36.2727405057292],[-86.7053309575646,36.2727537228247],[-86.7055100921018,36.2727665355961],[-86.7056858967166,36.2727791088903],[-86.7058631989042,36.2727921174924],[-86.7060396179817,36.2728050624996],[-86.705981193107,36.2732396501099],[-86.7059810762452,36.2732405249917],[-86.705803799692,36.2732272604576],[-86.7056246408249,36.2732145879506],[-86.7054513865918,36.2732013030215],[-86.7052722707637,36.2731880754813],[-86.7050821621829,36.2731732526298]]]},"properties":{"id":"122954","parcel":"04305008000","address":"304 ANDERSON LN","owner":"MATTHEW MEM. METHODIST CHURCH, TRS.","point":[-86.70556213521449,36.27298916159349]}},{"type":"Feature","id":"122960","geometry":{"type":"Polygon","coordinates":[[[-86.7051461599216,36.2727405057292],[-86.7051789034081,36.2725315441736],[-86.7057146215147,36.2725762152412],[-86.7056858967166,36.2727791088903],[-86.7055100921018,36.2727665355961],[-86.7053309575646,36.2727537228247],[-86.7051461599216,36.2727405057292]]]},"properties":{"id":"122960","parcel":"04305008400","address":"813 CEDARCREST AVE","owner":"JACKSON, MARIE C FAMILY TRUST","point":[-86.70543101660414,36.2726583623657]}},{"type":"Feature","id":"123136","geometry":{"type":"Polygon","coordinates":[[[-86.7063252272559,36.2732582927708],[-86.7063865832835,36.2728343503826],[-86.706585524908,36.2728507688033],[-86.7065267717361,36.2732620589451],[-86.7063252272559,36.2732582927708]]]},"properties":{"id":"123136","parcel":"04305004500","address":"835 BROOKS AVE","owner":"NEEDER, JOHN HENRY JR","point":[-86.70645556749017,36.273054531331844]}},{"type":"Feature","id":"123141","geometry":{"type":"Polygon","coordinates":[[[-86.706581322316,36.2714663181577],[-86.7066086729986,36.2712617829699],[-86.7071579961,36.2713113122537],[-86.7071299298254,36.2715114555246],[-86.706581322316,36.2714663181577]]]},"properties":{"id":"123141","parcel":"04305005400","address":"811 BROOKS AVE","owner":"MULDER, LKLC","point":[-86.70686940482523,36.2713888149309]}},{"type":"Feature","id":"123209","geometry":{"type":"Polygon","coordinates":[[[-86.7054213799927,36.2708910617311],[-86.7054227200281,36.2708819369971],[-86.7059496083783,36.2709266531106],[-86.705930940508,36.2710388435781],[-86.7059214820647,36.2711207581705],[-86.7053939315338,36.2710776896505],[-86.7054213799927,36.2708910617311]]]},"properties":{"id":"123209","parcel":"04305009000","address":"733 CEDARCREST AVE","owner":"ENCALADA, ANDRES A. & OLGA P.","point":[-86.70567418109276,36.27098209380638]}},{"type":"Feature","id":"123242","geometry":{"type":"Polygon","coordinates":[[[-86.7069719245825,36.2726344691296],[-86.7069862629619,36.2725187881507],[-86.7070092724643,36.2723604279505],[-86.7070323048159,36.2722042648192],[-86.7070532819338,36.272045916484],[-86.7070735266306,36.2719122672099],[-86.7070782701001,36.2718809512229],[-86.7071012384589,36.2717176470283],[-86.7071088745769,36.2716610145948],[-86.7092105300196,36.2719360334695],[-86.7100872466825,36.2720259310237],[-86.7099827640083,36.2727077951544],[-86.7099775865958,36.2727075723208],[-86.7070438131878,36.2725816317793],[-86.7069502905093,36.2732724061154],[-86.7069502425459,36.273272768693],[-86.7068823779754,36.2732709675147],[-86.7069385727921,36.2728772725744],[-86.7069666377997,36.2726771285421],[-86.7069719245825,36.2726344691296]]]},"properties":{"id":"123242","parcel":"04305004300","address":"730 GALLATIN PIKE","owner":"NOL HOLDINGS LLC","point":[-86.70851024826672,36.27244330390259]}},{"type":"Feature","id":"123244","geometry":{"type":"Polygon","coordinates":[[[-86.7063865832835,36.2728343503826],[-86.7064152916147,36.2726298082946],[-86.7069659327417,36.2726770686785],[-86.7069666377997,36.2726771285421],[-86.7069385727921,36.2728772725744],[-86.7069377742456,36.2728772132575],[-86.7067612085592,36.2728639639967],[-86.706585524908,36.2728507688033],[-86.7063865832835,36.2728343503826]]]},"properties":{"id":"123244","parcel":"04305004600","address":"833 BROOKS AVE","owner":"WOLF, KIIMBERLY A & CHANCE H","point":[-86.70667661570741,36.27275573982782]}},{"type":"Feature","id":"123246","geometry":{"type":"Polygon","coordinates":[[[-86.7064842734917,36.2721481348446],[-86.7065072861154,36.2719897747092],[-86.7070532819338,36.272045916484],[-86.7070323048159,36.2722042648192],[-86.7064842734917,36.2721481348446]]]},"properties":{"id":"123246","parcel":"04305005000","address":"821 A BROOKS AVE","owner":"GRISSOM GROUP, LLC","point":[-86.70676911018641,36.272097026818464]}},{"type":"Feature","id":"123260","geometry":{"type":"Polygon","coordinates":[[[-86.7045970597516,36.2708092884628],[-86.7046227168659,36.2706426723147],[-86.7052441748177,36.2706956190492],[-86.7052745338935,36.270698205083],[-86.7052705741089,36.270724733569],[-86.7052489243547,36.2708697652827],[-86.7045984799511,36.2708094198748],[-86.7045970597516,36.2708092884628]]]},"properties":{"id":"123260","parcel":"04305009200","address":"701 BIXLER AVE","owner":"BOWERS, MARK R. & JERI LYNN","point":[-86.70493391844697,36.27076701174099]}},{"type":"Feature","id":"123264","geometry":{"type":"Polygon","coordinates":[[[-86.704576583317,36.2709478549415],[-86.7045970597516,36.2708092884628],[-86.7045984799511,36.2708094198748],[-86.7052489243547,36.2708697652827],[-86.70523046278,36.2710061229033],[-86.7045783376404,36.2709480123442],[-86.704576583317,36.2709478549415]]]},"properties":{"id":"123264","parcel":"04305009300","address":"703 BIXLER AVE","owner":"SIGMA PROPERTIES, LLC","point":[-86.70491300053351,36.27090881119372]}},{"type":"Feature","id":"123268","geometry":{"type":"Polygon","coordinates":[[[-86.704447490079,36.2718391771217],[-86.7044768842957,36.2716390285958],[-86.7044778912082,36.2716391164552],[-86.7051287296227,36.2716962076743],[-86.7051081686331,36.2718353244579],[-86.705087761373,36.2719733390237],[-86.7044373663935,36.2719179303035],[-86.7044359406898,36.2719178079339],[-86.704447490079,36.2718391771217]]]},"properties":{"id":"123268","parcel":"04305009800","address":"805 BIXLER AVE","owner":"HAYWOOD, CLAY H.","point":[-86.70478847987448,36.271764952043455]}},{"type":"Feature","id":"123273","geometry":{"type":"Polygon","coordinates":[[[-86.7037358185236,36.2710082426349],[-86.703753585398,36.2708696920876],[-86.7044109116947,36.2709339871995],[-86.7043877329357,36.2710742177511],[-86.7037358185236,36.2710082426349]]]},"properties":{"id":"123273","parcel":"04305010500","address":"708 BIXLER AVE","owner":"WHITE, ANDERSON","point":[-86.70407266223211,36.27097111365485]}},{"type":"Feature","id":"123278","geometry":{"type":"Polygon","coordinates":[[[-86.7036941986562,36.2712875772559],[-86.7037358185236,36.2710082426349],[-86.7043877329357,36.2710742177511],[-86.7043494537929,36.2713474903429],[-86.7036941986562,36.2712875772559]]]},"properties":{"id":"123278","parcel":"04305010600","address":"710 BIXLER AVE","owner":"FUSCH, KELSEY ADDISON & NIEHL, ADAM","point":[-86.70404144507602,36.2711808991942]}},{"type":"Feature","id":"123282","geometry":{"type":"Polygon","coordinates":[[[-86.7036559511629,36.2715646949883],[-86.7036941986562,36.2712875772559],[-86.7043494537929,36.2713474903429],[-86.7043078505593,36.2716284734231],[-86.7036559511629,36.2715646949883]]]},"properties":{"id":"123282","parcel":"04305010700","address":"800 BIXLER AVE","owner":"MEHR, KAMRAN KAMI","point":[-86.70400215316738,36.271456091810784]}},{"type":"Feature","id":"123285","geometry":{"type":"Polygon","coordinates":[[[-86.7035138480869,36.272600582398],[-86.703541207086,36.2723960488754],[-86.7041883057651,36.2724532624782],[-86.7041575562018,36.2726578168088],[-86.7039973434691,36.2726436787557],[-86.7038363833588,36.2726294709414],[-86.7036767202903,36.2726151769539],[-86.7035138480869,36.272600582398]]]},"properties":{"id":"123285","parcel":"04305011200","address":"826 BIXLER AVE","owner":"SHAMS PROPERTIES, LLC","point":[-86.70385046048266,36.272526921388234]}},{"type":"Feature","id":"123289","geometry":{"type":"Polygon","coordinates":[[[-86.7034474451792,36.2730690529828],[-86.7035138480869,36.272600582398],[-86.7036767202903,36.2726151769539],[-86.7038363833588,36.2726294709414],[-86.7037706015699,36.2730913455507],[-86.7036516894146,36.2730838817237],[-86.7036103897834,36.2730812904775],[-86.7035923382834,36.2730799346612],[-86.7034474451792,36.2730690529828]]]},"properties":{"id":"123289","parcel":"04305011400","address":"416 ANDERSON LN","owner":"KENT, CHRISTOPHER BRUCE (LE)","point":[-86.70364183958173,36.272849261940344]}},{"type":"Feature","id":"123626","geometry":{"type":"Polygon","coordinates":[[[-86.7045616479258,36.2710628460995],[-86.704576583317,36.2709478549415],[-86.7045783376404,36.2709480123442],[-86.70523046278,36.2710061229033],[-86.7052106238369,36.2711402913367],[-86.7045588009921,36.271084758244],[-86.7045616479258,36.2710628460995]]]},"properties":{"id":"123626","parcel":"04305009400","address":"705 BIXLER AVE","owner":"FRANKLIN, TIMOTHY DAVID","point":[-86.70489579309714,36.27103448432214]}},{"type":"Feature","id":"123628","geometry":{"type":"Polygon","coordinates":[[[-86.703541207086,36.2723960488754],[-86.7035794553818,36.2721189312486],[-86.7042292895518,36.2721788756681],[-86.7041883057651,36.2724532624782],[-86.703541207086,36.2723960488754]]]},"properties":{"id":"123628","parcel":"04305011100","address":"824 BIXLER AVE","owner":"AUGUSTIN, ALMEOLIE & KLIYE, YAOVI T.","point":[-86.70388462809497,36.27228746123299]}},{"type":"Feature","id":"123630","geometry":{"type":"Polygon","coordinates":[[[-86.7037706015699,36.2730913455507],[-86.7038363833588,36.2726294709414],[-86.7039973434691,36.2726436787557],[-86.7041575562018,36.2726578168088],[-86.7040910399096,36.2731131033358],[-86.7039301540201,36.2731036014658],[-86.7038138443145,36.2730946671444],[-86.7037706015699,36.2730913455507]]]},"properties":{"id":"123630","parcel":"04305011300","address":"402 ANDERSON LN","owner":"SMITH, JERRY N.","point":[-86.70396368016718,36.27287458035438]}},{"type":"Feature","id":"123632","geometry":{"type":"Polygon","coordinates":[[[-86.7031236052078,36.2730462146757],[-86.7031926513321,36.2725694879932],[-86.7033533170744,36.2725850421201],[-86.7032858085778,36.2730479313824],[-86.7032846186295,36.2730575707188],[-86.7032844048012,36.2730575557408],[-86.7031236052078,36.2730462146757]]]},"properties":{"id":"123632","parcel":"04305011500","address":"420 ANDERSON LN","owner":"RISCH, OLIVER D. & STEPHANIE M. SWENGROSH","point":[-86.7032383449903,36.272815628170015]}},{"type":"Feature","id":"123634","geometry":{"type":"Polygon","coordinates":[[[-86.7030040269189,36.2714976173645],[-86.7030422392067,36.2712166544739],[-86.7036941986562,36.2712875772559],[-86.7036559511629,36.2715646949883],[-86.7030040269189,36.2714976173645]]]},"properties":{"id":"123634","parcel":"04305012100","address":"745 DELAWARE AVE","owner":"CARNEY, C. LOY, JR.","point":[-86.70334900625397,36.271392597545734]}},{"type":"Feature","id":"123638","geometry":{"type":"Polygon","coordinates":[[[-86.701978339019,36.2702682873873],[-86.7019654586928,36.270267149135],[-86.7019654683577,36.2702671094245],[-86.7020494904957,36.2699261980651],[-86.7020535596048,36.2699078730092],[-86.7025585173936,36.2699584658333],[-86.7025577757814,36.2699634440712],[-86.7025046517608,36.2703144277651],[-86.7023476796914,36.2703015727973],[-86.7022886161596,36.2702956758595],[-86.702239264252,36.2702906516394],[-86.701978339019,36.2702682873873]]]},"properties":{"id":"123638","parcel":"04306035200","address":"424 ROOSEVELT AVE","owner":"SIMPSON, PAUL WAYNE","point":[-86.7022688700885,36.27011529516091]}},{"type":"Feature","id":"123781","geometry":{"type":"Polygon","coordinates":[[[-86.7030422392067,36.2712166544739],[-86.7030785116511,36.2709461409546],[-86.7037358185236,36.2710082426349],[-86.7036941986562,36.2712875772559],[-86.7030422392067,36.2712166544739]]]},"properties":{"id":"123781","parcel":"04305012200","address":"743 DELAWARE AVE","owner":"FLORES, MIRIAM BRIZENDY & ROSAS, ERICK CARAPIA","point":[-86.70338824621626,36.27111244711807]}},{"type":"Feature","id":"123783","geometry":{"type":"Polygon","coordinates":[[[-86.7018541551171,36.2709005151285],[-86.7018650654145,36.2708301291727],[-86.7029093832613,36.2709245992097],[-86.7028745253594,36.2712016969963],[-86.7021900802928,36.2711397483063],[-86.7018211585424,36.2711073233529],[-86.701820705196,36.2711072818249],[-86.7018321182798,36.271036732537],[-86.7018541551171,36.2709005151285]]]},"properties":{"id":"123783","parcel":"04305012700","address":"740 DELAWARE AVE","owner":"ROSALES, DOMINGO JUAREZ & LOPEZ, ALBERTA CRUZ","point":[-86.70237178279376,36.2709806696556]}},{"type":"Feature","id":"123785","geometry":{"type":"Polygon","coordinates":[[[-86.7018131701286,36.2711587789804],[-86.701820705196,36.2711072818249],[-86.7018211585424,36.2711073233529],[-86.7021900802928,36.2711397483063],[-86.7028745253594,36.2712016969963],[-86.7028363177833,36.271483759313],[-86.702192606667,36.2714248695619],[-86.7017778646764,36.2713861586895],[-86.701777041505,36.2713860814568],[-86.7017993758268,36.2712476164648],[-86.7018079101238,36.271194710284],[-86.7018131701286,36.2711587789804]]]},"properties":{"id":"123785","parcel":"04305012800","address":"744 DELAWARE AVE","owner":"MABRY, DOUGLAS W. & DANA","point":[-86.7023233874601,36.27131818219076]}},{"type":"Feature","id":"123787","geometry":{"type":"Polygon","coordinates":[[[-86.7016691910088,36.2720789428441],[-86.7016896993587,36.2719431228183],[-86.701691317738,36.2719432603238],[-86.7021975815893,36.2719863226936],[-86.7027624869143,36.2720330335541],[-86.7027263287024,36.2723167322057],[-86.7022000690889,36.2722670505756],[-86.7016494284315,36.2722224469777],[-86.7016611502084,36.2721373256518],[-86.7016691910088,36.2720789428441]]]},"properties":{"id":"123787","parcel":"04305013100","address":"812 DELAWARE AVE","owner":"ORTIZ, ALEX & JULIE","point":[-86.70220887031537,36.2721094892559]}},{"type":"Feature","id":"123789","geometry":{"type":"Polygon","coordinates":[[[-86.7021413314999,36.2729887448989],[-86.7022101232533,36.2724829022391],[-86.702373081062,36.2724967887792],[-86.7023042491681,36.2729982373414],[-86.7022064947718,36.2729922145953],[-86.7021413314999,36.2729887448989]]]},"properties":{"id":"123789","parcel":"04305013500","address":"504 ANDERSON LN","owner":"RAMON-MOLINA, EFREN","point":[-86.7022570499034,36.272742766511726]}},{"type":"Feature","id":"123793","geometry":{"type":"Polygon","coordinates":[[[-86.7095857829607,36.2709673722348],[-86.7096266867143,36.270600208663],[-86.7097135993421,36.2706079392301],[-86.7097138254877,36.2706079631367],[-86.7098826895352,36.2706250763524],[-86.7098787122039,36.2706556859044],[-86.709859892604,36.2708005072059],[-86.7098433228906,36.2709280052207],[-86.7098351973676,36.2709905339157],[-86.7096709223648,36.2709752772702],[-86.7095857829607,36.2709673722348]]]},"properties":{"id":"123793","parcel":"04305014000","address":"104 ROOSEVELT AVE","owner":"ALDANA, DAVID ORTIZ & ORTIZ, YANIRA","point":[-86.7097409056425,36.270727785017435]}},{"type":"Feature","id":"123795","geometry":{"type":"Polygon","coordinates":[[[-86.7093330169948,36.2709438989567],[-86.7093740898274,36.270576968804],[-86.7095452164963,36.2705940944446],[-86.7096266867143,36.270600208663],[-86.7095857829607,36.2709673722348],[-86.7095068512974,36.2709600426367],[-86.7093330169948,36.2709438989567]]]},"properties":{"id":"123795","parcel":"04305014100","address":"108 ROOSEVELT AVE","owner":"CLARK, BRADLEY","point":[-86.70947989765233,36.27077205401438]}},{"type":"Feature","id":"123797","geometry":{"type":"Polygon","coordinates":[[[-86.7091720270739,36.2709289486013],[-86.7092063663161,36.2705609224607],[-86.7093740898274,36.270576968804],[-86.7093330169948,36.2709438989567],[-86.7091720270739,36.2709289486013]]]},"properties":{"id":"123797","parcel":"04305014200","address":"112 ROOSEVELT AVE","owner":"RUIZ, JOSEFINA & JOSE LUIS","point":[-86.70927141769299,36.27075295475998]}},{"type":"Feature","id":"123799","geometry":{"type":"Polygon","coordinates":[[[-86.7084415743248,36.2708611128494],[-86.7084777641025,36.2704926750299],[-86.7085266460272,36.270496234049],[-86.7086950579671,36.2705133768068],[-86.7086648338557,36.270881845505],[-86.7086467319979,36.2708801644926],[-86.7084854594236,36.2708651887454],[-86.7084415743248,36.2708611128494]]]},"properties":{"id":"123799","parcel":"04305014600","address":"208 ROOSEVELT AVE","owner":"TURNER FAMILY TRUST","point":[-86.70856972628071,36.270687248334454]}},{"type":"Feature","id":"123801","geometry":{"type":"Polygon","coordinates":[[[-86.7081484371725,36.2708338866638],[-86.7081878163095,36.2704652545072],[-86.708358941384,36.270482383637],[-86.7084777641025,36.2704926750299],[-86.7084415743248,36.2708611128494],[-86.7083156366555,36.270849415731],[-86.7081484371725,36.2708338866638]]]},"properties":{"id":"123801","parcel":"04305014700","address":"212 ROOSEVELT AVE","owner":"GATES, DAVID M","point":[-86.70831383565177,36.270663282755976]}},{"type":"Feature","id":"123803","geometry":{"type":"Polygon","coordinates":[[[-86.7072727213947,36.2704821526585],[-86.7072833522503,36.2703810013775],[-86.7075135351271,36.2704016298457],[-86.7074774756427,36.2707715707624],[-86.7072386813084,36.270749390215],[-86.7072727213947,36.2704821526585]]]},"properties":{"id":"123803","parcel":"04305015200","address":"234 ROOSEVELT AVE","owner":"NEBLETT, WILLIE L. JR., & YVETTE","point":[-86.70737415344622,36.270616061314534]}},{"type":"Feature","id":"123816","geometry":{"type":"Polygon","coordinates":[[[-86.7065267717361,36.2732620589451],[-86.706585524908,36.2728507688033],[-86.7067612085592,36.2728639639967],[-86.7069377742456,36.2728772132575],[-86.7069385727921,36.2728772725744],[-86.7068823779754,36.2732709675147],[-86.7066997928763,36.2732663926177],[-86.7065267717361,36.2732620589451]]]},"properties":{"id":"123816","parcel":"04305004400","address":"240 ANDERSON LN","owner":"MOLINA, JUAN NICANOR & LAURA","point":[-86.7067326833151,36.27306966596825]}},{"type":"Feature","id":"123818","geometry":{"type":"Polygon","coordinates":[[[-86.706461298844,36.2723108900763],[-86.7064842734917,36.2721481348446],[-86.7070323048159,36.2722042648192],[-86.7070092724643,36.2723604279505],[-86.706461298844,36.2723108900763]]]},"properties":{"id":"123818","parcel":"04305004900","address":"823 A BROOKS AVE","owner":"ROBERSON, DENNIS & LISA","point":[-86.70674663104967,36.27225757737042]}},{"type":"Feature","id":"123820","geometry":{"type":"Polygon","coordinates":[[[-86.7065072861154,36.2719897747092],[-86.706527586456,36.2718314304171],[-86.7070779370547,36.2718809216281],[-86.7070782701001,36.2718809512229],[-86.7070735266306,36.2719122672099],[-86.7070532819338,36.272045916484],[-86.7065072861154,36.2719897747092]]]},"properties":{"id":"123820","parcel":"04305005100","address":"819 A BROOKS AVE","owner":"LARA, SALVADOR & OLIVA","point":[-86.70678994766388,36.271951020170505]}},{"type":"Feature","id":"123835","geometry":{"type":"Polygon","coordinates":[[[-86.7068194622359,36.2698947724613],[-86.7068226705875,36.2698763963956],[-86.7073415761765,36.2699230646305],[-86.7073341767037,36.2699752490205],[-86.7073308213901,36.2699983448384],[-86.7073062462046,36.2702094565877],[-86.7067795728985,36.2701649488243],[-86.7068194622359,36.2698947724613]]]},"properties":{"id":"123835","parcel":"04305015500","address":"701 BROOKS AVE","owner":"LARSON, CARL PETER & GERALD","point":[-86.70705650775847,36.2700816503603]}},{"type":"Feature","id":"123856","geometry":{"type":"Polygon","coordinates":[[[-86.7054227200281,36.2708819369971],[-86.7054476927765,36.2707147749075],[-86.7059725483468,36.2707600570428],[-86.7059496083783,36.2709266531106],[-86.7054227200281,36.2708819369971]]]},"properties":{"id":"123856","parcel":"04305009100","address":"309 ROOSEVELT AVE","owner":"ASSCHEN HOLDINGS, LLC","point":[-86.7056979942181,36.27082099822262]}},{"type":"Feature","id":"123890","geometry":{"type":"Polygon","coordinates":[[[-86.704497363285,36.2715004594463],[-86.704517164453,36.2713618960408],[-86.7045181713219,36.2713619793938],[-86.7051689699976,36.2714152322522],[-86.7051491455064,36.2715510480343],[-86.7044980371048,36.2715005122964],[-86.704497363285,36.2715004594463]]]},"properties":{"id":"123890","parcel":"04305009600","address":"801 BIXLER AVE","owner":"HUNTER, HOMER C. & CAROL D.","point":[-86.7048331001611,36.27145784615716]}},{"type":"Feature","id":"123892","geometry":{"type":"Polygon","coordinates":[[[-86.7044768842957,36.2716390285958],[-86.704497363285,36.2715004594463],[-86.7044980371048,36.2715005122964],[-86.7051491455064,36.2715510480343],[-86.7051287296227,36.2716962076743],[-86.7044778912082,36.2716391164552],[-86.7044768842957,36.2716390285958]]]},"properties":{"id":"123892","parcel":"04305009700","address":"803 BIXLER AVE","owner":"BROWN, STEPHANIE","point":[-86.7048131748962,36.271595039182856]}},{"type":"Feature","id":"123894","geometry":{"type":"Polygon","coordinates":[[[-86.7048094847767,36.2727101764407],[-86.7048089004917,36.2727099302056],[-86.7048094406898,36.2727099748208],[-86.7049770711217,36.2727239108156],[-86.7049137893495,36.273161048777],[-86.7047443020226,36.2731512989461],[-86.7048094847767,36.2727101764407]]]},"properties":{"id":"123894","parcel":"04305010200","address":"324 ANDERSON LN","owner":"VANARSDAL, ALAN H. & SUSAN F.","point":[-86.70486100759382,36.272937605734185]}},{"type":"Feature","id":"123896","geometry":{"type":"Polygon","coordinates":[[[-86.703753585398,36.2708696920876],[-86.7037740410756,36.2707283780031],[-86.7044286920154,36.2707970839255],[-86.7044109116947,36.2709339871995],[-86.703753585398,36.2708696920876]]]},"properties":{"id":"123896","parcel":"04305010400","address":"706 BIXLER AVE","owner":"GILLESPIE, LEAH BILLIE","point":[-86.70409141480016,36.270833389166455]}},{"type":"Feature","id":"123898","geometry":{"type":"Polygon","coordinates":[[[-86.7035794553818,36.2721189312486],[-86.70361770341,36.2718418135867],[-86.7042675548703,36.2719039558076],[-86.7042292895518,36.2721788756681],[-86.7035794553818,36.2721189312486]]]},"properties":{"id":"123898","parcel":"04305011000","address":"806 BIXLER AVE","owner":"CAMPOS, MELVIN GIOVANNI SANCHEZ","point":[-86.70392344201306,36.27201144386871]}},{"type":"Feature","id":"123900","geometry":{"type":"Polygon","coordinates":[[[-86.7028667194534,36.2725400686344],[-86.7028954026475,36.2723316810862],[-86.703541207086,36.2723960488754],[-86.7035138480869,36.272600582398],[-86.7033533170744,36.2725850421201],[-86.7031926513321,36.2725694879932],[-86.7030330832454,36.2725550835543],[-86.7028667194534,36.2725400686344]]]},"properties":{"id":"123900","parcel":"04305011700","address":"819 DELAWARE AVE","owner":"MOLINA, FAUSTO G & MARTHA","point":[-86.70320410452635,36.27246805958202]}},{"type":"Feature","id":"123902","geometry":{"type":"Polygon","coordinates":[[[-86.7028954026475,36.2723316810862],[-86.7029309154933,36.2720518326123],[-86.7035794553818,36.2721189312486],[-86.703541207086,36.2723960488754],[-86.7028954026475,36.2723316810862]]]},"properties":{"id":"123902","parcel":"04305011800","address":"813 DELAWARE AVE","owner":"COYLE, JULIAN T. JR.","point":[-86.70323683317679,36.27222530517995]}},{"type":"Feature","id":"123932","geometry":{"type":"Polygon","coordinates":[[[-86.7025263619174,36.2706115628203],[-86.7025483368216,36.2704539439492],[-86.70290243638,36.2704859481869],[-86.7029058429175,36.2704873018596],[-86.7029142524854,36.2704913211324],[-86.7029197260016,36.270494580615],[-86.7029292913045,36.2705011634925],[-86.7029386033897,36.270509814378],[-86.7029421417814,36.2705138619809],[-86.7029490494577,36.270523846261],[-86.7029555579268,36.2705392646172],[-86.7029564679853,36.2705427389993],[-86.7029571672262,36.2705466625224],[-86.7029584486407,36.2705605088817],[-86.7029591188905,36.2705655555144],[-86.7029479165923,36.27065021166],[-86.702944494319,36.2706760691228],[-86.7029444430774,36.2706760640134],[-86.7025225026693,36.2706392406053],[-86.7025263619174,36.2706115628203]]]},"properties":{"id":"123932","parcel":"04305012500","address":"730 DELAWARE AVE","owner":"HARWOOD, BREANNA","point":[-86.70274602958537,36.27056250360961]}},{"type":"Feature","id":"123936","geometry":{"type":"Polygon","coordinates":[[[-86.7078503435171,36.2704342696744],[-86.7078639120229,36.2704341902042],[-86.7080214684597,36.2704514001833],[-86.7079805872614,36.2708182989905],[-86.7078116502366,36.2708026075003],[-86.7078503435171,36.2704342696744]]]},"properties":{"id":"123936","parcel":"04305014900","address":"224 ROOSEVELT AVE","owner":"BROOKS, KEINON JABAAR","point":[-86.70791599911213,36.270627002522694]}},{"type":"Feature","id":"123976","geometry":{"type":"Polygon","coordinates":[[[-86.706700659134,36.2706994176135],[-86.7067396432652,36.270435379535],[-86.7072727213947,36.2704821526585],[-86.7072386813084,36.270749390215],[-86.7072382881065,36.2707493537628],[-86.706700659134,36.2706994176135]]]},"properties":{"id":"123976","parcel":"04305015300","address":"719 BROOKS AVE","owner":"MADEWELL, KATHRYN ELIZABETH","point":[-86.70698779753579,36.27059078819261]}},{"type":"Feature","id":"123978","geometry":{"type":"Polygon","coordinates":[[[-86.7077327927369,36.2700356099687],[-86.7077328010848,36.2700355477344],[-86.7078959392858,36.270050515354],[-86.7079073074141,36.2700515572887],[-86.7079072816283,36.2700517854527],[-86.7078639120229,36.2704341902042],[-86.7078503435171,36.2704342696744],[-86.7076826195034,36.2704182212223],[-86.7077327927369,36.2700356099687]]]},"properties":{"id":"123978","parcel":"04305015800","address":"229 GARNER AVE","owner":"OBRIEN, SHANE PATRICK","point":[-86.70779657547367,36.270235007363524]}},{"type":"Feature","id":"123980","geometry":{"type":"Polygon","coordinates":[[[-86.708404310807,36.2700978589836],[-86.7084043480276,36.2700975406287],[-86.7084732833097,36.2701042527138],[-86.7084734693328,36.2701042705493],[-86.7085693604978,36.2701136048763],[-86.7085266460272,36.270496234049],[-86.7084777641025,36.2704926750299],[-86.708358941384,36.270482383637],[-86.708404310807,36.2700978589836]]]},"properties":{"id":"123980","parcel":"04305016200","address":"213 GARNER AVE","owner":"CUMMINS, TERONA YVETTE","point":[-86.70846473730555,36.270297995735596]}},{"type":"Feature","id":"123982","geometry":{"type":"Polygon","coordinates":[[[-86.7085266460272,36.270496234049],[-86.7085693604978,36.2701136048763],[-86.7086339336756,36.2701191456012],[-86.7087431795803,36.2701285177449],[-86.7087430871896,36.2701292627087],[-86.7086950579671,36.2705133768068],[-86.7085266460272,36.270496234049]]]},"properties":{"id":"123982","parcel":"04305016300","address":"209 GARNER AVE","owner":"TURNER, PHILIP","point":[-86.70863363580884,36.27031274543274]}},{"type":"Feature","id":"123984","geometry":{"type":"Polygon","coordinates":[[[-86.7088661783218,36.2705299536899],[-86.7089115788378,36.2701445733807],[-86.7090815120527,36.2701600330768],[-86.7091446425279,36.2701657793646],[-86.7092517662197,36.2701755321076],[-86.7092516834223,36.27017622925],[-86.7092063663161,36.2705609224607],[-86.7090387429592,36.2705461108937],[-86.7090372949506,36.2705459814994],[-86.7088661783218,36.2705299536899]]]},"properties":{"id":"123984","parcel":"04305016500","address":"117 GARNER AVE","owner":"WILLIAMS, KECHELLE","point":[-86.70905893149144,36.27035309163031]}},{"type":"Feature","id":"123986","geometry":{"type":"Polygon","coordinates":[[[-86.7092516834223,36.27017622925],[-86.7092517662197,36.2701755321076],[-86.7093624292746,36.2701870403207],[-86.709416785495,36.2701926910645],[-86.7093740898274,36.270576968804],[-86.7092063663161,36.2705609224607],[-86.7092516834223,36.27017622925]]]},"properties":{"id":"123986","parcel":"04305016600","address":"109 GARNER AVE","owner":"PLEMONS, SCOTT D","point":[-86.70931219274054,36.27037680831144]}},{"type":"Feature","id":"123988","geometry":{"type":"Polygon","coordinates":[[[-86.7093740898274,36.270576968804],[-86.709416785495,36.2701926910645],[-86.7094655008435,36.2701966796701],[-86.7095858463339,36.2702065320447],[-86.709585757016,36.2702073707199],[-86.7095452164963,36.2705940944446],[-86.7093740898274,36.270576968804]]]},"properties":{"id":"123988","parcel":"04305016700","address":"107 GARNER AVE","owner":"LASH, JENNIFER","point":[-86.70948050383434,36.27039217122203]}},{"type":"Feature","id":"124661","geometry":{"type":"Polygon","coordinates":[[[-86.7060471965727,36.2703618681202],[-86.7060690184309,36.2702140972683],[-86.7065981694169,36.2702632611484],[-86.7065736304586,36.2704121303703],[-86.7063538325235,36.2703905922558],[-86.7060471965727,36.2703618681202]]]},"properties":{"id":"124661","parcel":"04305021800","address":"716 BROOKS AVE","owner":"GONZALEZ, CECILIA S. GONZALEZ","point":[-86.70632225444778,36.270312563899864]}},{"type":"Feature","id":"124664","geometry":{"type":"Polygon","coordinates":[[[-86.7063095230855,36.2706586682277],[-86.7063538325235,36.2703905922558],[-86.7065736304586,36.2704121303703],[-86.7065354317239,36.2706785610929],[-86.7063095230855,36.2706586682277]]]},"properties":{"id":"124664","parcel":"04305021900","address":"308 ROOSEVELT AVE","owner":"DAVIS, FABIAN L. & WESLEY, DEBORAH ANN","point":[-86.70644293003485,36.27053540269518]}},{"type":"Feature","id":"124667","geometry":{"type":"Polygon","coordinates":[[[-86.7055200900613,36.2703061081583],[-86.7055446318138,36.2701610847193],[-86.7060690184309,36.2702140972683],[-86.7060471965727,36.2703618681202],[-86.7057785570197,36.2703326158042],[-86.7055200900613,36.2703061081583]]]},"properties":{"id":"124667","parcel":"04305022200","address":"709 CEDARCREST AVE","owner":"BINGHAM INVESTMENTS, LLC","point":[-86.70579505689818,36.270260104265226]}},{"type":"Feature","id":"124752","geometry":{"type":"Polygon","coordinates":[[[-86.7025046517608,36.2703144277651],[-86.7025577757814,36.2699634440712],[-86.7025585173936,36.2699584658333],[-86.7030862526312,36.2700113366561],[-86.7030534794542,36.2702913478633],[-86.7030507980384,36.270301099524],[-86.7030467839309,36.2703105462079],[-86.7030409734323,36.2703193571545],[-86.7030336493805,36.2703274234713],[-86.7030284397103,36.270331950047],[-86.7030244218248,36.2703349493032],[-86.7030193447254,36.2703382359066],[-86.703011067627,36.2703426244106],[-86.7030101432165,36.2703430524678],[-86.7030000753613,36.2703469385838],[-86.702989479212,36.270349736374],[-86.7029822614764,36.270350968891],[-86.7029726964363,36.2703518167141],[-86.7029594632783,36.2703516827953],[-86.7025046517608,36.2703144277651]]]},"properties":{"id":"124752","parcel":"04305024100","address":"728 DELAWARE AVE","owner":"BRADFORD, JIMMY N & BELINDA","point":[-86.70279970266351,36.270150671229814]}},{"type":"Feature","id":"124755","geometry":{"type":"Polygon","coordinates":[[[-86.7038876477634,36.2701963029536],[-86.7038896348266,36.2701784333697],[-86.704227367359,36.2702125288919],[-86.7041991493771,36.2704670286951],[-86.7038610266976,36.2704356165424],[-86.7038876477634,36.2701963029536]]]},"properties":{"id":"124755","parcel":"04305025500","address":"404 ROOSEVELT AVE","owner":"MOLINA, FAUSTO GONZALO & MARTHA P.","point":[-86.70404421736372,36.27032407290933]}},{"type":"Feature","id":"124914","geometry":{"type":"Polygon","coordinates":[[[-86.7060690184309,36.2702140972683],[-86.7060881265181,36.2700784089246],[-86.7066172697358,36.2701286740751],[-86.7065981694169,36.2702632611484],[-86.7060690184309,36.2702140972683]]]},"properties":{"id":"124914","parcel":"04305021700","address":"708 BROOKS AVE","owner":"SPEER, SAMUEL D. & FAITH N.","point":[-86.70634312035692,36.27017138592808]}},{"type":"Feature","id":"124917","geometry":{"type":"Polygon","coordinates":[[[-86.7055446318138,36.2701610847193],[-86.7055644105422,36.270029244434],[-86.7060881265181,36.2700784089246],[-86.7060690184309,36.2702140972683],[-86.7055446318138,36.2701610847193]]]},"properties":{"id":"124917","parcel":"04305022300","address":"705 CEDARCREST AVE","owner":"FARR, BILLY J.","point":[-86.70581657219536,36.270119747605904]}},{"type":"Feature","id":"124974","geometry":{"type":"Polygon","coordinates":[[[-86.7032456662821,36.2701172760386],[-86.7032794977967,36.2698431094325],[-86.7039198301068,36.269906995972],[-86.7038896348266,36.2701784333697],[-86.7038876477634,36.2701963029536],[-86.7032434173642,36.2701355031237],[-86.7032456662821,36.2701172760386]]]},"properties":{"id":"124974","parcel":"04305023700","address":"707 DELAWARE AVE","owner":"PACE, JORDAN & BRANDI","point":[-86.70358339192904,36.27001213807763]}},{"type":"Feature","id":"124978","geometry":{"type":"Polygon","coordinates":[[[-86.7066488459531,36.2709820970507],[-86.7066680394429,36.2708433457393],[-86.707216003045,36.2708928826981],[-86.7071962078258,36.2710314465588],[-86.7071853207289,36.2711040300991],[-86.7066393569121,36.2710506357254],[-86.7066488459531,36.2709820970507]]]},"properties":{"id":"124978","parcel":"04305005600","address":"807 BROOKS AVE","owner":"THEILEN, THOMAS G. III","point":[-86.7069323219673,36.27093748995986]}},{"type":"Feature","id":"124982","geometry":{"type":"Polygon","coordinates":[[[-86.7071088745769,36.2716610145948],[-86.7071197214902,36.2715840359776],[-86.7071299298254,36.2715114555246],[-86.7071579961,36.2713113122537],[-86.7071853207289,36.2711040300991],[-86.7071962078258,36.2710314465588],[-86.707216003045,36.2708928826981],[-86.7077327624619,36.2709425999082],[-86.7076846135934,36.2713252604848],[-86.7077477669517,36.2713314832242],[-86.7078818870128,36.2713425850598],[-86.707969794357,36.2713499640806],[-86.7080666233954,36.2713578504371],[-86.7082529194318,36.2713730252812],[-86.7083004237586,36.2709947626771],[-86.7086137451434,36.2710240926051],[-86.7095284662586,36.2711097112685],[-86.7101120931526,36.2711643358285],[-86.7101139885409,36.2711644598775],[-86.7101269139123,36.2711662476912],[-86.7101393329207,36.271169654397],[-86.7101509376439,36.2711745970881],[-86.7101614431669,36.2711809521668],[-86.7101705854295,36.2711885634687],[-86.7101781401451,36.2711972421509],[-86.7101839206235,36.2712067721125],[-86.7101877834166,36.2712169189739],[-86.7101896316645,36.271227430958],[-86.710189420742,36.2712380478695],[-86.710115768379,36.2718060058321],[-86.7100872466825,36.2720259310237],[-86.7092105300196,36.2719360334695],[-86.7071088745769,36.2716610145948]]]},"properties":{"id":"124982","parcel":"04305005700","address":"720 GALLATIN PIKE","owner":"KAZEMI, NASRIN","point":[-86.70865099305072,36.27144458312151]}},{"type":"Feature","id":"124989","geometry":{"type":"Polygon","coordinates":[[[-86.7058445867354,36.2716579253386],[-86.7058499236005,36.2716178296913],[-86.7063822094208,36.2716586686414],[-86.7063610303207,36.271794495245],[-86.705831606069,36.2717563927643],[-86.7058314813255,36.271756382678],[-86.7058445867354,36.2716579253386]]]},"properties":{"id":"124989","parcel":"04305007300","address":"818 BROOKS AVE","owner":"GREENLEAF HOLDINGS, LLC","point":[-86.70610623886054,36.271707813376516]}},{"type":"Feature","id":"124991","geometry":{"type":"Polygon","coordinates":[[[-86.7024698738293,36.2730066161254],[-86.7025360486748,36.272511774551],[-86.7026990125875,36.2725262103708],[-86.7026327937754,36.2730161054085],[-86.7024698738293,36.2730066161254]]]},"properties":{"id":"124991","parcel":"04305025300","address":"500 ANDERSON LN","owner":"M & S PROPERTIES","point":[-86.7025842702724,36.2727664128785]}},{"type":"Feature","id":"124994","geometry":{"type":"Polygon","coordinates":[[[-86.7058560094622,36.2715752314406],[-86.7058697223928,36.2714792615631],[-86.7058698349419,36.271479277128],[-86.7059268650196,36.2714839134536],[-86.7063993125432,36.2715223215045],[-86.7063993021289,36.2715224017755],[-86.7063822094208,36.2716586686414],[-86.7058499236005,36.2716178296913],[-86.7058560094622,36.2715752314406]]]},"properties":{"id":"124994","parcel":"04305025900","address":"816 BROOKS AVE","owner":"GREENLEAF HOLDINGS, LLC","point":[-86.7061278919631,36.2715488174971]}},{"type":"Feature","id":"124995","geometry":{"type":"Polygon","coordinates":[[[-86.705981193107,36.2732396501099],[-86.7060396179817,36.2728050624996],[-86.7062188691755,36.2728199481864],[-86.7061575916721,36.2732526770814],[-86.7059810762452,36.2732405249917],[-86.705981193107,36.2732396501099]]]},"properties":{"id":"124995","parcel":"04305007800","address":"300 ANDERSON LN","owner":"MATTHEW MEMORIAL METHODIST CHURCH, TRS.","point":[-86.70609927840857,36.27302979736179]}},{"type":"Feature","id":"124999","geometry":{"type":"Polygon","coordinates":[[[-86.7051789034081,36.2725315441736],[-86.7052171851545,36.2722588211422],[-86.7057529074397,36.2723040408618],[-86.7057335201341,36.2724418693198],[-86.7057146215147,36.2725762152412],[-86.7051789034081,36.2725315441736]]]},"properties":{"id":"124999","parcel":"04305008500","address":"809 CEDARCREST AVE","owner":"DOWNING, RONALD L. SR.","point":[-86.70547228273175,36.272372288191214]}},{"type":"Feature","id":"125001","geometry":{"type":"Polygon","coordinates":[[[-86.7053664799761,36.2712712363653],[-86.7053939315338,36.2710776896505],[-86.7059214820647,36.2711207581705],[-86.7059091085254,36.2712038992465],[-86.7058926773469,36.2713143111109],[-86.7053664799761,36.2712712363653]]]},"properties":{"id":"125001","parcel":"04305026200","address":"737 CEDARCREST AVE","owner":"CHESTER PARTNERSHIP, GP","point":[-86.70564870412073,36.27116167288815]}},{"type":"Feature","id":"125003","geometry":{"type":"Polygon","coordinates":[[[-86.7052998104432,36.2717083945109],[-86.7053401088913,36.2714340112374],[-86.7058697223928,36.2714792615631],[-86.7058560094622,36.2715752314406],[-86.7058499236005,36.2716178296913],[-86.7058445867354,36.2716579253386],[-86.7058314813255,36.271756382678],[-86.7052998104432,36.2717083945109]]]},"properties":{"id":"125003","parcel":"04305008800","address":"745 CEDARCREST AVE","owner":"GREENLEAF HOLDINGS, LLC","point":[-86.70558470017488,36.27159587047956]}},{"type":"Feature","id":"125004","geometry":{"type":"Polygon","coordinates":[[[-86.7044174845845,36.2720547151002],[-86.7044359406898,36.2719178079339],[-86.7044373663935,36.2719179303035],[-86.705087761373,36.2719733390237],[-86.7050672764275,36.2721102608332],[-86.7050672207331,36.2721102557507],[-86.7044174845845,36.2720547151002]]]},"properties":{"id":"125004","parcel":"04305026400","address":"807 BIXLER AVE","owner":"WANG, YUTIEN TERRY","point":[-86.70475231591485,36.272014026773995]}},{"type":"Feature","id":"125008","geometry":{"type":"Polygon","coordinates":[[[-86.7053401088913,36.2714340112374],[-86.7053664799761,36.2712712363653],[-86.7058926773469,36.2713143111109],[-86.7058697223928,36.2714792615631],[-86.7053401088913,36.2714340112374]]]},"properties":{"id":"125008","parcel":"04305008900","address":"741 CEDARCREST AVE","owner":"TAMAYO, CRYSTAL ANN","point":[-86.70561708407237,36.27137416319475]}},{"type":"Feature","id":"125086","geometry":{"type":"Polygon","coordinates":[[[-86.7045484234393,36.2711538363549],[-86.7045588009921,36.271084758244],[-86.7052106238369,36.2711402913367],[-86.7051689699976,36.2714152322522],[-86.7045181713219,36.2713619793938],[-86.704517164453,36.2713618960408],[-86.7045484234393,36.2711538363549]]]},"properties":{"id":"125086","parcel":"04305009500","address":"707 BIXLER AVE","owner":"FLORES, ROSA ELIDA","point":[-86.7048626792248,36.271258680717075]}},{"type":"Feature","id":"125092","geometry":{"type":"Polygon","coordinates":[[[-86.704392385744,36.2722273913942],[-86.7043976886497,36.2721932802305],[-86.7050461204799,36.2722488313042],[-86.705007799049,36.2725171591802],[-86.7043583096399,36.2724618249455],[-86.7043559639086,36.2724616250231],[-86.704392385744,36.2722273913942]]]},"properties":{"id":"125092","parcel":"04305010000","address":"823 BIXLER AVE","owner":"CRAIG, AARON K. & CAITLIN E.","point":[-86.70470172155754,36.27235523034085]}},{"type":"Feature","id":"125098","geometry":{"type":"Polygon","coordinates":[[[-86.7037740410756,36.2707283780031],[-86.7037937262267,36.2705766302702],[-86.7044517338843,36.2706414709386],[-86.7044286920154,36.2707970839255],[-86.7037740410756,36.2707283780031]]]},"properties":{"id":"125098","parcel":"04305010300","address":"700 BIXLER AVE","owner":"SPANN, WILLIAM & ROSALIND","point":[-86.70411248140861,36.2706849239468]}},{"type":"Feature","id":"125104","geometry":{"type":"Polygon","coordinates":[[[-86.7036388433435,36.27170104534],[-86.7036559511629,36.2715646949883],[-86.7043078505593,36.2716284734231],[-86.7042880500716,36.2717670367768],[-86.7036388433435,36.27170104534]]]},"properties":{"id":"125104","parcel":"04305010800","address":"802 BIXLER AVE","owner":"DAVIS, TERVOR & ANTHONY","point":[-86.7039730237373,36.27166475904978]}},{"type":"Feature","id":"125109","geometry":{"type":"Polygon","coordinates":[[[-86.70361770341,36.2718418135867],[-86.7036388433435,36.27170104534],[-86.7042880500716,36.2717670367768],[-86.704277100546,36.271840170141],[-86.7042675548703,36.2719039558076],[-86.70361770341,36.2718418135867]]]},"properties":{"id":"125109","parcel":"04305010900","address":"804 BIXLER AVE","owner":"FORTNER, JOYCE WEAVER ET VIR","point":[-86.7039531309352,36.271802788428346]}},{"type":"Feature","id":"125115","geometry":{"type":"Polygon","coordinates":[[[-86.7028011318464,36.2730244670631],[-86.7028667194534,36.2725400686344],[-86.7030330832454,36.2725550835543],[-86.7031926513321,36.2725694879932],[-86.7031236052078,36.2730462146757],[-86.7029640762511,36.2730367045282],[-86.7028011318464,36.2730244670631]]]},"properties":{"id":"125115","parcel":"04305011600","address":"422 ANDERSON LN","owner":"MOLINA, FAUSTO & MARTHA","point":[-86.70299581711345,36.27279697502561]}},{"type":"Feature","id":"125122","geometry":{"type":"Polygon","coordinates":[[[-86.70295961507,36.2718478402514],[-86.7029692096125,36.2717796590784],[-86.70361770341,36.2718418135867],[-86.7035794553818,36.2721189312486],[-86.7029309154933,36.2720518326123],[-86.70295961507,36.2718478402514]]]},"properties":{"id":"125122","parcel":"04305011900","address":"809 DELAWARE AVE","owner":"ADLY, MICHAEL","point":[-86.70327391711953,36.27195065227571]}},{"type":"Feature","id":"125128","geometry":{"type":"Polygon","coordinates":[[[-86.7029692096125,36.2717796590784],[-86.7030040269189,36.2714976173645],[-86.7036559511629,36.2715646949883],[-86.7036388433435,36.27170104534],[-86.70361770341,36.2718418135867],[-86.7029692096125,36.2717796590784]]]},"properties":{"id":"125128","parcel":"04305012000","address":"801 DELAWARE AVE","owner":"WHEELER, CHARLES R. ET UX","point":[-86.7033174648334,36.27163205217523]}},{"type":"Feature","id":"125240","geometry":{"type":"Polygon","coordinates":[[[-86.7031167218703,36.2706646282484],[-86.7031370432703,36.2705079327399],[-86.7037937262267,36.2705766302702],[-86.7037740410756,36.2707283780031],[-86.7031167218703,36.2706646282484]]]},"properties":{"id":"125240","parcel":"04305012400","address":"731 DELAWARE AVE","owner":"REYES-GARCIA, GILBERTA","point":[-86.7034552232486,36.27062062973693]}},{"type":"Feature","id":"125244","geometry":{"type":"Polygon","coordinates":[[[-86.7016428478979,36.2722550666749],[-86.7016494284315,36.2722224469777],[-86.7022000690889,36.2722670505756],[-86.7027263287024,36.2723167322057],[-86.7026990125875,36.2725262103708],[-86.7025360486748,36.272511774551],[-86.702373081062,36.2724967887792],[-86.7022101232533,36.2724829022391],[-86.7022019675532,36.272481301263],[-86.7021012300452,36.2724719053157],[-86.7019303507635,36.2724559591281],[-86.7017755488195,36.2724436747989],[-86.7016154327181,36.2724314256274],[-86.7016153191194,36.2724314172745],[-86.7016357790131,36.2722901036183],[-86.7016428478979,36.2722550666749]]]},"properties":{"id":"125244","parcel":"04305013200","address":"814 DELAWARE AVE","owner":"KOWERT, ANNALIESE E & WHITESIDE, RIPLEY I","point":[-86.70217124593103,36.27237407708231]}},{"type":"Feature","id":"125248","geometry":{"type":"Polygon","coordinates":[[[-86.7088299371928,36.270897178868],[-86.7088661783218,36.2705299536899],[-86.7090372949506,36.2705459814994],[-86.7089988746208,36.2709128689345],[-86.7088299371928,36.270897178868]]]},"properties":{"id":"125248","parcel":"04305014400","address":"120 ROOSEVELT AVE","owner":"RAMOS, ENRIQUE & LUGO, J. ANGEL GUERRERO","point":[-86.70893308613844,36.27072157894203]}},{"type":"Feature","id":"125254","geometry":{"type":"Polygon","coordinates":[[[-86.7086648338557,36.270881845505],[-86.7086950579671,36.2705133768068],[-86.7088661783218,36.2705299536899],[-86.7088299371928,36.270897178868],[-86.7086648338557,36.270881845505]]]},"properties":{"id":"125254","parcel":"04305014500","address":"124 ROOSEVELT AVE","owner":"MONTEJEO, JUAN E. & BATISTA, YAQUELIN AGUILERA","point":[-86.70876403885069,36.270705896070055]}},{"type":"Feature","id":"125260","geometry":{"type":"Polygon","coordinates":[[[-86.7076431042793,36.2707869549413],[-86.7076826195034,36.2704182212223],[-86.7078503435171,36.2704342696744],[-86.7078116502366,36.2708026075003],[-86.7076431042793,36.2707869549413]]]},"properties":{"id":"125260","parcel":"04305015000","address":"228 ROOSEVELT AVE","owner":"LARA, SALVADOR & CONSUELO, CARLOS","point":[-86.7077469107128,36.27061061281233]}},{"type":"Feature","id":"125324","geometry":{"type":"Polygon","coordinates":[[[-86.7075568982022,36.2700193036719],[-86.7075569321922,36.2700189970522],[-86.7077328010848,36.2700355477344],[-86.7077327927369,36.2700356099687],[-86.7076826195034,36.2704182212223],[-86.7075135351271,36.2704016298457],[-86.7075568982022,36.2700193036719]]]},"properties":{"id":"125324","parcel":"04305015700","address":"231 GARNER AVE","owner":"RESIDENTIAL HOME BUYER NASHVILLE, LLC","point":[-86.70762154160576,36.27021861599482]}},{"type":"Feature","id":"125330","geometry":{"type":"Polygon","coordinates":[[[-86.7082331098852,36.2700819893938],[-86.708233230929,36.2700809630765],[-86.7084043480276,36.2700975406287],[-86.708404310807,36.2700978589836],[-86.708358941384,36.270482383637],[-86.7081878163095,36.2704652545072],[-86.7082331098852,36.2700819893938]]]},"properties":{"id":"125330","parcel":"04305016100","address":"217 GARNER AVE","owner":"ALLEN, TIFFANY","point":[-86.70829608106565,36.27028155684044]}},{"type":"Feature","id":"125334","geometry":{"type":"Polygon","coordinates":[[[-86.7097135993421,36.2706079392301],[-86.7097590066285,36.2702236454402],[-86.7099362330596,36.2702401849479],[-86.7099150259665,36.2703721650523],[-86.7099134437015,36.2703850025588],[-86.7098979488466,36.2705107125382],[-86.7098826895352,36.2706250763524],[-86.7097138254877,36.2706079631367],[-86.7097135993421,36.2706079392301]]]},"properties":{"id":"125334","parcel":"04305016900","address":"103 GARNER AVE","owner":"ESTES, CHESTER","point":[-86.70981913010074,36.270447647549304]}},{"type":"Feature","id":"125418","geometry":{"type":"Polygon","coordinates":[[[-86.7030785116511,36.2709461409546],[-86.7031167218703,36.2706646282484],[-86.7037740410756,36.2707283780031],[-86.703753585398,36.2708696920876],[-86.7037358185236,36.2710082426349],[-86.7030785116511,36.2709461409546]]]},"properties":{"id":"125418","parcel":"04305012300","address":"735 DELAWARE AVE","owner":"MOLINA, ARMANDO & JULIO","point":[-86.70343125786081,36.27079821088111]}},{"type":"Feature","id":"125422","geometry":{"type":"Polygon","coordinates":[[[-86.7018650654145,36.2708301291727],[-86.7018977501768,36.2706140273728],[-86.7027312188108,36.2706904440321],[-86.7029400416786,36.2707096075107],[-86.7029093832613,36.2709245992097],[-86.7018650654145,36.2708301291727]]]},"properties":{"id":"125422","parcel":"04305012600","address":"732 DELAWARE AVE","owner":"MATHIS, BARRY THOMAS & DEBORAH K.","point":[-86.70240281958303,36.27076987021264]}},{"type":"Feature","id":"125427","geometry":{"type":"Polygon","coordinates":[[[-86.7017713797502,36.2714279272005],[-86.701777041505,36.2713860814568],[-86.7017778646764,36.2713861586895],[-86.702192606667,36.2714248695619],[-86.7028363177833,36.271483759313],[-86.7028007816108,36.2717608609731],[-86.7021950454372,36.2717001020344],[-86.7017340788457,36.2716681673918],[-86.70176685035,36.2714614046961],[-86.7017713797502,36.2714279272005]]]},"properties":{"id":"125427","parcel":"04305012900","address":"802 DELAWARE AVE","owner":"UNDERWOOD, ROBERT L.","point":[-86.70228661290983,36.27157596814565]}},{"type":"Feature","id":"125432","geometry":{"type":"Polygon","coordinates":[[[-86.7016999699794,36.2718771359448],[-86.7017340788457,36.2716681673918],[-86.7021950454372,36.2717001020344],[-86.7028007816108,36.2717608609731],[-86.7027884052758,36.2718488359426],[-86.7027624869143,36.2720330335541],[-86.7021975815893,36.2719863226936],[-86.701691317738,36.2719432603238],[-86.7016896993587,36.2719431228183],[-86.7016999699794,36.2718771359448]]]},"properties":{"id":"125432","parcel":"04305013000","address":"810 DELAWARE AVE","owner":"HURT, DANNY W. ET UX","point":[-86.70224436203057,36.27186298761634]}},{"type":"Feature","id":"125437","geometry":{"type":"Polygon","coordinates":[[[-86.7023042491681,36.2729982373414],[-86.702373081062,36.2724967887792],[-86.7025360486748,36.272511774551],[-86.7024698738293,36.2730066161254],[-86.7023042491681,36.2729982373414]]]},"properties":{"id":"125437","parcel":"04305013300","address":"502 ANDERSON LN","owner":"L&H TN, LLC","point":[-86.70242057937237,36.27275500707911]}},{"type":"Feature","id":"125442","geometry":{"type":"Polygon","coordinates":[[[-86.7089988746208,36.2709128689345],[-86.7090372949506,36.2705459814994],[-86.7090387429592,36.2705461108937],[-86.7092063663161,36.2705609224607],[-86.7091720270739,36.2709289486013],[-86.7089988746208,36.2709128689345]]]},"properties":{"id":"125442","parcel":"04305014300","address":"116 ROOSEVELT AVE","owner":"OJEDA, JESUS RODRIGUEZ & QUINTANA, CECILIA NIETO","point":[-86.7091036256698,36.27073689819057]}},{"type":"Feature","id":"125446","geometry":{"type":"Polygon","coordinates":[[[-86.7079805872614,36.2708182989905],[-86.7080214684597,36.2704514001833],[-86.7081878163095,36.2704652545072],[-86.7081484371725,36.2708338866638],[-86.7079805872614,36.2708182989905]]]},"properties":{"id":"125446","parcel":"04305014800","address":"220 ROOSEVELT AVE","owner":"SCHNEIDER, ABIGAIL L.","point":[-86.70808460807596,36.27064177778848]}},{"type":"Feature","id":"125452","geometry":{"type":"Polygon","coordinates":[[[-86.7074774756427,36.2707715707624],[-86.7075135351271,36.2704016298457],[-86.7076826195034,36.2704182212223],[-86.7076431042793,36.2707869549413],[-86.7074774756427,36.2707715707624]]]},"properties":{"id":"125452","parcel":"04305015100","address":"232 ROOSEVELT AVE","owner":"TN REAL ESTATE NOW","point":[-86.70757919075054,36.27059489394452]}},{"type":"Feature","id":"125546","geometry":{"type":"Polygon","coordinates":[[[-86.7067396432652,36.270435379535],[-86.7067795728985,36.2701649488243],[-86.7073062462046,36.2702094565877],[-86.7072833522503,36.2703810013775],[-86.7072727213947,36.2704821526585],[-86.7067396432652,36.270435379535]]]},"properties":{"id":"125546","parcel":"04305015400","address":"715 BROOKS AVE","owner":"GOODWIN, JAMES","point":[-86.70702766463921,36.27029457491313]}},{"type":"Feature","id":"125552","geometry":{"type":"Polygon","coordinates":[[[-86.7073062462046,36.2702094565877],[-86.7073308213901,36.2699983448384],[-86.7073321903301,36.2699984702096],[-86.7075569321922,36.2700189970522],[-86.7075568982022,36.2700193036719],[-86.7075135351271,36.2704016298457],[-86.7072833522503,36.2703810013775],[-86.7073062462046,36.2702094565877]]]},"properties":{"id":"125552","parcel":"04305015600","address":"233 GARNER AVE","owner":"FILLMORE, STEPHEN DOUGLAS & BARBARA JEAN","point":[-86.70743171471744,36.27011438054515]}},{"type":"Feature","id":"125559","geometry":{"type":"Polygon","coordinates":[[[-86.7079072816283,36.2700517854527],[-86.7079073074141,36.2700515572887],[-86.708070303129,36.2700662650501],[-86.708233230929,36.2700809630765],[-86.7082331098852,36.2700819893938],[-86.7081878163095,36.2704652545072],[-86.7080214684597,36.2704514001833],[-86.7078639120229,36.2704341902042],[-86.7079072816283,36.2700517854527]]]},"properties":{"id":"125559","parcel":"04305016000","address":"225 GARNER AVE","owner":"CRUZ, ANA MARIA & PEREZ-LAZARO, FIDEL","point":[-86.70804809057815,36.270258088918766]}},{"type":"Feature","id":"125565","geometry":{"type":"Polygon","coordinates":[[[-86.7087430871896,36.2701292627087],[-86.7087431795803,36.2701285177449],[-86.7088173812873,36.2701355871832],[-86.7089115788378,36.2701445733807],[-86.7088661783218,36.2705299536899],[-86.7086950579671,36.2705133768068],[-86.7087430871896,36.2701292627087]]]},"properties":{"id":"125565","parcel":"04305016400","address":"205 GARNER AVE","owner":"HOLLENCAMP, RYAN","point":[-86.7088039858048,36.270328976771076]}},{"type":"Feature","id":"125569","geometry":{"type":"Polygon","coordinates":[[[-86.709585757016,36.2702073707199],[-86.7095858463339,36.2702065320447],[-86.7097236556237,36.2702201516594],[-86.7097590066285,36.2702236454402],[-86.7097135993421,36.2706079392301],[-86.7096266867143,36.270600208663],[-86.7095452164963,36.2705940944446],[-86.709585757016,36.2702073707199]]]},"properties":{"id":"125569","parcel":"04305016800","address":"105 GARNER AVE","owner":"OO, AUNG & INZALI, NWE","point":[-86.70965087630712,36.27040886699479]}},{"type":"Feature","id":"126822","geometry":{"type":"Polygon","coordinates":[[[-86.7060062802297,36.2706293969313],[-86.7060471965727,36.2703618681202],[-86.7063538325235,36.2703905922558],[-86.7063095230855,36.2706586682277],[-86.7060062802297,36.2706293969313]]]},"properties":{"id":"126822","parcel":"04305022000","address":"310 ROOSEVELT AVE","owner":"DAVIS, CRYSTAL MAUREEN","point":[-86.70617931733689,36.270509992905964]}},{"type":"Feature","id":"126827","geometry":{"type":"Polygon","coordinates":[[[-86.705477131357,36.2705813263449],[-86.7055200900613,36.2703061081583],[-86.7057785570197,36.2703326158042],[-86.7057396730977,36.2706056356064],[-86.705477131357,36.2705813263449]]]},"properties":{"id":"126827","parcel":"04305022100","address":"314 ROOSEVELT AVE","owner":"KING, LISA A. & REGINA","point":[-86.7056286959742,36.2704569732678]}},{"type":"Feature","id":"126831","geometry":{"type":"Polygon","coordinates":[[[-86.7047287497781,36.2701271332218],[-86.7047485637915,36.2699789597506],[-86.7053744448376,36.2700317547318],[-86.7053301342304,36.2703133038562],[-86.7047114600451,36.270256426369],[-86.7047287497781,36.2701271332218]]]},"properties":{"id":"126831","parcel":"04305022600","address":"693 BIXLER AVE","owner":"MERIWETHER, JOHN ETUX","point":[-86.70503456035149,36.27019255573443]}},{"type":"Feature","id":"126928","geometry":{"type":"Polygon","coordinates":[[[-86.7057396730977,36.2706056356064],[-86.7057785570197,36.2703326158042],[-86.7060471965727,36.2703618681202],[-86.7060062802297,36.2706293969313],[-86.7057396730977,36.2706056356064]]]},"properties":{"id":"126928","parcel":"04305025000","address":"312 ROOSEVELT AVE","owner":"PRIME PROPERTIES OF NASHVILLE LLC","point":[-86.70589279222314,36.270483750383654]}},{"type":"Feature","id":"126934","geometry":{"type":"Polygon","coordinates":[[[-86.7069502905093,36.2732724061154],[-86.7070438131878,36.2725816317793],[-86.7099775865958,36.2727075723208],[-86.7099775771849,36.2727076399689],[-86.709941491447,36.2729887547969],[-86.7099054552781,36.2732340586629],[-86.7097507262845,36.2733120068973],[-86.7093796722809,36.273327237016],[-86.7092038990722,36.2733291995379],[-86.7072977054548,36.2732814713269],[-86.7069502425459,36.273272768693],[-86.7069502905093,36.2732724061154]]]},"properties":{"id":"126934","parcel":"04305025200","address":"800 GALLATIN PIKE","owner":"GENERAL PROPERTY GROUP, LLC","point":[-86.70848411571812,36.272844610190766]}},{"type":"Feature","id":"129945","geometry":{"type":"Polygon","coordinates":[[[-86.7046773563293,36.2705114598939],[-86.7047114600451,36.270256426369],[-86.7053301342304,36.2703133038562],[-86.7052948749078,36.2705688273695],[-86.7051139803182,36.2705520230763],[-86.7046773563293,36.2705114598939]]]},"properties":{"id":"129945","parcel":"04305022500","address":"699 BIXLER AVE","owner":"MERIWETHER, JOHN ETUX","point":[-86.70500353238471,36.27041238179701]}},{"type":"Feature","id":"129955","geometry":{"type":"Polygon","coordinates":[[[-86.7038896348266,36.2701784333697],[-86.7039198301068,36.269906995972],[-86.7045778495179,36.2699712680871],[-86.7045562530906,36.2701361878917],[-86.7045418551157,36.270246141633],[-86.7045415777152,36.2702461108056],[-86.704227367359,36.2702125288919],[-86.7038896348266,36.2701784333697]]]},"properties":{"id":"129955","parcel":"04305023400","address":"0 BIXLER AVE","owner":"MERIWETHER, JOHN ETUX","point":[-86.70423537056872,36.270052908228465]}},{"type":"Feature","id":"129957","geometry":{"type":"Polygon","coordinates":[[[-86.7041991493771,36.2704670286951],[-86.704227367359,36.2702125288919],[-86.7045415777152,36.2702461108056],[-86.7045418551157,36.270246141633],[-86.7045178961169,36.2704234996418],[-86.7045145226492,36.2704357590061],[-86.704508639445,36.2704473913194],[-86.7045004126281,36.2704580540442],[-86.704490072119,36.2704674448267],[-86.7044779380797,36.2704752716018],[-86.7044643592165,36.2704813232494],[-86.7044643270545,36.2704813360543],[-86.7044496669343,36.2704854455284],[-86.7044343385326,36.2704874950634],[-86.7044341349915,36.2704875097683],[-86.704428277117,36.2704877196528],[-86.7044268269879,36.2704877263025],[-86.7044167080994,36.2704872427361],[-86.7041991493771,36.2704670286951]]]},"properties":{"id":"129957","parcel":"04305023500","address":"696 BIXLER AVE","owner":"AJB PROPERTIES, LLC","point":[-86.70437188517964,36.270334430223514]}},{"type":"Feature","id":"129959","geometry":{"type":"Polygon","coordinates":[[[-86.7032138220388,36.2703753610932],[-86.7032434173642,36.2701355031237],[-86.7038876477634,36.2701963029536],[-86.7038610266976,36.2704356165424],[-86.7034617645778,36.2703985192384],[-86.7032138220388,36.2703753610932]]]},"properties":{"id":"129959","parcel":"04305023600","address":"711 DELAWARE AVE","owner":"GRIFFITH, ALICIA M.","point":[-86.7035512834476,36.270285833859106]}},{"type":"Feature","id":"129997","geometry":{"type":"Polygon","coordinates":[[[-86.7043976886497,36.2721932802305],[-86.7044174845845,36.2720547151002],[-86.7050672207331,36.2721102557507],[-86.7050672764275,36.2721102608332],[-86.7050485646736,36.2722328273076],[-86.7050461204799,36.2722488313042],[-86.7043976886497,36.2721932802305]]]},"properties":{"id":"129997","parcel":"04305026300","address":"811 BIXLER AVE","owner":"HERRING, RICHARD C. & SUZANNE KARR-","point":[-86.70473227518931,36.27215177048908]}},{"type":"Feature","id":"136566","geometry":{"type":"Polygon","coordinates":[[[-86.7044954362277,36.2726349373004],[-86.7045099651736,36.2725241357208],[-86.7046124496925,36.272532946291],[-86.7045979220092,36.2726437487774],[-86.7044954362277,36.2726349373004]]]},"properties":{"id":"136566","parcel":"043050A00200CO","address":"825 BIXLER AVE","owner":"HITE, ROBERT S.","point":[-86.7045539432834,36.27258394181111]}},{"type":"Feature","id":"136643","geometry":{"type":"Polygon","coordinates":[[[-86.7047973820346,36.2726599868679],[-86.7048138945824,36.2725488852871],[-86.7049167416517,36.2725589074508],[-86.704900229246,36.2726700090454],[-86.7047973820346,36.2726599868679]]]},"properties":{"id":"136643","parcel":"043050A00100CO","address":"814 CEDARCREST AVE","owner":"HITE, ROBERT S.","point":[-86.7048570618813,36.272609447174624]}},{"type":"Feature","id":"136649","geometry":{"type":"Polygon","coordinates":[[[-86.7044711348374,36.2726818495124],[-86.7043286422877,36.2726700049972],[-86.7043340925495,36.2726284235355],[-86.7043559639086,36.2724616250231],[-86.7043583096399,36.2724618249455],[-86.705007799049,36.2725171591802],[-86.7049770711217,36.2727239108156],[-86.7048094406898,36.2727099748208],[-86.7048089004917,36.2727099302056],[-86.7046405661916,36.2726959358962],[-86.7044711348374,36.2726818495124]],[[-86.7049167416517,36.2725589074508],[-86.7048138945824,36.2725488852871],[-86.7047973820346,36.2726599868679],[-86.704900229246,36.2726700090454],[-86.7049167416517,36.2725589074508]],[[-86.7045979220092,36.2726437487774],[-86.7046124496925,36.272532946291],[-86.7045099651736,36.2725241357208],[-86.7044954362277,36.2726349373004],[-86.7045979220092,36.2726437487774]]]},"properties":{"id":"136649","parcel":"043050A90000CO","address":"814 B CEDARCREST AVE","owner":"O.I.C. HOMES AT 825 BIXLER & 814 CEDARCR","point":[-86.7047058338397,36.27259386442918]}}]}