{"type":"FeatureCollection","features":[{"type":"Feature","id":"30897","geometry":{"type":"Polygon","coordinates":[[[-86.7108611919686,36.0438244732869],[-86.7098718814676,36.0436738328287],[-86.7098569795248,36.0438223507162],[-86.70868791259,36.0438577998519],[-86.7076023721244,36.0438783247413],[-86.7076530086224,36.0434868344643],[-86.7076986042977,36.0431371296683],[-86.7077163329146,36.043000770093],[-86.7077516724841,36.0427148576034],[-86.7077719498084,36.0425608979344],[-86.7078352726194,36.0420748315943],[-86.7078959087814,36.0415909782946],[-86.7079180414607,36.0414175027998],[-86.7079187148252,36.0414172248512],[-86.7079743860176,36.0409839477616],[-86.7080301980751,36.040566053927],[-86.7080402388809,36.0404780865009],[-86.7080402300725,36.0404698721762],[-86.7082562668546,36.0404890808456],[-86.7084264117343,36.040504205696],[-86.7089599389072,36.0405516411973],[-86.7094488384874,36.0405951028228],[-86.7095899243759,36.0406076463704],[-86.7095900345355,36.0406083009611],[-86.7096558822374,36.0406138959646],[-86.7103561046064,36.0406734022944],[-86.7104211276637,36.0402337345063],[-86.7115764678868,36.0403455798893],[-86.7116319623391,36.0402948546039],[-86.7116904746138,36.0402464178757],[-86.7117518615094,36.0402003886154],[-86.7118159742129,36.0401568785567],[-86.7118826549944,36.0401159949797],[-86.711951741606,36.0400778361785],[-86.7120230651106,36.0400424968816],[-86.7120964520525,36.0400100628318],[-86.7121717211452,36.0399806126079],[-86.7122486910461,36.0399542184805],[-86.712327171472,36.0399309455631],[-86.7124069720596,36.039910849957],[-86.7124414973796,36.0399045819382],[-86.7124765524622,36.0399007136231],[-86.712511885657,36.039899273538],[-86.7125472418067,36.0399002704019],[-86.7125874068939,36.0399028043625],[-86.7126509051006,36.0399068091238],[-86.7126235599954,36.0402547255496],[-86.7126403286306,36.0402553996896],[-86.7126323994435,36.0404046600575],[-86.7126161434872,36.0404078241928],[-86.7125836830548,36.04041482001],[-86.7125233085684,36.0404302736704],[-86.7124641966687,36.0404486679628],[-86.7124065653515,36.0404699340031],[-86.7123506236713,36.0404939957506],[-86.7122965794526,36.0405207636522],[-86.7122446282415,36.0405501401162],[-86.7121949643869,36.0405820176443],[-86.7121477666057,36.0406162780149],[-86.7121032091209,36.0406527967243],[-86.7120614560724,36.0406914385127],[-86.7120226604641,36.0407320636801],[-86.7118037982275,36.0409762360572],[-86.7116947890808,36.0410978504738],[-86.7114902817026,36.0414165302101],[-86.7126540101694,36.0416241384985],[-86.7126716821233,36.0418182272999],[-86.7126860813524,36.0419603209762],[-86.7126422576139,36.0419632515838],[-86.7126727741216,36.0422644100108],[-86.7126828846923,36.0422637346326],[-86.7126870505551,36.0423048026039],[-86.7126769366501,36.0423054780022],[-86.712686269866,36.0423997961932],[-86.7127182189417,36.0427226825666],[-86.7125854182988,36.0426321030714],[-86.7123712164913,36.0426464157408],[-86.7122845663957,36.0426504727325],[-86.7121977774089,36.0426511677624],[-86.7121110459533,36.0426484987683],[-86.7120245707589,36.0426424735889],[-86.7118803039691,36.0434196248376],[-86.7119393700394,36.0434237291744],[-86.7120017776177,36.0439986874112],[-86.7120259131649,36.0440018894987],[-86.7121167958914,36.0447071503172],[-86.7121784507265,36.045295443755],[-86.7120188070085,36.0453099353255],[-86.71201584424,36.0452869401577],[-86.7120699025722,36.0452803279275],[-86.7119882174704,36.0446615241931],[-86.7119028044873,36.0439835905739],[-86.7108611919686,36.0438244732869]],[[-86.7120418301406,36.0424628757058],[-86.7121477811662,36.0419867946193],[-86.7121506003053,36.0419666439946],[-86.7121495242929,36.0419463820969],[-86.7121445786496,36.0419265035847],[-86.7121358831315,36.0419074926449],[-86.7121236505234,36.0418898121847],[-86.712108178782,36.041873893964],[-86.7120898453575,36.0418601242077],[-86.7120690971827,36.0418488409621],[-86.712046438304,36.0418403161416],[-86.711944680776,36.0418084411227],[-86.7116814916344,36.0417698071769],[-86.7115435306528,36.0423897320049],[-86.7120418301406,36.0424628757058]]]},"properties":{"id":"30897","parcel":"16100028900","address":"5824 NOLENSVILLE PIKE","owner":"WAL-MART STORES EAST, L.P.","point":[-86.71023718259897,36.04259666604242]}},{"type":"Feature","id":"52398","geometry":{"type":"Polygon","coordinates":[[[-86.7092688138768,36.0485354822884],[-86.7094467563202,36.0473586570475],[-86.7094452605166,36.047358934438],[-86.7094670090076,36.047214356525],[-86.7094890392545,36.0470679067655],[-86.7095843479304,36.0459174019643],[-86.7095888932234,36.0458625253274],[-86.7097013240718,36.0458636252751],[-86.7098723022125,36.0458524300326],[-86.7103474578767,36.0458166924438],[-86.7114393293257,36.0457345636421],[-86.712737469869,36.04561001523],[-86.7127862335758,36.04564066544],[-86.7123782881785,36.045678644435],[-86.7124400450264,36.0460983721241],[-86.7122588562818,36.046150427404],[-86.7122588034607,36.0461509729974],[-86.7113476347833,36.0460932266974],[-86.7112680259383,36.0460878499146],[-86.7112072294348,36.0467221588736],[-86.7108494451525,36.0466999331969],[-86.7107896095404,36.0473242183166],[-86.7107098251596,36.0473600347934],[-86.7106406578935,36.0480816772126],[-86.7107216325701,36.0480867921999],[-86.7106693841328,36.0486213439725],[-86.7104235828634,36.0486077353585],[-86.7103723730853,36.0486042599202],[-86.7102548492478,36.0485962831014],[-86.7092665735656,36.0485380235935],[-86.7092688138768,36.0485354822884]]]},"properties":{"id":"52398","parcel":"16100030500","address":"5560 NOLENSVILLE PIKE","owner":"5620 NOLENSVILLE PIKE LLC","point":[-86.71014243702726,36.04714273976585]}},{"type":"Feature","id":"129617","geometry":{"type":"Polygon","coordinates":[[[-86.7131071514592,36.0460349835323],[-86.71311256498,36.0460344693071],[-86.7131127438284,36.0460360959808],[-86.7132017866076,36.0468480073783],[-86.7121980821816,36.0467846259088],[-86.7122588034607,36.0461509729974],[-86.7122588562818,36.046150427404],[-86.7124400450264,36.0460983721241],[-86.7131071514592,36.0460349835323]]]},"properties":{"id":"129617","parcel":"16100030800","address":"5744 NOLENSVILLE PIKE","owner":"MCDONALD'S REAL ESTATE COMPANY","point":[-86.712694388297,36.04646891691043]}},{"type":"Feature","id":"256284","geometry":{"type":"Polygon","coordinates":[[[-86.7156787671368,36.0417250302951],[-86.7157906590077,36.0409367856948],[-86.7159621839144,36.0409499773746],[-86.7175842170278,36.0411094043754],[-86.7174788360071,36.041873441988],[-86.7173592224766,36.0418630943544],[-86.717279055325,36.0418571633785],[-86.7169245202717,36.041825686528],[-86.7165698617976,36.0417951358985],[-86.7161518577298,36.0417598143297],[-86.7157335572024,36.0417268977218],[-86.7156787671368,36.0417250302951]]]},"properties":{"id":"256284","parcel":"16100027900","address":"433 SWISS AVE","owner":"CUBESMART, LP","point":[-86.71663211572084,36.041417222610036]}},{"type":"Feature","id":"258429","geometry":{"type":"Polygon","coordinates":[[[-86.7147804356289,36.0414053327949],[-86.7149230011129,36.0401215593226],[-86.7176853215305,36.0403763631194],[-86.7175842170278,36.0411094043754],[-86.7159621839144,36.0409499773746],[-86.7157906590077,36.0409367856948],[-86.7156787671368,36.0417250302951],[-86.7155929662297,36.041724053616],[-86.7155071745122,36.0417254535293],[-86.7154459290508,36.0417279081694],[-86.7153847743941,36.0417315744776],[-86.7153476639062,36.0417343932112],[-86.7152482467549,36.0417465442251],[-86.7151495042948,36.0417619006548],[-86.7150515927633,36.0417804372397],[-86.7149546683735,36.0418021260162],[-86.7148588828279,36.0418269309362],[-86.7147936220018,36.041846150569],[-86.7147291565733,36.0418670679898],[-86.7147804356289,36.0414053327949]]]},"properties":{"id":"258429","parcel":"16100024300","address":"425 SWISS AVE","owner":"CUBESMART, LP","point":[-86.71530023505066,36.04102620524203]}},{"type":"Feature","id":"259732","geometry":{"type":"Polygon","coordinates":[[[-86.7096264678859,36.045547633588],[-86.7097604035054,36.044582907471],[-86.7098569795248,36.0438223507162],[-86.7098718814676,36.0436738328287],[-86.7108611919686,36.0438244732869],[-86.7109740366122,36.0447688820398],[-86.7110902225337,36.0454673435427],[-86.7103451359475,36.0455568999284],[-86.710194768089,36.0455750927832],[-86.7100639374047,36.045584105147],[-86.709915656256,36.0455933941198],[-86.709767174591,36.0456002415918],[-86.7096185523259,36.0456046445057],[-86.7096264678859,36.045547633588]]]},"properties":{"id":"259732","parcel":"16100009800","address":"14977 OLD HICKORY BLVD","owner":"ASI STORAGE PROPERTIES, LLC","point":[-86.71035539970897,36.04467586773579]}},{"type":"Feature","id":"259775","geometry":{"type":"Polygon","coordinates":[[[-86.7174788360071,36.041873441988],[-86.7175842170278,36.0411094043754],[-86.7176853215305,36.0403763631194],[-86.7177967385128,36.0395685421261],[-86.7178897283627,36.0388537071066],[-86.7189888758398,36.0389524472838],[-86.7196188341912,36.0396348259519],[-86.7196189361829,36.0396349371031],[-86.7196252480765,36.0396417735708],[-86.7192410699627,36.0398846395199],[-86.7191958340528,36.0399155624919],[-86.7191637857655,36.0399398155853],[-86.7191637416803,36.0399398491963],[-86.7191495625214,36.0399506330684],[-86.7191302554876,36.0399669598495],[-86.7191071632603,36.039986488978],[-86.7190953122707,36.0399976365913],[-86.7190729021067,36.0400187154718],[-86.7190543885721,36.0400375034426],[-86.7190296683326,36.0400634126091],[-86.7190176847665,36.0400774496496],[-86.7189936404163,36.0401056990381],[-86.7189841159207,36.0401177628928],[-86.7189623872999,36.0401474549469],[-86.7189417062352,36.0401776355566],[-86.7189186532268,36.0402143953314],[-86.7188958203893,36.0402563596556],[-86.7188957789226,36.0402564374142],[-86.7188890615753,36.0402689414689],[-86.7188695489698,36.0403121243557],[-86.7188653070193,36.0403215140951],[-86.718847496933,36.0403696277086],[-86.7188474785167,36.0403696773895],[-86.7188474666036,36.0403697099071],[-86.7188474547558,36.0403697496347],[-86.7188341857699,36.0404138208957],[-86.7188295769242,36.0404296399416],[-86.7188214347404,36.0404675554308],[-86.7188177299634,36.0404848066451],[-86.7188144801193,36.0405080640649],[-86.7188099556222,36.0405404510729],[-86.7188062809431,36.040596372076],[-86.7188071078313,36.0406571287005],[-86.7188112711499,36.0407082504301],[-86.718817788013,36.0407632733353],[-86.718845932897,36.0410008998222],[-86.7188606644613,36.041125281369],[-86.7188640789473,36.0411760560546],[-86.718863434616,36.0412269027214],[-86.7188587306536,36.0412776095704],[-86.7188488929787,36.0413278269977],[-86.7188350667464,36.0413774210887],[-86.7188173088727,36.0414261824024],[-86.7187946351372,36.0414736355179],[-86.7187682153315,36.0415197932831],[-86.7187381597611,36.0415644594572],[-86.7187036709977,36.0416069520086],[-86.7186658601024,36.0416475383002],[-86.7186248864392,36.0416860470342],[-86.7185801676456,36.0417216479846],[-86.7185327023957,36.0417548200877],[-86.718482688072,36.0417854233644],[-86.7184297094739,36.0418125815269],[-86.7183746731151,36.0418368903292],[-86.7183178100233,36.041858248348],[-86.718258987414,36.0418757154228],[-86.7181988935244,36.0418900481398],[-86.718137781929,36.0419011836981],[-86.7180756941522,36.0419081899123],[-86.7180131749358,36.0419119089476],[-86.7179504926807,36.0419123220795],[-86.7178593684633,36.0419063585296],[-86.7177629936316,36.0418980215375],[-86.7174788360071,36.041873441988]]]},"properties":{"id":"259775","parcel":"16100028300","address":"455 SWISS AVE","owner":"NASHVILLE LEASED HOUSING ASSOCIATES IV LLLP","point":[-86.71826116993775,36.04039509671117]}},{"type":"Feature","id":"259876","geometry":{"type":"Polygon","coordinates":[[[-86.7106406578935,36.0480816772126],[-86.7107098251596,36.0473600347934],[-86.7107896095404,36.0473242183166],[-86.7108494451525,36.0466999331969],[-86.7112072294348,36.0467221588736],[-86.7112680259383,36.0460878499146],[-86.7113476347833,36.0460932266974],[-86.7122588034607,36.0461509729974],[-86.7121980821816,36.0467846259088],[-86.7132017866076,36.0468480073783],[-86.7132019424493,36.0468494196805],[-86.713203172852,36.0468494989227],[-86.7133056348366,36.0477896988535],[-86.7132552413988,36.0477905757493],[-86.7128925170963,36.0477707999079],[-86.7127984704617,36.0487429855778],[-86.7126674960307,36.0487346625517],[-86.7125165444369,36.0487245071041],[-86.7121749760084,36.0487039235259],[-86.711725474636,36.0486749482299],[-86.7113906090651,36.0486534972627],[-86.7112725743012,36.0486459931226],[-86.7106693841328,36.0486213439725],[-86.7107216325701,36.0480867921999],[-86.7106406578935,36.0480816772126]]]},"properties":{"id":"259876","parcel":"16100008200","address":"5520 NOLENSVILLE PIKE","owner":"REALTY INCOME PROPERTIES 19, LLC","point":[-86.71198598787029,36.04756586642918]}},{"type":"Feature","id":"261951","geometry":{"type":"Polygon","coordinates":[[[-86.7135317343096,36.0497109812305],[-86.7135348054719,36.049718909726],[-86.7135365803891,36.0497270946524],[-86.7135370289674,36.0497353982904],[-86.7135370610343,36.0497389699151],[-86.713618216491,36.05003655338],[-86.713148363006,36.0501154306079],[-86.71308726692,36.049715808416],[-86.7134217735308,36.049671248099],[-86.7134345773447,36.0496680736654],[-86.7134478380238,36.0496665855442],[-86.7134612218072,36.0496668181579],[-86.7134743923748,36.0496687680896],[-86.7134870163229,36.0496723859398],[-86.7134987776248,36.0496775798453],[-86.7135093776622,36.0496842190848],[-86.7135185507793,36.0496921357887],[-86.713526066575,36.0497011330375],[-86.7135317343096,36.0497109812305]]]},"properties":{"id":"261951","parcel":"16108009300","address":"5416 NOLENSVILLE PIKE","owner":"KLOTWOG TENNESSEE COMMUNITY PROPERTY TRUST","point":[-86.71334551241438,36.049887206878736]}},{"type":"Feature","id":"262518","geometry":{"type":"Polygon","coordinates":[[[-86.713673198703,36.0470576181327],[-86.7141756699349,36.0470187838412],[-86.7141783195233,36.0470185833744],[-86.7141302625463,36.0466083759781],[-86.7136251434913,36.046647401831],[-86.7136107453545,36.0465244995939],[-86.7135418512488,36.0459363891018],[-86.7141857473548,36.0458866238335],[-86.7141883957875,36.0458864224717],[-86.7141423551607,36.0454934167929],[-86.7145079092129,36.0454556417059],[-86.7146437412047,36.0454446615839],[-86.7147797746412,36.0454354763877],[-86.7149159740437,36.0454280890311],[-86.7149042844183,36.0454337653142],[-86.714893315212,36.0454403223908],[-86.7148930261514,36.0454405124755],[-86.714875540798,36.0454542996115],[-86.7148750752723,36.0454547358942],[-86.7148678418549,36.0454621757037],[-86.7148579285007,36.0454749499317],[-86.7148501488945,36.0454886650679],[-86.7148488168297,36.0454915940556],[-86.7148429000523,36.0455098145129],[-86.7148407037573,36.0455285726026],[-86.7148422867451,36.0455473722655],[-86.7148476067877,36.0455657135353],[-86.7148758381973,36.0457333962877],[-86.714873398899,36.0457508020787],[-86.7148746881938,36.0457682884982],[-86.7148796658781,36.045785333937],[-86.7148881853011,36.045801427331],[-86.7148999902209,36.0458160889099],[-86.7149147282189,36.0458288809332],[-86.7149296326195,36.045838210107],[-86.7149460945248,36.0458456129916],[-86.7149637406332,36.0458509214573],[-86.7149821692104,36.04585401441],[-86.7150009601102,36.0458548213375],[-86.7150196869976,36.0458533240396],[-86.7150290706275,36.0458525987033],[-86.7157456009901,36.045797229247],[-86.715745091318,36.0458636241125],[-86.715782761684,36.0461851163687],[-86.715793977231,36.0462808308959],[-86.7157226350321,36.0466440766929],[-86.7157173018867,36.0466711426014],[-86.7156638552374,36.0469432047555],[-86.7154116109779,36.0469591618872],[-86.7154116157496,36.0469591988118],[-86.7154436541923,36.0472326325231],[-86.715441004608,36.0472328339189],[-86.7146859722222,36.0472911918156],[-86.7147095202374,36.0474921802375],[-86.7147068706427,36.0474923816172],[-86.7137329467906,36.0475676332835],[-86.713673198703,36.0470576181327]]]},"properties":{"id":"262518","parcel":"16100016300","address":"5753 NOLENSVILLE PIKE","owner":"HICKORY STATION LLC","point":[-86.71468285725369,36.046402623807055]}},{"type":"Feature","id":"262968","geometry":{"type":"Polygon","coordinates":[[[-86.7154553419342,36.048845965153],[-86.7143919398507,36.0487698550555],[-86.7143248327574,36.048197069693],[-86.7137930782584,36.0482407749273],[-86.7137415333601,36.0476637510829],[-86.7137329480177,36.047567646345],[-86.7147068706427,36.0474923816172],[-86.7147095202374,36.0474921802375],[-86.7146859722222,36.0472911918156],[-86.715441004608,36.0472328339189],[-86.7154436541923,36.0472326325231],[-86.7154537310687,36.0473186387993],[-86.7154569421172,36.0473460406193],[-86.7154569505509,36.0473461144751],[-86.7154903394513,36.0476310775617],[-86.715502122295,36.0477316349574],[-86.715528567456,36.0479573306783],[-86.7154692962092,36.0481896045964],[-86.7154453880962,36.0482735918345],[-86.7154963909579,36.0488489030057],[-86.7154553419342,36.048845965153]]]},"properties":{"id":"262968","parcel":"16100014000","address":"5731 NOLENSVILLE PIKE","owner":"DCCHP, LLC","point":[-86.714638349328,36.048071422444295]}},{"type":"Feature","id":"263036","geometry":{"type":"Polygon","coordinates":[[[-86.7116018023851,36.0495226744777],[-86.711725474636,36.0486749482299],[-86.7121749760084,36.0487039235259],[-86.7120527323894,36.0495595695676],[-86.7116018023851,36.0495226744777]]]},"properties":{"id":"263036","parcel":"16112000700","address":"389 ASH GROVE DR","owner":"REYES, JOSE TONCHE & VAQUERA, SANJUANA VITAL","point":[-86.7118890082776,36.04911330084919]}},{"type":"Feature","id":"263040","geometry":{"type":"Polygon","coordinates":[[[-86.7104038291628,36.0489480087767],[-86.7104111279997,36.0488222780817],[-86.7104231048878,36.0486159714658],[-86.7104235828634,36.0486077353585],[-86.7106693841328,36.0486213439725],[-86.7112725743012,36.0486459931226],[-86.7109556375824,36.0489894226694],[-86.7104038291628,36.0489480087767]]]},"properties":{"id":"263040","parcel":"16112001100","address":"5505 TUDOR LN","owner":"LENTZ, KAREN L.","point":[-86.7108033800364,36.048734043586734]}},{"type":"Feature","id":"263111","geometry":{"type":"Polygon","coordinates":[[[-86.7109869415945,36.0494896840493],[-86.7109557304716,36.0494907379238],[-86.7109555462999,36.0494907453194],[-86.7109556375824,36.0489894226694],[-86.7112725743012,36.0486459931226],[-86.7113906090651,36.0486534972627],[-86.7112676765664,36.0494963509144],[-86.7112543894486,36.0494953820339],[-86.7111653593344,36.0494905528744],[-86.7110761612053,36.0494886520319],[-86.7109869415945,36.0494896840493]]]},"properties":{"id":"263111","parcel":"16112000900","address":"385 ASH GROVE DR","owner":"SANDOVAL, ADILIO M. & MORAN, SERVANDA V.","point":[-86.71113034863538,36.04923931318007]}},{"type":"Feature","id":"263160","geometry":{"type":"Polygon","coordinates":[[[-86.7132384299892,36.0492198800214],[-86.7132309286568,36.049024877002],[-86.7133970206797,36.0490241688053],[-86.7134504725422,36.0490244021651],[-86.7134836498524,36.0492156813512],[-86.7134217718577,36.0492187948083],[-86.7132384299892,36.0492198800214]]]},"properties":{"id":"263160","parcel":"16112000100","address":"5510 NOLENSVILLE PIKE","owner":"GRAVEYARD","point":[-86.71335086759659,36.04912026389036]}},{"type":"Feature","id":"263164","geometry":{"type":"Polygon","coordinates":[[[-86.7120527323894,36.0495595695676],[-86.7121749760084,36.0487039235259],[-86.7125165444369,36.0487245071041],[-86.7123949682433,36.0495847434421],[-86.7120527323894,36.0495595695676]]]},"properties":{"id":"263164","parcel":"16112000600","address":"393 ASH GROVE DR","owner":"KARWANDYAR, AMAD K.","point":[-86.71228496007261,36.04914203934922]}},{"type":"Feature","id":"263168","geometry":{"type":"Polygon","coordinates":[[[-86.7104044857862,36.0492937561609],[-86.7104042038341,36.0492923851576],[-86.710403591246,36.0492892874282],[-86.710400118545,36.0492700491245],[-86.7103947754968,36.0492289322043],[-86.7103922099774,36.0491876393825],[-86.7103924297529,36.0491462949914],[-86.7103951400222,36.0491028359124],[-86.7103952020354,36.049096612136],[-86.7103966081779,36.0490572462937],[-86.7103997684983,36.0490179476216],[-86.7103997762489,36.0490178213952],[-86.7104010314391,36.0489962100626],[-86.710402789516,36.0489659208441],[-86.7104038291628,36.0489480087767],[-86.7109556375824,36.0489894226694],[-86.7109555462999,36.0494907453194],[-86.7108760552146,36.0494950645512],[-86.7107968091383,36.0495017121212],[-86.7107179101019,36.0495106802178],[-86.7106394612142,36.0495219574182],[-86.7105907265437,36.0495340769236],[-86.7105770911163,36.0495367287031],[-86.7105631148577,36.0495376312835],[-86.7105491349734,36.0495367628478],[-86.7105354901492,36.0495341430304],[-86.7105225105957,36.04952983658],[-86.7105099969948,36.049523646388],[-86.710498885581,36.049515889597],[-86.7104894678835,36.0495067735879],[-86.7104818381716,36.0494962905951],[-86.7104797569137,36.0494925372736],[-86.7104778106094,36.0494887335855],[-86.7104673358419,36.0494682657446],[-86.7104651399126,36.0494639759298],[-86.7104612639139,36.0494563639487],[-86.7104594975977,36.0494528295863],[-86.7104417370394,36.0494140390992],[-86.710426620328,36.0493745183006],[-86.7104141906718,36.0493343832032],[-86.7104044857862,36.0492937561609]]]},"properties":{"id":"263168","parcel":"16112001000","address":"5501 TUDOR LN","owner":"KENYON, JANET B. & KEITH E.","point":[-86.71067651849847,36.04925016444265]}},{"type":"Feature","id":"263270","geometry":{"type":"Polygon","coordinates":[[[-86.7136251443094,36.0466474105387],[-86.7141302625463,36.0466083759781],[-86.7141783195233,36.0470185833744],[-86.7141756699349,36.0470187838412],[-86.7136731978849,36.0470576094251],[-86.7136251443094,36.0466474105387]]]},"properties":{"id":"263270","parcel":"16100014900","address":"5707 NOLENSVILLE PIKE","owner":"FIRST AMERICAN NATIONAL BANK","point":[-86.71390173131543,36.046832997275644]}},{"type":"Feature","id":"263292","geometry":{"type":"Polygon","coordinates":[[[-86.7180282180003,36.0452490139578],[-86.7177292225408,36.0452153572166],[-86.7174295864731,36.0451858242546],[-86.7171448890817,36.0451622448103],[-86.7172277055127,36.0449307175027],[-86.7172495731624,36.044805042805],[-86.7172890092634,36.0445644326323],[-86.7172903198705,36.044559752534],[-86.7172962195052,36.0445388416944],[-86.7173033011733,36.0444944550783],[-86.7173061261605,36.0444497558144],[-86.7173046780403,36.0444050134871],[-86.7172989636911,36.0443604975418],[-86.7172890199208,36.0443164736398],[-86.717274904639,36.0442732091192],[-86.7172567034162,36.0442309621402],[-86.7172345262121,36.0441899880132],[-86.7172085051072,36.0441505338055],[-86.7171787987084,36.0441128347092],[-86.7171455833127,36.0440771186006],[-86.7170671579246,36.0440828055773],[-86.7164136106605,36.0441182848039],[-86.7161924843498,36.0440542167864],[-86.7149080442318,36.0436728487685],[-86.7145994833483,36.0435903414471],[-86.7142963464651,36.043509174756],[-86.714198338307,36.0428037393981],[-86.7144181013067,36.0427543617953],[-86.7149565388122,36.0426335885499],[-86.714900483322,36.0424561835995],[-86.7146659784557,36.042072751668],[-86.7147225410061,36.0420499343655],[-86.7147888774126,36.0420255358768],[-86.7148562885104,36.0420031651925],[-86.7149246813484,36.0419828517036],[-86.7150121476868,36.0419602006137],[-86.7151006492814,36.0419403751767],[-86.7151900466023,36.0419234077639],[-86.7152801989534,36.0419093244447],[-86.7153709667003,36.0418981458748],[-86.7153862628557,36.0418969482803],[-86.7154692608201,36.0418918985846],[-86.715552429332,36.0418892759006],[-86.7156356596728,36.0418890835774],[-86.7157188442088,36.0418913222542],[-86.7161339585093,36.0419240090958],[-86.7165487793805,36.0419590684556],[-86.7169039106164,36.0419896623037],[-86.7172589184561,36.0420211850736],[-86.7174010294359,36.0420319135116],[-86.7175430155772,36.0420436835183],[-86.7176417274888,36.0420524862563],[-86.7176416938501,36.042053677064],[-86.7176402504253,36.0420953857577],[-86.7176367769754,36.0420951522789],[-86.7176326334932,36.0421981946794],[-86.7176243269059,36.0422971411607],[-86.7176121459208,36.0423958222981],[-86.717596099608,36.0424941379928],[-86.7175762059316,36.0425919898955],[-86.7175524850508,36.0426892769393],[-86.7175249615889,36.0427859007346],[-86.7186727964591,36.0430235569128],[-86.7183301628576,36.0452345774714],[-86.7183240698189,36.0452340649043],[-86.7183184484847,36.0452857442362],[-86.7180282180003,36.0452490139578]]]},"properties":{"id":"263292","parcel":"16100014700","address":"100 KNOLLS PL","owner":"220 KNOLLS LIMITED PARTNERSHIP","point":[-86.71651882582314,36.04355467236215]}},{"type":"Feature","id":"264352","geometry":{"type":"Polygon","coordinates":[[[-86.716697149524,36.044651467794],[-86.7167778461395,36.0445974177513],[-86.7169098374082,36.0446048740038],[-86.7169508261897,36.0446488592453],[-86.7169575876783,36.0446109088793],[-86.7169948173262,36.0446131596186],[-86.7170063477011,36.0445413905412],[-86.7170696402338,36.0445454095389],[-86.7170709483897,36.0445404563661],[-86.7172903198705,36.044559752534],[-86.7172890092634,36.0445644326323],[-86.7172495731624,36.044805042805],[-86.7172277055127,36.0449307175027],[-86.7171448890817,36.0451622448103],[-86.7171289759945,36.0451606937499],[-86.7168284052996,36.0451399524517],[-86.716601653381,36.0451275653654],[-86.7165673056775,36.0446571844387],[-86.716697149524,36.044651467794]]]},"properties":{"id":"264352","parcel":"16112001200","address":"15131 OLD HICKORY BLVD","owner":"GREEN MXA, LLC","point":[-86.71691060853608,36.04486710609668]}},{"type":"Feature","id":"264542","geometry":{"type":"Polygon","coordinates":[[[-86.712985329813,36.0492507714719],[-86.7128398862157,36.0487476030727],[-86.7130859116962,36.0487619805464],[-86.7131209867982,36.0490249787304],[-86.7132309286568,36.049024877002],[-86.7132384299892,36.0492198800214],[-86.7134217718577,36.0492187948083],[-86.713434725537,36.0492744827801],[-86.7134780970119,36.0494637809577],[-86.7134784324245,36.0494652904363],[-86.7134795701708,36.0494764317642],[-86.7134783582762,36.0494875671742],[-86.7134748315765,36.0494983737981],[-86.7134690915531,36.0495085346816],[-86.7134613075877,36.0495177550011],[-86.713451704796,36.0495257666415],[-86.7134405640755,36.0495323336038],[-86.7134282100193,36.0495372655963],[-86.7134150031716,36.0495404207844],[-86.7134013278035,36.04954170406],[-86.7130790106392,36.0495872917755],[-86.712985329813,36.0492507714719]]]},"properties":{"id":"264542","parcel":"16112000300","address":"399 ASH GROVE DR","owner":"ASHKAZARI, DAVID M. & AKBARI, FARIBORZ","point":[-86.71309125403678,36.049121455950825]}},{"type":"Feature","id":"264543","geometry":{"type":"Polygon","coordinates":[[[-86.7127310704482,36.049605008141],[-86.7126674960307,36.0487346625517],[-86.7127984704617,36.0487429855778],[-86.7128398862157,36.0487476030727],[-86.712985329813,36.0492507714719],[-86.7130790106392,36.0495872917755],[-86.713005912025,36.0495940432228],[-86.7129326401387,36.0495994202814],[-86.7128319095397,36.0496034978209],[-86.7127310704482,36.049605008141]]]},"properties":{"id":"264543","parcel":"16112000400","address":"397 ASH GROVE DR","owner":"AKBARI, FARIBORZ","point":[-86.71279969318749,36.04899891686741]}},{"type":"Feature","id":"264544","geometry":{"type":"Polygon","coordinates":[[[-86.7123949682433,36.0495847434421],[-86.7125165444369,36.0487245071041],[-86.7126674960307,36.0487346625517],[-86.7127310704482,36.049605008141],[-86.7126187456904,36.0496017319428],[-86.7125066572016,36.049594973459],[-86.7123949682433,36.0495847434421]]]},"properties":{"id":"264544","parcel":"16112000500","address":"395 ASH GROVE DR","owner":"ROOZBAHAN, FARZAD","point":[-86.71257681855685,36.0491598123858]}},{"type":"Feature","id":"264545","geometry":{"type":"Polygon","coordinates":[[[-86.7112676765664,36.0494963509144],[-86.7113906090651,36.0486534972627],[-86.711725474636,36.0486749482299],[-86.7116018023851,36.0495226744777],[-86.7112676765664,36.0494963509144]]]},"properties":{"id":"264545","parcel":"16112000800","address":"387 ASH GROVE DR","owner":"MORAN, ALEX SOLOMON & VONGPHET SAMANTHA","point":[-86.71149656887765,36.04908564979111]}},{"type":"Feature","id":"264594","geometry":{"type":"Polygon","coordinates":[[[-86.7137782100182,36.0455310445261],[-86.7141182402735,36.0454959093645],[-86.7141397129375,36.0454936902203],[-86.7141423551607,36.0454934167929],[-86.7141883957875,36.0458864224717],[-86.7141857473548,36.0458866238335],[-86.7135418500217,36.0459363760403],[-86.7135258319202,36.0457996404318],[-86.7135258393972,36.045799607941],[-86.7137774427035,36.0455318611345],[-86.7137782100182,36.0455310445261]]]},"properties":{"id":"264594","parcel":"16100015000","address":"5787 NOLENSVILLE PIKE","owner":"REALTY INCOME CORPORATION","point":[-86.71390716312708,36.04566634459224]}},{"type":"Feature","id":"264595","geometry":{"type":"Polygon","coordinates":[[[-86.7137930782584,36.0482407749273],[-86.7143248327574,36.048197069693],[-86.7143919398507,36.0487698550555],[-86.7139306944145,36.0487368675377],[-86.7139160869146,36.0487366683638],[-86.7139017418002,36.048734419901],[-86.7138880914313,36.0487301916917],[-86.7138755486931,36.0487241092734],[-86.7138644892716,36.0487163578897],[-86.7138552470929,36.0487071689972],[-86.713848101014,36.0486968212462],[-86.7138432669242,36.0486856261059],[-86.7138408887944,36.0486739198067],[-86.71384103973,36.0486620570242],[-86.7137930782584,36.0482407749273]]]},"properties":{"id":"264595","parcel":"16100015600","address":"5701 NOLENSVILLE PIKE","owner":"BROWN & ASSOCIATES, GP","point":[-86.71408592040774,36.04845205744619]}},{"type":"Feature","id":"265074","geometry":{"type":"Polygon","coordinates":[[[-86.7175098985577,36.0487035389656],[-86.7200422765617,36.0469305635432],[-86.7203770174791,36.0469701269847],[-86.719955587522,36.0493066249774],[-86.717808747534,36.0491474107705],[-86.7178263446696,36.0491263049753],[-86.7178401633021,36.0491034209046],[-86.7178499377244,36.0490791999725],[-86.7178554779576,36.049054111983],[-86.7178566751853,36.0490286424793],[-86.7178535083311,36.0490032836921],[-86.7178460373417,36.0489785282701],[-86.7178344074964,36.0489548548341],[-86.7178188437918,36.0489327207998],[-86.7177996475473,36.0489125551882],[-86.7177771907748,36.048894749646],[-86.7177519071936,36.0488796467828],[-86.7177242877922,36.0488675401976],[-86.7176948663025,36.0488586637495],[-86.7176642114237,36.0488531907039],[-86.7174936493351,36.0488402642201],[-86.7175098985577,36.0487035389656]]]},"properties":{"id":"265074","parcel":"16100020600","address":"500 HICKORYVIEW DR","owner":"MFLP HICKORY, LLC & PRG HICKORY VIEW TN, LP","point":[-86.71948432576283,36.0478381083247]}},{"type":"Feature","id":"265478","geometry":{"type":"Polygon","coordinates":[[[-86.7121167958914,36.0447071503172],[-86.7128232346329,36.0446452747737],[-86.7128787655594,36.0452526646279],[-86.7121827136792,36.0453360875337],[-86.7121784507265,36.045295443755],[-86.7121167958914,36.0447071503172]]]},"properties":{"id":"265478","parcel":"16100016400","address":"15007 OLD HICKORY BLVD","owner":"7-ELEVEN, INC.","point":[-86.71249959974898,36.044979912443054]}},{"type":"Feature","id":"265553","geometry":{"type":"Polygon","coordinates":[[[-86.7171545182777,36.0455180012591],[-86.7171782196153,36.0453958938088],[-86.7201270462582,36.0457733923987],[-86.7201631915915,36.0457780190395],[-86.7201803574222,36.0457814828665],[-86.7201965214646,36.045787314964],[-86.7202111937941,36.045795338002],[-86.7202239282711,36.0458053076936],[-86.7202343359404,36.0458169217271],[-86.72024210286,36.045829827772],[-86.7202469935046,36.0458436315692],[-86.7202488576034,36.0458579167191],[-86.7202476390434,36.0458722473318],[-86.7202397366351,36.0459129725661],[-86.7200422765617,36.0469305635432],[-86.7175098985577,36.0487035389656],[-86.7174936493351,36.0488402642201],[-86.7174710088485,36.0490307669931],[-86.7164839941939,36.0489505099249],[-86.7164751697288,36.0489494051307],[-86.7164665382844,36.0489475511169],[-86.716454039052,36.0489433659247],[-86.7164425212562,36.0489376156634],[-86.7164322781316,36.0489304491055],[-86.7164235732486,36.0489220485478],[-86.7164166282889,36.0489126280815],[-86.7164117594719,36.0489027932971],[-86.716408810718,36.0488924667103],[-86.7164078563896,36.048881894833],[-86.7164089154074,36.0488713299141],[-86.7168705827601,36.0465261971959],[-86.7170578296137,36.0455749947784],[-86.7170614106755,36.045563398181],[-86.7170674139368,36.0455524820664],[-86.7170756570279,36.0455425755896],[-86.7170858907506,36.0455339812645],[-86.7170978055817,36.0455269578004],[-86.717111038332,36.045521720063],[-86.7171251908819,36.045518424542],[-86.7171398313155,36.045517172048],[-86.7171545182777,36.0455180012591]]]},"properties":{"id":"265553","parcel":"16100016900","address":"121 HICKORY TRACE DR","owner":"STONEBROOK APARTMENTS NASHVILLE OWNER, LLC","point":[-86.71769678355922,36.04781452156508]}},{"type":"Feature","id":"265738","geometry":{"type":"Polygon","coordinates":[[[-86.7121167958914,36.0447071503172],[-86.7120259131649,36.0440018894987],[-86.7122634525218,36.0440397694288],[-86.7128468940626,36.0439900417963],[-86.7128780807423,36.0442903921232],[-86.7128148032403,36.0445702587739],[-86.7128232346329,36.0446452747737],[-86.7121167958914,36.0447071503172]]]},"properties":{"id":"265738","parcel":"16100018400","address":"5802 NOLENSVILLE PIKE 101","owner":"5802 NOLENSVILLE, LLC","point":[-86.71246366419466,36.04442940810402]}},{"type":"Feature","id":"265742","geometry":{"type":"Polygon","coordinates":[[[-86.714587156279,36.0493043735415],[-86.714506354517,36.0488969545636],[-86.7154479857348,36.0489793557102],[-86.716145488919,36.0490403879001],[-86.716158714576,36.0490424201299],[-86.716171374889,36.0490461294151],[-86.7161831505008,36.0490514239194],[-86.7161937427508,36.0490581684219],[-86.7162028826175,36.0490661914737],[-86.7162103396544,36.0490752916543],[-86.716215924193,36.0490852357555],[-86.7162194952576,36.0490957749578],[-86.7162209627448,36.0491066403109],[-86.7162202886548,36.0491175562458],[-86.7161984303229,36.0492535674637],[-86.716044314374,36.0502125336807],[-86.7143893134825,36.0505556797921],[-86.7143721310864,36.0504976123576],[-86.7143079209955,36.050273225527],[-86.7142478554088,36.0500480831431],[-86.7141919480644,36.0498222356026],[-86.7141402127075,36.0495957342033],[-86.7140926597373,36.0493686284595],[-86.714587156279,36.0493043735415]]]},"properties":{"id":"265742","parcel":"16100019100","address":"5431 NOLENSVILLE PIKE","owner":"HILL REVOLVER, LLC","point":[-86.71514528644002,36.04971131543216]}},{"type":"Feature","id":"265870","geometry":{"type":"Polygon","coordinates":[[[-86.7127984704617,36.0487429855778],[-86.7128925170963,36.0477707999079],[-86.7132552413988,36.0477905757493],[-86.7133717975556,36.0487794239027],[-86.7130859116962,36.0487619805464],[-86.7128398862157,36.0487476030727],[-86.7127984704617,36.0487429855778]]]},"properties":{"id":"265870","parcel":"16100021400","address":"5510 NOLENSVILLE PIKE","owner":"TACO BELL CORP.","point":[-86.71307801581844,36.04826690334642]}},{"type":"Feature","id":"265939","geometry":{"type":"Polygon","coordinates":[[[-86.7164136106605,36.0441182848039],[-86.7170671579246,36.0440828055773],[-86.7171455833127,36.0440771186006],[-86.7171787987084,36.0441128347092],[-86.7172085051072,36.0441505338055],[-86.7172345262121,36.0441899880132],[-86.7172567034162,36.0442309621402],[-86.717274904639,36.0442732091192],[-86.7172890199208,36.0443164736398],[-86.7172989636911,36.0443604975418],[-86.7173046780403,36.0444050134871],[-86.7173061261605,36.0444497558144],[-86.7173033011733,36.0444944550783],[-86.7172962195052,36.0445388416944],[-86.7172903198705,36.044559752534],[-86.7170709483897,36.0445404563661],[-86.7170696402338,36.0445454095389],[-86.7170063477011,36.0445413905412],[-86.7169948173262,36.0446131596186],[-86.7169575876783,36.0446109088793],[-86.7169508261897,36.0446488592453],[-86.7169098374082,36.0446048740038],[-86.7167778461395,36.0445974177513],[-86.716697149524,36.044651467794],[-86.7165673056775,36.0446571844387],[-86.7165309116356,36.0441472561155],[-86.7164136106605,36.0441182848039]]]},"properties":{"id":"265939","parcel":"16112001300","address":"10 KNOLLS PL","owner":"CAI, SONGMIN","point":[-86.7169247065708,36.04438186575998]}},{"type":"Feature","id":"265988","geometry":{"type":"Polygon","coordinates":[[[-86.7114883780607,36.0447128261287],[-86.7119882174704,36.0446615241931],[-86.7120699025722,36.0452803279275],[-86.71201584424,36.0452869401577],[-86.7120188070085,36.0453099353255],[-86.7120246418715,36.0453552186825],[-86.7115970810764,36.0454063895771],[-86.7114883780607,36.0447128261287]]]},"properties":{"id":"265988","parcel":"16112001500","address":"14999 OLD HICKORY BLVD","owner":"BURGER KING COMPANY LLC","point":[-86.71178264198011,36.04499658580267]}},{"type":"Feature","id":"265990","geometry":{"type":"Polygon","coordinates":[[[-86.7109740366122,36.0447688820398],[-86.7114411141587,36.0447232699368],[-86.7115112937867,36.0451942652631],[-86.7114463982861,36.045200142679],[-86.7114801683137,36.045420538871],[-86.7110902225337,36.0454673435427],[-86.7109740366122,36.0447688820398]]]},"properties":{"id":"265990","parcel":"16112001600","address":"14991 OLD HICKORY BLVD","owner":"WAFFLE HOUSE INC","point":[-86.71124450515687,36.04498157838586]}},{"type":"Feature","id":"265992","geometry":{"type":"Polygon","coordinates":[[[-86.7115112937867,36.0451942652631],[-86.7114411141587,36.0447232699368],[-86.7109740366122,36.0447688820398],[-86.7108611919686,36.0438244732869],[-86.7119028044873,36.0439835905739],[-86.7119882174704,36.0446615241931],[-86.7114883780607,36.0447128261287],[-86.7115970810764,36.0454063895771],[-86.7114801683137,36.045420538871],[-86.7114463982861,36.045200142679],[-86.7115112937867,36.0451942652631]]]},"properties":{"id":"265992","parcel":"16112001700","address":"14995 OLD HICKORY BLVD","owner":"RE NASHVILLE, LLC","point":[-86.71143296111524,36.04432132491581]}},{"type":"Feature","id":"266238","geometry":{"type":"Polygon","coordinates":[[[-86.7176326334932,36.0421981946794],[-86.7176367769754,36.0420951522789],[-86.7176402504253,36.0420953857577],[-86.7176416938501,36.042053677064],[-86.7178669685096,36.0420727720608],[-86.717922892801,36.0420763315743],[-86.7179789668003,36.0420775441057],[-86.7180350451152,36.0420764087183],[-86.7180909768127,36.0420729254104],[-86.7181466121756,36.0420671058898],[-86.7182046791284,36.0420584733379],[-86.7182716751562,36.0420451666088],[-86.7183374993939,36.0420284374095],[-86.7184018850063,36.0420083549297],[-86.7184645741343,36.0419849991214],[-86.7185253145905,36.0419584634227],[-86.7185838631886,36.0419288547379],[-86.7186399823976,36.0418962916546],[-86.7186934492444,36.0418609070948],[-86.7187440463711,36.0418228411574],[-86.718791572079,36.0417822473676],[-86.718835833638,36.0417392891111],[-86.7188766550464,36.0416941386872],[-86.7189138714986,36.0416469791436],[-86.718947333767,36.0415979979415],[-86.7189769049375,36.0415473941853],[-86.7190024691981,36.0414953686558],[-86.7190239230418,36.0414421328757],[-86.7190411785067,36.0413878991758],[-86.7190541676796,36.0413328878786],[-86.7190628392766,36.0412773174044],[-86.7190671564977,36.0412214123954],[-86.7190671036273,36.0411653973681],[-86.719062678282,36.0411094985611],[-86.7190496717872,36.0409996842522],[-86.7190132839205,36.0406924677035],[-86.7190102831357,36.0406599543455],[-86.7190089718146,36.0406273660133],[-86.7198783508972,36.0405953015724],[-86.7198712547812,36.0411189500451],[-86.7205892851512,36.0413705705964],[-86.7206605413621,36.0413955401969],[-86.7207062101071,36.0414095065913],[-86.7206280762865,36.0415682138459],[-86.7196199892831,36.0434452402945],[-86.7195918937964,36.0435027050224],[-86.7195674382225,36.0435612574987],[-86.7195466855616,36.0436207459323],[-86.7195296910143,36.0436810149734],[-86.7195164986758,36.0437419084366],[-86.7195068073419,36.043806072513],[-86.7195013372784,36.0438705655917],[-86.7195000508853,36.0439306200619],[-86.7195019785807,36.0439839470235],[-86.7195067884223,36.0440371531273],[-86.7195144750633,36.0440901374602],[-86.7195250209087,36.0441427946757],[-86.7195384062011,36.044195025749],[-86.7195506410921,36.0442349240988],[-86.7196441303594,36.044492710398],[-86.7197379650949,36.0447514454125],[-86.7197525714738,36.0448022126751],[-86.7197634888348,36.0448535869076],[-86.7197706833972,36.0449053925611],[-86.7197741280134,36.0449574513422],[-86.7197738110726,36.045009584865],[-86.7197697342722,36.0450616137618],[-86.7197619115253,36.0451133594937],[-86.7197292190808,36.0452872895894],[-86.7197261079088,36.0452981552189],[-86.7197209788604,36.0453085038416],[-86.7197139562349,36.0453180904647],[-86.7197052055554,36.045326687875],[-86.7196949325249,36.0453340938556],[-86.7196833830262,36.0453401311858],[-86.7196708276752,36.0453446576474],[-86.7196575673696,36.0453475659923],[-86.7196145654542,36.0453455911877],[-86.7195951345963,36.0453446986722],[-86.7193922292299,36.0453353803278],[-86.7183301628576,36.0452345774714],[-86.7186727964591,36.0430235569128],[-86.7175249615889,36.0427859007346],[-86.7175524850508,36.0426892769393],[-86.7175762059316,36.0425919898955],[-86.717596099608,36.0424941379928],[-86.7176121459208,36.0423958222981],[-86.7176243269059,36.0422971411607],[-86.7176326334932,36.0421981946794]]]},"properties":{"id":"266238","parcel":"16100021600","address":"101 ZERMATT AVE","owner":"LAKEWOOD MANAGEMENT SERVICES, LLC","point":[-86.7190034426325,36.04290685351936]}},{"type":"Feature","id":"266774","geometry":{"type":"Polygon","coordinates":[[[-86.714071843263,36.0492656261221],[-86.7140059642498,36.0489396446563],[-86.7140071728854,36.0489269202827],[-86.7140109916792,36.0489145409609],[-86.7140173127918,36.0489028570304],[-86.7140259571785,36.048892199424],[-86.7140366789319,36.0488828688267],[-86.7140491752376,36.0488751320117],[-86.7140630928873,36.0488692055785],[-86.7140780371734,36.0488652577029],[-86.7140935851495,36.0488634017494],[-86.7141092966556,36.0488636880943],[-86.714506354517,36.0488969545636],[-86.714587156279,36.0493043735415],[-86.7140926597373,36.0493686284595],[-86.714071843263,36.0492656261221]]]},"properties":{"id":"266774","parcel":"16100020200","address":"5455 NOLENSVILLE PIKE","owner":"KIMBRO EQUITIES I","point":[-86.71429314513054,36.04910324152846]}},{"type":"Feature","id":"267404","geometry":{"type":"Polygon","coordinates":[[[-86.718411904661,36.0499366472025],[-86.7183319433133,36.0499228383802],[-86.7171537280545,36.0498529356364],[-86.7172441494885,36.0491516024174],[-86.717680875048,36.0491891107801],[-86.7176953534562,36.0491933165053],[-86.7177104747005,36.0491955806249],[-86.7177258475756,36.0491958441807],[-86.7177410735875,36.0491941014341],[-86.7177557580197,36.0491903961956],[-86.7177695188436,36.0491848253762],[-86.7177819999796,36.0491775325996],[-86.717792879066,36.0491687081561],[-86.7178018729265,36.0491585799568],[-86.717808747534,36.0491474107705],[-86.719955587522,36.0493066249774],[-86.7202262279626,36.0502444847672],[-86.718411904661,36.0499366472025]]]},"properties":{"id":"267404","parcel":"16100019400","address":"441 HICKORYVIEW DR","owner":"AVALON HEALTH CARE, LLC","point":[-86.71861238664003,36.04957992401242]}},{"type":"Feature","id":"271791","geometry":{"type":"Polygon","coordinates":[[[-86.7098931482615,36.0497464167584],[-86.7097114966663,36.0493219586234],[-86.7097227999248,36.0492538969066],[-86.7102248396874,36.0492243097544],[-86.7102288609351,36.0492637030926],[-86.7102350259188,36.0493029134525],[-86.7102456979247,36.0493514220007],[-86.7102596491103,36.0493993794601],[-86.7102596709538,36.0493994640527],[-86.7102603003687,36.049401340435],[-86.7102805791986,36.0494557868427],[-86.7103050873836,36.0495090735944],[-86.7103070060074,36.04951288556],[-86.7103235704008,36.0495452542117],[-86.7103560270656,36.0496086723752],[-86.7102779325419,36.0496350276409],[-86.710273249703,36.0496366081634],[-86.7100700715933,36.0497051787135],[-86.7100511904837,36.049711513369],[-86.709984773303,36.0497324694105],[-86.7099175058251,36.0497515503324],[-86.7099024194882,36.0497555408865],[-86.7098975917048,36.0497568004874],[-86.7098931482615,36.0497464167584]]]},"properties":{"id":"271791","parcel":"16205005700","address":"381 ASH GROVE DR","owner":"SUTTON, RACHEL L","point":[-86.71003623706919,36.049481809905586]}},{"type":"Feature","id":"272924","geometry":{"type":"Polygon","coordinates":[[[-86.7123782881785,36.045678644435],[-86.7127862335758,36.04564066544],[-86.7130851572715,36.0458285566331],[-86.7130974609561,36.045942137568],[-86.7130895560318,36.0459509539089],[-86.7130955759731,36.0460086279704],[-86.7131051942425,36.0460162383404],[-86.7131071514592,36.0460349835323],[-86.7124400450264,36.0460983721241],[-86.7123782881785,36.045678644435]]]},"properties":{"id":"272924","parcel":"16100023300","address":"5750 NOLENSVILLE PIKE","owner":"6416 WOODMAN AVENUE, LLC","point":[-86.71274988489277,36.04588452959979]}},{"type":"Feature","id":"272929","geometry":{"type":"Polygon","coordinates":[[[-86.7131209867982,36.0490249787304],[-86.7130859116962,36.0487619805464],[-86.7133717975556,36.0487794239027],[-86.7133970206797,36.0490241688053],[-86.7132309286568,36.049024877002],[-86.7131209867982,36.0490249787304]]]},"properties":{"id":"272929","parcel":"16100023400","address":"5512 NOLENSVILLE PIKE","owner":"VALVOLINE, LLC","point":[-86.71324443909478,36.048901461662176]}}]}