{"type":"FeatureCollection","features":[{"type":"Feature","id":"75900","geometry":{"type":"Polygon","coordinates":[[[-86.7393042020416,36.3498849613732],[-86.7375678810605,36.3490736828551],[-86.7371708219163,36.3482602688671],[-86.7377627575948,36.3480495427587],[-86.7371730878378,36.3467164901989],[-86.7372471629896,36.346685820967],[-86.7373384836106,36.3466468076483],[-86.7373384951028,36.3466468454294],[-86.7373385121649,36.3466468831765],[-86.7383720540753,36.3488995676351],[-86.7387042147649,36.3488332615006],[-86.738785648414,36.3488163017035],[-86.7389868618469,36.3487743999538],[-86.739451013331,36.3498247307154],[-86.7408126123159,36.3498155771071],[-86.7407585755556,36.3502826086161],[-86.7393042020416,36.3498849613732]]]},"properties":{"id":"75900","parcel":"01200020100","address":"6432 LICKTON PIKE","owner":"RABBIT, JAMES TRUST","point":[-86.7377461331941,36.3485166081624]}},{"type":"Feature","id":"76013","geometry":{"type":"Polygon","coordinates":[[[-86.7447368004614,36.3497998529511],[-86.7436363183445,36.3497968801315],[-86.7408126123159,36.3498155771071],[-86.739451013331,36.3498247307154],[-86.7389868618469,36.3487743999538],[-86.7379281026612,36.3463712673586],[-86.7381903083386,36.3462328709057],[-86.7384288290668,36.3467588232515],[-86.7384643604636,36.3468521374529],[-86.7388570124081,36.3467397472621],[-86.7395494242658,36.3485182231263],[-86.7398313244494,36.3492422579272],[-86.7412545536299,36.3488657719147],[-86.7412546702457,36.3488657333491],[-86.7435875662063,36.3492340622293],[-86.7442315908715,36.3493998617489],[-86.7447966122884,36.349461672412],[-86.7447368004614,36.3497998529511]]]},"properties":{"id":"76013","parcel":"01200006800","address":"6418 LICKTON PIKE","owner":"ATKINSON, WILLIAM JOE & COLLINA & FRAZIER, CHERYL M","point":[-86.73886588403154,36.34768487351945]}}]}