{"type":"FeatureCollection","features":[{"type":"Feature","id":"12958","geometry":{"type":"Polygon","coordinates":[[[-86.7225004959533,36.1605957388196],[-86.7225708674566,36.1603608377725],[-86.7216970296633,36.159897298024],[-86.7217054661365,36.1597930206255],[-86.7217098055562,36.1596885793596],[-86.7217100411101,36.1595840788145],[-86.7237346546962,36.159308236571],[-86.72401177649,36.1599843700918],[-86.7239134074319,36.1599938610919],[-86.7234003726013,36.1600021665126],[-86.7231965904963,36.1612975331885],[-86.7225004959533,36.1605957388196]]]},"properties":{"id":"12958","parcel":"09400004200","address":"125 SPENCE LN","owner":"BABYLON HOLDINGS, LLC","point":[-86.72280075558236,36.160181075063306]}},{"type":"Feature","id":"13737","geometry":{"type":"Polygon","coordinates":[[[-86.7256611981887,36.1683553494929],[-86.7262455428546,36.1682452918904],[-86.7262951847191,36.1684372788917],[-86.7263074363886,36.1684822521744],[-86.7257812936402,36.1685724161747],[-86.7257209030848,36.1685827653089],[-86.7256611981887,36.1683553494929]]]},"properties":{"id":"13737","parcel":"09403002300","address":"216 RIVERSIDE DR","owner":"WOODRUFF, JEROME PHILLIP","point":[-86.72597827134994,36.16839631479457]}},{"type":"Feature","id":"13759","geometry":{"type":"Polygon","coordinates":[[[-86.7234711120026,36.168977097213],[-86.723529832627,36.1689461599229],[-86.7238012224881,36.1688370894513],[-86.7241003105051,36.1692740345939],[-86.7240302276444,36.1693134977803],[-86.7239616553141,36.169354667872],[-86.7238946531788,36.1693975057593],[-86.7234711120026,36.168977097213]]]},"properties":{"id":"13759","parcel":"09403003100","address":"2819 BARCLAY DR","owner":"LEMLEY, THERESA LYNN & RODNEY WAYNE ETAL","point":[-86.72380966136627,36.16912562156583]}},{"type":"Feature","id":"14148","geometry":{"type":"Polygon","coordinates":[[[-86.7260000973366,36.1696463456738],[-86.7264963373185,36.1695575026779],[-86.7265495907857,36.1697669559095],[-86.7260559213841,36.1698591678961],[-86.7260000973366,36.1696463456738]]]},"properties":{"id":"14148","parcel":"09403000200","address":"226 RIVERSIDE DR","owner":"HOLLIS, EMMA LOUISE","point":[-86.72627508463165,36.169706651656746]}},{"type":"Feature","id":"14149","geometry":{"type":"Polygon","coordinates":[[[-86.7259429141123,36.1694284142111],[-86.7264394085672,36.1693369129783],[-86.7264963373185,36.1695575026779],[-86.7260000973366,36.1696463456738],[-86.7259429141123,36.1694284142111]]]},"properties":{"id":"14149","parcel":"09403000300","address":"224 RIVERSIDE DR","owner":"MOORE, LOUISE ANN LIVING TRUST","point":[-86.72621976375943,36.1694929590798]}},{"type":"Feature","id":"14150","geometry":{"type":"Polygon","coordinates":[[[-86.7255122867408,36.1690293847074],[-86.7255199990408,36.1690299187635],[-86.725527558745,36.1690312693807],[-86.7255331563206,36.1690328345765],[-86.7255385312252,36.169034846335],[-86.7255450476283,36.1690380679386],[-86.7255509964664,36.1690419445677],[-86.7255552108594,36.1690454080285],[-86.725558969195,36.1690492004884],[-86.7255621420874,36.1690531514849],[-86.7255648202584,36.1690573361788],[-86.7256231069727,36.1692419531739],[-86.7252813066909,36.169304852782],[-86.7252815185919,36.1693055382721],[-86.7252203032897,36.1693169303625],[-86.7251505009933,36.1690969410473],[-86.7254808883926,36.1690361184177],[-86.7254865042588,36.169033726955],[-86.7254924059512,36.1690318393833],[-86.7254924525097,36.1690318255844],[-86.725492494647,36.169031814516],[-86.7254925423417,36.1690318034141],[-86.7254992693881,36.1690303452905],[-86.7255061613906,36.1690295440981],[-86.7255062102545,36.169029539298],[-86.7255062558004,36.1690295363204],[-86.7255063058005,36.1690295342174],[-86.7255122867408,36.1690293847074]]]},"properties":{"id":"14150","parcel":"09403001300","address":"2830 BARCLAY DR","owner":"MARBLE, ALEXANDRA NICOLE & GILMER, JEFFREY CLAY","point":[-86.72538686094805,36.16916944747444]}},{"type":"Feature","id":"14151","geometry":{"type":"Polygon","coordinates":[[[-86.7248362459945,36.1691601957388],[-86.7248703268446,36.169153002665],[-86.7250506936491,36.1695982785736],[-86.7249749705227,36.1696224844373],[-86.7248527082201,36.1696615675242],[-86.7246229183678,36.169227324817],[-86.7246335920403,36.1692230130783],[-86.7248362459945,36.1691601957388]]]},"properties":{"id":"14151","parcel":"09403001500","address":"2826 BARCLAY DR","owner":"HAWKINS, EDWARD C. & PEGGY D.","point":[-86.72484830937135,36.169412828324006]}},{"type":"Feature","id":"14152","geometry":{"type":"Polygon","coordinates":[[[-86.7244614486986,36.1692925461264],[-86.7246229183678,36.169227324817],[-86.7248527082201,36.1696615675242],[-86.7246708902263,36.1697230592966],[-86.7246498821553,36.1697322115854],[-86.7243904500803,36.1693261640118],[-86.7244614486986,36.1692925461264]]]},"properties":{"id":"14152","parcel":"09403001600","address":"2824 BARCLAY DR","owner":"BETHSHARES, JAMES C., III","point":[-86.7246307767638,36.169493887146054]}},{"type":"Feature","id":"14153","geometry":{"type":"Polygon","coordinates":[[[-86.7240281768072,36.169514257672],[-86.7241487600653,36.169445247299],[-86.7244581864879,36.1698157270449],[-86.7243745648268,36.1698686058869],[-86.7242883790366,36.1699231043062],[-86.7239388334866,36.1695735325619],[-86.7240281768072,36.169514257672]]]},"properties":{"id":"14153","parcel":"09403001800","address":"2820 BARCLAY DR","owner":"PUGH, MALCOLM L.","point":[-86.72420847614238,36.16969465304183]}},{"type":"Feature","id":"14154","geometry":{"type":"Polygon","coordinates":[[[-86.7235681676782,36.1698917753255],[-86.7237423652243,36.1697247685579],[-86.7241264275385,36.1700318158302],[-86.7239734584821,36.1701471507193],[-86.7235681676782,36.1698917753255]]]},"properties":{"id":"14154","parcel":"09403002000","address":"2816 BARCLAY DR","owner":"STEWART, TREAUNDRA S.","point":[-86.72385903684533,36.16996182297816]}},{"type":"Feature","id":"14441","geometry":{"type":"Polygon","coordinates":[[[-86.7201442651441,36.1613852708689],[-86.7201440931425,36.1613743999248],[-86.7202789604415,36.1609228395476],[-86.7204134415611,36.160945579738],[-86.7205142595907,36.1609673094544],[-86.7206714060994,36.1610011780635],[-86.7211492976469,36.1611016130244],[-86.721114584905,36.161212485992],[-86.7210829038981,36.1613239536927],[-86.7210542674916,36.1614359628772],[-86.7210286929722,36.1615484575662],[-86.7201442651441,36.1613852708689]]]},"properties":{"id":"14441","parcel":"09400012700","address":"104 SPENCE LN","owner":"JENKINS FAMILY 2025 CP TRUST","point":[-86.72063759654021,36.161267144871665]}},{"type":"Feature","id":"14445","geometry":{"type":"Polygon","coordinates":[[[-86.7212573339564,36.1613661189745],[-86.7212833775591,36.1612722605079],[-86.7213122991909,36.1611789571358],[-86.7213440782586,36.1610862675614],[-86.7213786952727,36.1609942495801],[-86.7214161307275,36.1609029591843],[-86.7223444057409,36.1611101803782],[-86.7222055037033,36.1615716974021],[-86.7212693196604,36.1613688115273],[-86.7212573339564,36.1613661189745]]]},"properties":{"id":"14445","parcel":"09400013900","address":"107 SPENCE LN","owner":"B & D INVESTMENT, LLC","point":[-86.72180339846908,36.16122678444147]}},{"type":"Feature","id":"14450","geometry":{"type":"Polygon","coordinates":[[[-86.7191086119359,36.1646190416921],[-86.7190528374429,36.1645204799833],[-86.7175698393537,36.1644545904051],[-86.7175504429914,36.1644537287524],[-86.7175717160061,36.164393184176],[-86.7175904632172,36.164332092223],[-86.717606661926,36.1642705233279],[-86.7176384601854,36.1642717681714],[-86.7192337506655,36.1643342497209],[-86.7193641856477,36.1642598489097],[-86.7193778812357,36.1640891776118],[-86.7194499815308,36.1631857881667],[-86.7194540676391,36.1631345854526],[-86.721560671461,36.1631261145291],[-86.7217215777613,36.163116292083],[-86.7218821045928,36.1631030018195],[-86.7220421386544,36.1630862534302],[-86.7222015655584,36.1630660593178],[-86.7223602742514,36.1630424318659],[-86.7225181515155,36.16301538978],[-86.7226750852362,36.1629849508586],[-86.7228309655634,36.1629511373936],[-86.7229856804333,36.1629139725917],[-86.7231391211575,36.1628734841465],[-86.7233974735648,36.162802833147],[-86.7234230894885,36.1628813835394],[-86.7235624633593,36.163308994437],[-86.7235375271275,36.1633138007714],[-86.7235248842732,36.1633162387816],[-86.723467545501,36.163327246282],[-86.723409822455,36.1633387751872],[-86.7232729887389,36.163366617026],[-86.7232048131092,36.1633809122692],[-86.7230771816181,36.1634083301251],[-86.7230010793666,36.1634251079617],[-86.7229802137744,36.1634297293697],[-86.7229003430489,36.1634479077519],[-86.7228781860747,36.1634530334746],[-86.7227878268605,36.1634740649205],[-86.7227610405289,36.1634805215755],[-86.722697273657,36.1634958905736],[-86.7226698135516,36.1635024458757],[-86.7226262105066,36.1635130228385],[-86.7225873771406,36.1635227898318],[-86.7223879616228,36.1635734324199],[-86.7223220607287,36.1635907697377],[-86.7223217203237,36.1635908591977],[-86.7222352248333,36.1636137858975],[-86.7222132589757,36.1636197701609],[-86.7221564628995,36.1636352512745],[-86.7220905679876,36.1636535014111],[-86.7220389722398,36.1636679870014],[-86.7220124065009,36.1636754921438],[-86.7219407091541,36.1636961283113],[-86.7218674647942,36.163717395562],[-86.7218276885118,36.1637289731835],[-86.7218275721258,36.1637290081277],[-86.7217297115461,36.1637584050237],[-86.7217295951601,36.1637584399678],[-86.7216205234458,36.163791658488],[-86.7215491736292,36.1638138668538],[-86.7215187265724,36.1638235743506],[-86.721477542132,36.1638368825922],[-86.7214066299981,36.1638598074664],[-86.7213932516995,36.163864134194],[-86.7213611649514,36.1638745490308],[-86.7212713183607,36.1639042626653],[-86.7211896857898,36.163931445065],[-86.7211407258307,36.1639478576461],[-86.7211406083817,36.1639478980036],[-86.7210549527843,36.163976978981],[-86.7210140564288,36.1639909396605],[-86.7209664913465,36.1640050338942],[-86.7209179110483,36.1640166340632],[-86.7209080861439,36.1640186448897],[-86.7208784037134,36.164023957593],[-86.7208684488298,36.1640254861145],[-86.7208384846829,36.1640296414635],[-86.7208157334928,36.1640319088366],[-86.7207850281506,36.1640342462405],[-86.7207499509689,36.1640358022108],[-86.7207321699395,36.164036320273],[-86.7207143836518,36.1640360146075],[-86.7206759183388,36.1640347148511],[-86.7206610048022,36.164033998171],[-86.7206484086095,36.1640343753072],[-86.720626798662,36.1640350261706],[-86.7206058415637,36.1640371917641],[-86.7205656788071,36.1640429662246],[-86.7205262130428,36.1640513231419],[-86.7205175400641,36.1640537515555],[-86.7205089250023,36.1640563157139],[-86.7204709519171,36.1640694458155],[-86.7204627066649,36.1640727107498],[-86.7204545415004,36.1640761049876],[-86.7204282005027,36.1640883184494],[-86.7204029955692,36.1641020176195],[-86.7203790538978,36.1641171341444],[-86.7203774759091,36.1641181466713],[-86.7203522957644,36.1641366602415],[-86.7203287647038,36.1641568520338],[-86.7203287107027,36.1641569028269],[-86.7203112934578,36.1641728897745],[-86.7203021419085,36.1641801482052],[-86.7202846550038,36.1641934822398],[-86.7202729370388,36.1642019627786],[-86.7202636566039,36.1642077574195],[-86.7202412504878,36.1642211108904],[-86.7202177511252,36.1642331667501],[-86.7201905365181,36.1642453907797],[-86.7201867667087,36.1642468940535],[-86.7201829788549,36.1642483685943],[-86.7201753534596,36.1642512314507],[-86.7201442094601,36.1642614600825],[-86.7201362772591,36.1642637064991],[-86.7201322912998,36.1642647847625],[-86.7201282939401,36.1642658315494],[-86.7201102658112,36.1642702363481],[-86.7200763999092,36.1642715352444],[-86.7200488444631,36.1642748630841],[-86.7200428979436,36.1642755826211],[-86.7200097587586,36.1642823739794],[-86.719993590235,36.1642870371452],[-86.7199776589303,36.1642916303974],[-86.7199469388276,36.1643036256328],[-86.7199136112199,36.1643204014026],[-86.7198906397956,36.1643341799716],[-86.7198682042535,36.1643506717529],[-86.7198633538036,36.1643545950501],[-86.7198579133502,36.1643592744224],[-86.7198525948904,36.1643640467984],[-86.7198386547522,36.1643776444126],[-86.7198257207352,36.1643918813302],[-86.719821285406,36.1643972126296],[-86.7198169896815,36.1644026179013],[-86.7198050187184,36.1644187507423],[-86.7197963237907,36.1644339609764],[-86.7197906792402,36.1644438337511],[-86.719779067601,36.1644696836894],[-86.7197762647374,36.1644787824535],[-86.7197672126054,36.1645085304191],[-86.7197622319944,36.1645183244278],[-86.7197555858337,36.1645274443086],[-86.7197474080566,36.1645357063057],[-86.7197378649746,36.1645429426931],[-86.7197309782863,36.1645474792713],[-86.7197212385091,36.1645519012782],[-86.7197174827082,36.1645536036331],[-86.7197103872154,36.1645557062369],[-86.7197032928581,36.1645578115374],[-86.7197012991243,36.1645582073652],[-86.7196992962295,36.1645585735058],[-86.7196952650486,36.1645592022929],[-86.7196861002509,36.1645601086382],[-86.7196768704753,36.1645603457303],[-86.7196727680076,36.1645602223853],[-86.7196707207453,36.1645601084157],[-86.7196686765395,36.1645599637848],[-86.7196575607787,36.1645586285985],[-86.7196413671922,36.1645557563883],[-86.7196215955891,36.1645522520925],[-86.7195853154732,36.1645488975928],[-86.7195837712826,36.1645488590324],[-86.7195483809224,36.164548019154],[-86.7195356046256,36.1645487685684],[-86.7195315383449,36.1645489586432],[-86.7195274735023,36.1645491847598],[-86.7195193547351,36.1645497378693],[-86.7194830659426,36.1645538846198],[-86.7194750760977,36.1645551723901],[-86.7194710932863,36.1645558648711],[-86.7194671208043,36.1645565933411],[-86.7194590450033,36.1645582078807],[-86.719455023684,36.1645590664235],[-86.7194470130634,36.1645608824571],[-86.7194390537144,36.1645628369793],[-86.719427210868,36.1645660178388],[-86.7194116228531,36.1645707261337],[-86.7193849846837,36.164580232834],[-86.7193592697147,36.1645912860044],[-86.7193450495518,36.1645982834624],[-86.7193346298581,36.1646038459855],[-86.7193278058735,36.1646077008103],[-86.7193210829697,36.1646116712955],[-86.7193177602413,36.164613698216],[-86.7193111911118,36.1646178345182],[-86.7192923398426,36.1646311332766],[-86.7192602378198,36.1646442189898],[-86.7192437163997,36.1646510408843],[-86.7192133614547,36.1646637421485],[-86.7192011818385,36.1646690114209],[-86.7191754948709,36.1646799715544],[-86.7191585655834,36.1646872906619],[-86.719149243473,36.1646913225894],[-86.7191086119359,36.1646190416921]]]},"properties":{"id":"14450","parcel":"09400014300","address":"211 RIVER HILLS DR 101","owner":"ELLIOTT, CLARK H.","point":[-86.72059226867728,36.16374094412469]}},{"type":"Feature","id":"14696","geometry":{"type":"Polygon","coordinates":[[[-86.7257812936402,36.1685724161747],[-86.7263074363886,36.1684822521744],[-86.7263681049015,36.1687049527684],[-86.7263936089572,36.1688058445545],[-86.7258071345803,36.1689112272628],[-86.7257209030848,36.1685827653089],[-86.7257812936402,36.1685724161747]]]},"properties":{"id":"14696","parcel":"09403002200","address":"218 RIVERSIDE DR","owner":"STEPHENS, JIMMY CLAY ETUX","point":[-86.72604420511989,36.16864385879192]}},{"type":"Feature","id":"14709","geometry":{"type":"Polygon","coordinates":[[[-86.7250163335333,36.1686346395314],[-86.7254346675683,36.1685492006009],[-86.7254971631254,36.1687909731056],[-86.7254977361467,36.1688040452061],[-86.7254957150819,36.1688170220434],[-86.7254911557727,36.1688295680116],[-86.7254841741962,36.1688413597604],[-86.7254749509521,36.1688520906754],[-86.7254637258205,36.1688614835278],[-86.7254507866967,36.1688692959494],[-86.7251315004524,36.1689277580929],[-86.7251061272195,36.1689317562216],[-86.7250163335333,36.1686346395314]]]},"properties":{"id":"14709","parcel":"09403002600","address":"2831 BARCLAY DR","owner":"BACHER, ARON G. & KELLY S.","point":[-86.72525844743859,36.168712810458686]}},{"type":"Feature","id":"14710","geometry":{"type":"Polygon","coordinates":[[[-86.7243690656205,36.1686090229287],[-86.7246666383282,36.1684904210999],[-86.7248456121589,36.1689857331245],[-86.7247722824218,36.169004797202],[-86.7246998729557,36.1690260466828],[-86.7246284801823,36.1690494512479],[-86.7245892252559,36.1690620135038],[-86.7243690656205,36.1686090229287]]]},"properties":{"id":"14710","parcel":"09403002800","address":"2827 BARCLAY DR","owner":"ROKICKI, CHRISTOPHER & CHARETTE, TORI","point":[-86.72461906921605,36.168797405245165]}},{"type":"Feature","id":"14711","geometry":{"type":"Polygon","coordinates":[[[-86.7229927719403,36.1693481677103],[-86.7231400156937,36.1691354182471],[-86.7232046992804,36.1691174542401],[-86.7236783464226,36.1695537436885],[-86.7236151496753,36.1696067951586],[-86.7235538545654,36.1696612943415],[-86.7234945129307,36.1697171967671],[-86.7229927719403,36.1693481677103]]]},"properties":{"id":"14711","parcel":"09403003300","address":"2815 BARCLAY DR","owner":"WILLIS, NOBLE & JOSIE","point":[-86.7233496114947,36.16945098865967]}},{"type":"Feature","id":"14712","geometry":{"type":"Polygon","coordinates":[[[-86.7226795576032,36.1698009611975],[-86.7228273075759,36.1695879567668],[-86.7233336508869,36.1698876967702],[-86.7232832056139,36.1699482134187],[-86.7232354498067,36.1700101478406],[-86.7231904438949,36.1700734221682],[-86.7226796581298,36.1698010146714],[-86.7226795576032,36.1698009611975]]]},"properties":{"id":"14712","parcel":"09403003500","address":"2811 BARCLAY DR","owner":"HELLMANN, MARY E.","point":[-86.72301064338151,36.16984436539506]}},{"type":"Feature","id":"14725","geometry":{"type":"Polygon","coordinates":[[[-86.7206995282862,36.162863373141],[-86.7207080507054,36.1620613661486],[-86.7212500159595,36.1620671853343],[-86.721254074532,36.1628624027832],[-86.7206995282862,36.162863373141]]]},"properties":{"id":"14725","parcel":"09400011700","address":"501 CAVE RD","owner":"LIQUID ENVIRONMENTAL SOLUTIONS OF TENNESSEE, LLC","point":[-86.72097791128554,36.16246415560069]}},{"type":"Feature","id":"14727","geometry":{"type":"Polygon","coordinates":[[[-86.721254074532,36.1628624027832],[-86.7212500159595,36.1620671853343],[-86.7213755887133,36.1620685104459],[-86.7215010270218,36.1620733845141],[-86.7216261796883,36.1620818012334],[-86.7217508954912,36.1620937515951],[-86.7218750209124,36.1621092184935],[-86.7219984057758,36.1621281857049],[-86.722120900942,36.1621506288885],[-86.7221729334618,36.1621592121419],[-86.7222245184043,36.1621694185274],[-86.7222755789474,36.1621812331836],[-86.7224026708981,36.1627050957275],[-86.7220202966011,36.1627598681767],[-86.7216374237309,36.1628123045086],[-86.721254074532,36.1628624027832]]]},"properties":{"id":"14727","parcel":"09400012300","address":"505 CAVE RD","owner":"WARE FAMILY, LLC","point":[-86.72179552331954,36.1624419027271]}},{"type":"Feature","id":"15083","geometry":{"type":"Polygon","coordinates":[[[-86.7246666383282,36.1684904210999],[-86.7247990662474,36.1684374814788],[-86.7250163335333,36.1686346395314],[-86.7251061272195,36.1689317562216],[-86.7250185618757,36.1689473874337],[-86.7249316917226,36.1689653865344],[-86.7248456121589,36.1689857331245],[-86.7246666383282,36.1684904210999]]]},"properties":{"id":"15083","parcel":"09403002700","address":"2829 BARCLAY DR","owner":"BLACKBURN, JASON & DEVON","point":[-86.72491670952016,36.168782865943164]}},{"type":"Feature","id":"15086","geometry":{"type":"Polygon","coordinates":[[[-86.7228273075759,36.1695879567668],[-86.7229927719403,36.1693481677103],[-86.7234945129307,36.1697171967671],[-86.7234387466176,36.1697726838806],[-86.7233851090572,36.1698295353405],[-86.7233336508869,36.1698876967702],[-86.7228273075759,36.1695879567668]]]},"properties":{"id":"15086","parcel":"09403003400","address":"2813 BARCLAY DR","owner":"WHITE, TONYA M. & FRANK R.","point":[-86.72317150847364,36.169652601735656]}},{"type":"Feature","id":"15149","geometry":{"type":"Polygon","coordinates":[[[-86.7215334465943,36.160529306723],[-86.7215668560657,36.1604684508608],[-86.7224844393833,36.1606488600399],[-86.7223444057409,36.1611101803782],[-86.7214161307275,36.1609029591843],[-86.7215334465943,36.160529306723]]]},"properties":{"id":"15149","parcel":"09400013800","address":"115 SPENCE LN","owner":"SATTERFIELD, JAMES A.","point":[-86.72195095262822,36.160775912356726]}},{"type":"Feature","id":"15664","geometry":{"type":"Polygon","coordinates":[[[-86.7256058398628,36.1681444826629],[-86.726160679301,36.167925778723],[-86.7262455428546,36.1682452918904],[-86.7256611981887,36.1683553494929],[-86.7256058398628,36.1681444826629]]]},"properties":{"id":"15664","parcel":"09403002400","address":"214 RIVERSIDE DR","owner":"BOILER INVESTMENT GROUP, LLC","point":[-86.72603658490256,36.168035481935846]}},{"type":"Feature","id":"15694","geometry":{"type":"Polygon","coordinates":[[[-86.7247990662474,36.1684374814788],[-86.7253482084461,36.1682147156761],[-86.7254346675683,36.1685492006009],[-86.7250163335333,36.1686346395314],[-86.7247990662474,36.1684374814788]]]},"properties":{"id":"15694","parcel":"09403002500","address":"215 A RIVERSIDE DR","owner":"DUKE, TRACY W. & KAREN L.","point":[-86.7252254084857,36.16832644728509]}},{"type":"Feature","id":"15696","geometry":{"type":"Polygon","coordinates":[[[-86.724081872301,36.1687242964677],[-86.7243690656205,36.1686090229287],[-86.7245892252559,36.1690620135038],[-86.7245057989174,36.1690909005254],[-86.7244236813077,36.1691221562678],[-86.7243429754431,36.1691557422624],[-86.724081872301,36.1687242964677]]]},"properties":{"id":"15696","parcel":"09403002900","address":"2823 BARCLAY DR","owner":"SMITH, ASHLEY & SHANE S.","point":[-86.72434560022461,36.168893178396935]}},{"type":"Feature","id":"15698","geometry":{"type":"Polygon","coordinates":[[[-86.7238012224881,36.1688370894513],[-86.724081872301,36.1687242964677],[-86.7243429754431,36.1691557422624],[-86.7242605677103,36.1691931002915],[-86.7241796528385,36.1692325438447],[-86.7241003105051,36.1692740345939],[-86.7238012224881,36.1688370894513]]]},"properties":{"id":"15698","parcel":"09403003000","address":"2821 BARCLAY DR","owner":"VIELEHR, PETER SCHUYLER & HENRY, JULIE ANN","point":[-86.72407841124075,36.16899643071086]}},{"type":"Feature","id":"15700","geometry":{"type":"Polygon","coordinates":[[[-86.7232046992804,36.1691174542401],[-86.7234711120026,36.168977097213],[-86.7238946531788,36.1693975057593],[-86.7238043455585,36.1694590277791],[-86.7237166891475,36.169523021322],[-86.7236783464226,36.1695537436885],[-86.7232046992804,36.1691174542401]]]},"properties":{"id":"15700","parcel":"09403003200","address":"2817 BARCLAY DR","owner":"BALOS, JONATHAN DINO & EMANUELA","point":[-86.72355514432995,36.16925749312218]}},{"type":"Feature","id":"15716","geometry":{"type":"Polygon","coordinates":[[[-86.7215532078992,36.1619112692013],[-86.7214009012897,36.1618974025378],[-86.7212482005466,36.1618867564582],[-86.7212379140524,36.1618874767564],[-86.7212276196934,36.1618868424982],[-86.7212175854845,36.1618848710085],[-86.7212080741867,36.1618816129906],[-86.7211993355437,36.1618771543751],[-86.7211915973499,36.1618716118667],[-86.7211850620917,36.1618651302606],[-86.7211799013579,36.161857878871],[-86.7211762502417,36.1618500470579],[-86.7211739231573,36.161829162411],[-86.7211733725287,36.16180819685],[-86.7211895469403,36.1616971075047],[-86.7212089386543,36.1615863567302],[-86.72123153822,36.1614760067688],[-86.7212573339564,36.1613661189745],[-86.7212693196604,36.1613688115273],[-86.7222055037033,36.1615716974021],[-86.7220845376493,36.1619718992204],[-86.7219523697928,36.1619531090121],[-86.7218197138193,36.1619367342673],[-86.7216866376093,36.1619227853938],[-86.7215532078992,36.1619112692013]]]},"properties":{"id":"15716","parcel":"09400012500","address":"101 SPENCE LN","owner":"GINSBERG FAMILY PARTNERSHIP, LP","point":[-86.721691443067,36.16164287710799]}},{"type":"Feature","id":"15754","geometry":{"type":"Polygon","coordinates":[[[-86.7201530496777,36.1619408091718],[-86.7201442651441,36.1613852708689],[-86.7210286929722,36.1615484575662],[-86.7210099988057,36.1616523364981],[-86.7209935731038,36.1617564677456],[-86.7209794200179,36.1618608179379],[-86.7209754935523,36.1618723451511],[-86.7209694341093,36.16188324701],[-86.7209613816115,36.1618932658176],[-86.7209515283964,36.1619021633916],[-86.7209401081852,36.1619097301431],[-86.7209273916447,36.1619157860042],[-86.7209136797855,36.1619201876777],[-86.7208992973092,36.1619228304794],[-86.7207976422002,36.1619226427293],[-86.7206960098437,36.1619243483172],[-86.7205944524757,36.1619279478323],[-86.720482958252,36.161933810178],[-86.7203717080004,36.1619421854958],[-86.7202579360978,36.1619421363074],[-86.7201530496777,36.1619408091718]]]},"properties":{"id":"15754","parcel":"09400012600","address":"100 SPENCE LN","owner":"JENKINS FAMILY 2025 CP TRUST","point":[-86.7205755329629,36.161703408205234]}},{"type":"Feature","id":"15756","geometry":{"type":"Polygon","coordinates":[[[-86.7215668560657,36.1604684508608],[-86.7215957666728,36.1603818267469],[-86.7216214513802,36.1602945360488],[-86.7216438875888,36.1602066591165],[-86.7216630549143,36.1601182753851],[-86.7216789351873,36.1600294633751],[-86.7216915158198,36.159940304277],[-86.7216970296633,36.159897298024],[-86.7225708674566,36.1603608377725],[-86.7225004959533,36.1605957388196],[-86.7224844393833,36.1606488600399],[-86.7215668560657,36.1604684508608]]]},"properties":{"id":"15756","parcel":"09400013100","address":"121 SPENCE LN","owner":"LOUDERMILK, LANEICE W., TRUSTEE","point":[-86.72199946360827,36.16025144969621]}},{"type":"Feature","id":"16339","geometry":{"type":"Polygon","coordinates":[[[-86.7224026708981,36.1627050957275],[-86.7222755789474,36.1621812331836],[-86.7224164358232,36.1622091026549],[-86.7225698136137,36.1622270056069],[-86.7227225012467,36.1622484454593],[-86.7228743730079,36.1622734067451],[-86.7230253053395,36.1623018667745],[-86.7229846261211,36.1625615677761],[-86.7228713771138,36.1625919356338],[-86.7227576878411,36.1626212001678],[-86.7225804902029,36.1626640123344],[-86.7224026708981,36.1627050957275]]]},"properties":{"id":"16339","parcel":"09400016700","address":"511 CAVE RD","owner":"UDP CAVE ROAD, LLC","point":[-86.72267046870641,36.162430943031545]}},{"type":"Feature","id":"17092","geometry":{"type":"Polygon","coordinates":[[[-86.7252813066909,36.169304852782],[-86.7256231069727,36.1692419531739],[-86.7257064244536,36.1694713756041],[-86.7257072934808,36.1694749997705],[-86.7252943567017,36.1695503157088],[-86.7252203032897,36.1693169303625],[-86.7252815185919,36.1693055382721],[-86.7252813066909,36.169304852782]]]},"properties":{"id":"17092","parcel":"09403001200","address":"221 RIVERSIDE DR","owner":"BUNN, ROBERT L. & MARY L.","point":[-86.72546160311921,36.16939414919278]}},{"type":"Feature","id":"17095","geometry":{"type":"Polygon","coordinates":[[[-86.7238828944118,36.169610645948],[-86.7239388334866,36.1695735325619],[-86.7242883790366,36.1699231043062],[-86.7241782340477,36.169992754264],[-86.7241264275385,36.1700318158302],[-86.7237423652243,36.1697247685579],[-86.7237620321889,36.1697059142498],[-86.7238828944118,36.169610645948]]]},"properties":{"id":"17095","parcel":"09403001900","address":"2818 BARCLAY DR","owner":"AMBRISTER, BAILEY MICHAEL & STRAUSS, CHRISTIAN LEA L.","point":[-86.72402779793215,36.16982396538441]}},{"type":"Feature","id":"17299","geometry":{"type":"Polygon","coordinates":[[[-86.7222055037033,36.1615716974021],[-86.7223444057409,36.1611101803782],[-86.7224844393833,36.1606488600399],[-86.7225004959533,36.1605957388196],[-86.7231965904963,36.1612975331885],[-86.7227841422745,36.1612152273081],[-86.7226583726341,36.161632263534],[-86.7224684244709,36.1617417284242],[-86.7223799039202,36.1620352472283],[-86.7221614246851,36.1619878764644],[-86.7220845376493,36.1619718992204],[-86.7222055037033,36.1615716974021]]]},"properties":{"id":"17299","parcel":"09400014600","address":"510 CAVE RD","owner":"CHIDESTER, MURRAY B. & CHARLENE G.","point":[-86.72248252249052,36.16143411007053]}},{"type":"Feature","id":"17354","geometry":{"type":"Polygon","coordinates":[[[-86.7207468142035,36.1599198482701],[-86.7215422253131,36.1598220882779],[-86.7215369339564,36.1599191574579],[-86.7215296038166,36.1599831722644],[-86.7214716320079,36.1601738329338],[-86.7214715099723,36.1601742239116],[-86.7214105633341,36.1603644742226],[-86.7214104962567,36.160364675606],[-86.7213466535469,36.1605542564199],[-86.7213465690561,36.1605544984642],[-86.7212798822822,36.1607432643618],[-86.7212797380831,36.160743662682],[-86.7212100163847,36.1609321384346],[-86.7211784725052,36.1610165962101],[-86.7211492976469,36.1611016130244],[-86.7206714060994,36.1610011780635],[-86.7205142595907,36.1609673094544],[-86.7206342338767,36.1605483714314],[-86.7205480265219,36.1605285391727],[-86.7207468142035,36.1599198482701]]]},"properties":{"id":"17354","parcel":"09400016600","address":"114 SPENCE LN","owner":"OLD TOWN TROLLEY TOURS OF NASHVILLE, INC.","point":[-86.72097884017737,36.16044660718587]}},{"type":"Feature","id":"19211","geometry":{"type":"Polygon","coordinates":[[[-86.7260559213841,36.1698591678961],[-86.7265495907857,36.1697669559095],[-86.7266041039016,36.1699778633751],[-86.7261122030171,36.1700737384857],[-86.7261115465072,36.1700712333156],[-86.7260559213841,36.1698591678961]]]},"properties":{"id":"19211","parcel":"09403000100","address":"228 RIVERSIDE DR","owner":"SCOTT PROPERTY MANAGEMENT, LLC","point":[-86.72633012527237,36.16991851620664]}},{"type":"Feature","id":"19213","geometry":{"type":"Polygon","coordinates":[[[-86.725949221252,36.1692090094326],[-86.726387610072,36.1691315210313],[-86.7264394085672,36.1693369129783],[-86.7259429141123,36.1694284142111],[-86.7258881462666,36.169219804382],[-86.725949221252,36.1692090094326]]]},"properties":{"id":"19213","parcel":"09403000400","address":"222 RIVERSIDE DR","owner":"CLAD, JAM FAMILY TRUST, THE","point":[-86.7261640773231,36.1692783596832]}},{"type":"Feature","id":"19215","geometry":{"type":"Polygon","coordinates":[[[-86.7251122426738,36.1695805630993],[-86.7252943567017,36.1695503157088],[-86.7253541992466,36.1697530433756],[-86.725428924257,36.1700061838963],[-86.7252873837466,36.1700363724415],[-86.7252272109088,36.1700506044577],[-86.7251673719364,36.1700657338996],[-86.7249749705227,36.1696224844373],[-86.7250506936491,36.1695982785736],[-86.7251122426738,36.1695805630993]]]},"properties":{"id":"19215","parcel":"09403000800","address":"2823 HODY DR","owner":"SOBRINO, JUAN-CARLOS & ANDREA","point":[-86.72523891999127,36.16987926345877]}},{"type":"Feature","id":"19217","geometry":{"type":"Polygon","coordinates":[[[-86.7252943567017,36.1695503157088],[-86.7257072934808,36.1694749997705],[-86.7257558205767,36.1696775095808],[-86.7253541992466,36.1697530433756],[-86.7252943567017,36.1695503157088]]]},"properties":{"id":"19217","parcel":"09403001000","address":"223 RIVERSIDE DR","owner":"MAYNARD, SHARRI LYNN","point":[-86.72552684274635,36.169613916888174]}},{"type":"Feature","id":"19219","geometry":{"type":"Polygon","coordinates":[[[-86.7250620292656,36.1691125389803],[-86.7251505009933,36.1690969410473],[-86.7252203032897,36.1693169303625],[-86.7252943567017,36.1695503157088],[-86.7251122426738,36.1695805630993],[-86.7250506936491,36.1695982785736],[-86.7248703268446,36.169153002665],[-86.7249742534148,36.1691310662838],[-86.7250620292656,36.1691125389803]]]},"properties":{"id":"19219","parcel":"09403001400","address":"2828 BARCLAY DR","owner":"CHRISTIANSEN, CASEY & LEVI","point":[-86.72512053615534,36.16943330907302]}},{"type":"Feature","id":"19221","geometry":{"type":"Polygon","coordinates":[[[-86.7241957486567,36.1694183555525],[-86.7243904500803,36.1693261640118],[-86.7246498821553,36.1697322115854],[-86.7244581864879,36.1698157270449],[-86.7241487600653,36.169445247299],[-86.7241957486567,36.1694183555525]]]},"properties":{"id":"19221","parcel":"09403001700","address":"2822 BARCLAY DR","owner":"SIZEMORE, CHARLES DONOUR","point":[-86.72441339360772,36.1695887620964]}},{"type":"Feature","id":"19591","geometry":{"type":"Polygon","coordinates":[[[-86.7248527082201,36.1696615675242],[-86.7249749705227,36.1696224844373],[-86.7251673719364,36.1700657338996],[-86.7250212803287,36.1701035660566],[-86.7250087354538,36.1701080819381],[-86.7250062223661,36.1701080970333],[-86.7250038679271,36.1701097821192],[-86.7249909545611,36.1701142362225],[-86.7249288148832,36.1701377944672],[-86.7246708902263,36.1697230592966],[-86.7248527082201,36.1696615675242]]]},"properties":{"id":"19591","parcel":"09403000700","address":"2821 HODY DR","owner":"SOBRINO, JUAN-CARLOS & ANDREA M.","point":[-86.72493520755464,36.16989443379089]}},{"type":"Feature","id":"19595","geometry":{"type":"Polygon","coordinates":[[[-86.7253541992466,36.1697530433756],[-86.7257558205767,36.1696775095808],[-86.7257731502528,36.1697459996996],[-86.7258031120025,36.1698659364276],[-86.7258046851995,36.1698750892196],[-86.7258047675101,36.1698843311892],[-86.7258033585778,36.1698935019135],[-86.7258004814207,36.169902444434],[-86.7257953237824,36.1699124055769],[-86.7257883496203,36.1699216106668],[-86.7257797225844,36.1699298442184],[-86.7257696443053,36.1699369112469],[-86.725758353365,36.1699426462877],[-86.7257461142069,36.1699469161657],[-86.7254608081404,36.1700008433435],[-86.725428924257,36.1700061838963],[-86.7253541992466,36.1697530433756]]]},"properties":{"id":"19595","parcel":"09403000900","address":"2825 HODY DR","owner":"CURRIE, MICHAEL R.& CAPPS, ELIZABETH A.","point":[-86.72557992625623,36.16980949302417]}},{"type":"Feature","id":"19865","geometry":{"type":"Polygon","coordinates":[[[-86.7223799039202,36.1620352472283],[-86.7224684244709,36.1617417284242],[-86.7226583726341,36.161632263534],[-86.7227841422745,36.1612152273081],[-86.7231965904963,36.1612975331885],[-86.7230388683202,36.1621513327011],[-86.7228942648647,36.1621216568265],[-86.7227487332377,36.1620951290515],[-86.7226023792009,36.1620717703701],[-86.7224553051241,36.1620515954879],[-86.7223799039202,36.1620352472283]]]},"properties":{"id":"19865","parcel":"09400018500","address":"514 CAVE RD","owner":"HALL, JAMI E","point":[-86.7228439021501,36.1616876455964]}},{"type":"Feature","id":"151242","geometry":{"type":"Polygon","coordinates":[[[-86.7258881462666,36.169219804382],[-86.7258071345803,36.1689112272628],[-86.7263936089572,36.1688058445545],[-86.7264018548224,36.1688388037415],[-86.7264473730606,36.1690083884061],[-86.7264629525484,36.1690575775811],[-86.7263736418212,36.1690762025657],[-86.726387610072,36.1691315210313],[-86.725949221252,36.1692090094326],[-86.7258881462666,36.169219804382]],[[-86.7261584258533,36.1690325307642],[-86.7261466818202,36.1689921364475],[-86.7259999695447,36.1690201795081],[-86.7260443551637,36.1691728435765],[-86.7260712130684,36.1691677106407],[-86.7260732800141,36.1691748208995],[-86.7260964684689,36.1691703895852],[-86.7260942167591,36.1691626450468],[-86.7261397192698,36.1691539471897],[-86.7261072622317,36.1690423099548],[-86.7261584258533,36.1690325307642]],[[-86.7259917931347,36.1690026927863],[-86.7261397705524,36.1689755262645],[-86.7261159109596,36.1688900866315],[-86.7261103557505,36.1688701930934],[-86.7259623785274,36.1688973604811],[-86.7259677670625,36.1689166565885],[-86.7259917931347,36.1690026927863]]]},"properties":{"id":"151242","parcel":"094030A90000CO","address":"220 C RIVERSIDE DR","owner":"O.I.C. HOMES AT 220 RIVERSIDE DRIVE AM","point":[-86.72630123890029,36.16901446150306]}},{"type":"Feature","id":"153589","geometry":{"type":"Polygon","coordinates":[[[-86.7260732800141,36.1691748208995],[-86.7260712130684,36.1691677106407],[-86.7260443551637,36.1691728435765],[-86.7259999695447,36.1690201795081],[-86.7261466818202,36.1689921364475],[-86.7261584258533,36.1690325307642],[-86.7261072622317,36.1690423099548],[-86.7261397192698,36.1691539471897],[-86.7260942167591,36.1691626450468],[-86.7260964684689,36.1691703895852],[-86.7260732800141,36.1691748208995]]]},"properties":{"id":"153589","parcel":"094030A00100CO","address":"220 RIVERSIDE DR","owner":"220 RIVERSIDE TRUST","point":[-86.72607302803813,36.16909801313518]}},{"type":"Feature","id":"155150","geometry":{"type":"Polygon","coordinates":[[[-86.7259623785274,36.1688973604811],[-86.7261103557505,36.1688701930934],[-86.7261159109596,36.1688900866315],[-86.7261397705524,36.1689755262645],[-86.7259917931347,36.1690026927863],[-86.7259677670625,36.1689166565885],[-86.7259623785274,36.1688973604811]]]},"properties":{"id":"155150","parcel":"094030A00200CO","address":"220 A RIVERSIDE DR","owner":"220 RIVERSIDE TRUST","point":[-86.72605376878307,36.16894609145733]}},{"type":"Feature","id":"173160","geometry":{"type":"Polygon","coordinates":[[[-86.7246174081233,36.1699627444248],[-86.7245954805543,36.1699376722121],[-86.724575298459,36.1699492763744],[-86.7245805632718,36.1699552958566],[-86.7245691961803,36.1699618306639],[-86.7245632495249,36.1699550302734],[-86.7245499484802,36.1699626771318],[-86.7244923152611,36.1698967783671],[-86.7245073423603,36.169888137875],[-86.7244989795641,36.1698785769918],[-86.7245794944843,36.1698322842254],[-86.7246379926628,36.1698991727525],[-86.7246511211846,36.1698916242564],[-86.7246812285053,36.1699260502375],[-86.7246174081233,36.1699627444248]]]},"properties":{"id":"173160","parcel":"094030B00200CO","address":"2819 B HODY DR","owner":"HAYES, SAMUEL","point":[-86.72456515396628,36.16989797558197]}},{"type":"Feature","id":"175436","geometry":{"type":"Polygon","coordinates":[[[-86.7243745648268,36.1698686058869],[-86.7244581864879,36.1698157270449],[-86.7246498821553,36.1697322115854],[-86.7246708902263,36.1697230592966],[-86.7249288148832,36.1701377944672],[-86.7248761006862,36.1701585021562],[-86.7248246180695,36.1701811572679],[-86.7247744777353,36.1702057104708],[-86.7247257859239,36.1702321106579],[-86.7247032664441,36.1702441101093],[-86.7243745648268,36.1698686058869]],[[-86.7246174081233,36.1699627444248],[-86.7246812285053,36.1699260502375],[-86.7246511211846,36.1698916242564],[-86.7246379926628,36.1698991727525],[-86.7245794944843,36.1698322842254],[-86.7244989795641,36.1698785769918],[-86.7245073423603,36.169888137875],[-86.7244923152611,36.1698967783671],[-86.7245499484802,36.1699626771318],[-86.7245632495249,36.1699550302734],[-86.7245691961803,36.1699618306639],[-86.7245805632718,36.1699552958566],[-86.724575298459,36.1699492763744],[-86.7245954805543,36.1699376722121],[-86.7246174081233,36.1699627444248]],[[-86.7246362364519,36.1701199785815],[-86.7247478985769,36.1700676197627],[-86.7247520905811,36.1700734978716],[-86.7248022945544,36.1700499573154],[-86.7247566217182,36.1699859218688],[-86.7246854502829,36.1700192931084],[-86.7246573956129,36.1699799600401],[-86.7245874604611,36.170012752398],[-86.7245886010677,36.1700143516034],[-86.7245784637566,36.1700191053412],[-86.7245969690521,36.1700450497959],[-86.7245863469526,36.1700500308593],[-86.7246362364519,36.1701199785815]]]},"properties":{"id":"175436","parcel":"094030B90000CO","address":"2819 C HODY DR","owner":"O.I.C.  TWENTYEIGHT NINETEEN HODY DRIVE","point":[-86.72456274573769,36.16998260918271]}}]}