{"type":"FeatureCollection","features":[{"type":"Feature","id":"68062","geometry":{"type":"Polygon","coordinates":[[[-86.7591289674699,36.2563935237085],[-86.759644118054,36.2563012459968],[-86.7597703982803,36.256545976302],[-86.7602109679545,36.2570585126066],[-86.7607439261232,36.2575184665625],[-86.7610888181047,36.2577538591552],[-86.7618299775257,36.2582507455734],[-86.761830057049,36.2582507991467],[-86.7616441399199,36.2585517321399],[-86.7615805125025,36.2586381460993],[-86.7615738350108,36.2586472231556],[-86.7615737713123,36.2586473109777],[-86.7613072024181,36.2590680998082],[-86.7612111071598,36.2590464273364],[-86.7609421319151,36.2589857850715],[-86.7607601065475,36.2589435191555],[-86.7604261011608,36.2588659677316],[-86.7599094206989,36.2587489046783],[-86.7599093671754,36.2587488932987],[-86.7593492137436,36.2586200164534],[-86.7580003946612,36.2583120302323],[-86.7580292247463,36.2577800307167],[-86.7580349334523,36.257667643116],[-86.758040899859,36.2575062235108],[-86.7580440081187,36.2573447515304],[-86.7580442563338,36.2571832596318],[-86.758041645962,36.2570217820533],[-86.7580469808319,36.2568241210362],[-86.7591917462106,36.2566614000315],[-86.7591289674699,36.2563935237085]]]},"properties":{"id":"68062","parcel":"05000015900","address":"3570 DICKERSON PIKE","owner":"DICKERSON VENTURES LLC","point":[-86.75953144070468,36.25771069970018]}},{"type":"Feature","id":"114053","geometry":{"type":"Polygon","coordinates":[[[-86.7579893326987,36.2594251825269],[-86.7580517830996,36.259429433987],[-86.7585215213995,36.2594614004959],[-86.7584609702773,36.2600100809234],[-86.7581416600943,36.2599813180111],[-86.7578451536225,36.2599546093793],[-86.7578451606018,36.2599545246186],[-86.7578942185084,36.2594812686776],[-86.7579000598897,36.2594694230463],[-86.7579081633915,36.2594584851988],[-86.7579183191591,36.2594487367378],[-86.7579302680588,36.2594404262287],[-86.7579437027817,36.2594337682922],[-86.7579582777724,36.2594289345288],[-86.7579736191835,36.2594260471487],[-86.7579893326987,36.2594251825269]]]},"properties":{"id":"114053","parcel":"04116006000","address":"3700 DICKERSON PIKE","owner":"ANDERSON LAND COMPANY, LLC","point":[-86.75818138285919,36.25971852719422]}},{"type":"Feature","id":"118744","geometry":{"type":"Polygon","coordinates":[[[-86.7566615268711,36.2587255997994],[-86.755734035233,36.2586365084022],[-86.7529539350773,36.2583694029771],[-86.7528000292723,36.2583542161014],[-86.7524983283342,36.2583244426918],[-86.7525859149581,36.2579977813459],[-86.7526352589568,36.2578137473919],[-86.7526887795332,36.25764394777],[-86.7528071280713,36.2572684967991],[-86.7529435445583,36.2572756138486],[-86.7548172274741,36.2574259967392],[-86.7567364949203,36.2575540892186],[-86.7567364900193,36.2575541586451],[-86.7567205277875,36.2578000458665],[-86.7567051883722,36.2580407785583],[-86.7566878163286,36.2583172357449],[-86.756671564569,36.2585689620711],[-86.7576276476701,36.2586681790496],[-86.7576381871949,36.258668549171],[-86.7576486695041,36.2586675903157],[-86.7576588411268,36.2586653284065],[-86.7576684577437,36.258661815445],[-86.7576772842648,36.2586571376223],[-86.7576851092262,36.2586514080187],[-86.7576917425472,36.2586447648153],[-86.7576970244152,36.2586373694359],[-86.7577008263378,36.2586294002312],[-86.7577008784567,36.2586292647179],[-86.7577007090276,36.2586307483263],[-86.7576989623846,36.2586500026359],[-86.7576969134467,36.2586751178268],[-86.7576969105479,36.2586751638084],[-86.7576947955041,36.2586963905465],[-86.7576907627813,36.2587416799002],[-86.7576905532575,36.2587439748794],[-86.7576869306323,36.2587825744322],[-86.7576848684271,36.2588036250957],[-86.7576830655238,36.2588238630137],[-86.7566615268711,36.2587255997994]]]},"properties":{"id":"118744","parcel":"04100008000","address":"3699 DICKERSON PIKE","owner":"CORE HOLDINGS, LLC","point":[-86.75461805597152,36.25817476148776]}},{"type":"Feature","id":"120576","geometry":{"type":"Polygon","coordinates":[[[-86.7520989152933,36.2614849552873],[-86.7520981899091,36.2614085127955],[-86.7519639345557,36.2614153911258],[-86.7521887149686,36.2594969718899],[-86.7508795418965,36.2593786632412],[-86.7491694886172,36.2592241036209],[-86.7491694385012,36.2592240994254],[-86.749169389498,36.2592240952229],[-86.7491849134858,36.2591248847734],[-86.7491942462079,36.2590646860602],[-86.7493556324704,36.2580533403418],[-86.7494235380262,36.25806061133],[-86.7502178462343,36.2581271042429],[-86.7509633096465,36.2581933457451],[-86.751718937914,36.258257871948],[-86.7523374353971,36.2583117095652],[-86.7522635827288,36.259035728108],[-86.7529608291944,36.2590951160373],[-86.7576185000881,36.2595209084463],[-86.7575987764385,36.2597287029463],[-86.7566233011642,36.2598732609768],[-86.7565341546573,36.2608197144749],[-86.7520989152933,36.2614849552873]]]},"properties":{"id":"120576","parcel":"04100007700","address":"3703 DICKERSON PIKE","owner":"WINGO, ROBERT J. ET UX","point":[-86.75463266242,36.25979592470647]}},{"type":"Feature","id":"120710","geometry":{"type":"Polygon","coordinates":[[[-86.7522635827288,36.259035728108],[-86.7523374353971,36.2583117095652],[-86.7524983283342,36.2583244426918],[-86.7528000292723,36.2583542161014],[-86.7529539350773,36.2583694029771],[-86.755734035233,36.2586365084022],[-86.7566615268711,36.2587255997994],[-86.7576830655238,36.2588238630137],[-86.7576185000881,36.2595209084463],[-86.7529608291944,36.2590951160373],[-86.7522635827288,36.259035728108]]]},"properties":{"id":"120710","parcel":"04100007900","address":"3701 DICKERSON PIKE","owner":"WINGO, ROBERT J. ET UX","point":[-86.75497384627546,36.258929827331265]}},{"type":"Feature","id":"134892","geometry":{"type":"Polygon","coordinates":[[[-86.752947431281,36.2569706726942],[-86.7532874120006,36.2554851753072],[-86.7534528435948,36.2555121626658],[-86.7536176122411,36.2555408032102],[-86.753212952918,36.2569294614016],[-86.752947431281,36.2569706726942]]]},"properties":{"id":"134892","parcel":"05004001200","address":"1040 DUE WEST AVE N","owner":"1923 TRUST","point":[-86.7532655996143,36.25623482386875]}},{"type":"Feature","id":"135013","geometry":{"type":"Polygon","coordinates":[[[-86.7597703982803,36.256545976302],[-86.759644118054,36.2563012459968],[-86.7591289674699,36.2563935237085],[-86.7591917462106,36.2566614000315],[-86.7580469808319,36.2568241210362],[-86.7580503772812,36.256553977873],[-86.7580495851188,36.2562838204089],[-86.7580446070439,36.2560136936895],[-86.7580354423658,36.2557436373736],[-86.7580220915582,36.2554736965198],[-86.7580217892531,36.2554398747038],[-86.7580187326158,36.2554061413644],[-86.758015614739,36.2553284204574],[-86.7580119473555,36.2552637512169],[-86.7580078545955,36.2552055654946],[-86.7580020113137,36.255147478173],[-86.7587508553816,36.2551664116039],[-86.7593773298767,36.2551822458533],[-86.7593239696642,36.2544980288828],[-86.7608483506502,36.2545164568858],[-86.7609161962325,36.2545176798412],[-86.7611529179086,36.2559995695924],[-86.7602936763036,36.2565175681981],[-86.7616487163448,36.2577572709436],[-86.7619587454141,36.2580415542978],[-86.7619374899863,36.2580762816844],[-86.761896655331,36.2581429987114],[-86.761896633423,36.2581430348993],[-86.7618966137058,36.2581430674684],[-86.7618965917978,36.2581431036562],[-86.761830057049,36.2582507991467],[-86.7618299775257,36.2582507455734],[-86.7610888181047,36.2577538591552],[-86.7607439261232,36.2575184665625],[-86.7602109679545,36.2570585126066],[-86.7597703982803,36.256545976302]]]},"properties":{"id":"135013","parcel":"05000003300","address":"3566 DICKERSON PIKE","owner":"CHAMBLISS DENNY PROPERTIES, GP","point":[-86.75871815323295,36.25634603880146]}},{"type":"Feature","id":"135562","geometry":{"type":"Polygon","coordinates":[[[-86.752947431281,36.2569706726942],[-86.753212952918,36.2569294614016],[-86.7535387088868,36.2570164327594],[-86.7538664996067,36.2571033905469],[-86.75416339377,36.2572224064656],[-86.7544833853719,36.25727370037],[-86.7548237267075,36.257324866313],[-86.7548172274741,36.2574259967392],[-86.7529435445583,36.2572756138486],[-86.7528071280713,36.2572684967991],[-86.7527158277454,36.257261924106],[-86.7527697589864,36.2570121607988],[-86.752947431281,36.2569706726942]]]},"properties":{"id":"135562","parcel":"05004000100","address":"0 DUE WEST AVE N","owner":"WELLS-JACKSON, FREDERICKA DENISE","point":[-86.75337636271405,36.2571615836979]}},{"type":"Feature","id":"135571","geometry":{"type":"Polygon","coordinates":[[[-86.753212952918,36.2569294614016],[-86.7536176122411,36.2555408032102],[-86.7537283190339,36.2555589279809],[-86.7538384263891,36.2555793058959],[-86.7539478652002,36.2556019238694],[-86.7535387088868,36.2570164327594],[-86.753212952918,36.2569294614016]]]},"properties":{"id":"135571","parcel":"05004001100","address":"1050 DUE WEST AVE N","owner":"1923 TRUST","point":[-86.75358112309972,36.256265694713235]}},{"type":"Feature","id":"137946","geometry":{"type":"Polygon","coordinates":[[[-86.7527697589864,36.2570121607988],[-86.7527804580392,36.2568887535116],[-86.7526726065528,36.2568894253533],[-86.7529287238172,36.2557154112449],[-86.7529845387626,36.2554468333192],[-86.7529864562809,36.2554376052457],[-86.7531369288723,36.2554608406437],[-86.7532874120006,36.2554851753072],[-86.752947431281,36.2569706726942],[-86.7527697589864,36.2570121607988]]]},"properties":{"id":"137946","parcel":"05004001300","address":"1036 DUE WEST AVE N","owner":"GREER RESIDENTIAL PROPERTIES SERIES, LLC","point":[-86.7529505492358,36.256302280651965]}},{"type":"Feature","id":"138167","geometry":{"type":"Polygon","coordinates":[[[-86.7510432471067,36.2578236527373],[-86.7512439589201,36.25688458082],[-86.7516448544655,36.2568837361412],[-86.7519887987176,36.2568859915572],[-86.7520233950475,36.2568857762518],[-86.7518246680841,36.257818793432],[-86.751718937914,36.258257871948],[-86.7509633096465,36.2581933457451],[-86.7510432471067,36.2578236527373]]]},"properties":{"id":"138167","parcel":"05100016400","address":"1062 DUE WEST AVE N","owner":"LAFEVER, ARTHUR C. & NANCY","point":[-86.75153414163671,36.257351687136534]}},{"type":"Feature","id":"139963","geometry":{"type":"Polygon","coordinates":[[[-86.7523286674584,36.2568877189063],[-86.7526928196479,36.2554073927733],[-86.7528776185953,36.2554310085844],[-86.7529260918618,36.2554383346847],[-86.7529551509851,36.255443324951],[-86.7529845387626,36.2554468333192],[-86.7529287238172,36.2557154112449],[-86.7526726065528,36.2568894253533],[-86.7523286674584,36.2568877189063]]]},"properties":{"id":"139963","parcel":"05101000300","address":"1032 DUE WEST AVE N","owner":"GREER RESIDENTIAL PROPERTIES SERIES, LLC","point":[-86.75263685680021,36.25630158236153]}},{"type":"Feature","id":"139983","geometry":{"type":"Polygon","coordinates":[[[-86.7499374067411,36.2568789617052],[-86.7503226696288,36.2552267240137],[-86.7505306607044,36.2552353207528],[-86.7506694297456,36.2552405024831],[-86.750286788002,36.2568822868379],[-86.7499374067411,36.2568789617052]]]},"properties":{"id":"139983","parcel":"05101001000","address":"1002 DUE WEST AVE N","owner":"WILLIAMS, CHARLIE, JR. & BROWN, DOMINIQUE","point":[-86.75030346603913,36.25605973281693]}},{"type":"Feature","id":"140299","geometry":{"type":"Polygon","coordinates":[[[-86.7518559027379,36.2551759886913],[-86.751967531635,36.2543583367143],[-86.7523219155634,36.2543896435557],[-86.7521926333734,36.255205208535],[-86.7520801736217,36.2551971565654],[-86.7519679170872,36.2551874160973],[-86.7518559027379,36.2551759886913]]]},"properties":{"id":"140299","parcel":"05101003901","address":"1015 DUE WEST AVE N","owner":"SMILEY, GEORGE  W","point":[-86.75208458290807,36.25478280739939]}},{"type":"Feature","id":"140300","geometry":{"type":"Polygon","coordinates":[[[-86.7508343964215,36.2551111926197],[-86.7509212426878,36.2537357189285],[-86.7512934543639,36.2537586346383],[-86.7512600152947,36.2541413289504],[-86.7511662458312,36.2551264367101],[-86.7508343964215,36.2551111926197]]]},"properties":{"id":"140300","parcel":"05101004300","address":"0 DUE WEST AVE N","owner":"JOHNSON, PAUL E & TINA L","point":[-86.75103943114196,36.25462624481562]}},{"type":"Feature","id":"140303","geometry":{"type":"Polygon","coordinates":[[[-86.7499767139221,36.2550827314027],[-86.7499738986267,36.2537097985923],[-86.7503666441962,36.2537095583978],[-86.7503142771718,36.2550811846319],[-86.7503139193976,36.2550905273486],[-86.7501456663952,36.2550877236856],[-86.7499767139221,36.2550827314027]]]},"properties":{"id":"140303","parcel":"05101004700","address":"931 DUE WEST AVE N","owner":"VIGIL, JOSE DANIEL","point":[-86.75015787232844,36.254395520560756]}},{"type":"Feature","id":"140427","geometry":{"type":"Polygon","coordinates":[[[-86.7502862458261,36.2578283553683],[-86.7504821406686,36.2568810737096],[-86.7506239064031,36.2568801931552],[-86.7509658310836,36.256884112403],[-86.7511394781407,36.256883033105],[-86.7512439589201,36.25688458082],[-86.7510432471067,36.2578236527373],[-86.7509633096465,36.2581933457451],[-86.7502178462343,36.2581271042429],[-86.7502862458261,36.2578283553683]]]},"properties":{"id":"140427","parcel":"05100017400","address":"1064 DUE WEST AVE N","owner":"BURKEPILE, DANIEL KIRKLAND ETUX","point":[-86.75076411245469,36.25735338188312]}},{"type":"Feature","id":"140518","geometry":{"type":"Polygon","coordinates":[[[-86.7516448544655,36.2568837361412],[-86.7520181172253,36.2553288126319],[-86.7521871850507,36.2553458888345],[-86.7523555533641,36.2553607728241],[-86.7519887987176,36.2568859915572],[-86.7516448544655,36.2568837361412]]]},"properties":{"id":"140518","parcel":"05101000500","address":"1022 DUE WEST AVE N","owner":"MCKEITHEN, TIMOTHY LIVING TRUST OF","point":[-86.75200005027607,36.25612225474663]}},{"type":"Feature","id":"140524","geometry":{"type":"Polygon","coordinates":[[[-86.7511394781407,36.256883033105],[-86.7515245696514,36.2552868309602],[-86.751736370004,36.2553036429112],[-86.7519125432895,36.2553190287192],[-86.7520181172253,36.2553288126319],[-86.7516448544655,36.2568837361412],[-86.7512439589201,36.25688458082],[-86.7511394781407,36.256883033105]]]},"properties":{"id":"140524","parcel":"05101000600","address":"1018 DUE WEST AVE N","owner":"GOLEMON, CAROL A.","point":[-86.75157930867012,36.25610575114118]}},{"type":"Feature","id":"140530","geometry":{"type":"Polygon","coordinates":[[[-86.7506239064031,36.2568801931552],[-86.7510087428178,36.2552559746192],[-86.7511777321931,36.2552648135451],[-86.7513487764222,36.2552758366911],[-86.7509658310836,36.256884112403],[-86.7506239064031,36.2568801931552]]]},"properties":{"id":"140530","parcel":"05101000800","address":"1010 DUE WEST AVE N","owner":"TATE, TOBY NEIL & STACEY D.","point":[-86.75098587292904,36.256078014557474]}},{"type":"Feature","id":"141845","geometry":{"type":"Polygon","coordinates":[[[-86.7523286674584,36.2568877189063],[-86.7520233950475,36.2568857762518],[-86.7519887987176,36.2568859915572],[-86.7523555533641,36.2553607728241],[-86.7526950770653,36.2553982148593],[-86.7526928196479,36.2554073927733],[-86.7523286674584,36.2568877189063]]]},"properties":{"id":"141845","parcel":"05101000400","address":"1026 DUE WEST AVE N","owner":"HERNANDEZ, RAUL TORRES","point":[-86.75233880010337,36.25614654505987]}},{"type":"Feature","id":"141875","geometry":{"type":"Polygon","coordinates":[[[-86.750286788002,36.2568822868379],[-86.7506694297456,36.2552405024831],[-86.7508377194996,36.255247148997],[-86.7510087428178,36.2552559746192],[-86.7506239064031,36.2568801931552],[-86.7504821406686,36.2568810737096],[-86.750286788002,36.2568822868379]]]},"properties":{"id":"141875","parcel":"05101000900","address":"1006 DUE WEST AVE N","owner":"BAUTISTA, JESSICA","point":[-86.7506465217478,36.256067730257996]}},{"type":"Feature","id":"141978","geometry":{"type":"Polygon","coordinates":[[[-86.7509658310836,36.256884112403],[-86.7513487764222,36.2552758366911],[-86.7515245696514,36.2552868309602],[-86.7511394781407,36.256883033105],[-86.7509658310836,36.256884112403]]]},"properties":{"id":"141978","parcel":"05101000700","address":"1014 DUE WEST AVE N","owner":"MARTIN, TRACY & SZAMBOR, TONY","point":[-86.75124411912408,36.25608474947355]}},{"type":"Feature","id":"143042","geometry":{"type":"Polygon","coordinates":[[[-86.7523219155634,36.2543896435557],[-86.7524138261557,36.2538379286346],[-86.7527785572983,36.2538780054991],[-86.7525280704799,36.2552410280999],[-86.7523936326756,36.2552275814571],[-86.7521926333734,36.255205208535],[-86.7523219155634,36.2543896435557]]]},"properties":{"id":"143042","parcel":"05101003800","address":"1017 DUE WEST AVE N","owner":"WHITTEMORE, ALTON L., JR. & LINDA P.","point":[-86.75243336721094,36.25479779064625]}},{"type":"Feature","id":"143047","geometry":{"type":"Polygon","coordinates":[[[-86.7511662458312,36.2551264367101],[-86.7512600152947,36.2541413289504],[-86.7514165256915,36.2541936481528],[-86.7516041733492,36.254382023622],[-86.7515083348495,36.2551484827865],[-86.7513945078934,36.2551391616196],[-86.7512804604091,36.2551318118367],[-86.7511662458312,36.2551264367101]]]},"properties":{"id":"143047","parcel":"05101004100","address":"1009 DUE WEST AVE N","owner":"504 PROPERTIES, LLC","point":[-86.75137964974977,36.2547542188245]}},{"type":"Feature","id":"143678","geometry":{"type":"Polygon","coordinates":[[[-86.7504929251371,36.2550800751847],[-86.7505423766095,36.2537145125123],[-86.7509212426878,36.2537357189285],[-86.7508343964215,36.2551111926197],[-86.7504923675659,36.2550954619856],[-86.7504929251371,36.2550800751847]]]},"properties":{"id":"143678","parcel":"05101004400","address":"1001 DUE WEST VALLEY DR","owner":"SMILEY, GEORGE WESLEY","point":[-86.750698030585,36.25440787842184]}},{"type":"Feature","id":"144697","geometry":{"type":"Polygon","coordinates":[[[-86.7512600152947,36.2541413289504],[-86.7512934543639,36.2537586346383],[-86.7520235027396,36.2538008002073],[-86.751967531635,36.2543583367143],[-86.7518559027379,36.2551759886913],[-86.751716744887,36.2551655934392],[-86.7515083348495,36.2551484827865],[-86.7516041733492,36.254382023622],[-86.7514165256915,36.2541936481528],[-86.7512600152947,36.2541413289504]]]},"properties":{"id":"144697","parcel":"05101008500","address":"1013 DUE WEST AVE N","owner":"SMITH, DEBORAH","point":[-86.75173406587369,36.25476562239508]}},{"type":"Feature","id":"145153","geometry":{"type":"Polygon","coordinates":[[[-86.7503674504471,36.2523246042338],[-86.750129862658,36.2505478605341],[-86.7513864524109,36.2506381352094],[-86.7515300734156,36.2506484525759],[-86.7518034651909,36.2523222767285],[-86.7518589325193,36.2526727853804],[-86.7519087620357,36.2529810489557],[-86.750441718668,36.2528799866817],[-86.7503881920724,36.2524797157656],[-86.7503674504471,36.2523246042338]]]},"properties":{"id":"145153","parcel":"05105001600","address":"0 DUE WEST AVE N","owner":"3539 DICKERSON PIKE, LLC","point":[-86.75096080000765,36.25148389716649]}},{"type":"Feature","id":"145177","geometry":{"type":"Polygon","coordinates":[[[-86.7518246680841,36.257818793432],[-86.7520233950475,36.2568857762518],[-86.7523286674584,36.2568877189063],[-86.7526726065528,36.2568894253533],[-86.7527804580392,36.2568887535116],[-86.7527697589864,36.2570121607988],[-86.7527158277454,36.257261924106],[-86.7528071280713,36.2572684967991],[-86.7526887795332,36.25764394777],[-86.7526352589568,36.2578137473919],[-86.7525859149581,36.2579977813459],[-86.7524983283342,36.2583244426918],[-86.7523374353971,36.2583117095652],[-86.751718937914,36.258257871948],[-86.7518246680841,36.257818793432]]]},"properties":{"id":"145177","parcel":"05100000101","address":"1060 DUE WEST AVE N","owner":"WALLACE, WILLIAM & BENZ, ANDREA","point":[-86.75232511049556,36.25745534753056]}}]}