{"type":"FeatureCollection","features":[{"type":"Feature","id":"33978","geometry":{"type":"Polygon","coordinates":[[[-86.7526893368478,36.1066210123586],[-86.7527286478559,36.106280956156],[-86.7533241460703,36.106325587144],[-86.7532915994966,36.1066024296196],[-86.7532841779041,36.1066706840151],[-86.7526893368478,36.1066210123586]]]},"properties":{"id":"33978","parcel":"11816008500","address":"2945 ARMORY DR","owner":"DLP TIMBERLAND HEIGHTS LLC","point":[-86.75300775131525,36.10646339008308]}},{"type":"Feature","id":"39508","geometry":{"type":"Polygon","coordinates":[[[-86.7553164566294,36.1004964938544],[-86.7551346555572,36.1004026119953],[-86.7550297039682,36.1004040793943],[-86.7546132248149,36.10008686436],[-86.7545358519363,36.0999599053512],[-86.7543516883642,36.0998208630115],[-86.7547620942894,36.0994688740976],[-86.7554031024732,36.099385743126],[-86.7565243207672,36.0993962551843],[-86.756527029667,36.0993962787478],[-86.7565245353603,36.0994187841052],[-86.7564522187416,36.100071440174],[-86.7554360137542,36.0999986930632],[-86.7558658005519,36.1003365666901],[-86.7555159858975,36.1006484637864],[-86.7553164566294,36.1004964938544]]]},"properties":{"id":"39508","parcel":"13204001200","address":"3038 SIDCO DR","owner":"ZE SIDCO TN REALTY, LLC","point":[-86.75503052133686,36.10003320342961]}},{"type":"Feature","id":"54973","geometry":{"type":"Polygon","coordinates":[[[-86.7499835570941,36.1091248892176],[-86.7506288370632,36.1091199672658],[-86.7506155606419,36.1095438056782],[-86.7499854234687,36.1095349140888],[-86.7499806761327,36.1091249107378],[-86.7499835570941,36.1091248892176]]]},"properties":{"id":"54973","parcel":"11909038600","address":"0 SEABOARD DR","owner":"RCH STRATEGIC REALTY PARTNERS LLC","point":[-86.75030263438376,36.109330578878705]}},{"type":"Feature","id":"94300","geometry":{"type":"Polygon","coordinates":[[[-86.7549702964027,36.1054183663123],[-86.7550155730428,36.1050532667002],[-86.7556307385925,36.1050955658103],[-86.7556550337153,36.1050983364402],[-86.7556785176422,36.1051040971925],[-86.755700638172,36.1051127091251],[-86.7557204606128,36.1051243385241],[-86.7557377768623,36.1051383585014],[-86.7557521526446,36.105154417576],[-86.7557629105977,36.1051722964759],[-86.7557700499434,36.1051913300611],[-86.7557733928746,36.1052110408662],[-86.7557728535814,36.1052309319219],[-86.7557459359475,36.1054609787353],[-86.7557077353556,36.1057873548764],[-86.7549327046362,36.1057372667587],[-86.7549702964027,36.1054183663123]]]},"properties":{"id":"94300","parcel":"11816003200","address":"2958 SIDCO DR","owner":"AWC PARTNERS","point":[-86.75535810725755,36.10543967313309]}},{"type":"Feature","id":"94301","geometry":{"type":"Polygon","coordinates":[[[-86.7542602612016,36.1053678669986],[-86.7542877567593,36.1051259515547],[-86.7542919472311,36.10510700745],[-86.754299627683,36.1050887994945],[-86.7543106232809,36.1050717469755],[-86.7543246778794,36.105056244453],[-86.7543414672462,36.1050426508614],[-86.7543609387887,36.105031743433],[-86.754382226944,36.1050233662515],[-86.7544048393114,36.1050177125666],[-86.7544282462686,36.1050149154752],[-86.7544519064283,36.1050150387494],[-86.7550155730428,36.1050532667002],[-86.7549702964027,36.1054183663123],[-86.7542602612016,36.1053678669986]]]},"properties":{"id":"94301","parcel":"11816003300","address":"608 NORRIS AVE","owner":"BRC3 FAMILY, LP","point":[-86.75463269297613,36.10524764434068]}},{"type":"Feature","id":"94302","geometry":{"type":"Polygon","coordinates":[[[-86.7541547661923,36.1062717429709],[-86.7541850739334,36.1060056674058],[-86.7548950707882,36.1060517718812],[-86.7548631169947,36.1063240208996],[-86.7548474602567,36.1064564449873],[-86.7548298413032,36.1065972064827],[-86.7541225889945,36.1065554799853],[-86.7541547661923,36.1062717429709]]]},"properties":{"id":"94302","parcel":"11816003700","address":"2945 FOSTER CREIGHTON DR","owner":"HIGGINS/SHIPP REAL ESTATE INVESTMENTS, LLC","point":[-86.75450899195233,36.10629788256175]}},{"type":"Feature","id":"94303","geometry":{"type":"Polygon","coordinates":[[[-86.7530763948833,36.108469609458],[-86.7531013299479,36.108243092645],[-86.7537165191782,36.1082854005841],[-86.7536943144307,36.1085140986936],[-86.7530763948833,36.108469609458]]]},"properties":{"id":"94303","parcel":"11816004200","address":"2926 FOSTER CREIGHTON DR","owner":"2926 FOSTER, GP.","point":[-86.75339705920864,36.10837750668936]}},{"type":"Feature","id":"94304","geometry":{"type":"Polygon","coordinates":[[[-86.7531939242081,36.1074403584098],[-86.7532291309633,36.1071544388327],[-86.7538416216926,36.1071989611704],[-86.7538065862155,36.1075024611504],[-86.7531939242081,36.1074403584098]]]},"properties":{"id":"94304","parcel":"11816004600","address":"2940 FOSTER CREIGHTON DR","owner":"FOSTER CREIGHTON, LLC","point":[-86.75351823981792,36.107319661190324]}},{"type":"Feature","id":"94305","geometry":{"type":"Polygon","coordinates":[[[-86.7532841779041,36.1066706840151],[-86.7532915994966,36.1066024296196],[-86.753906837592,36.1066513290917],[-86.7538991469053,36.106717857454],[-86.7538743027687,36.1069328366704],[-86.7532617076327,36.106877326744],[-86.7532841779041,36.1066706840151]]]},"properties":{"id":"94305","parcel":"11816004800","address":"2950 FOSTER CREIGHTON DR","owner":"CRAIGHEAD CAPITAL CORP.","point":[-86.75358015304867,36.10679759196005]}},{"type":"Feature","id":"94306","geometry":{"type":"Polygon","coordinates":[[[-86.7530108738082,36.1049158083116],[-86.753034575447,36.1049162101006],[-86.7534844228285,36.1049463656453],[-86.7534271665483,36.1054406101719],[-86.7533921122791,36.1057439705786],[-86.7533567770045,36.1060504024692],[-86.7527605411793,36.1060057762561],[-86.7527948867382,36.1057000284922],[-86.7528285810764,36.1053988380312],[-86.7528704262069,36.1050271191633],[-86.7528739703035,36.105008142192],[-86.7528815809931,36.104989688714],[-86.7528925417532,36.1049725626381],[-86.7529067143837,36.1049570649529],[-86.7529237372282,36.1049435908738],[-86.7529431825689,36.1049324792478],[-86.7529645533117,36.1049240143773],[-86.752987309495,36.1049184105323],[-86.7530108738082,36.1049158083116]]]},"properties":{"id":"94306","parcel":"11816005600","address":"2961 ARMORY DR","owner":"GINCON, LLC","point":[-86.7531107867421,36.10557031925717]}},{"type":"Feature","id":"94307","geometry":{"type":"Polygon","coordinates":[[[-86.7527286478559,36.106280956156],[-86.7527605411793,36.1060057762561],[-86.7533567770045,36.1060504024692],[-86.7533241779428,36.1063253174619],[-86.7533241460703,36.106325587144],[-86.7527286478559,36.106280956156]]]},"properties":{"id":"94307","parcel":"11816005700","address":"2949 ARMORY DR","owner":"DLP TIMBERLAND HEIGHTS LLC","point":[-86.75304255725615,36.10616567940633]}},{"type":"Feature","id":"94308","geometry":{"type":"Polygon","coordinates":[[[-86.7525124880566,36.1081939819534],[-86.7525256182731,36.1080796618169],[-86.7531164738603,36.1081265201837],[-86.7531013299479,36.108243092645],[-86.7530763948833,36.108469609458],[-86.7524855564845,36.1084249489989],[-86.7525124880566,36.1081939819534]]]},"properties":{"id":"94308","parcel":"11816006500","address":"2917 ARMORY DR","owner":"W & K PROPERTIES","point":[-86.75279374172695,36.10833402183477]}},{"type":"Feature","id":"96075","geometry":{"type":"Polygon","coordinates":[[[-86.7537901505958,36.109465645754],[-86.753804983943,36.1093309468249],[-86.7545150949374,36.109385844059],[-86.7544878513803,36.1096541318821],[-86.7544528381726,36.109959829955],[-86.7537426606185,36.1098983389802],[-86.7537744429693,36.1096082913211],[-86.7537901505958,36.109465645754]]]},"properties":{"id":"96075","parcel":"11812005300","address":"2917 FOSTER CREIGHTON DR","owner":"DIALYSIS CLINIC, INC.","point":[-86.7541310581263,36.10963121194972]}},{"type":"Feature","id":"96077","geometry":{"type":"Polygon","coordinates":[[[-86.7544878513803,36.1096541318821],[-86.7545150949374,36.109385844059],[-86.755284764186,36.1094381659333],[-86.7552828097201,36.1094563074289],[-86.7552549001698,36.1097152614413],[-86.7544878513803,36.1096541318821]]]},"properties":{"id":"96077","parcel":"11812005500","address":"2916 SIDCO DR","owner":"PETERSON, DANIELLE M. LIVING TRUST, THE","point":[-86.7548850199495,36.10955521968113]}},{"type":"Feature","id":"96079","geometry":{"type":"Polygon","coordinates":[[[-86.7544528381726,36.109959829955],[-86.7544878513803,36.1096541318821],[-86.7552549001698,36.1097152614413],[-86.7552252438081,36.1100143306376],[-86.7544528381726,36.109959829955]]]},"properties":{"id":"96079","parcel":"11812005600","address":"2912 SIDCO DR","owner":"DEWARS, LLC","point":[-86.75485481502436,36.10983754830699]}},{"type":"Feature","id":"96286","geometry":{"type":"Polygon","coordinates":[[[-86.7541039989602,36.1067165767287],[-86.7541225889945,36.1065554799853],[-86.7548298413032,36.1065972064827],[-86.7547972668972,36.1068743199364],[-86.7547653392404,36.1071463505951],[-86.7547337027856,36.1074181919368],[-86.754700854918,36.1076997926892],[-86.7546595143528,36.1080531425331],[-86.7541093639848,36.1080148274005],[-86.7540854122168,36.1080116928956],[-86.7540622823525,36.1080057502642],[-86.7540404720832,36.1079971270808],[-86.7540212133876,36.1079851450909],[-86.7540042637602,36.1079710513818],[-86.7539899702831,36.1079551376021],[-86.753979584566,36.1079373896192],[-86.7539726905451,36.1079185562953],[-86.7539694557319,36.1078990845204],[-86.7539699545422,36.1078794424956],[-86.7539958948702,36.1076529894624],[-86.7540284530565,36.1073712663486],[-86.7540603354603,36.1070943116008],[-86.7540916326338,36.1068237064023],[-86.7541039989602,36.1067165767287]]]},"properties":{"id":"96286","parcel":"11816003800","address":"2941 FOSTER CREIGHTON DR","owner":"METRO GOV'T  SM  SUPPLY CENTER","point":[-86.75439682483822,36.1072588088942]}},{"type":"Feature","id":"96287","geometry":{"type":"Polygon","coordinates":[[[-86.753008901531,36.1090635141291],[-86.7530089005141,36.1090634068831],[-86.7536240960497,36.1091057152849],[-86.7536241794712,36.1091145058527],[-86.7535874828005,36.1094280589596],[-86.7535840673742,36.10944783997],[-86.753577012714,36.1094669776728],[-86.7535763501453,36.1094685545468],[-86.7535682653712,36.1094816718239],[-86.7535664152046,36.1094846269654],[-86.7535626651653,36.1094886935396],[-86.7535581972389,36.1094935406013],[-86.7535531243311,36.1094987762895],[-86.7535473021093,36.1095034704833],[-86.7535452834871,36.109505060336],[-86.7535295553024,36.1095157720807],[-86.7535117888056,36.1095241261908],[-86.7535092359148,36.1095251290423],[-86.7535014886211,36.1095281624847],[-86.7534954063738,36.1095296839913],[-86.7534872497986,36.109531724075],[-86.753481224091,36.1095332344123],[-86.7534736666981,36.1095341576706],[-86.7534690592828,36.1095347227164],[-86.7534599209667,36.1095358397116],[-86.7534521723289,36.1095356880347],[-86.7534385880606,36.1095354232004],[-86.7529589061477,36.1094966679402],[-86.7529588416877,36.1094966638362],[-86.7530089838589,36.1090721965501],[-86.753008901531,36.1090635141291]]]},"properties":{"id":"96287","parcel":"11816003900","address":"2901 ARMORY DR","owner":"STS PARTNERS","point":[-86.7532957240048,36.10927064427442]}},{"type":"Feature","id":"96288","geometry":{"type":"Polygon","coordinates":[[[-86.7530437719123,36.1087423270237],[-86.7530436677204,36.1087313392632],[-86.7536615903967,36.1087758286565],[-86.7536240960497,36.1091057152849],[-86.7530089005141,36.1090634068831],[-86.7530437719123,36.1087423270237]]]},"properties":{"id":"96288","parcel":"11816004000","address":"2916 FOSTER CREIGHTON DR","owner":"NIELSEN, RICHARD H.","point":[-86.75333488076669,36.108919617466256]}},{"type":"Feature","id":"96289","geometry":{"type":"Polygon","coordinates":[[[-86.7530436677204,36.1087313392632],[-86.7530763948833,36.108469609458],[-86.7536943144307,36.1085140986936],[-86.7536615903967,36.1087758286565],[-86.7530436677204,36.1087313392632]]]},"properties":{"id":"96289","parcel":"11816004100","address":"2924 FOSTER CREIGHTON DR","owner":"MIDDLE TN BRANCH ASSOC. GEN. CONTRACTORS","point":[-86.75336899175024,36.10862271942328]}},{"type":"Feature","id":"96290","geometry":{"type":"Polygon","coordinates":[[[-86.7531164738603,36.1081265201837],[-86.7531288891937,36.1080077674337],[-86.7537414907612,36.1080632807365],[-86.7537165191782,36.1082854005841],[-86.7531013299479,36.108243092645],[-86.7531164738603,36.1081265201837]]]},"properties":{"id":"96290","parcel":"11816004300","address":"2928 FOSTER CREIGHTON DR","owner":"SMITH, TOM & COWAN, MATT","point":[-86.75341829355865,36.108185443553516]}},{"type":"Feature","id":"96291","geometry":{"type":"Polygon","coordinates":[[[-86.7531615324258,36.1077372487894],[-86.7531939242081,36.1074403584098],[-86.7538065862155,36.1075024611504],[-86.7537740506881,36.1077839686421],[-86.7531615324258,36.1077372487894]]]},"properties":{"id":"96291","parcel":"11816004500","address":"2936 FOSTER CREIGHTON DR","owner":"HIGGINS/SHIPP REAL ESTATE INVESTMENTS, LLC","point":[-86.75348367745157,36.10761985462034]}},{"type":"Feature","id":"96292","geometry":{"type":"Polygon","coordinates":[[[-86.7532291309633,36.1071544388327],[-86.7532617076327,36.106877326744],[-86.7538743027687,36.1069328366704],[-86.7538416216926,36.1071989611704],[-86.7532291309633,36.1071544388327]]]},"properties":{"id":"96292","parcel":"11816004700","address":"2948 FOSTER CREIGHTON DR","owner":"CRAIGHEAD CAPITAL CORP.","point":[-86.75355142465901,36.10704363758663]}},{"type":"Feature","id":"96575","geometry":{"type":"Polygon","coordinates":[[[-86.7542226479623,36.1056845700207],[-86.7542602612016,36.1053678669986],[-86.7549702964027,36.1054183663123],[-86.7549327046362,36.1057372667587],[-86.7542226479623,36.1056845700207]]]},"properties":{"id":"96575","parcel":"11816003400","address":"2967 FOSTER CREIGHTON DR","owner":"BRC3 FAMILY, LP","point":[-86.75459653146271,36.105551468873706]}},{"type":"Feature","id":"96576","geometry":{"type":"Polygon","coordinates":[[[-86.7531288891937,36.1080077674337],[-86.7531615324258,36.1077372487894],[-86.7537740506881,36.1077839686421],[-86.7537414907612,36.1080632807365],[-86.7531288891937,36.1080077674337]]]},"properties":{"id":"96576","parcel":"11816004400","address":"2932 FOSTER CREIGHTON DR","owner":"2932 FOSTER CREIGHTON DRIVE, LLC","point":[-86.75345170044555,36.107895868948354]}},{"type":"Feature","id":"96577","geometry":{"type":"Polygon","coordinates":[[[-86.7534271665483,36.1054406101719],[-86.7534844228285,36.1049463656453],[-86.7539451206748,36.1049786490055],[-86.7539685145196,36.1049820745317],[-86.7539909264604,36.1049884146272],[-86.7540118978004,36.1049974351234],[-86.7540309456492,36.1050089272391],[-86.7540476287958,36.1050226269546],[-86.7540615655029,36.105038217604],[-86.7540724336189,36.1050553415915],[-86.7540799817005,36.1050736021235],[-86.7540840369411,36.1050925793829],[-86.7540845063414,36.10511183683],[-86.7540419955922,36.1054835116391],[-86.754006983592,36.1057892071912],[-86.7539713484045,36.1060994824082],[-86.7539394358898,36.1063764148583],[-86.7533241779428,36.1063253174619],[-86.7533567770045,36.1060504024692],[-86.7533921122791,36.1057439705786],[-86.7534271665483,36.1054406101719]]]},"properties":{"id":"96577","parcel":"11816005300","address":"2960 FOSTER CREIGHTON DR","owner":"FC PARTNERS, LLC","point":[-86.7537171207491,36.105613741689204]}},{"type":"Feature","id":"96578","geometry":{"type":"Polygon","coordinates":[[[-86.7524555789719,36.1086910561228],[-86.7524855564845,36.1084249489989],[-86.7530763948833,36.108469609458],[-86.7530436677204,36.1087313392632],[-86.7530437719123,36.1087423270237],[-86.7524555789719,36.1086910561228]]]},"properties":{"id":"96578","parcel":"11816006600","address":"2913 ARMORY DR","owner":"RUSSELL TENNESSEE COMMUNITY PROPERTY TRUST","point":[-86.75276529739904,36.10858033177149]}},{"type":"Feature","id":"96579","geometry":{"type":"Polygon","coordinates":[[[-86.7524181004815,36.1090231404761],[-86.7524555789719,36.1086910561228],[-86.7530437719123,36.1087423270237],[-86.7530089005141,36.1090634068831],[-86.753008901531,36.1090635141291],[-86.7530089838589,36.1090721965501],[-86.7524181004815,36.1090231404761]]]},"properties":{"id":"96579","parcel":"11816006700","address":"2909 ARMORY DR","owner":"STS PARTNERS","point":[-86.75273123594674,36.108882734779606]}},{"type":"Feature","id":"96599","geometry":{"type":"Polygon","coordinates":[[[-86.75501942244,36.1048884162526],[-86.75501516019,36.1048214011153],[-86.755006602346,36.1047546580176],[-86.7549937695121,36.1046883670862],[-86.7549767000696,36.1046227092369],[-86.7549554368077,36.1045578617529],[-86.7549300402755,36.104494000904],[-86.7549005776676,36.1044313011158],[-86.754867130564,36.1043699313157],[-86.754829788309,36.104310059481],[-86.7547886535216,36.1042518480977],[-86.754743836542,36.104195454196],[-86.7546954610106,36.1041410320185],[-86.7547464332942,36.1040901664513],[-86.7547783228234,36.104026233643],[-86.7550746878764,36.104149646679],[-86.755880494279,36.1044933127652],[-86.7558592455129,36.1046776886287],[-86.7558577704154,36.1046775545702],[-86.7558365147004,36.1048418390965],[-86.7558275969075,36.1048588318691],[-86.7558158892853,36.104874669558],[-86.7558016111179,36.1048890533652],[-86.7557850341276,36.1049017094],[-86.755772611744,36.1049091975855],[-86.7557528369623,36.1049184442795],[-86.7557316808812,36.1049253932467],[-86.755709547603,36.1049299094658],[-86.7556868572757,36.1049319100895],[-86.7556640448883,36.1049313545382],[-86.7556400030004,36.1049306805069],[-86.7552525266874,36.1049042919168],[-86.75501942244,36.1048884162526]]]},"properties":{"id":"96599","parcel":"11816007000","address":"2964 SIDCO DR","owner":"TENNESSEE ELECTRIC COOPERATIVE ASSOCIATION","point":[-86.7553622456827,36.104462250184305]}},{"type":"Feature","id":"97109","geometry":{"type":"Polygon","coordinates":[[[-86.7522184233408,36.1094754587732],[-86.7522391109774,36.1092835832737],[-86.7522416839491,36.1092950179913],[-86.7522501779916,36.1093271956957],[-86.7522617504353,36.1093587359201],[-86.7522763316735,36.1093894426187],[-86.7522938310819,36.1094191288895],[-86.7523141414192,36.1094476124403],[-86.7523371388515,36.1094747182926],[-86.7523657646298,36.1095032698333],[-86.7523973480326,36.1095296885129],[-86.7524316494615,36.1095537730359],[-86.7524684061722,36.1095753411779],[-86.7525073400245,36.1095942270342],[-86.7525481531071,36.1096102882567],[-86.7525905365898,36.1096234023938],[-86.7526341674077,36.1096334687141],[-86.7526787127387,36.1096404117832],[-86.7526839585965,36.1096412289522],[-86.7529604559793,36.1096634050243],[-86.7534211952802,36.1097003588901],[-86.7534445077629,36.109704313181],[-86.7534669402271,36.1097108073652],[-86.7534880716701,36.1097197196966],[-86.7535070024399,36.1097315208574],[-86.7535234762542,36.1097455391933],[-86.7535371023244,36.1097614427719],[-86.7535475594219,36.1097788559648],[-86.7535545992601,36.1097973648339],[-86.7535580543985,36.1098165306011],[-86.7535578981137,36.1098357612927],[-86.7535254233033,36.1101238610261],[-86.7534878849482,36.1104493531263],[-86.7529783002216,36.110406383778],[-86.7529037403559,36.1102552088727],[-86.7526679793492,36.1102412964461],[-86.7525919818153,36.1102362674771],[-86.7521395219229,36.1102072324241],[-86.7522184233408,36.1094754587732]]]},"properties":{"id":"97109","parcel":"11812006000","address":"2906 FOSTER CREIGHTON DR","owner":"IRELAND ROAD SOUTH BEND, LLC","point":[-86.75285300508227,36.10997839258597]}},{"type":"Feature","id":"97149","geometry":{"type":"Polygon","coordinates":[[[-86.7545747661463,36.1088250608548],[-86.7546046541896,36.1085501626379],[-86.7553797715291,36.1086068453244],[-86.7553472026517,36.1088839578582],[-86.7545747661463,36.1088250608548]]]},"properties":{"id":"97149","parcel":"11816002000","address":"2928 SIDCO DR","owner":"BAPTIST HEALING HOSPITAL TRUST","point":[-86.75497678508381,36.108715952778404]}},{"type":"Feature","id":"97153","geometry":{"type":"Polygon","coordinates":[[[-86.7546046541896,36.1085501626379],[-86.7546421233135,36.1082180775659],[-86.7552817078669,36.1082624231017],[-86.7553044260632,36.1082662879222],[-86.7553260508422,36.1082731365165],[-86.7553459906378,36.1082827806174],[-86.7553637020478,36.1082949577512],[-86.7553786998636,36.1083093347802],[-86.7553905749515,36.1083255195069],[-86.7553990043426,36.1083430705252],[-86.7554037568809,36.1083615070982],[-86.7554047033987,36.1083803280221],[-86.7553797715291,36.1086068453244],[-86.7546046541896,36.1085501626379]]]},"properties":{"id":"97153","parcel":"11816002100","address":"2930 SIDCO DR","owner":"NASHVILLE SIDCO 2930 LLC","point":[-86.7550047972318,36.108465246241366]}},{"type":"Feature","id":"97155","geometry":{"type":"Polygon","coordinates":[[[-86.7539026584412,36.1084930179159],[-86.7539276921295,36.1082774878141],[-86.7539324463239,36.1082590485368],[-86.7539408797663,36.1082414956511],[-86.7539527615713,36.1082253118837],[-86.7539677682611,36.108210937278],[-86.753985488175,36.1081987655623],[-86.7540054379999,36.1081891305271],[-86.7540270715356,36.1081822933523],[-86.7540497974646,36.1081784424968],[-86.754072993696,36.1081776836942],[-86.7546421233135,36.1082180775659],[-86.7546046541896,36.1085501626379],[-86.7539026584412,36.1084930179159]]]},"properties":{"id":"97155","parcel":"11816002200","address":"614 FONTANA AVE","owner":"THE ELAM COMPANY","point":[-86.75426913622734,36.10838597934185]}},{"type":"Feature","id":"97159","geometry":{"type":"Polygon","coordinates":[[[-86.7548298413032,36.1065972064827],[-86.7548474602567,36.1064564449873],[-86.7556226024866,36.1065175214084],[-86.7556075880088,36.1066472791877],[-86.7556005434693,36.1067072098468],[-86.7555750162875,36.1069243919468],[-86.7547972668972,36.1068743199364],[-86.7548298413032,36.1065972064827]]]},"properties":{"id":"97159","parcel":"11816002700","address":"2940 SIDCO DR","owner":"JOHN B. GARRETT LODGE NO 711","point":[-86.75521234340556,36.106676444858]}},{"type":"Feature","id":"97162","geometry":{"type":"Polygon","coordinates":[[[-86.7548631169947,36.1063240208996],[-86.7548950707882,36.1060517718812],[-86.7556701254687,36.1061040583306],[-86.7556382265983,36.1063812192055],[-86.7556226024866,36.1065175214084],[-86.7548474602567,36.1064564449873],[-86.7548631169947,36.1063240208996]]]},"properties":{"id":"97162","parcel":"11816002800","address":"2948 SIDCO DR","owner":"NOTCH PROPERTIES, LLC","point":[-86.75526674740482,36.1062140405543]}},{"type":"Feature","id":"97358","geometry":{"type":"Polygon","coordinates":[[[-86.7583270220305,36.109437205065],[-86.7583287968491,36.1094212601648],[-86.7589494345143,36.1094657081441],[-86.758912180145,36.1097448727137],[-86.7588765362943,36.1100126718832],[-86.7588381273142,36.1102883430798],[-86.758800107808,36.1105610952496],[-86.7582065649378,36.1105186770588],[-86.7582373053055,36.1102423945676],[-86.7582673637785,36.1099733554205],[-86.7582981190064,36.109696928575],[-86.7583270220305,36.109437205065]]]},"properties":{"id":"97358","parcel":"11812004000","address":"2911 KRAFT DR","owner":"PAP KRAFT DRIVE LTD.","point":[-86.75857215346711,36.10999301444884]}},{"type":"Feature","id":"97428","geometry":{"type":"Polygon","coordinates":[[[-86.754542211915,36.1091043703681],[-86.7545747661463,36.1088250608548],[-86.7553472026517,36.1088839578582],[-86.7553147127131,36.1091698609581],[-86.754542211915,36.1091043703681]]]},"properties":{"id":"97428","parcel":"11816001900","address":"2922 SIDCO DR","owner":"BRICKLAYERS BLDG. INC.","point":[-86.75494486892923,36.10899416512187]}},{"type":"Feature","id":"97431","geometry":{"type":"Polygon","coordinates":[[[-86.7538700986502,36.1087723272918],[-86.7539026584412,36.1084930179159],[-86.7546046541896,36.1085501626379],[-86.7545747661463,36.1088250608548],[-86.7538700986502,36.1087723272918]]]},"properties":{"id":"97431","parcel":"11816002300","address":"2929 FOSTER CREIGHTON DR","owner":"INTERNATIONAL DRILLERS SUPPLY, INC.","point":[-86.7542378151027,36.10866124642959]}},{"type":"Feature","id":"97823","geometry":{"type":"Polygon","coordinates":[[[-86.7543093941668,36.1048379172076],[-86.7544588300209,36.1038911514711],[-86.7547783228234,36.104026233643],[-86.7547464332942,36.1040901664513],[-86.7546954610106,36.1041410320185],[-86.754743836542,36.104195454196],[-86.7547886535216,36.1042518480977],[-86.754829788309,36.104310059481],[-86.754867130564,36.1043699313157],[-86.7549005776676,36.1044313011158],[-86.7549300402755,36.104494000904],[-86.7549554368077,36.1045578617529],[-86.7549767000696,36.1046227092369],[-86.7549937695121,36.1046883670862],[-86.755006602346,36.1047546580176],[-86.75501516019,36.1048214011153],[-86.75501942244,36.1048884162526],[-86.7543093941668,36.1048379172076]]]},"properties":{"id":"97823","parcel":"11816007100","address":"619 NORRIS AVE","owner":"NORRIS AVENUE PROPERTIES","point":[-86.75463121743702,36.10440009912722]}},{"type":"Feature","id":"97964","geometry":{"type":"Polygon","coordinates":[[[-86.7548950707882,36.1060517718812],[-86.7549327046362,36.1057372667587],[-86.7557077353556,36.1057873548764],[-86.7556701254687,36.1061040583306],[-86.7548950707882,36.1060517718812]]]},"properties":{"id":"97964","parcel":"11816003000","address":"2952 SIDCO DR","owner":"POLAK PROPERTIES, LLC","point":[-86.75530146334972,36.1059195641936]}},{"type":"Feature","id":"97965","geometry":{"type":"Polygon","coordinates":[[[-86.7541850739334,36.1060056674058],[-86.7542226479623,36.1056845700207],[-86.7549327046362,36.1057372667587],[-86.7548950707882,36.1060517718812],[-86.7541850739334,36.1060056674058]]]},"properties":{"id":"97965","parcel":"11816003500","address":"2963 FOSTER CREIGHTON DR","owner":"FOSTER CREIGHTON 2963","point":[-86.75455871104099,36.10587146730292]}},{"type":"Feature","id":"97966","geometry":{"type":"Polygon","coordinates":[[[-86.7533241460703,36.106325587144],[-86.7533241779428,36.1063253174619],[-86.7539394358898,36.1063764148583],[-86.753906837592,36.1066513290917],[-86.7532915994966,36.1066024296196],[-86.7533241460703,36.106325587144]]]},"properties":{"id":"97966","parcel":"11816004900","address":"2954 FOSTER CREIGHTON DR","owner":"CRAIGHEAD CAPITAL CORP.","point":[-86.75361546017992,36.10648942256044]}},{"type":"Feature","id":"97967","geometry":{"type":"Polygon","coordinates":[[[-86.7526772822416,36.1067254892654],[-86.7526893368478,36.1066210123586],[-86.7532841779041,36.1066706840151],[-86.7532617076327,36.106877326744],[-86.7532291309633,36.1071544388327],[-86.7531939242081,36.1074403584098],[-86.7531615324258,36.1077372487894],[-86.7525706369373,36.1076859944586],[-86.7526355298884,36.1071032026382],[-86.7526654240048,36.1068283056845],[-86.7526772822416,36.1067254892654]]]},"properties":{"id":"97967","parcel":"11816006200","address":"2927 ARMORY DR","owner":"COMMERCIAL FLOOR PRODUCTS, LLC","point":[-86.75291278569445,36.107296782920805]}},{"type":"Feature","id":"97968","geometry":{"type":"Polygon","coordinates":[[[-86.7525393520632,36.1079588315647],[-86.7525706369373,36.1076859944586],[-86.7531615324258,36.1077372487894],[-86.7531288891937,36.1080077674337],[-86.7531164738603,36.1081265201837],[-86.7525256182731,36.1080796618169],[-86.7525393520632,36.1079588315647]]]},"properties":{"id":"97968","parcel":"11816006300","address":"2925 ARMORY DR","owner":"RUSSELL FAMILY PARTNERS, LLC & MCKNIGHT FAMILY, LLC","point":[-86.75285010790145,36.10784803989307]}},{"type":"Feature","id":"97969","geometry":{"type":"Polygon","coordinates":[[[-86.7526536398633,36.1094727435662],[-86.7526471485244,36.1094722369984],[-86.7526126890455,36.1094653490483],[-86.7525794107076,36.1094553443012],[-86.7525477379157,36.1094423516969],[-86.7525180776627,36.109426538138],[-86.7524908106178,36.1094081058415],[-86.7524665747944,36.1093871040039],[-86.7524453672589,36.1093641608376],[-86.7524282658889,36.1093389767037],[-86.7524144267099,36.1093125068183],[-86.7524039922899,36.1092850278875],[-86.7523983471062,36.1092565970685],[-86.7523963764103,36.1092278431998],[-86.7523980998295,36.1091990798045],[-86.7524181004815,36.1090231404761],[-86.7530089838589,36.1090721965501],[-86.7529588416877,36.1094966638362],[-86.7526536398633,36.1094727435662]]]},"properties":{"id":"97969","parcel":"11816006800","address":"2903 ARMORY DR","owner":"STS PARTNERS","point":[-86.75269327436915,36.10927141577093]}},{"type":"Feature","id":"97980","geometry":{"type":"Polygon","coordinates":[[[-86.7550746878764,36.104149646679],[-86.7550885543984,36.1039347357735],[-86.7559311750076,36.1040535364766],[-86.755880494279,36.1044933127652],[-86.7550746878764,36.104149646679]]]},"properties":{"id":"97980","parcel":"11816006900","address":"2970 SIDCO DR","owner":"MEADOWS FAMILY GP","point":[-86.75568889377757,36.10432191143235]}},{"type":"Feature","id":"97981","geometry":{"type":"Polygon","coordinates":[[[-86.7536933121583,36.1043063564733],[-86.7537961775,36.1035881681506],[-86.7538546931434,36.1036256174588],[-86.7539156645897,36.1036603917041],[-86.7539789053541,36.1036923847962],[-86.7540442234917,36.1037215005932],[-86.7540833546577,36.1037378016459],[-86.7541235657123,36.1037522672327],[-86.7541767837851,36.1037679475086],[-86.7542313346995,36.1037802432243],[-86.7542868945734,36.1037890824987],[-86.7543431285811,36.103794410644],[-86.7543997021188,36.1037961964048],[-86.7544369615803,36.1037960867985],[-86.7544741590042,36.1037943570644],[-86.7544588300209,36.1038911514711],[-86.7543093941668,36.1048379172076],[-86.7539733681067,36.1048158433959],[-86.7536237812247,36.1047916560671],[-86.7536933121583,36.1043063564733]]]},"properties":{"id":"97981","parcel":"11816007200","address":"617 NORRIS AVE","owner":"617 NORRIS AVENUE, LLC","point":[-86.75407455006145,36.104098751467156]}},{"type":"Feature","id":"97982","geometry":{"type":"Polygon","coordinates":[[[-86.7529179834556,36.1046158542102],[-86.7529666827395,36.1042537559788],[-86.7536933121583,36.1043063564733],[-86.7536237812247,36.1047916560671],[-86.7530546766794,36.1047512573554],[-86.7530311096663,36.1047478300298],[-86.7530084279832,36.1047416068047],[-86.7529871338266,36.1047327242436],[-86.7529680389095,36.1047209303282],[-86.7529514601583,36.1047068521753],[-86.7529378095804,36.1046908369106],[-86.75292742192,36.1046732826143],[-86.7529205578538,36.1046546238798],[-86.7529173850089,36.1046353211174],[-86.7529179834556,36.1046158542102]]]},"properties":{"id":"97982","parcel":"11816007400","address":"2965 ARMORY DR","owner":"RUSSELL FAMILY PARTNERS, LLC & MCKNIGHT FAMILY, LLC","point":[-86.75330496522425,36.1044611045669]}},{"type":"Feature","id":"97983","geometry":{"type":"Polygon","coordinates":[[[-86.7529666827395,36.1042537559788],[-86.7530040008664,36.1039763392626],[-86.7531320782176,36.1030250388732],[-86.7532015571884,36.1030957494305],[-86.753273888014,36.1031645503438],[-86.7533489933414,36.1032313654823],[-86.7534210909756,36.1032974513002],[-86.7534952081546,36.1033620481571],[-86.7535712967575,36.1034251175949],[-86.7536493108667,36.1034866193394],[-86.7537218988217,36.1035381993889],[-86.7537961775,36.1035881681506],[-86.7536933121583,36.1043063564733],[-86.7529666827395,36.1042537559788]]]},"properties":{"id":"97983","parcel":"11816007500","address":"2969 ARMORY DR","owner":"RUSSELL FAMILY PARTNERS, LLC & MCKNIGHT FAMILY, LLC","point":[-86.75339925228688,36.1037822526438]}},{"type":"Feature","id":"99248","geometry":{"type":"Polygon","coordinates":[[[-86.7545150949374,36.109385844059],[-86.754542211915,36.1091043703681],[-86.7553147127131,36.1091698609581],[-86.7552978599814,36.1093208579777],[-86.755284764186,36.1094381659333],[-86.7545150949374,36.109385844059]]]},"properties":{"id":"99248","parcel":"11816001800","address":"2920 SIDCO DR","owner":"LOWE, E. T. PUBLISHING CO.","point":[-86.7549175343548,36.109244564888975]}},{"type":"Feature","id":"99249","geometry":{"type":"Polygon","coordinates":[[[-86.7538375419707,36.1090516375197],[-86.7538700986502,36.1087723272918],[-86.7545747661463,36.1088250608548],[-86.754542211915,36.1091043703681],[-86.7545150949374,36.109385844059],[-86.753804983943,36.1093309468249],[-86.7538375419707,36.1090516375197]]]},"properties":{"id":"99249","parcel":"11816002500","address":"2911 FOSTER CREIGHTON DR","owner":"DIALYSIS CLINIC, INC.","point":[-86.75418987677216,36.10907800446145]}},{"type":"Feature","id":"99251","geometry":{"type":"Polygon","coordinates":[[[-86.7547653392404,36.1071463505951],[-86.7547972668972,36.1068743199364],[-86.7555750162875,36.1069243919468],[-86.7555424663532,36.1072037018629],[-86.755510462047,36.1074698730634],[-86.755477261279,36.1077513347504],[-86.7554496870603,36.1079844624274],[-86.7554461080686,36.1080036902378],[-86.7554389184358,36.1080222394679],[-86.7554282905479,36.1080396674095],[-86.7554144781241,36.1080555578835],[-86.7553973042771,36.1080691801568],[-86.7553777325217,36.1080804750175],[-86.7553562378379,36.1080891673031],[-86.7553333402572,36.1080950473621],[-86.7553095959775,36.1080979711109],[-86.7552855568587,36.1080975718767],[-86.7546595143528,36.1080531425331],[-86.754700854918,36.1076997926892],[-86.7547337027856,36.1074181919368],[-86.7547653392404,36.1071463505951]]]},"properties":{"id":"99251","parcel":"11816002600","address":"2934 SIDCO DR","owner":"OAK BARREL OFFICE BUILDING, LLC","point":[-86.75510558261084,36.10758483340724]}},{"type":"Feature","id":"143658","geometry":{"type":"Polygon","coordinates":[[[-86.7558658005519,36.1003365666901],[-86.7554360137542,36.0999986930632],[-86.7564522187416,36.100071440174],[-86.7564122837946,36.1004277144194],[-86.7559407760595,36.1003955101717],[-86.7558658005519,36.1003365666901]]]},"properties":{"id":"143658","parcel":"13204000800","address":"3030 SIDCO DR","owner":"HORRELL, KAY F. NON-EXEMPT MARITAL TRUST","point":[-86.75606663591141,36.10020381577876]}},{"type":"Feature","id":"145020","geometry":{"type":"Polygon","coordinates":[[[-86.7547783228234,36.104026233643],[-86.7544588300209,36.1038911514711],[-86.7544741590042,36.1037943570644],[-86.7545158687257,36.1037903864414],[-86.7545573466385,36.103785046405],[-86.7546519483216,36.103767568051],[-86.754745888125,36.1037478793156],[-86.7548083157076,36.1037289753777],[-86.7548691641735,36.1037069403248],[-86.7549281955514,36.1036818603692],[-86.7549851786542,36.1036538342995],[-86.755039890164,36.103622970769],[-86.7550974959087,36.1035868490396],[-86.7551569590898,36.1035527678695],[-86.7552181692279,36.1035207883342],[-86.7552810147249,36.1034909706144],[-86.7553443816379,36.1034642500048],[-86.7554096221491,36.1034406838284],[-86.7554764971898,36.1034203583006],[-86.7555447642408,36.1034033470404],[-86.7556141706857,36.1033897129156],[-86.7557040892463,36.1033761989704],[-86.7557945726321,36.1033654384392],[-86.755885488842,36.1033574474702],[-86.755976710257,36.103352235875],[-86.756005534689,36.1033516973738],[-86.7560048131859,36.1033634068443],[-86.7560037282695,36.1033801080894],[-86.7560035669428,36.1033825281413],[-86.7560024692706,36.1033983561241],[-86.7560022313788,36.1034017166929],[-86.7560011229107,36.1034167606281],[-86.7559996671424,36.1034355722959],[-86.7559981302511,36.1034543790646],[-86.7559965111263,36.1034731809409],[-86.7559948097764,36.1034919788261],[-86.7559934003051,36.103506903876],[-86.7559930586424,36.1035104471541],[-86.7559915179725,36.1035260570993],[-86.7559912327569,36.1035288798994],[-86.7559895511677,36.1035452036417],[-86.7559893260143,36.1035473356834],[-86.7559875018631,36.1035643173538],[-86.7559871073476,36.1035679087311],[-86.7559853609043,36.1035834866185],[-86.7559852810064,36.1035841937243],[-86.7559831057464,36.103602909859],[-86.7559311750076,36.1040535364766],[-86.7550885543984,36.1039347357735],[-86.7550746878764,36.104149646679],[-86.7547783228234,36.104026233643]]]},"properties":{"id":"145020","parcel":"13204000400","address":"2972 SIDCO DR","owner":"LEE, PHIL","point":[-86.75533194257663,36.10375901797752]}},{"type":"Feature","id":"145024","geometry":{"type":"Polygon","coordinates":[[[-86.7541235657123,36.1037522672327],[-86.7540833546577,36.1037378016459],[-86.7540442234917,36.1037215005932],[-86.7539789053541,36.1036923847962],[-86.7539156645897,36.1036603917041],[-86.7538546931434,36.1036256174588],[-86.7537961775,36.1035881681506],[-86.7537218988217,36.1035381993889],[-86.7536493108667,36.1034866193394],[-86.7535712967575,36.1034251175949],[-86.7534952081546,36.1033620481571],[-86.7534210909756,36.1032974513002],[-86.7533489933414,36.1032313654823],[-86.753273888014,36.1031645503438],[-86.7532015571884,36.1030957494305],[-86.7531320782176,36.1030250388732],[-86.7532509873813,36.1021421981628],[-86.7532589364319,36.1021237434334],[-86.7532706169228,36.1021060882662],[-86.7532854018057,36.102090450604],[-86.7533029769254,36.102076845927],[-86.7533229233288,36.1020655986088],[-86.7533447660151,36.102056978395],[-86.7533679838286,36.1020511895262],[-86.7533920227757,36.1020483697535],[-86.7534163093259,36.1020485875519],[-86.7547334131145,36.1021502369973],[-86.7547283322488,36.1021854314129],[-86.7544741590042,36.1037943570644],[-86.7544369615803,36.1037960867985],[-86.7543997021188,36.1037961964048],[-86.7543431285811,36.103794410644],[-86.7542868945734,36.1037890824987],[-86.7542313346995,36.1037802432243],[-86.7541767837851,36.1037679475086],[-86.7541235657123,36.1037522672327]]]},"properties":{"id":"145024","parcel":"13204000600","address":"2975 ARMORY DR","owner":"2975 ARMORY DRIVE, LLC","point":[-86.75392530155739,36.102605227753244]}},{"type":"Feature","id":"145029","geometry":{"type":"Polygon","coordinates":[[[-86.7549981704103,36.1020282531877],[-86.7534473871758,36.1018989527237],[-86.7534261146201,36.1018957842313],[-86.7534057022428,36.1018899831243],[-86.753386640041,36.1018816896456],[-86.7533693896934,36.1018711027991],[-86.7533543645438,36.1018584777701],[-86.7533419273041,36.1018441178279],[-86.7533329096641,36.1018282412961],[-86.7533268997883,36.101811454607],[-86.7533240289083,36.1017941282694],[-86.753324361769,36.101776648529],[-86.75332682023,36.1017502607581],[-86.7533867807319,36.1012268361315],[-86.7534293600108,36.1008551607361],[-86.7535721256523,36.1004894512558],[-86.7543516883642,36.0998208630115],[-86.7545358519363,36.0999599053512],[-86.7546132248149,36.10008686436],[-86.7550297039682,36.1004040793943],[-86.7551346555572,36.1004026119953],[-86.7553164566294,36.1004964938544],[-86.7555159858975,36.1006484637864],[-86.7558658005519,36.1003365666901],[-86.7559407760595,36.1003955101717],[-86.7564122837946,36.1004277144194],[-86.756324787104,36.1012084457473],[-86.7562350682382,36.1020089676195],[-86.7562309906213,36.1020278011461],[-86.7562233274841,36.1020458838564],[-86.7562122689296,36.1020627693241],[-86.7561980864138,36.1020780403551],[-86.7561811306284,36.102091319816],[-86.7561618227017,36.102102279702],[-86.7561404740416,36.1021103826981],[-86.75611784299,36.1021157240908],[-86.7560944692151,36.1021181779213],[-86.7560709085594,36.1021176839238],[-86.7549981704103,36.1020282531877]]]},"properties":{"id":"145029","parcel":"13204000900","address":"2960 ARMORY DR","owner":"AMAZON.COM SERVICES, INC.","point":[-86.75487685742783,36.10103181154211]}},{"type":"Feature","id":"145693","geometry":{"type":"Polygon","coordinates":[[[-86.7547283322488,36.1021854314129],[-86.7549784760263,36.1022055991834],[-86.7559424997634,36.1022833162875],[-86.7559662315136,36.1022869619226],[-86.7559890620853,36.1022933576064],[-86.7560105104309,36.1023023702614],[-86.7560301238274,36.1023138089509],[-86.7560470475402,36.1023278358575],[-86.7560611895031,36.1023437629798],[-86.7560722286509,36.1023612300164],[-86.7560799180069,36.1023798428536],[-86.7560840825299,36.1023991807896],[-86.7560846069371,36.10241868395],[-86.7560749042351,36.1025026370179],[-86.7560426106373,36.1028791995265],[-86.7560106999218,36.1032615980931],[-86.756005534689,36.1033516973738],[-86.755976710257,36.103352235875],[-86.755885488842,36.1033574474702],[-86.7557945726321,36.1033654384392],[-86.7557040892463,36.1033761989704],[-86.7556141706857,36.1033897129156],[-86.7555447642408,36.1034033470404],[-86.7554764971898,36.1034203583006],[-86.7554096221491,36.1034406838284],[-86.7553443816379,36.1034642500048],[-86.7552810147249,36.1034909706144],[-86.7552181692279,36.1035207883342],[-86.7551569590898,36.1035527678695],[-86.7550974959087,36.1035868490396],[-86.755039890164,36.103622970769],[-86.7549851786542,36.1036538342995],[-86.7549281955514,36.1036818603692],[-86.7548691641735,36.1037069403248],[-86.7548083157076,36.1037289753777],[-86.754745888125,36.1037478793156],[-86.7546519483216,36.103767568051],[-86.7545573466385,36.103785046405],[-86.7545158687257,36.1037903864414],[-86.7544741590042,36.1037943570644],[-86.7547283322488,36.1021854314129]]]},"properties":{"id":"145693","parcel":"13204000500","address":"2976 SIDCO DR","owner":"LEVEL 3 COMMUNICATIONS, LLC","point":[-86.75530782407893,36.10306893300946]}}]}