{"type":"FeatureCollection","features":[{"type":"Feature","id":"612","geometry":{"type":"Polygon","coordinates":[[[-86.7416140518583,36.030210781247],[-86.7424064718396,36.0298359458545],[-86.7426868597147,36.0299548185178],[-86.7428879708895,36.0300400815104],[-86.7428695400433,36.0302296594209],[-86.7417637745422,36.0305023483154],[-86.7417413270404,36.0304416778396],[-86.7417150565265,36.0303820277277],[-86.7416850322032,36.0303235597849],[-86.7416513342842,36.030266426735],[-86.7416140518583,36.030210781247]]]},"properties":{"id":"612","parcel":"17205001000","address":"5009 MARC DR","owner":"ARNOLD, THOMAS N. ETUX","point":[-86.74233804612706,36.030125620110866]}},{"type":"Feature","id":"613","geometry":{"type":"Polygon","coordinates":[[[-86.7422883656429,36.031652406498],[-86.7418431943846,36.0309861502545],[-86.7418631613201,36.0309718273896],[-86.7418801236068,36.0309551463035],[-86.7418936656047,36.0309365133377],[-86.7419034532018,36.0309163911131],[-86.7419092457748,36.0308952723188],[-86.741910900602,36.030873676981],[-86.7428051778135,36.0308731682812],[-86.742779257614,36.0311462081983],[-86.7427273732475,36.0316739820031],[-86.7423619357465,36.0316564524993],[-86.7422883656429,36.031652406498]]]},"properties":{"id":"613","parcel":"17205001200","address":"5001 MARC DR","owner":"SANDERS, MARK EDWARD","point":[-86.74243649270608,36.031399098618586]}},{"type":"Feature","id":"1919","geometry":{"type":"Polygon","coordinates":[[[-86.741910900602,36.030873676981],[-86.7419085663918,36.0308530336403],[-86.7419024499063,36.0308329065985],[-86.7418926863476,36.0308137528811],[-86.7418795005461,36.0307960028238],[-86.7418631880901,36.0307800592877],[-86.7418441162919,36.030766282331],[-86.7418336978328,36.0307586349861],[-86.7418249805102,36.0307496910164],[-86.7418182052135,36.0307396994997],[-86.7418135609194,36.0307289350692],[-86.7418111735617,36.0307176943779],[-86.7418037727878,36.0306632673885],[-86.7417933912999,36.0306091624863],[-86.7417800500764,36.0305554867959],[-86.7417637745422,36.0305023483154],[-86.7428695400433,36.0302296594209],[-86.7428335460872,36.0305854536591],[-86.7428051778135,36.0308731682812],[-86.741910900602,36.030873676981]]]},"properties":{"id":"1919","parcel":"17205001100","address":"5005 MARC DR","owner":"CAMPBELL, JAMES ADAM & JENNIFER E.","point":[-86.74230547293844,36.03053006532664]}},{"type":"Feature","id":"1922","geometry":{"type":"Polygon","coordinates":[[[-86.7401560454207,36.0297474683949],[-86.7402363468632,36.0296852840156],[-86.7403188722194,36.0296250507428],[-86.7404035498581,36.0295668212872],[-86.7404155167666,36.0295601466505],[-86.7404287117383,36.0295552319081],[-86.7404427477825,36.0295522236455],[-86.7404572107344,36.0295512100308],[-86.7404716725694,36.0295522207334],[-86.7404857102647,36.0295552268077],[-86.7404989068839,36.029560137983],[-86.7405108760617,36.029566810624],[-86.7405212620123,36.0295750486327],[-86.7405506897472,36.0296018769137],[-86.7405948223785,36.0296390085516],[-86.7406410615758,36.0296744093525],[-86.7406798025884,36.0297016364067],[-86.7407197905813,36.0297276480447],[-86.7407796776368,36.0297630216679],[-86.7408418672765,36.0297956700029],[-86.7409061699359,36.0298254932667],[-86.7409603519356,36.0298506640553],[-86.741012912025,36.0298780079066],[-86.741049908771,36.0298991419893],[-86.7410859358094,36.0299213536669],[-86.7411399127214,36.0299579567806],[-86.741191259183,36.0299969780073],[-86.7412398097989,36.0300382912852],[-86.7412962956683,36.0300879837449],[-86.7413495100322,36.0301400045282],[-86.7413993073209,36.0301942121304],[-86.7414455507644,36.0302504568807],[-86.7414881157876,36.0303085881321],[-86.7407592757943,36.0306905288981],[-86.7401560454207,36.0297474683949]]]},"properties":{"id":"1922","parcel":"17205001400","address":"5014 MARC DR","owner":"MARKUM, HEATHER HOLLABAUGH & ETHRIDGE, JUSTIN MICHAEL","point":[-86.7408560522593,36.03011298618165]}},{"type":"Feature","id":"1925","geometry":{"type":"Polygon","coordinates":[[[-86.7409557236765,36.0323178352416],[-86.7409600503887,36.0322981026968],[-86.7409607091718,36.0322780673405],[-86.7409576875435,36.0322581753911],[-86.740951050674,36.0322388707866],[-86.7409409468415,36.0322205852366],[-86.7409276028841,36.0322037265338],[-86.7419667002323,36.0316347142751],[-86.7418665181648,36.0324968396158],[-86.7409557236765,36.0323178352416]]]},"properties":{"id":"1925","parcel":"17205001900","address":"6112 FRONTIER CT","owner":"RICK, NEIL PAYNE","point":[-86.74169033569382,36.03191974562786]}},{"type":"Feature","id":"1996","geometry":{"type":"Polygon","coordinates":[[[-86.7427273732475,36.0316739820031],[-86.742779257614,36.0311462081983],[-86.7437386316507,36.0312045731332],[-86.7437853309311,36.0312073069047],[-86.7437384522916,36.031727635312],[-86.7427273732475,36.0316739820031]]]},"properties":{"id":"1996","parcel":"17205000100","address":"5886 EDMONDSON PIKE","owner":"BURCHFIELD, MARK & WANDA","point":[-86.74325731468741,36.031440647689124]}},{"type":"Feature","id":"1998","geometry":{"type":"Polygon","coordinates":[[[-86.7428695400433,36.0302296594209],[-86.7428879708895,36.0300400815104],[-86.7438480389771,36.0301014641767],[-86.7437933358657,36.0306531556979],[-86.7428335460872,36.0305854536591],[-86.7428695400433,36.0302296594209]]]},"properties":{"id":"1998","parcel":"17205000300","address":"5894 EDMONDSON PIKE","owner":"MATTHEWS, SCOTT MICHAEL & LORI ANN","point":[-86.74333451324688,36.0304085912391]}},{"type":"Feature","id":"2399","geometry":{"type":"Polygon","coordinates":[[[-86.7407809696471,36.0321474868835],[-86.7408054885923,36.0315847191433],[-86.7409001996603,36.0315863341398],[-86.7412293624063,36.0316024896365],[-86.7412981225951,36.0316058637674],[-86.7419667002323,36.0316347142751],[-86.7409276028841,36.0322037265338],[-86.7409124219473,36.0321883563499],[-86.7408945646682,36.0321750179193],[-86.7408744378004,36.0321640169831],[-86.7408525008436,36.0321556039789],[-86.7408292537878,36.0321499687089],[-86.7408052271524,36.0321472431049],[-86.7407809696471,36.0321474868835]]]},"properties":{"id":"2399","parcel":"17205001800","address":"6108 FRONTIER CT","owner":"CLARK, RICHARD & DONNA","point":[-86.7411452425822,36.031890460717555]}},{"type":"Feature","id":"3331","geometry":{"type":"Polygon","coordinates":[[[-86.7407592757943,36.0306905288981],[-86.7414881157876,36.0303085881321],[-86.7415197937919,36.0303587855633],[-86.7415480699324,36.0304103062969],[-86.7415728617783,36.030462997622],[-86.7415940957576,36.0305167049705],[-86.7416117082412,36.0305712692066],[-86.7416256488975,36.0306265293095],[-86.741635876262,36.030682323302],[-86.7416423588224,36.0307384855408],[-86.7416346788285,36.030756045004],[-86.7416245064226,36.0307727473533],[-86.7416119836918,36.0307883609817],[-86.741597283917,36.0308026676092],[-86.7409431670469,36.03097070448],[-86.7407592757943,36.0306905288981]]]},"properties":{"id":"3331","parcel":"17205001500","address":"5006 MARC DR","owner":"COLEMAN, ROBERT B. ET UX","point":[-86.74123111166698,36.03065356456887]}},{"type":"Feature","id":"3333","geometry":{"type":"Polygon","coordinates":[[[-86.7409001996603,36.0315863341398],[-86.740914674259,36.0313972406093],[-86.7409431670469,36.03097070448],[-86.741597283917,36.0308026676092],[-86.7415848417862,36.0308220454535],[-86.741576324744,36.0308427754176],[-86.7415719454382,36.0308643388492],[-86.741571815313,36.0308861924826],[-86.7415759370353,36.0309077892142],[-86.7415842067808,36.0309285852999],[-86.741584278019,36.0309287281676],[-86.7415950681722,36.0309462451452],[-86.7416088033164,36.0309623433804],[-86.7416252074602,36.0309766983017],[-86.7416439505802,36.030989021722],[-86.741664654185,36.0309990636071],[-86.7412293624063,36.0316024896365],[-86.7409001996603,36.0315863341398]]]},"properties":{"id":"3333","parcel":"17205001600","address":"5002 MARC DR","owner":"OVERTON, JANEAN E","point":[-86.74122435246767,36.03119801177727]}},{"type":"Feature","id":"3335","geometry":{"type":"Polygon","coordinates":[[[-86.7419667002323,36.0316347142751],[-86.7412981225951,36.0316058637674],[-86.7412293624063,36.0316024896365],[-86.741664654185,36.0309990636071],[-86.7416859257476,36.0310063521371],[-86.7417082178536,36.0310112297223],[-86.7417311179927,36.0310136060679],[-86.7417542040976,36.0310134369046],[-86.7417780227265,36.0310105521275],[-86.7418011003811,36.0310049590056],[-86.7418229698478,36.0309967694727],[-86.7418431943846,36.0309861502545],[-86.7422883656429,36.031652406498],[-86.7419667002323,36.0316347142751]]]},"properties":{"id":"3335","parcel":"17205001700","address":"5000 MARC DR","owner":"WHEELER, PAUL W. ET UX","point":[-86.74175046586679,36.031308630379534]}},{"type":"Feature","id":"3337","geometry":{"type":"Polygon","coordinates":[[[-86.7415329741771,36.0329977764109],[-86.7411875610183,36.0328065016331],[-86.7410507639158,36.0329348115501],[-86.7406766028423,36.0327434372261],[-86.7406752883674,36.0327427702358],[-86.740672864536,36.0327415377422],[-86.7406613495202,36.0323768450285],[-86.740661348966,36.0323767855464],[-86.7406667930644,36.0323802662336],[-86.7407028576035,36.0324031780959],[-86.7407347655357,36.0324156163042],[-86.740769327456,36.0324225492944],[-86.7408048493975,36.032423429577],[-86.7408396345147,36.0324179962947],[-86.7408723401252,36.032407080587],[-86.7409016114418,36.0323906907866],[-86.7409257674202,36.0323696655244],[-86.7409441403136,36.032345103083],[-86.7409557236765,36.0323178352416],[-86.7418665181648,36.0324968396158],[-86.7417913391693,36.0331390378627],[-86.7415329741771,36.0329977764109]]]},"properties":{"id":"3337","parcel":"17205002000","address":"6109 FRONTIER CT","owner":"WIMSATT, MELISA & NATHAN","point":[-86.74126050440044,36.03261917034502]}},{"type":"Feature","id":"3783","geometry":{"type":"Polygon","coordinates":[[[-86.7428051778135,36.0308731682812],[-86.7428335460872,36.0305854536591],[-86.7437933358657,36.0306531556979],[-86.7437386316507,36.0312045731332],[-86.742779257614,36.0311462081983],[-86.7428051778135,36.0308731682812]]]},"properties":{"id":"3783","parcel":"17205000200","address":"5890 EDMONDSON PIKE","owner":"WHITAKER, JAMES C. ETUX","point":[-86.74327498912004,36.03101072275746]}},{"type":"Feature","id":"280168","geometry":{"type":"Polygon","coordinates":[[[-86.7403265725299,36.0323230645105],[-86.7403601648364,36.0323220451316],[-86.7403771779612,36.0323220757843],[-86.7404115195316,36.0323226335615],[-86.7404457981786,36.0323244174782],[-86.7404796586425,36.0323272891156],[-86.7405132989453,36.0323315410795],[-86.7405300631337,36.0323339130051],[-86.7405454209686,36.0323367126747],[-86.740578228524,36.0323434086459],[-86.7405915727861,36.0323469660579],[-86.7405950299152,36.0323479867065],[-86.7406109654002,36.0323534749884],[-86.7406139993387,36.03235456944],[-86.7406170157845,36.0323556919393],[-86.7406200126025,36.0323568515123],[-86.7406489556251,36.0323700100776],[-86.740651738942,36.0323714783041],[-86.7406544959402,36.0323729800403],[-86.740657229881,36.0323745080558],[-86.740661348966,36.0323767855464],[-86.7406613495202,36.0323768450285],[-86.740672864536,36.0327415377422],[-86.7406752883674,36.0327427702358],[-86.7406766028423,36.0327434372261],[-86.7406765208851,36.0327434539532],[-86.7399699651441,36.0328766184065],[-86.7399698877866,36.0328765332585],[-86.7399541291127,36.032857502737],[-86.7399371354111,36.0328391864138],[-86.7398875853425,36.0327845477008],[-86.7398316583868,36.0327351675278],[-86.7397482010196,36.0326716690147],[-86.7397481539815,36.032671622436],[-86.7397400060562,36.0326629307917],[-86.7397363725653,36.0326577445106],[-86.7397334925093,36.0326536306522],[-86.7397301965358,36.0326461989732],[-86.7397284396142,36.0326406740002],[-86.7397271380755,36.0326341223593],[-86.7397269285236,36.0326330673271],[-86.7397265588876,36.0326230372716],[-86.7397280429801,36.0326130760507],[-86.7397313462647,36.0326034073976],[-86.7397323259671,36.032600892175],[-86.7397383235965,36.0325912403277],[-86.7397419346014,36.0325870947291],[-86.7397655984831,36.0325615617378],[-86.7397668379327,36.0325602490514],[-86.739770420789,36.032556656119],[-86.7397705999965,36.0325564774634],[-86.7397740349142,36.0325530846257],[-86.7397743966663,36.0325527281953],[-86.7397782290768,36.0325490039438],[-86.739805998623,36.0325235953511],[-86.7398354064801,36.0324994339998],[-86.7398397328291,36.0324960843564],[-86.7398401482174,36.0324957681548],[-86.7398440916235,36.0324927633551],[-86.7398443009903,36.0324926061453],[-86.7398484806191,36.0324894683057],[-86.7398640507552,36.032478119116],[-86.739884080108,36.0324644631641],[-86.7399005403936,36.0324539737476],[-86.7399044431855,36.0324514937495],[-86.7399047432347,36.032451303536],[-86.739913234065,36.0324460509167],[-86.7399169824371,36.0324437899801],[-86.7399175198436,36.0324434694237],[-86.7399207521004,36.032441551445],[-86.7399261721111,36.0324383942686],[-86.7399305363808,36.0324359006201],[-86.7399360281664,36.0324328250204],[-86.7399393423184,36.0324310029769],[-86.7399398965444,36.0324307012444],[-86.7399437839947,36.0324285998835],[-86.7399527392229,36.0324238860882],[-86.7399530616982,36.0324237209732],[-86.7399572538844,36.0324215753795],[-86.7399710632406,36.03241454248],[-86.7400006961939,36.0324006247362],[-86.7400310147508,36.0323875265585],[-86.7400465990119,36.0323816328026],[-86.7400768894078,36.0323707555795],[-86.7401097455186,36.0323602636652],[-86.7401432453393,36.0323512161704],[-86.7401697453699,36.0323448840095],[-86.7402097261476,36.0323367493524],[-86.7402501986303,36.0323304178583],[-86.7402724765849,36.0323277880006],[-86.7403260145273,36.0323230796559],[-86.7403265725299,36.0323230645105]]]},"properties":{"id":"280168","parcel":"17206005100","address":"6101 FRONTIER CT","owner":"GUENTHER, SIEGFRIED & CHRISTINE G.","point":[-86.7402018299539,36.03259707785219]}},{"type":"Feature","id":"280314","geometry":{"type":"Polygon","coordinates":[[[-86.7421866729626,36.0340398685512],[-86.7424904299415,36.0332468161417],[-86.7425121166596,36.03325107812],[-86.7430974095987,36.0333419716271],[-86.7426940210341,36.0341861871198],[-86.7425260128148,36.0341349023715],[-86.7423568786162,36.0340861236201],[-86.7421866729626,36.0340398685512]]]},"properties":{"id":"280314","parcel":"17201000400","address":"6005 FRONTIER LN","owner":"CLARK, GLEN W. & BEVERLY D.","point":[-86.74262548545937,36.03369088543461]}},{"type":"Feature","id":"280315","geometry":{"type":"Polygon","coordinates":[[[-86.7411269639456,36.0344691783867],[-86.7413470226994,36.0339843254549],[-86.7414488582811,36.034015788576],[-86.7415519351409,36.034044461672],[-86.7416561375607,36.034070312104],[-86.7417613487377,36.0340933099441],[-86.741843404419,36.0341118662699],[-86.7419247396823,36.0341324125306],[-86.7416687286834,36.0348240737929],[-86.7412170897164,36.034848830138],[-86.7411269639456,36.0344691783867]]]},"properties":{"id":"280315","parcel":"17201000800","address":"6008 FRONTIER LN","owner":"CROCKER, KERRY A. ET UX","point":[-86.74153292469202,36.03430081137164]}},{"type":"Feature","id":"280316","geometry":{"type":"Polygon","coordinates":[[[-86.7404471917754,36.034403030481],[-86.7404592651471,36.0343387344684],[-86.7404748996821,36.0342749465302],[-86.7404940666304,36.0342117975297],[-86.7405167227928,36.0341494157146],[-86.7405428260713,36.0340879284243],[-86.7405723210455,36.0340274621787],[-86.7406051467051,36.0339681390251],[-86.7406412375943,36.0339100801369],[-86.7406805193556,36.033853404038],[-86.7407149326349,36.0338079988148],[-86.7407230740171,36.0337982210802],[-86.7407331614412,36.0337897229383],[-86.7407448965691,36.0337827594868],[-86.7407579284423,36.0337775356742],[-86.7407718723532,36.0337742070858],[-86.7407863108873,36.0337728727261],[-86.7408008194185,36.0337735721588],[-86.7408149627719,36.0337762846258],[-86.7408283229711,36.033780929778],[-86.7409287733189,36.033826925334],[-86.7410309726315,36.0338703062067],[-86.741134817273,36.0339110261619],[-86.7412402025559,36.0339490452809],[-86.7413470226994,36.0339843254549],[-86.7411269639456,36.0344691783867],[-86.7404471917754,36.034403030481]]]},"properties":{"id":"280316","parcel":"17201000900","address":"5645 HIGHLAND WAY","owner":"KUPERSMITH, KAREN J. & JONATHAN","point":[-86.74090754049983,36.03411948889418]}},{"type":"Feature","id":"280317","geometry":{"type":"Polygon","coordinates":[[[-86.7409219826799,36.0357011634246],[-86.7409821898059,36.035685504517],[-86.7410413736798,36.0356674535252],[-86.7410993882149,36.0356470528088],[-86.7411230777547,36.035640644902],[-86.7411476200356,36.0356369103951],[-86.7411725596146,36.0356359169826],[-86.7411974328356,36.0356376846409],[-86.7412217810872,36.0356421792381],[-86.7412462781991,36.0356459771146],[-86.741271196988,36.0356467999198],[-86.7412959935393,36.0356446293686],[-86.7413201245523,36.035639512967],[-86.741343062866,36.0356315630157],[-86.7413643085223,36.0356209529363],[-86.7413833942977,36.0356079154346],[-86.7413999055916,36.0355927333658],[-86.7421005332043,36.03604389807],[-86.7421416944342,36.0360691935771],[-86.7418161269977,36.0361580084312],[-86.7411657155624,36.0363400266487],[-86.7409219826799,36.0357011634246]]]},"properties":{"id":"280317","parcel":"17201001400","address":"5805 ABBOTT CT","owner":"MACKIE, JAMES D. ET UX","point":[-86.74141121322687,36.035872316489076]}},{"type":"Feature","id":"280319","geometry":{"type":"Polygon","coordinates":[[[-86.7417913391693,36.0331390378627],[-86.7418665181648,36.0324968396158],[-86.7419667002323,36.0316347142751],[-86.7422883656429,36.031652406498],[-86.7423619357465,36.0316564524993],[-86.7427273732475,36.0316739820031],[-86.7437384522916,36.031727635312],[-86.7436702803013,36.0323672770723],[-86.7436453340991,36.0326089468807],[-86.7436018248848,36.0330303541418],[-86.7425654643528,36.0328793333772],[-86.7425121166596,36.03325107812],[-86.7424904299415,36.0332468161417],[-86.7422655372952,36.033213037727],[-86.7419647664538,36.0331665402114],[-86.7417913391693,36.0331390378627]]]},"properties":{"id":"280319","parcel":"17201001900","address":"5866 EDMONDSON PIKE","owner":"MIDTOWN FELLOWSHIP, INC","point":[-86.74276883199127,36.03243206266571]}},{"type":"Feature","id":"280320","geometry":{"type":"Polygon","coordinates":[[[-86.7425121166596,36.03325107812],[-86.7425654643528,36.0328793333772],[-86.7436018248848,36.0330303541418],[-86.7435566961596,36.0334124874503],[-86.7430974095987,36.0333419716271],[-86.7425121166596,36.03325107812]]]},"properties":{"id":"280320","parcel":"17201002000","address":"5860 EDMONDSON PIKE","owner":"OMAR, KHAIRULDEEN A. & MALO, SAWSAN S. ET AL","point":[-86.74305838695545,36.03314072040572]}},{"type":"Feature","id":"280913","geometry":{"type":"Polygon","coordinates":[[[-86.741071503467,36.0337082824516],[-86.7415329741771,36.0329977764109],[-86.7417913391693,36.0331390378627],[-86.7419647664538,36.0331665402114],[-86.7416714345507,36.033917770076],[-86.7415480951895,36.0338825134436],[-86.7414262947075,36.0338438916917],[-86.7413061711018,36.0338019463371],[-86.7411878624269,36.0337567252052],[-86.741071503467,36.0337082824516]]]},"properties":{"id":"280913","parcel":"17201000200","address":"6013 FRONTIER LN","owner":"WARDEN, PATRICK T. ET UX","point":[-86.74155326297482,36.033437487887895]}},{"type":"Feature","id":"280919","geometry":{"type":"Polygon","coordinates":[[[-86.7421176837863,36.034801529642],[-86.7416687286834,36.0348240737929],[-86.7419247396823,36.0341324125306],[-86.7420919990801,36.0341738957277],[-86.7422581228561,36.034218283355],[-86.7424230364986,36.0342655560478],[-86.7425866643522,36.0343156908436],[-86.7426185557531,36.03432648289],[-86.7423857898422,36.0348262508665],[-86.7421176837863,36.034801529642]]]},"properties":{"id":"280919","parcel":"17201000700","address":"6004 FRONTIER LN","owner":"WOODSON CHAPEL CHURCH OF CHRIST","point":[-86.74213663021253,36.03456350895422]}},{"type":"Feature","id":"280925","geometry":{"type":"Polygon","coordinates":[[[-86.7404040787071,36.0350032734271],[-86.7404322889652,36.0345459738056],[-86.7404346132997,36.034498160213],[-86.7404395843011,36.0344504799708],[-86.7404471917754,36.034403030481],[-86.7411269639456,36.0344691783867],[-86.7412170897164,36.034848830138],[-86.7409995463436,36.0350237883454],[-86.7404040787071,36.0350032734271]]]},"properties":{"id":"280925","parcel":"17201001000","address":"5641 HIGHLAND WAY","owner":"HARRIS, CLINTON L. ET UX","point":[-86.74080216306226,36.03469735392441]}},{"type":"Feature","id":"281394","geometry":{"type":"Polygon","coordinates":[[[-86.7408054885923,36.0315847191433],[-86.740475227069,36.0315669694416],[-86.7393682449412,36.0305211058544],[-86.7394147101983,36.0304878855364],[-86.7394589916789,36.0304527525322],[-86.7395009681886,36.0304157995206],[-86.7395405286033,36.0303771281309],[-86.7395775651451,36.0303368417751],[-86.739611978955,36.0302950483164],[-86.7396576190706,36.0302378071089],[-86.7397048204044,36.0301814089244],[-86.740914674259,36.0313972406093],[-86.7409001996603,36.0315863341398],[-86.7408054885923,36.0315847191433]]]},"properties":{"id":"281394","parcel":"17206003600","address":"8114 CLOVERLAND DR","owner":"NAPIER, JOSEPH SHERMAN ET UX","point":[-86.74015534194639,36.03095920581441]}},{"type":"Feature","id":"281794","geometry":{"type":"Polygon","coordinates":[[[-86.73984754043,36.0315708253874],[-86.7401670406069,36.0315952358992],[-86.7401910021226,36.0315533316467],[-86.740475227069,36.0315669694416],[-86.7408054885923,36.0315847191433],[-86.7407809696471,36.0321474868835],[-86.7407546907884,36.0321505109647],[-86.7407293273395,36.0321568660106],[-86.7407055169619,36.0321663930785],[-86.7406838566175,36.0321788523602],[-86.7406752377143,36.032187500103],[-86.740665066414,36.0321949541579],[-86.7406538882008,36.0322004513787],[-86.7406417387041,36.0322043619787],[-86.7406289575696,36.0322065775172],[-86.7406159015069,36.0322070345131],[-86.7406029343786,36.032205722618],[-86.7405451519796,36.0321955181919],[-86.740486691651,36.0321882957866],[-86.7404277866717,36.0321840837105],[-86.7403686735485,36.0321828994368],[-86.7403095842239,36.0321847469477],[-86.7402507572055,36.0321896202714],[-86.7401924264201,36.0321974981427],[-86.740134822382,36.0322083503048],[-86.7400781776994,36.0322221329688],[-86.73984754043,36.0315708253874]]]},"properties":{"id":"281794","parcel":"17206002700","address":"6104 FRONTIER CT","owner":"SLOAT, JUSTIN & MOLLY","point":[-86.74037326743296,36.03187114372628]}},{"type":"Feature","id":"282467","geometry":{"type":"Polygon","coordinates":[[[-86.7395632028322,36.0338713910554],[-86.7401916910293,36.0333708457257],[-86.7402798297645,36.0334403989128],[-86.7403709704531,36.0335073531794],[-86.740464993554,36.0335716218279],[-86.7405617828955,36.0336331226462],[-86.7405725880436,36.0336418718082],[-86.7405813599502,36.0336520106464],[-86.740587833873,36.0336632316439],[-86.7405918124598,36.0336751953244],[-86.740593175811,36.0336875383015],[-86.7405918815885,36.0336998849953],[-86.7405879696055,36.033711863827],[-86.7405815585063,36.0337231081412],[-86.7405368023297,36.0337817547403],[-86.7404951369677,36.0338418847863],[-86.7404566357684,36.0339033905775],[-86.7404213687351,36.0339661626299],[-86.7403893980878,36.0340300897047],[-86.7403607815671,36.0340950560839],[-86.7395632028322,36.0338713910554]]]},"properties":{"id":"282467","parcel":"17202001400","address":"6016 FRONTIER LN","owner":"NOLAN JOINT REVOCABLE LIVING TRUST, THE","point":[-86.74013702412837,36.03375151733551]}},{"type":"Feature","id":"283270","geometry":{"type":"Polygon","coordinates":[[[-86.7406772120955,36.0334984661583],[-86.7406083694317,36.0334541363893],[-86.7405410825616,36.0334082576057],[-86.741050700115,36.032934871428],[-86.7410507639158,36.0329348115501],[-86.7411875610183,36.0328065016331],[-86.7415329741771,36.0329977764109],[-86.741071503467,36.0337082824516],[-86.7409895413792,36.0336702993986],[-86.7409090551546,36.0336302874108],[-86.7408301228293,36.0335882847671],[-86.7407528168992,36.0335443306818],[-86.7406772120955,36.0334984661583]]]},"properties":{"id":"283270","parcel":"17201000100","address":"6017 FRONTIER LN","owner":"WHALEY, RALPH E. ETUX","point":[-86.74108091683777,36.03320311281213]}},{"type":"Feature","id":"283274","geometry":{"type":"Polygon","coordinates":[[[-86.7416714345507,36.033917770076],[-86.7419647664538,36.0331665402114],[-86.7422655372952,36.033213037727],[-86.7424904299415,36.0332468161417],[-86.7421866729626,36.0340398685512],[-86.7419419258817,36.0339809376854],[-86.7416714345507,36.033917770076]]]},"properties":{"id":"283274","parcel":"17201000300","address":"6009 FRONTIER LN","owner":"REYNOLDS, LESLIE G. & KATHLEEN D.","point":[-86.74208218308857,36.033582296511206]}},{"type":"Feature","id":"283279","geometry":{"type":"Polygon","coordinates":[[[-86.7423857898422,36.0348262508665],[-86.7426185557531,36.03432648289],[-86.7426776527689,36.034347264845],[-86.7427373122273,36.0343669581441],[-86.7428244095018,36.0343945281303],[-86.7429128711106,36.034419064893],[-86.743002536859,36.034440526155],[-86.7430932454669,36.0344588723497],[-86.7431848312829,36.0344740711488],[-86.7432771298067,36.0344860947233],[-86.7433699743606,36.034494919765],[-86.7433837159553,36.0344973649227],[-86.7433967753371,36.0345016141755],[-86.7434087941295,36.0345075534676],[-86.7434194445608,36.0345150189834],[-86.7434284362228,36.0345238079207],[-86.7434355216188,36.0345336784572],[-86.743440509605,36.0345443631865],[-86.7434432620619,36.0345555691385],[-86.7434437051002,36.0345669894275],[-86.743440728984,36.0346104132932],[-86.7434361113468,36.034695328522],[-86.7434306523654,36.0348349179332],[-86.7434291935105,36.0348726858168],[-86.7434296678504,36.0349104706137],[-86.7434294758669,36.0349261309096],[-86.7423857898422,36.0348262508665]]]},"properties":{"id":"283279","parcel":"17201000600","address":"5832 EDMONDSON PIKE","owner":"WOODSON CHAPEL CHURCH OF CHRIST","point":[-86.74295296552728,36.03465183125639]}},{"type":"Feature","id":"283286","geometry":{"type":"Polygon","coordinates":[[[-86.7412004036991,36.0353807818495],[-86.7409995463436,36.0350237883454],[-86.7412170897164,36.034848830138],[-86.7416687286834,36.0348240737929],[-86.7421176837863,36.034801529642],[-86.7421259460864,36.0351069620807],[-86.7414119786393,36.0354366205046],[-86.7413979606858,36.0354204987627],[-86.7413789895109,36.0354046526483],[-86.7413571678159,36.0353914477406],[-86.7413330468734,36.0353812159281],[-86.7413072338809,36.0353742175533],[-86.7412803829665,36.0353706288502],[-86.7412531707525,36.03537053939],[-86.7412262841584,36.0353739530586],[-86.7412004036991,36.0353807818495]]]},"properties":{"id":"283286","parcel":"17201001200","address":"5808 ABBOTT CT","owner":"KLUG, KEVIN & O'DONNELL, JULIANNE","point":[-86.74147981048087,36.0352382995144]}},{"type":"Feature","id":"283292","geometry":{"type":"Polygon","coordinates":[[[-86.7413999055916,36.0355927333658],[-86.7414146457375,36.0355756370258],[-86.7414259226546,36.0355568828808],[-86.741433458757,36.0355369286953],[-86.7414370710876,36.0355162649994],[-86.7414366711416,36.035495396162],[-86.7414322670171,36.0354748331679],[-86.7414239688379,36.0354550800644],[-86.7414119786393,36.0354366205046],[-86.7421259460864,36.0351069620807],[-86.7421458554322,36.0357903314874],[-86.742144019646,36.0358834718473],[-86.7421416944342,36.0360691935771],[-86.7421005332043,36.03604389807],[-86.7413999055916,36.0355927333658]]]},"properties":{"id":"283292","parcel":"17201001300","address":"5809 ABBOTT CT","owner":"LIDDLE, GLENN B. & CHRISTIANA M.","point":[-86.74177358556534,36.0355849745987]}},{"type":"Feature","id":"283304","geometry":{"type":"Polygon","coordinates":[[[-86.7406765208851,36.0327434539532],[-86.7406766028423,36.0327434372261],[-86.7410507639158,36.0329348115501],[-86.741050700115,36.032934871428],[-86.7405410825616,36.0334082576057],[-86.7405007979774,36.0333795456571],[-86.7404637871865,36.0333524160799],[-86.7404303839722,36.0333269650674],[-86.7403813483372,36.0332881934151],[-86.7403407808317,36.0332548261559],[-86.7403406700853,36.0332547303977],[-86.7402934974855,36.0332142753584],[-86.7402933889666,36.0332141804878],[-86.7402395677321,36.0331651769276],[-86.7401935773268,36.0331211815064],[-86.7401464426408,36.0330738177437],[-86.7400755900265,36.0329976707539],[-86.7400359316926,36.0329520374795],[-86.7400235494661,36.0329372818053],[-86.7400164365697,36.0329288064429],[-86.7399754161923,36.0328827524969],[-86.7399699651441,36.0328766184065],[-86.7406765208851,36.0327434539532]]]},"properties":{"id":"283304","parcel":"17202000100","address":"6021 FRONTIER LN","owner":"SHELTON, NICKOLAS","point":[-86.74052199796674,36.033098261797896]}},{"type":"Feature","id":"283309","geometry":{"type":"Polygon","coordinates":[[[-86.7403185227849,36.0363122690364],[-86.740360264569,36.0358188977138],[-86.7403621298294,36.0358075677865],[-86.7403663215415,36.0357966561861],[-86.7403727216695,36.035786476387],[-86.740381144273,36.0357773188473],[-86.7403913476708,36.0357694464273],[-86.7404030410236,36.0357630862373],[-86.740415888688,36.0357584205987],[-86.7404295212624,36.0357555815675],[-86.7404435478097,36.0357546526624],[-86.7405073516921,36.0357558062845],[-86.7405711511727,36.0357544624106],[-86.7406347953548,36.0357506237707],[-86.7406981389485,36.0357442993698],[-86.7407737158822,36.0357333599026],[-86.7408484094748,36.0357189657462],[-86.7409219826799,36.0357011634246],[-86.7411657155624,36.0363400266487],[-86.7411306236346,36.0363490355328],[-86.7403185227849,36.0363122690364]]]},"properties":{"id":"283309","parcel":"17202000200","address":"5633 HIGHLAND WAY","owner":"THOMPSON, BEN & WYNDHAM, CLAIRE M","point":[-86.74070050084376,36.0360663648008]}},{"type":"Feature","id":"283668","geometry":{"type":"Polygon","coordinates":[[[-86.7397048204044,36.0301814089244],[-86.739773029985,36.0301044132897],[-86.7398441518496,36.0300291761864],[-86.7399181167568,36.0299557692371],[-86.7399948521458,36.029884264986],[-86.740074143393,36.0298148513145],[-86.7401560454207,36.0297474683949],[-86.7407592757943,36.0306905288981],[-86.7409431670469,36.03097070448],[-86.740914674259,36.0313972406093],[-86.7397048204044,36.0301814089244]]]},"properties":{"id":"283668","parcel":"17206003500","address":"8106 CLOVERLAND DR","owner":"NEIL, FINDLAY C. ET UX","point":[-86.7402772421288,36.030436067963926]}},{"type":"Feature","id":"283884","geometry":{"type":"Polygon","coordinates":[[[-86.7426940210341,36.0341861871198],[-86.7430974095987,36.0333419716271],[-86.7435566961596,36.0334124874503],[-86.7435285626349,36.0336775555582],[-86.7435044116713,36.0339428829756],[-86.7434842462663,36.0342084300296],[-86.7434792603831,36.0342824400584],[-86.7434790785091,36.0342839941133],[-86.7434765503567,36.0342948712291],[-86.7434719016823,36.0343052774334],[-86.743465251995,36.0343149397971],[-86.7434567764942,36.0343236075801],[-86.7434466939068,36.0343310568122],[-86.7434352675966,36.0343370902869],[-86.7434227957215,36.0343415529439],[-86.7434096034321,36.0343443283123],[-86.7433960318267,36.0343453439861],[-86.7433824357489,36.034344573441],[-86.7432982827589,36.0343367565189],[-86.7432146639917,36.0343257844114],[-86.7431317594387,36.0343116803446],[-86.7430497491667,36.0342944756563],[-86.7429688066265,36.0342742062318],[-86.7428891053443,36.0342509160682],[-86.7427920789912,36.0342175263842],[-86.7426940210341,36.0341861871198]]]},"properties":{"id":"283884","parcel":"17201000500","address":"6001 FRONTIER LN","owner":"SLOAN, VEARL J., TRUSTEE","point":[-86.7431954069496,36.03380953207808]}},{"type":"Feature","id":"283886","geometry":{"type":"Polygon","coordinates":[[[-86.7403815372277,36.0353762012472],[-86.7404040787071,36.0350032734271],[-86.7409995463436,36.0350237883454],[-86.7412004036991,36.0353807818495],[-86.7411786454509,36.035389610489],[-86.7411586552932,36.0354008608453],[-86.7411408361481,36.0354143069196],[-86.7411255538595,36.03542967337],[-86.7411131162363,36.03544664916],[-86.7411037775076,36.0354648893332],[-86.7410921506102,36.0354824135299],[-86.7410769639178,36.0354980380576],[-86.7410586768859,36.0355112923171],[-86.7410378406061,36.035521774545],[-86.7410150846508,36.0355291690203],[-86.7409535349925,36.0355497140121],[-86.740890770505,36.0355676716125],[-86.7408269549712,36.0355829930441],[-86.740762256688,36.0355956376136],[-86.7406968462563,36.035605573627],[-86.740636919333,36.0356121221791],[-86.7405766863804,36.0356164346659],[-86.7405162738239,36.0356185021984],[-86.7404558070043,36.0356183185982],[-86.7404408832974,36.0356168041986],[-86.7404264954074,36.0356132477745],[-86.7404130637427,36.035607751293],[-86.7404009815331,36.0356004772752],[-86.7403906014142,36.0355916380628],[-86.740382227618,36.0355814913601],[-86.7403761037085,36.0355703339996],[-86.7403724102698,36.0355584920421],[-86.7403712548445,36.0355463127272],[-86.7403815372277,36.0353762012472]]]},"properties":{"id":"283886","parcel":"17201001100","address":"5637 HIGHLAND WAY","owner":"WAGONER, DAWNA K.","point":[-86.74074570508071,36.03520011447679]}},{"type":"Feature","id":"286376","geometry":{"type":"Polygon","coordinates":[[[-86.7420935452553,36.0377955262927],[-86.7421161019024,36.0369869004355],[-86.7421416944342,36.0360691935771],[-86.742144019646,36.0358834718473],[-86.7421458554322,36.0357903314874],[-86.7421259460864,36.0351069620807],[-86.7421176837863,36.034801529642],[-86.7423857898422,36.0348262508665],[-86.7434294758669,36.0349261309096],[-86.7434214213974,36.0353574839215],[-86.7434134760005,36.0357830670242],[-86.7433736696502,36.0376387398954],[-86.7427418941135,36.0376445592085],[-86.7427285912583,36.0376688157438],[-86.7424119980831,36.0376685694295],[-86.7423954290787,36.0378139954264],[-86.7420935452553,36.0377955262927]]]},"properties":{"id":"286376","parcel":"17200002501","address":"5800 EDMONDSON PIKE","owner":"WOODSON CHAPEL CHURCH OF CHRIST, TRS.","point":[-86.74276316770008,36.036529409372505]}}]}