{"type":"FeatureCollection","features":[{"type":"Feature","id":"98122","geometry":{"type":"Polygon","coordinates":[[[-86.7473713141808,36.2363637829446],[-86.7474257503773,36.2359852207867],[-86.7475651016612,36.2360019500034],[-86.7481767945513,36.2360683064473],[-86.7481228371973,36.2364471345631],[-86.7473713141808,36.2363637829446]],[[-86.7478372762588,36.2362084178874],[-86.7478388173405,36.2361987776001],[-86.7479117966746,36.2362068416999],[-86.747923364683,36.2361391935258],[-86.7478500472351,36.2361311315264],[-86.7477943775317,36.236124883507],[-86.7477210589977,36.2361168214362],[-86.7476647144445,36.236110852415],[-86.7475917352238,36.2361027881658],[-86.7475364059603,36.2360965379208],[-86.7474644460979,36.2360887412667],[-86.7474528714187,36.2361558405761],[-86.7475231541313,36.2361655690783],[-86.7475217546324,36.2361728850652],[-86.747580471367,36.2361810132859],[-86.747581548876,36.2361731747639],[-86.7476531488031,36.2361787745286],[-86.7476510873858,36.236189747376],[-86.7477076465935,36.2361941712355],[-86.7477091645018,36.236185846917],[-86.7477848507105,36.2361933454786],[-86.7477817659754,36.2362029187142],[-86.7478372762588,36.2362084178874]]]},"properties":{"id":"98122","parcel":"051130A90000CO","address":"220 B ARROWHEAD  DR","owner":"O.I.C. ARROWHEAD LAKE ","point":[-86.74776408161256,36.23628643761157]}},{"type":"Feature","id":"120432","geometry":{"type":"Polygon","coordinates":[[[-86.7480819680919,36.2347730540972],[-86.7480898091507,36.2347281773936],[-86.7482274551937,36.234743963779],[-86.7482196142027,36.2347888395902],[-86.7480819680919,36.2347730540972]]]},"properties":{"id":"120432","parcel":"061010A05900CO","address":"374 E VILLAGE LN","owner":"IRA INNOVATIONS, LLC","point":[-86.74815471162887,36.23475850896023]}},{"type":"Feature","id":"120433","geometry":{"type":"Polygon","coordinates":[[[-86.7480974242971,36.2346857688076],[-86.7481049061975,36.2346436233093],[-86.7482424362629,36.2346593950741],[-86.7482350691471,36.2347015542902],[-86.7480974242971,36.2346857688076]]]},"properties":{"id":"120433","parcel":"061010A06100CO","address":"370 E VILLAGE LN","owner":"RIVERA, BRANDON JASON","point":[-86.74816994881124,36.234672582001856]}},{"type":"Feature","id":"122795","geometry":{"type":"Polygon","coordinates":[[[-86.7480995240901,36.2349661984832],[-86.7481185330599,36.2348574063099],[-86.748171243057,36.2348634517014],[-86.7481522319417,36.2349722447978],[-86.7480995240901,36.2349661984832]]]},"properties":{"id":"122795","parcel":"061010A05700CO","address":"378 E VILLAGE LN","owner":"THOMPSON, MISTY MICHELLE","point":[-86.748135383111,36.23491482509697]}},{"type":"Feature","id":"122796","geometry":{"type":"Polygon","coordinates":[[[-86.7481049061975,36.2346436233093],[-86.7481122733856,36.2346014650016],[-86.7482499192046,36.2346172504608],[-86.7482424362629,36.2346593950741],[-86.7481049061975,36.2346436233093]]]},"properties":{"id":"122796","parcel":"061010A06200CO","address":"368 E VILLAGE LN","owner":"FLOOK, ELIZABETH ANNE","point":[-86.74817739401821,36.23463043686773]}},{"type":"Feature","id":"122797","geometry":{"type":"Polygon","coordinates":[[[-86.7474257503773,36.2359852207867],[-86.7474982208285,36.2354809218465],[-86.7467809005096,36.2354008671172],[-86.7464449896446,36.2353636550402],[-86.74657467009,36.2347610931571],[-86.7465764947477,36.2347526101368],[-86.7466955291262,36.2346463885952],[-86.7468166070005,36.234541253822],[-86.7468655723638,36.2344948882419],[-86.7469240700752,36.2344647916377],[-86.7480476566067,36.234589846989],[-86.7491646284572,36.2347128708705],[-86.7493757482155,36.2347346378958],[-86.7504266485354,36.2348346473146],[-86.7504406255986,36.2348357113832],[-86.7503601647073,36.2354174801615],[-86.7503189791573,36.2356274720292],[-86.7503150542519,36.2356472112367],[-86.7503102512133,36.235671376526],[-86.7502995106101,36.2357219627672],[-86.7502843474776,36.2357717995972],[-86.7502818209307,36.2357788414287],[-86.7491415755504,36.2356735564149],[-86.7489718026539,36.2356578792271],[-86.748912640736,36.2356513541604],[-86.7486909171306,36.2356267968787],[-86.7484691346368,36.2356022323455],[-86.7482473656379,36.2355776682236],[-86.7481767945513,36.2360683064473],[-86.7475651016612,36.2360019500034],[-86.7474257503773,36.2359852207867]],[[-86.748025812898,36.2359407142992],[-86.7480360622138,36.2358857719727],[-86.748044865834,36.2358340704759],[-86.7480536705636,36.2357823698721],[-86.7480635422699,36.2357244332253],[-86.7480768142717,36.2356465146532],[-86.7479959176343,36.2356374740565],[-86.7479914515344,36.2356637037275],[-86.7479178381576,36.2356554768721],[-86.7479090288698,36.2357071738907],[-86.7478991603051,36.2357651014925],[-86.7478903554766,36.2358168020854],[-86.747881551698,36.2358684972628],[-86.747871307899,36.2359234458503],[-86.7478611027043,36.2359833141159],[-86.7478602194465,36.2359833195839],[-86.7480156144838,36.2360005816349],[-86.748025812898,36.2359407142992]],[[-86.7489446512813,36.2355217092758],[-86.7489547029756,36.2354678243498],[-86.7489643891424,36.2354150511262],[-86.7489740928706,36.2353610764267],[-86.748983727855,36.2353085405456],[-86.7489947753554,36.235250201773],[-86.7489232233321,36.2352415869292],[-86.7489267040699,36.2352226066685],[-86.7488478170324,36.2352131107699],[-86.7488336261351,36.2352904709556],[-86.7488236524819,36.2353429665649],[-86.7488139486535,36.2353969412526],[-86.7488042635012,36.2354497144575],[-86.7487943843175,36.2355036181289],[-86.7487839802606,36.2355591950667],[-86.7489346148482,36.2355773290102],[-86.7489446512813,36.2355217092758]],[[-86.7486529968843,36.2354840811387],[-86.7486619328472,36.2354305375158],[-86.7486715415175,36.2353762525002],[-86.7486802589611,36.2353220721438],[-86.7486893435205,36.2352687177587],[-86.748702122774,36.235204781436],[-86.7486453124098,36.2351984318289],[-86.7486436544668,36.2352081719916],[-86.7485698621439,36.2351999250136],[-86.7485605983072,36.2352543295554],[-86.7485501561341,36.2353075328218],[-86.7485409408044,36.2353616576724],[-86.7485315046568,36.2354159614357],[-86.7485223893481,36.2354694890363],[-86.7485128163828,36.2355247399558],[-86.7486435086791,36.2355393450624],[-86.7486529968843,36.2354840811387]],[[-86.7484172020046,36.235454793383],[-86.7484265949541,36.2353995580055],[-86.7484355509639,36.235346944364],[-86.7484447359736,36.2352928999206],[-86.7484551562505,36.2352393732507],[-86.748465076816,36.2351811118073],[-86.7483945141154,36.235173226842],[-86.7483977678998,36.2351541146181],[-86.7483208552274,36.2351455191098],[-86.7483076817974,36.2352228855468],[-86.748298563861,36.2352762662454],[-86.7482880817747,36.2353304457879],[-86.7482791246842,36.2353830729436],[-86.74827030855,36.2354383777375],[-86.7482608348137,36.2354940236703],[-86.7484083635253,36.2355101965609],[-86.7484172020046,36.235454793383]],[[-86.7480613818454,36.2354360333385],[-86.7480702331494,36.2353804318319],[-86.7480786528621,36.2353275484604],[-86.7480872636609,36.2352734598351],[-86.7480957715038,36.2352200153378],[-86.7481040105376,36.2351682659512],[-86.7480399748824,36.2351615750698],[-86.747975939238,36.2351548841544],[-86.7479677001219,36.2352066335324],[-86.7479591921942,36.2352600780209],[-86.7479505813094,36.2353141666373],[-86.7479421615127,36.2353670500001],[-86.7479333101204,36.2354226514974],[-86.7479261001962,36.2354679370455],[-86.7479901360892,36.2354746279868],[-86.7480541719931,36.235481318894],[-86.7480613818454,36.2354360333385]],[[-86.7490743677263,36.2353676691829],[-86.749130311782,36.2353733281966],[-86.74918484065,36.2353795619456],[-86.7492375561883,36.235385323847],[-86.7492909876436,36.235391501267],[-86.7493021899749,36.2353279090247],[-86.7493226640244,36.2353302766867],[-86.7493300241348,36.2352884905694],[-86.749256120935,36.2352799454828],[-86.7492033885623,36.2352736898096],[-86.7491490108584,36.2352681409825],[-86.7490929942045,36.2352615018687],[-86.7490743677263,36.2353676691829]],[[-86.7493319640729,36.2353487342661],[-86.7493535156222,36.2353659982985],[-86.7493059374872,36.2354047317071],[-86.7493572924273,36.235445914786],[-86.7494049969512,36.2354841085133],[-86.7494535240272,36.2355235201138],[-86.7495016783241,36.2355620922407],[-86.749547356724,36.235599061968],[-86.7495956136311,36.2355595221427],[-86.7496197793641,36.2355788779281],[-86.7496798879359,36.2355296283669],[-86.7496100462957,36.235473684119],[-86.7495618906121,36.2354347299132],[-86.7495133420917,36.2353957564954],[-86.7495136114488,36.2353955358206],[-86.7494656590139,36.2353571246697],[-86.7493929061096,36.2352988019349],[-86.7493319640729,36.2353487342661]],[[-86.7492189540519,36.2354802758834],[-86.7491630851787,36.2354737521461],[-86.7491099745934,36.2354675122958],[-86.7490537579086,36.235460557164],[-86.7490352065279,36.2355647926226],[-86.7490634077316,36.2355680866669],[-86.7490914908859,36.2355713670165],[-86.7490914299679,36.2355717486227],[-86.7491445369352,36.2355779515526],[-86.7492004050064,36.2355845005386],[-86.7492769810644,36.2355934427554],[-86.7492842277958,36.2355527208217],[-86.7492599657532,36.2355498863679],[-86.7492711743326,36.2354863616867],[-86.7492189540519,36.2354802758834]],[[-86.749273652851,36.2350123107704],[-86.749282886357,36.234959460109],[-86.7492930816142,36.2349016105587],[-86.7493026404335,36.2348478710466],[-86.7493113121281,36.2347976122537],[-86.7493220206108,36.2347392187648],[-86.7491652370667,36.2347212397041],[-86.7491550251712,36.2347796904829],[-86.7491458566789,36.2348298919614],[-86.749136463699,36.2348836511609],[-86.7491261892643,36.2349414921762],[-86.749116868846,36.2349943388579],[-86.7491074288194,36.2350498341505],[-86.7491784155256,36.2350579747285],[-86.749174295312,36.2350815598418],[-86.7492599836684,36.235091385559],[-86.749273652851,36.2350123107704]],[[-86.7490438156918,36.2349875413015],[-86.7490534012763,36.2349327300601],[-86.7490632002724,36.2348781364973],[-86.7490729098987,36.2348225629275],[-86.7490810898147,36.2347721639024],[-86.7490913468411,36.234713538909],[-86.748934564521,36.2346955604431],[-86.748924299648,36.2347543089426],[-86.748916286619,36.2348046023772],[-86.7489064176332,36.2348601579957],[-86.7488966174189,36.234914751553],[-86.748887032764,36.2349695546645],[-86.7488733426617,36.2350478679819],[-86.7489540272084,36.2350571201967],[-86.7489582002799,36.2350332355486],[-86.749034299826,36.2350419618678],[-86.7490438156918,36.2349875413015]],[[-86.7487622571313,36.2349586848805],[-86.7487718074302,36.2349035332085],[-86.7487810303444,36.2348494091861],[-86.7487906239802,36.2347944906657],[-86.7487996782411,36.2347430074451],[-86.7488100034105,36.2346842730029],[-86.7486532212121,36.2346662941717],[-86.7486429582061,36.2347250264124],[-86.7486338983856,36.2347765204704],[-86.7486244794603,36.2348314559202],[-86.7486150248154,36.2348855552301],[-86.7486054743926,36.2349407050875],[-86.7485954240191,36.2349966331158],[-86.7486718689814,36.2350054260174],[-86.7486680589358,36.2350272373344],[-86.7487471007807,36.2350363024942],[-86.7487622571313,36.2349586848805]],[[-86.7485160186251,36.2349352670019],[-86.7485252639128,36.2348824334511],[-86.7485348566813,36.2348277573943],[-86.7485447103388,36.2347716115837],[-86.7485539233225,36.2347188953906],[-86.7485643272427,36.2346601172221],[-86.7484075440268,36.2346421371776],[-86.7483971399928,36.234700915333],[-86.7483879280364,36.2347536333099],[-86.7483781154543,36.2348097815566],[-86.7483685192427,36.2348644576219],[-86.748359241559,36.234917287756],[-86.7483458437496,36.2349938570859],[-86.7484279380966,36.2350032721554],[-86.748431755611,36.2349814202438],[-86.7485064451327,36.2349899843935],[-86.7485160186251,36.2349352670019]],[[-86.748171243057,36.2348634517014],[-86.7481185330599,36.2348574063099],[-86.7480651537535,36.2348512839276],[-86.7480532722849,36.2349192801632],[-86.7480264138881,36.2349161992767],[-86.7480192852061,36.234956997014],[-86.7480995240901,36.2349661984832],[-86.7481522319417,36.2349722447978],[-86.7482318363029,36.2349813987379],[-86.7482389637739,36.2349406018964],[-86.7482121064751,36.2349375210444],[-86.7482239878272,36.2348695265959],[-86.748171243057,36.2348634517014]],[[-86.7482274551937,36.234743963779],[-86.7482350691471,36.2347015542902],[-86.7482424362629,36.2346593950741],[-86.7482499192046,36.2346172504608],[-86.7481122733856,36.2346014650016],[-86.7481049061975,36.2346436233093],[-86.7480974242971,36.2346857688076],[-86.7480898091507,36.2347281773936],[-86.7480819680919,36.2347730540972],[-86.7482196142027,36.2347888395902],[-86.7482274551937,36.234743963779]]]},"properties":{"id":"122797","parcel":"061010A90000CO","address":"300 B E VILLAGE LN","owner":"O.I.C. ARROWHEAD","point":[-86.74721188201397,36.23526755203493]}},{"type":"Feature","id":"122971","geometry":{"type":"Polygon","coordinates":[[[-86.7481522319417,36.2349722447978],[-86.748171243057,36.2348634517014],[-86.7482239878272,36.2348695265959],[-86.7482121064751,36.2349375210444],[-86.7482389637739,36.2349406018964],[-86.7482318363029,36.2349813987379],[-86.7481522319417,36.2349722447978]]]},"properties":{"id":"122971","parcel":"061010A05600CO","address":"376 E VILLAGE LN","owner":"COFFER, JESSICA & HEINOLD, ANDREW","point":[-86.74819115378574,36.23490346722378]}},{"type":"Feature","id":"122973","geometry":{"type":"Polygon","coordinates":[[[-86.7480898091507,36.2347281773936],[-86.7480974242971,36.2346857688076],[-86.7482350691471,36.2347015542902],[-86.7482274551937,36.234743963779],[-86.7480898091507,36.2347281773936]]]},"properties":{"id":"122973","parcel":"061010A06000CO","address":"372 E VILLAGE LN","owner":"BROWN, STEVEN PAUL & BABBAGE, KATHRYN ELIZABETH","point":[-86.74816243936426,36.234714865864426]}},{"type":"Feature","id":"123140","geometry":{"type":"Polygon","coordinates":[[[-86.7480192852061,36.234956997014],[-86.7480264138881,36.2349161992767],[-86.7480532722849,36.2349192801632],[-86.7480651537535,36.2348512839276],[-86.7481185330599,36.2348574063099],[-86.7480995240901,36.2349661984832],[-86.7480192852061,36.234956997014]]]},"properties":{"id":"123140","parcel":"061010A05800CO","address":"380 E VILLAGE LN","owner":"FORREST, EVAN & BARTON, MADISON MARIE","point":[-86.74808616695428,36.234886831634284]}},{"type":"Feature","id":"136275","geometry":{"type":"Polygon","coordinates":[[[-86.7463501668208,36.237293232588],[-86.746484863463,36.2364043197222],[-86.7473248187845,36.2364973671057],[-86.7472711003215,36.2368518397437],[-86.7472438272193,36.2370318075803],[-86.7472165539762,36.2372117735989],[-86.7471901091105,36.2373862765156],[-86.7463501668208,36.237293232588]]]},"properties":{"id":"136275","parcel":"05100010900","address":"3338 WALTON LN","owner":"FAITH IS THE VICTORY CHURCH, INC.","point":[-86.74683057679249,36.23694092112626]}},{"type":"Feature","id":"136299","geometry":{"type":"Polygon","coordinates":[[[-86.7463178776345,36.2362471976034],[-86.7464449896446,36.2353636550402],[-86.7467809005096,36.2354008671172],[-86.7466539035355,36.2362844210524],[-86.7463178776345,36.2362471976034]]]},"properties":{"id":"136299","parcel":"05100012600","address":"3337 WALTON LN","owner":"CLARK, SHIRLEY","point":[-86.74654941737691,36.23582403266151]}},{"type":"Feature","id":"137373","geometry":{"type":"Polygon","coordinates":[[[-86.7447010508936,36.2365433579552],[-86.7447362116837,36.2365075373696],[-86.7447362458725,36.2365075056152],[-86.7447738267455,36.2364733914838],[-86.7447738830473,36.236473345173],[-86.7448137736321,36.2364410310027],[-86.7448138520806,36.2364409737404],[-86.7448559253969,36.2364105612518],[-86.7448559972641,36.2364105139437],[-86.7449001438855,36.2363820786128],[-86.7449001925695,36.2363820503739],[-86.7449462886935,36.2363556767782],[-86.7449636499596,36.2363465410072],[-86.7452488034124,36.2372069725929],[-86.7451912080884,36.2372018591085],[-86.7447010508936,36.2365433579552]]]},"properties":{"id":"137373","parcel":"05100010500","address":"3404 WALTON LN","owner":"FAITH IS THE VICTORY CHURCH, INC.","point":[-86.74504212802103,36.2368728133976]}},{"type":"Feature","id":"137375","geometry":{"type":"Polygon","coordinates":[[[-86.7453101968047,36.2372123221773],[-86.745390341404,36.2363003876648],[-86.745431469257,36.2362992479611],[-86.7454726133273,36.2362998331337],[-86.7455136656875,36.2363021411448],[-86.7456443423209,36.2363150065785],[-86.7455057980605,36.2372290942631],[-86.7453101968047,36.2372123221773]]]},"properties":{"id":"137375","parcel":"05100010700","address":"3400 WALTON LN","owner":"CARUTHERS, YVONNE L.","point":[-86.74546298025474,36.23676363411435]}},{"type":"Feature","id":"138860","geometry":{"type":"Polygon","coordinates":[[[-86.7452488034124,36.2372069725929],[-86.7449636499596,36.2363465410072],[-86.745013509437,36.2363351878227],[-86.7450820408543,36.2363215862002],[-86.7451514408412,36.2363112714429],[-86.7452214683244,36.2363042783829],[-86.7452918832583,36.2363006328337],[-86.7453624410128,36.2363003462179],[-86.745390341404,36.2363003876648],[-86.7453101968047,36.2372123221773],[-86.7452488034124,36.2372069725929]]]},"properties":{"id":"138860","parcel":"05100010600","address":"3402 WALTON LN","owner":"BRADLEY, MILDRED LEE (LE) & MILDRED ANN","point":[-86.74522732845973,36.23677701483569]}},{"type":"Feature","id":"138862","geometry":{"type":"Polygon","coordinates":[[[-86.74528905531,36.2389544106699],[-86.7450294248785,36.2387505383417],[-86.7469233152828,36.2389344290465],[-86.7469235193827,36.2389331840621],[-86.7470271982502,36.2382992267775],[-86.7451308145628,36.2381010674506],[-86.7450826655593,36.2384260607507],[-86.7450295469449,36.2387497949605],[-86.7450294248785,36.2387505383417],[-86.7446202047007,36.238721742963],[-86.7446059394447,36.2387087736055],[-86.7445247701826,36.2386349767749],[-86.7444218346708,36.2385413910238],[-86.7444196667093,36.2383466392387],[-86.7443059699442,36.2380830766782],[-86.7442879899906,36.2380087010844],[-86.7441122871662,36.2372818685668],[-86.7442791012116,36.2370270142107],[-86.7450153148917,36.2371081380392],[-86.7444898741729,36.2368293712381],[-86.7445753601639,36.2366908803337],[-86.7447010508936,36.2365433579552],[-86.7451912080884,36.2372018591085],[-86.7452488034124,36.2372069725929],[-86.7453101968047,36.2372123221773],[-86.7455057980605,36.2372290942631],[-86.7456443423209,36.2363150065785],[-86.745644494553,36.2363140413026],[-86.7457757409969,36.2363259792974],[-86.746484863463,36.2364043197222],[-86.7463501668208,36.237293232588],[-86.7471901091105,36.2373862765156],[-86.7477787144304,36.2374562710482],[-86.7479465201075,36.2374761321844],[-86.7479720363999,36.2374789582368],[-86.7478368413088,36.2383810365922],[-86.7477422096142,36.2390124466473],[-86.7477365199746,36.2390504081934],[-86.7476345991627,36.2396127572435],[-86.7463632393823,36.2393065388953],[-86.74528905531,36.2389544106699]]]},"properties":{"id":"138862","parcel":"05100010800","address":"3344 WALTON LN","owner":"FAITH IS THE VICTORY CHURCH, INC.","point":[-86.74607737430533,36.23774373215264]}},{"type":"Feature","id":"139240","geometry":{"type":"Polygon","coordinates":[[[-86.7466539035355,36.2362844210524],[-86.7467809005096,36.2354008671172],[-86.7474982208285,36.2354809218465],[-86.7474257503773,36.2359852207867],[-86.7473713141808,36.2363637829446],[-86.7473592188583,36.236362444615],[-86.7466539035355,36.2362844210524]]]},"properties":{"id":"139240","parcel":"05100012500","address":"3335 WALTON LN","owner":"LUMA SYSTEMS, LLC","point":[-86.74709767940118,36.23573230182874]}},{"type":"Feature","id":"139349","geometry":{"type":"Polygon","coordinates":[[[-86.7474528714187,36.2361558405761],[-86.7474644460979,36.2360887412667],[-86.7475364059603,36.2360965379208],[-86.7475231541313,36.2361655690783],[-86.7474528714187,36.2361558405761]]]},"properties":{"id":"139349","parcel":"051130A00700CO","address":"220 ARROWHEAD DR","owner":"MCDONALD, CHARLES","point":[-86.74749434942902,36.23612618864537]}},{"type":"Feature","id":"139785","geometry":{"type":"Polygon","coordinates":[[[-86.7475231541313,36.2361655690783],[-86.7475364059603,36.2360965379208],[-86.7475917352238,36.2361027881658],[-86.747581548876,36.2361731747639],[-86.747580471367,36.2361810132859],[-86.7475217546324,36.2361728850652],[-86.7475231541313,36.2361655690783]]]},"properties":{"id":"139785","parcel":"051130A00600CO","address":"219 ARROWHEAD DR","owner":"MCDONALD, CHARLES","point":[-86.74755818744238,36.23613418019424]}},{"type":"Feature","id":"139787","geometry":{"type":"Polygon","coordinates":[[[-86.742675439615,36.2359920617179],[-86.7427313501665,36.235945816479],[-86.742786101897,36.2358986689786],[-86.742841248933,36.2358491937996],[-86.7428951191105,36.2357988044691],[-86.7429346773652,36.2357598291257],[-86.74297275259,36.2357198976522],[-86.7435112608427,36.236038140137],[-86.743416913975,36.2360991657295],[-86.7431259770919,36.236410771735],[-86.742675439615,36.2359920617179]]]},"properties":{"id":"139787","parcel":"05113000200","address":"633 LEMONT DR","owner":"WALDEN, JONATHAN M.","point":[-86.7431101521567,36.236067893535505]}},{"type":"Feature","id":"139911","geometry":{"type":"Polygon","coordinates":[[[-86.745327293684,36.2358830171692],[-86.7455372676924,36.2357063014963],[-86.7454719929307,36.2361601406857],[-86.7453912377321,36.2361527954249],[-86.7451887239865,36.2360006198153],[-86.745327293684,36.2358830171692]]]},"properties":{"id":"139911","parcel":"05100018300","address":"3343 WALTON LN","owner":"LUMA SYSTEMS, LLC","point":[-86.74538066383006,36.23594207959881]}},{"type":"Feature","id":"140306","geometry":{"type":"Polygon","coordinates":[[[-86.7414319662233,36.2365438053268],[-86.7418412520795,36.2364638438655],[-86.7418555208376,36.2364620609937],[-86.7418699568827,36.2364622246911],[-86.7418841597015,36.2364643329109],[-86.7418977293535,36.2364683259232],[-86.7419102921069,36.2364740915649],[-86.7419214938061,36.2364814697868],[-86.7419310254916,36.2364902561005],[-86.7419386200788,36.2365002034024],[-86.7419440658344,36.2365110354087],[-86.7419472108676,36.2365224511343],[-86.7419730393781,36.2365792613205],[-86.7420020257474,36.2366350634348],[-86.7420341110386,36.2366897406747],[-86.7420692285776,36.2367431816926],[-86.7421073061191,36.2367952742736],[-86.742148265914,36.2368459125455],[-86.7422002774921,36.2369053692134],[-86.7422538093751,36.2369639350963],[-86.7417281705446,36.2371034152302],[-86.7416037070008,36.237137693177],[-86.7414319662233,36.2365438053268]]]},"properties":{"id":"140306","parcel":"05114001400","address":"645 LEMONT DR","owner":"FARY, WOLCOTT","point":[-86.74181970455372,36.23681992900118]}},{"type":"Feature","id":"140307","geometry":{"type":"Polygon","coordinates":[[[-86.7407008399087,36.2366866419189],[-86.7410663695295,36.2366152311438],[-86.7412485922143,36.2372371164373],[-86.7408901166415,36.2373398560229],[-86.7407008399087,36.2366866419189]]]},"properties":{"id":"140307","parcel":"05114001600","address":"653 LEMONT DR","owner":"WALDON, LORY & FRANQUI, JORGE DAVID","point":[-86.7409742682638,36.23696187852662]}},{"type":"Feature","id":"142060","geometry":{"type":"Polygon","coordinates":[[[-86.7399324125847,36.2368367593137],[-86.7403147082799,36.2367620757364],[-86.7405126941245,36.2374471060656],[-86.7401427089644,36.2375521112091],[-86.7399324125847,36.2368367593137]]]},"properties":{"id":"142060","parcel":"05114001800","address":"661 LEMONT DR","owner":"TAYLOR, ERIC E. & BETHANI J.","point":[-86.740223308944,36.23714193468767]}},{"type":"Feature","id":"142063","geometry":{"type":"Polygon","coordinates":[[[-86.7415414410387,36.2356922186035],[-86.7416504014588,36.2356629729132],[-86.7422041440884,36.2361466654162],[-86.7421471495238,36.2361819759067],[-86.7420893423627,36.2362164081377],[-86.7420418753709,36.2362423672753],[-86.7419925301607,36.2362659153738],[-86.7419414927952,36.236286962966],[-86.7418889550015,36.2363054313649],[-86.7418351174823,36.23632124994],[-86.7417801810425,36.2363343588755],[-86.7417585284124,36.2363387222893],[-86.7417438670533,36.2363415845524],[-86.7415414410387,36.2356922186035]]]},"properties":{"id":"142063","parcel":"05114003700","address":"628 LEMONT DR","owner":"INMAN, BRITTANY PAGE","point":[-86.74177814320797,36.235919238234594]}},{"type":"Feature","id":"142064","geometry":{"type":"Polygon","coordinates":[[[-86.7410421051902,36.2357732731667],[-86.7410626934837,36.2357719301846],[-86.7412691573981,36.2364342618156],[-86.7407746937429,36.2365307940126],[-86.7405490419995,36.2358054188015],[-86.7407677175002,36.2357911622828],[-86.7410421051902,36.2357732731667]]]},"properties":{"id":"142064","parcel":"05114003900","address":"636 LEMONT DR","owner":"BARASCH, DAVID","point":[-86.74090899877658,36.23611984063733]}},{"type":"Feature","id":"143072","geometry":{"type":"Polygon","coordinates":[[[-86.7424061019045,36.2368959716296],[-86.7423444857658,36.2368339910914],[-86.7422997788442,36.2367857146498],[-86.7422585133654,36.2367354667444],[-86.7422208221025,36.2366834078863],[-86.7421868267705,36.2366297058645],[-86.7421566346554,36.2365745321613],[-86.7421303430729,36.2365180628264],[-86.7421080360392,36.2364604793984],[-86.7421055783904,36.2364514288366],[-86.7420995935803,36.2364405334563],[-86.7420959332903,36.2364289821073],[-86.7420946995619,36.2364170986124],[-86.7420959277584,36.236405214414],[-86.7420995831688,36.2363936622858],[-86.7421055642446,36.2363827654986],[-86.7421137036186,36.2363728278995],[-86.742123772505,36.2363641284783],[-86.7421354906092,36.236356910491],[-86.7421884752494,36.2363278279387],[-86.7422873584332,36.236268175984],[-86.7423839089395,36.2362060661565],[-86.7428569826741,36.2366615610051],[-86.7426053495374,36.2368367237108],[-86.7424071670846,36.2368969780868],[-86.7424061019045,36.2368959716296]]]},"properties":{"id":"143072","parcel":"05114001100","address":"641 LEMONT DR","owner":"MCNEELY, ELIZABETH H. & LARRY P.","point":[-86.74244104474607,36.23654693841117]}},{"type":"Feature","id":"143078","geometry":{"type":"Polygon","coordinates":[[[-86.7410663695295,36.2366152311438],[-86.7414319662233,36.2365438053268],[-86.7416037070008,36.237137693177],[-86.7412485922143,36.2372371164373],[-86.7410663695295,36.2366152311438]]]},"properties":{"id":"143078","parcel":"05114001500","address":"649 LEMONT DR","owner":"GOSSAGE, LAYTON A. JR. ETUX","point":[-86.74133553852879,36.23687646354762]}},{"type":"Feature","id":"143154","geometry":{"type":"Polygon","coordinates":[[[-86.7404014304904,36.2358150422798],[-86.7405490419995,36.2358054188015],[-86.7407746937429,36.2365307940126],[-86.7403164666642,36.2366202490227],[-86.740072654321,36.2358364761003],[-86.7404014304904,36.2358150422798]]]},"properties":{"id":"143154","parcel":"05114004000","address":"640 LEMONT DR","owner":"MOORMAN, DARRELL","point":[-86.74042367222758,36.236183635574605]}},{"type":"Feature","id":"143682","geometry":{"type":"Polygon","coordinates":[[[-86.7403147082799,36.2367620757364],[-86.7407008399087,36.2366866419189],[-86.7408901166415,36.2373398560229],[-86.7405126941245,36.2374471060656],[-86.7403147082799,36.2367620757364]]]},"properties":{"id":"143682","parcel":"05114001700","address":"657 LEMONT DR","owner":"MCELHINEY, DON GAYLON","point":[-86.74060230464902,36.237050965996815]}},{"type":"Feature","id":"143710","geometry":{"type":"Polygon","coordinates":[[[-86.7413027731579,36.2357562778403],[-86.7415414410387,36.2356922186035],[-86.7417438670533,36.2363415845524],[-86.7412691573981,36.2364342618156],[-86.7410626934837,36.2357719301846],[-86.7413027731579,36.2357562778403]]]},"properties":{"id":"143710","parcel":"05114003800","address":"632 LEMONT DR","owner":"COX, GREGORY A. & VALERIE J.","point":[-86.74140327907132,36.23605675785514]}},{"type":"Feature","id":"148597","geometry":{"type":"Polygon","coordinates":[[[-86.7423839089395,36.2362060661565],[-86.742478038286,36.2361415539816],[-86.7425696503062,36.2360747058473],[-86.7426230176112,36.2360337801422],[-86.742675439615,36.2359920617179],[-86.7431259770919,36.236410771735],[-86.7430076560793,36.2365377536446],[-86.7428569826741,36.2366615610051],[-86.7423839089395,36.2362060661565]]]},"properties":{"id":"148597","parcel":"05113000300","address":"637 LEMONT DR","owner":"IHEME, RICHARD O.","point":[-86.74275303391197,36.236308415416325]}},{"type":"Feature","id":"172247","geometry":{"type":"Polygon","coordinates":[[[-86.7399063099061,36.231841974847],[-86.7400122192043,36.2318155242094],[-86.7401170908639,36.2317864860393],[-86.7402208283531,36.2317548879685],[-86.740680363462,36.2326003488814],[-86.7405757186876,36.2326504366207],[-86.7403252869248,36.2327744884244],[-86.7402523851439,36.2328106462937],[-86.7399063099061,36.231841974847]]]},"properties":{"id":"172247","parcel":"06102015300","address":"635 STANVID DR","owner":"SILVA, STEPHANIE J. & KELLY ANN","point":[-86.74025803045154,36.23222108585979]}},{"type":"Feature","id":"174023","geometry":{"type":"Polygon","coordinates":[[[-86.7405437367843,36.2316221510026],[-86.7406147556798,36.2315879574899],[-86.7406841550812,36.2315516469154],[-86.7407518398025,36.2315132712371],[-86.7408177146501,36.2314728815112],[-86.7408816900434,36.2314305341678],[-86.7415118113971,36.2320255176129],[-86.7412083326338,36.2322053859439],[-86.7411059502257,36.2322928386968],[-86.7410683974476,36.2323249156358],[-86.7405437367843,36.2316221510026]]]},"properties":{"id":"174023","parcel":"06102015500","address":"627 STANVID DR","owner":"INGALLS, ERIC","point":[-86.74099630211322,36.23182376716599]}},{"type":"Feature","id":"174024","geometry":{"type":"Polygon","coordinates":[[[-86.7408816900434,36.2314305341678],[-86.7409473251566,36.2313853367709],[-86.7410109819809,36.2313383174296],[-86.7410725820693,36.2312895334068],[-86.7411320514498,36.231239044642],[-86.7411893172553,36.2311869101666],[-86.7419680909868,36.2317243896053],[-86.7417377357167,36.2318917243705],[-86.7415118113971,36.2320255176129],[-86.7408816900434,36.2314305341678]]]},"properties":{"id":"174024","parcel":"06102015600","address":"623 STANVID DR","owner":"FRALEY, TONY & BERTIE S.","point":[-86.7413963220182,36.23157740137759]}},{"type":"Feature","id":"174025","geometry":{"type":"Polygon","coordinates":[[[-86.7411893172553,36.2311869101666],[-86.7412595702722,36.2311165574127],[-86.7413268868071,36.2310443444322],[-86.7413911908612,36.2309703519076],[-86.7414524108948,36.2308946613953],[-86.7424456193262,36.2313753314397],[-86.742217977996,36.2315426504694],[-86.7419680909868,36.2317243896053],[-86.7411893172553,36.2311869101666]]]},"properties":{"id":"174025","parcel":"06102015700","address":"619 STANVID DR","owner":"ZUEHLKE, PHILLIP M & ALEXANDRA","point":[-86.74178858647475,36.23128106012722]}},{"type":"Feature","id":"174026","geometry":{"type":"Polygon","coordinates":[[[-86.7414524108948,36.2308946613953],[-86.7415059244783,36.2308186594586],[-86.7415555373925,36.2307409420295],[-86.7416011696499,36.2306616384824],[-86.7416427413066,36.2305808826977],[-86.7421861817367,36.2307539033435],[-86.7423330873175,36.2308002486767],[-86.7424789586817,36.2310251567447],[-86.7425236413732,36.2310897117074],[-86.7426254649127,36.2312456662293],[-86.7424456193262,36.2313753314397],[-86.7414524108948,36.2308946613953]]]},"properties":{"id":"174026","parcel":"06102015800","address":"615 STANVID DR","owner":"BRITT, TOM R. ET UX","point":[-86.74201141868585,36.230960008788486]}},{"type":"Feature","id":"174027","geometry":{"type":"Polygon","coordinates":[[[-86.7404115390556,36.2307549045836],[-86.7406951100251,36.2305493376141],[-86.7408116434289,36.2304656629301],[-86.7410076858811,36.2305452223975],[-86.7413895699036,36.2307011080188],[-86.7413430603037,36.2307708365807],[-86.7412933007263,36.2308390781772],[-86.7412403658616,36.230905731406],[-86.741184329339,36.2309707002788],[-86.7411252759291,36.2310338905412],[-86.7410632904118,36.2310952088402],[-86.740998462068,36.2311545672021],[-86.7404115390556,36.2307549045836]]]},"properties":{"id":"174027","parcel":"06102016000","address":"622 STANVID DR","owner":"NISHIGUCHI-MEISTER, JENNA & SMALLEY, BENJAMIN","point":[-86.7409002830016,36.23080405318133]}},{"type":"Feature","id":"174028","geometry":{"type":"Polygon","coordinates":[[[-86.7416427413066,36.2305808826977],[-86.7416804863518,36.2304963363014],[-86.7417161968991,36.2304112129656],[-86.7417381129376,36.2303503954196],[-86.741757295694,36.2302889745926],[-86.7417737170039,36.2302270308698],[-86.7417873564981,36.2301646454901],[-86.7417899698029,36.2301544498212],[-86.7417945530865,36.2301447215198],[-86.7418009896389,36.2301357082449],[-86.741809114751,36.2301276399253],[-86.7418187212094,36.2301207215155],[-86.741829564841,36.23011513116],[-86.7418413677572,36.2301110102588],[-86.7418538305897,36.2301084633927],[-86.7418666347067,36.2301075574083],[-86.7418794532597,36.2301083132392],[-86.7418919601506,36.2301107130609],[-86.7423567860305,36.2302166373094],[-86.7422948305356,36.2304076585963],[-86.7421861817367,36.2307539033435],[-86.7416427413066,36.2305808826977]]]},"properties":{"id":"174028","parcel":"06102016300","address":"611 STANVID DR","owner":"BICKEL, LARRY D. ET UX","point":[-86.74198915391614,36.23045440207475]}},{"type":"Feature","id":"174087","geometry":{"type":"Polygon","coordinates":[[[-86.7436504134809,36.2334549155962],[-86.7436547640967,36.2334205034429],[-86.7437098866546,36.2334245189273],[-86.7443844290697,36.2334736568656],[-86.7445873094173,36.2334861415597],[-86.7445526771564,36.2336978746696],[-86.7436283029021,36.2336297859475],[-86.7436504134809,36.2334549155962]]]},"properties":{"id":"174087","parcel":"06101002800","address":"601 LEMONT DR","owner":"POORE, ERICKA SUSAN & EMERY, DANIEL RICHARD","point":[-86.74410645473257,36.233557961825404]}},{"type":"Feature","id":"174088","geometry":{"type":"Polygon","coordinates":[[[-86.7436022257539,36.2338360261546],[-86.7436283029021,36.2336297859475],[-86.7445526771564,36.2336978746696],[-86.744517994244,36.2339041149527],[-86.7436022257539,36.2338360261546]]]},"properties":{"id":"174088","parcel":"06101002900","address":"603 LEMONT DR","owner":"WOODS, CARLA SUE","point":[-86.74407599001364,36.2337669482311]}},{"type":"Feature","id":"174089","geometry":{"type":"Polygon","coordinates":[[[-86.7435757446087,36.2340454646597],[-86.7436022257539,36.2338360261546],[-86.744517994244,36.2339041149527],[-86.7444833266199,36.2341120026019],[-86.7435757446087,36.2340454646597]]]},"properties":{"id":"174089","parcel":"06101003000","address":"605 LEMONT DR","owner":"CAWTHON, MAXINE L., TRUSEE","point":[-86.74404542511824,36.23397478764529]}},{"type":"Feature","id":"174090","geometry":{"type":"Polygon","coordinates":[[[-86.7435231464005,36.2344614535711],[-86.7435496806087,36.2342515938944],[-86.7444486554769,36.2343198902493],[-86.7444159664389,36.2345217227827],[-86.7435231464005,36.2344614535711]]]},"properties":{"id":"174090","parcel":"06101003200","address":"613 LEMONT DR","owner":"PHUNG, CAO & LU, ANNE A.","point":[-86.74398462693908,36.23439067008026]}},{"type":"Feature","id":"174157","geometry":{"type":"Polygon","coordinates":[[[-86.7450922215431,36.2313606841228],[-86.7451921519268,36.2305931010659],[-86.7456319743251,36.2306354377742],[-86.7455292111501,36.2313898534056],[-86.7454061862196,36.2313862343537],[-86.7452833471547,36.2313796651395],[-86.7451608019181,36.2313701505051],[-86.7450922215431,36.2313606841228]]]},"properties":{"id":"174157","parcel":"06101001800","address":"313 BROADMOOR DR","owner":"SANTANA, DAMARIS","point":[-86.7453610042528,36.23099805893863]}},{"type":"Feature","id":"174158","geometry":{"type":"Polygon","coordinates":[[[-86.7449622668539,36.2323251390475],[-86.7450738583446,36.2314992474257],[-86.7451444600649,36.2315070529636],[-86.7453275180206,36.2315174316771],[-86.7455108125435,36.2315245704618],[-86.7453992927121,36.2323576044719],[-86.7453457036472,36.2323579585711],[-86.7452921375804,36.2323566172536],[-86.7449622668539,36.2323251390475]]]},"properties":{"id":"174158","parcel":"06101001900","address":"572 JOYCE LN","owner":"STACY, RICHARD A. & MICHAEL","point":[-86.74523678928155,36.231924855616406]}},{"type":"Feature","id":"174159","geometry":{"type":"Polygon","coordinates":[[[-86.7437417234769,36.2323679610472],[-86.7445115408642,36.2324224147847],[-86.744456687497,36.2328639235991],[-86.7436672803531,36.2329207231831],[-86.7436496220962,36.2324384109759],[-86.7436504036366,36.2324268530445],[-86.7436535694312,36.2324155661314],[-86.7436590312573,36.2324048698218],[-86.7436666328944,36.2323950687983],[-86.743676157801,36.2323864410775],[-86.743687336842,36.232379231653],[-86.7436998504545,36.2323736461744],[-86.7437133452568,36.2323698427331],[-86.7437274362482,36.2323679291454],[-86.7437417234769,36.2323679610472]]]},"properties":{"id":"174159","parcel":"06101002600","address":"529 LEMONT DR","owner":"WATERS, NORA","point":[-86.74407019338274,36.23265120441624]}},{"type":"Feature","id":"174160","geometry":{"type":"Polygon","coordinates":[[[-86.7435496806087,36.2342515938944],[-86.7435757446087,36.2340454646597],[-86.7444833266199,36.2341120026019],[-86.7444486554769,36.2343198902493],[-86.7435496806087,36.2342515938944]]]},"properties":{"id":"174160","parcel":"06101003100","address":"609 LEMONT DR","owner":"POPE, CHRISTOPHER & MASON","point":[-86.74401507682417,36.23418179610744]}},{"type":"Feature","id":"174337","geometry":{"type":"Polygon","coordinates":[[[-86.7433157144426,36.2351666930714],[-86.7433478377613,36.2350922622312],[-86.7433787408155,36.2350174937113],[-86.7434064085558,36.2349455506797],[-86.7434314984361,36.2348729899264],[-86.7434539921182,36.2347998719496],[-86.7443330594629,36.2350090046327],[-86.744328627446,36.2350425448884],[-86.7442753137291,36.2353593289478],[-86.7442390089784,36.2353930664642],[-86.7433580834219,36.2351770815187],[-86.7433157144426,36.2351666930714]]]},"properties":{"id":"174337","parcel":"06101003400","address":"621 LEMONT DR","owner":"BROWN, MELVN SR. & MICHELLE V.","point":[-86.74382270963417,36.23513052980337]}},{"type":"Feature","id":"174338","geometry":{"type":"Polygon","coordinates":[[[-86.74297275259,36.2357198976522],[-86.7430205440204,36.2356659460608],[-86.743065629078,36.2356104879858],[-86.7431079351661,36.2355536112979],[-86.7431473952763,36.235495406537],[-86.7431839457801,36.2354359687285],[-86.7438975476895,36.2357176689613],[-86.7437221898757,36.2358929096078],[-86.7436973312598,36.2359177857041],[-86.7435112608427,36.236038140137],[-86.74297275259,36.2357198976522]]]},"properties":{"id":"174338","parcel":"06101003600","address":"629 LEMONT DR","owner":"JACKSON, DOROTHY L. & TOMAN, THERESA & DRAPER, DEBORAH","point":[-86.74346303306278,36.23580665205251]}},{"type":"Feature","id":"174339","geometry":{"type":"Polygon","coordinates":[[[-86.7424536143901,36.2342569006096],[-86.7424417193047,36.2340729233131],[-86.742551665902,36.2340821369373],[-86.7433907828876,36.2341604605557],[-86.7433532225977,36.2344575172164],[-86.7433527177683,36.2344614569792],[-86.7428355397093,36.2344149777103],[-86.7424536143901,36.2342569006096]]]},"properties":{"id":"174339","parcel":"06101003900","address":"608 LEMONT DR","owner":"LANGENUS, SUSAN J.","point":[-86.74300648769457,36.23433671721331]}},{"type":"Feature","id":"174340","geometry":{"type":"Polygon","coordinates":[[[-86.7424271621306,36.2338219364594],[-86.7425324520327,36.2336973188654],[-86.7426350401526,36.23357122982],[-86.7427336113135,36.2334519526884],[-86.7434728229122,36.2335116311368],[-86.7434310740038,36.2338418156472],[-86.7425492579868,36.2338250316377],[-86.7424271621306,36.2338219364594]]]},"properties":{"id":"174340","parcel":"06101004100","address":"600 LEMONT DR","owner":"PICKER, JEFFREY","point":[-86.74302041237515,36.23363521301515]}},{"type":"Feature","id":"174341","geometry":{"type":"Polygon","coordinates":[[[-86.7421702703781,36.2326763615224],[-86.7422389087121,36.2326359666755],[-86.7423100125905,36.2325984730816],[-86.7423833938267,36.2325639792278],[-86.7424588597346,36.2325325782219],[-86.7425362119412,36.2325043496881],[-86.7426088335986,36.2324792811268],[-86.7426830784256,36.2324575569931],[-86.7427587123541,36.232439246317],[-86.7429542948495,36.2329759111296],[-86.7427504076952,36.2333628456291],[-86.7421702703781,36.2326763615224]]]},"properties":{"id":"174341","parcel":"06101004300","address":"587 JOYCE LN","owner":"JOHNSON, MURRAY D. & MARJORIE S.","point":[-86.74259816694065,36.23282621417174]}},{"type":"Feature","id":"174342","geometry":{"type":"Polygon","coordinates":[[[-86.7427587123541,36.232439246317],[-86.7428421040377,36.2324222100208],[-86.742926257058,36.2324078357821],[-86.7430110403666,36.2323961460355],[-86.7430963250897,36.2323871577951],[-86.7431819790078,36.2323808871946],[-86.7432678698173,36.232377341356],[-86.7433538663272,36.2323765273949],[-86.7434043263715,36.2323775029517],[-86.7434176600634,36.2323796505857],[-86.7434304087449,36.2323834727354],[-86.7434422544886,36.2323888749242],[-86.7434529023545,36.2323957228787],[-86.7434620859522,36.2324038424952],[-86.7434695753704,36.2324130351114],[-86.7434751826385,36.2324230666585],[-86.7434787697316,36.2324336910437],[-86.7434802451246,36.2324446384557],[-86.743498097798,36.2329322524364],[-86.7429542948495,36.2329759111296],[-86.7427587123541,36.232439246317]]]},"properties":{"id":"174342","parcel":"06101004400","address":"528 LEMONT DR","owner":"PEGRAM, DAVID R.","point":[-86.7431691004845,36.23268775884141]}},{"type":"Feature","id":"174350","geometry":{"type":"Polygon","coordinates":[[[-86.7408381695524,36.229893571436],[-86.7409543205342,36.229910747933],[-86.7410700209547,36.2299298188068],[-86.7411852218202,36.2299507780507],[-86.7410451212586,36.2304153317061],[-86.7410076858811,36.2305452223975],[-86.7408116434289,36.2304656629301],[-86.7406951100251,36.2305493376141],[-86.740723034915,36.2304173071934],[-86.7408381695524,36.229893571436]]]},"properties":{"id":"174350","parcel":"06106016100","address":"425 BROADMOOR DR","owner":"WEST COAST BEACH RENTALS, LLC","point":[-86.74094493269817,36.230182686449716]}},{"type":"Feature","id":"174362","geometry":{"type":"Polygon","coordinates":[[[-86.741981712107,36.235574046333],[-86.7420534877348,36.2355547810761],[-86.7423018730193,36.2354881119027],[-86.7423306301019,36.2355130268629],[-86.7426648439358,36.2358025888387],[-86.7426076591883,36.2358518718802],[-86.742549153118,36.235900125678],[-86.7424815333354,36.2359533463657],[-86.7424471570863,36.2359794144695],[-86.741981712107,36.235574046333]]]},"properties":{"id":"174362","parcel":"06102000200","address":"614 LEMONT DR","owner":"LYNCH, BERNICE","point":[-86.74232293540986,36.2356883173357]}},{"type":"Feature","id":"174383","geometry":{"type":"Polygon","coordinates":[[[-86.7425585657795,36.234891199922],[-86.7424933182146,36.2348758327233],[-86.7424156794922,36.2348587427498],[-86.7423370524574,36.2348449285312],[-86.7424536143901,36.2342569006096],[-86.7428355397093,36.2344149777103],[-86.7426571159095,36.2349143834711],[-86.7425585657795,36.234891199922]]]},"properties":{"id":"174383","parcel":"06102002900","address":"604 MARSWEN DR","owner":"FRAZIER, JAMES G. ET UX","point":[-86.74256917851832,36.23462991655696]}},{"type":"Feature","id":"174384","geometry":{"type":"Polygon","coordinates":[[[-86.7418495016824,36.2344149942028],[-86.7424536143901,36.2342569006096],[-86.7423370524574,36.2348449285312],[-86.7422713877398,36.2348334760982],[-86.7422051665024,36.2348243675926],[-86.7421385157304,36.2348176211594],[-86.7420715634618,36.2348132486288],[-86.7420044388303,36.2348112600222],[-86.7419908472758,36.2348095328961],[-86.7419778212119,36.2348059421173],[-86.7419657498958,36.2348005952475],[-86.7419549885638,36.2347936496262],[-86.7419458584228,36.2347853114695],[-86.7419386287762,36.2347758278684],[-86.7419335147397,36.2347654804943],[-86.7419306671375,36.234754575747],[-86.7419252583133,36.2346969146104],[-86.7419165701942,36.234639516049],[-86.7419046217491,36.2345825043177],[-86.7418894385876,36.234526000026],[-86.741871051881,36.2344701237485],[-86.7418495016824,36.2344149942028]]]},"properties":{"id":"174384","parcel":"06102003000","address":"4515 BROOMFIELD DR","owner":"GLENN, STEPHANI G.","point":[-86.74214574485562,36.23455478843931]}},{"type":"Feature","id":"174385","geometry":{"type":"Polygon","coordinates":[[[-86.740736738409,36.2350052875969],[-86.7405505389852,36.2343834066379],[-86.7408019959513,36.2344412003917],[-86.7411376892529,36.2345144073244],[-86.7412559331451,36.2349032106305],[-86.740736738409,36.2350052875969]]]},"properties":{"id":"174385","parcel":"06102003200","address":"614 MARSWEN DR","owner":"BYRN, SYLVIA J.","point":[-86.74092221169026,36.234708214707524]}},{"type":"Feature","id":"174386","geometry":{"type":"Polygon","coordinates":[[[-86.7402486926702,36.234521509299],[-86.7405505389852,36.2343834066379],[-86.740736738409,36.2350052875969],[-86.7405810620955,36.2350375586711],[-86.74047771522,36.2350579430663],[-86.7403739106762,36.2350767367697],[-86.7402486926702,36.234521509299]]]},"properties":{"id":"174386","parcel":"06102003300","address":"620 MARSWEN DR","owner":"HICKS, DANIEL L.","point":[-86.74048378835577,36.23476337933745]}},{"type":"Feature","id":"174387","geometry":{"type":"Polygon","coordinates":[[[-86.7400459557223,36.2345249487101],[-86.7402486926702,36.234521509299],[-86.7403739106762,36.2350767367697],[-86.7402806426146,36.2350868706063],[-86.7401871196124,36.235095318795],[-86.7400933883881,36.235102080148],[-86.7400459557223,36.2345249487101]]]},"properties":{"id":"174387","parcel":"06102003400","address":"700 MARSWEN DR","owner":"NICHOLSON, TANJA R.","point":[-86.74019017223065,36.23480079994892]}},{"type":"Feature","id":"174510","geometry":{"type":"Polygon","coordinates":[[[-86.7434539921182,36.2347998719496],[-86.7434758085814,36.2347184828654],[-86.74349440731,36.2346365710273],[-86.7435097668433,36.2345542194838],[-86.7435218746368,36.2344715130308],[-86.7435231464005,36.2344614535711],[-86.7444159664389,36.2345217227827],[-86.7443330594629,36.2350090046327],[-86.7434539921182,36.2347998719496]]]},"properties":{"id":"174510","parcel":"06101003300","address":"617 LEMONT DR","owner":"COLLEY, ALMA JEAN SAWYER","point":[-86.74392006723244,36.23476015246287]}},{"type":"Feature","id":"174511","geometry":{"type":"Polygon","coordinates":[[[-86.7426571159095,36.2349143834711],[-86.7428355397093,36.2344149777103],[-86.7433527177683,36.2344614569792],[-86.7433396175712,36.2345484441458],[-86.7433227175889,36.2346350004602],[-86.7433020412596,36.2347210167254],[-86.7432776120388,36.2348063855464],[-86.743249461161,36.234890998579],[-86.7432176254397,36.2349747492466],[-86.7432128258899,36.2349851530526],[-86.743206037979,36.2349948039309],[-86.7431974384968,36.2350034547525],[-86.7431872467499,36.2350108842632],[-86.7431757223704,36.2350169007016],[-86.7431631620804,36.2350213526348],[-86.7431498851963,36.2350241254418],[-86.7431362325676,36.2350251467283],[-86.7431225543823,36.2350243909074],[-86.7431112428824,36.2350223795064],[-86.7431003704949,36.2350191478159],[-86.7426571159095,36.2349143834711]]]},"properties":{"id":"174511","parcel":"06101003800","address":"600 MARSWEN DR","owner":"CANN, JAMES & PAMELA & CHRIS","point":[-86.74302719173608,36.23467739642135]}},{"type":"Feature","id":"174512","geometry":{"type":"Polygon","coordinates":[[[-86.7427610546197,36.2316761140076],[-86.7426328471451,36.2312373798153],[-86.7436318500985,36.231322435086],[-86.743579442871,36.2317359086991],[-86.7427610546197,36.2316761140076]]]},"properties":{"id":"174512","parcel":"06101004700","address":"520 LEMONT DR","owner":"RAUSO, DANIEL JARED & WARREN, ANDALYN MICHELE","point":[-86.7431591980541,36.231499195380174]}},{"type":"Feature","id":"174513","geometry":{"type":"Polygon","coordinates":[[[-86.7426599689854,36.231197722101],[-86.7429097980651,36.2308324143296],[-86.7436813737284,36.2308908487019],[-86.7436318500985,36.231322435086],[-86.7426328471451,36.2312373798153],[-86.7426599689854,36.231197722101]]]},"properties":{"id":"174513","parcel":"06101004800","address":"516 LEMONT DR","owner":"OAKLEY, STEPHANIE & COFFEY, CHRISTOPHER","point":[-86.74321457145523,36.23104438071722]}},{"type":"Feature","id":"174514","geometry":{"type":"Polygon","coordinates":[[[-86.7429097980651,36.2308324143296],[-86.7430203783286,36.2304031978612],[-86.7430393895323,36.2303333088323],[-86.7436624972332,36.2303965012109],[-86.7436659030971,36.2303981286296],[-86.7436696404985,36.2303989302645],[-86.7436740523568,36.2303991752805],[-86.7436873705181,36.230403852789],[-86.74369961828,36.2304101618403],[-86.7437104960741,36.2304179483629],[-86.7437197340097,36.2304270202501],[-86.7437271030397,36.2304371517974],[-86.7437324217271,36.2304480935746],[-86.7437355585041,36.2304595760169],[-86.7437364361719,36.2304713148049],[-86.7436813737284,36.2308908487019],[-86.7429097980651,36.2308324143296]]]},"properties":{"id":"174514","parcel":"06101004900","address":"512 LEMONT DR","owner":"GORDON, DEBORAH M.","point":[-86.74333457316469,36.230651889860404]}},{"type":"Feature","id":"174522","geometry":{"type":"Polygon","coordinates":[[[-86.7404151853694,36.2304191945579],[-86.740500779721,36.229854435043],[-86.7406694669007,36.2298731796619],[-86.7408381695524,36.229893571436],[-86.740723034915,36.2304173071934],[-86.7406951100251,36.2305493376141],[-86.7404115390556,36.2307549045836],[-86.7403647670873,36.230756839648],[-86.7404151853694,36.2304191945579]]]},"properties":{"id":"174522","parcel":"06106014300","address":"429 BROADMOOR DR","owner":"ARMSTRONG, RONALD M. & VALERIE G.","point":[-86.7406179346512,36.2301550868177]}},{"type":"Feature","id":"174584","geometry":{"type":"Polygon","coordinates":[[[-86.7402208283531,36.2317548879685],[-86.7403035399371,36.2317249607051],[-86.7403849872694,36.2316928375777],[-86.7404650828137,36.2316585560767],[-86.7405437367843,36.2316221510026],[-86.7410683974476,36.2323249156358],[-86.7408329134673,36.2325241455661],[-86.740680363462,36.2326003488814],[-86.7402208283531,36.2317548879685]]]},"properties":{"id":"174584","parcel":"06102015400","address":"631 STANVID DR","owner":"CARTER REALTY INVESTMENTS","point":[-86.74061569054848,36.232039839860924]}},{"type":"Feature","id":"174880","geometry":{"type":"Polygon","coordinates":[[[-86.7403647670873,36.230756839648],[-86.7404115390556,36.2307549045836],[-86.740998462068,36.2311545672021],[-86.7409229402531,36.2312166903616],[-86.7408442802981,36.2312762046739],[-86.740762622504,36.2313330056289],[-86.7406781072236,36.2313869941237],[-86.7405908815192,36.2314380746197],[-86.7405011003249,36.2314861605429],[-86.7399574072463,36.2307774652462],[-86.7400529805777,36.2307730341206],[-86.7402771942066,36.2307613887224],[-86.7403647670873,36.230756839648]]]},"properties":{"id":"174880","parcel":"06102016100","address":"630 STANVID DR","owner":"HUDDLESTON, ANDREA","point":[-86.740411888164,36.23096587408598]}},{"type":"Feature","id":"174883","geometry":{"type":"Polygon","coordinates":[[[-86.7396205470527,36.2307954614803],[-86.7399574072463,36.2307774652462],[-86.7405011003249,36.2314861605429],[-86.7404222369156,36.2315240692584],[-86.7403417082267,36.2315596043223],[-86.7402596217159,36.2315927173066],[-86.7401760882119,36.2316233633678],[-86.740091220811,36.2316515021553],[-86.7400051348514,36.2316770951072],[-86.7396205470527,36.2307954614803]]]},"properties":{"id":"174883","parcel":"06102016200","address":"638 STANVID DR","owner":"MILLER, DANIEL P & JOCELYN K","point":[-86.74000368454956,36.231140687681844]}},{"type":"Feature","id":"174912","geometry":{"type":"Polygon","coordinates":[[[-86.7460445606467,36.2352551965959],[-86.7460462093845,36.2352531928506],[-86.7459614794635,36.2358454771316],[-86.7459097635045,36.2362019727521],[-86.7454719929307,36.2361601406857],[-86.7455372676924,36.2357063014963],[-86.7455373994329,36.2357054048417],[-86.7456129220975,36.2356403417062],[-86.7458127390133,36.2354707161651],[-86.7460445606467,36.2352551965959]]]},"properties":{"id":"174912","parcel":"06100000200","address":"3345 WALTON LN","owner":"LUMA SYSTEMS, LLC","point":[-86.74574934697405,36.23577588944549]}},{"type":"Feature","id":"174914","geometry":{"type":"Polygon","coordinates":[[[-86.7469240700752,36.2344647916377],[-86.7470139502962,36.2343508740084],[-86.747029245278,36.2343340873845],[-86.7475404724602,36.2336838177757],[-86.7479247645571,36.2327260268393],[-86.7480643461871,36.2319950057994],[-86.7481196856462,36.2311760529746],[-86.7483430174828,36.2309845760814],[-86.7508887323366,36.2312022742572],[-86.7509020411208,36.231204257193],[-86.7509147973708,36.2312079198881],[-86.7509266776014,36.2312131688211],[-86.7509373846912,36.231219875158],[-86.7509466478131,36.2312278675427],[-86.7509542359202,36.2312369464329],[-86.7509599566153,36.2312468823048],[-86.7509636651445,36.231257425511],[-86.7509652722429,36.2312683125402],[-86.7509647330285,36.2312792678889],[-86.7506947655759,36.2331027674746],[-86.7504510036511,36.2347491945464],[-86.7504392018868,36.2347481746458],[-86.7504266485354,36.2348346473146],[-86.7493757482155,36.2347346378958],[-86.7491646284572,36.2347128708705],[-86.7480476566067,36.234589846989],[-86.7469240700752,36.2344647916377]]]},"properties":{"id":"174914","parcel":"06100000800","address":"401 WALTON LN","owner":"METRO GOV'T  S  MAPLEWOOD & GRA-MAR","point":[-86.74928631453393,36.23291435603416]}},{"type":"Feature","id":"175187","geometry":{"type":"Polygon","coordinates":[[[-86.7431839457801,36.2354359687285],[-86.7432134174911,36.2353831679957],[-86.7432405932798,36.2353295639477],[-86.7432788885478,36.2352483511109],[-86.7433157144426,36.2351666930714],[-86.7433580834219,36.2351770815187],[-86.7442390089784,36.2353930664642],[-86.7439849411513,36.2356358191897],[-86.7438975476895,36.2357176689613],[-86.7431839457801,36.2354359687285]]]},"properties":{"id":"175187","parcel":"06101003500","address":"625 LEMONT DR","owner":"MCCORMACK, THOMAS R. ETUX","point":[-86.74376233278088,36.23553627573394]}},{"type":"Feature","id":"175189","geometry":{"type":"Polygon","coordinates":[[[-86.7423306301019,36.2355130268629],[-86.7423018730193,36.2354881119027],[-86.7424741726707,36.2350155313335],[-86.7425168396419,36.2350259245523],[-86.7425599139406,36.2350351463325],[-86.7430339974193,36.2351454506539],[-86.7430457963619,36.2351474797925],[-86.7430571260076,36.2351508321465],[-86.743069714118,36.2351564677333],[-86.7430809580585,36.2351637320327],[-86.7430905410848,36.2351724206075],[-86.7430981927677,36.2351822854755],[-86.7431036958112,36.2351930503893],[-86.7431068960472,36.2352044089714],[-86.7431077014838,36.2352160418446],[-86.7431060912385,36.2352276201814],[-86.7431021089567,36.2352388156588],[-86.7430826659972,36.2352796122282],[-86.7430484396526,36.2353459573047],[-86.7430103778087,36.2354109164073],[-86.7429685658746,36.2354743448074],[-86.7429230992976,36.235536100418],[-86.7428740791219,36.2355960447226],[-86.7428216131094,36.2356540436696],[-86.7427658213105,36.2357099685389],[-86.7426944136743,36.2357762338828],[-86.7426648439358,36.2358025888387],[-86.7423306301019,36.2355130268629]]]},"properties":{"id":"175189","parcel":"06101003700","address":"601 MARSWEN DR","owner":"NIXON, COLLIN & BOYETTE, EMILY","point":[-86.74268590370075,36.2353776986022]}},{"type":"Feature","id":"175191","geometry":{"type":"Polygon","coordinates":[[[-86.7424417193047,36.2340729233131],[-86.7424271621306,36.2338219364594],[-86.7425492579868,36.2338250316377],[-86.7434310740038,36.2338418156472],[-86.7433907828876,36.2341604605557],[-86.742551665902,36.2340821369373],[-86.7424417193047,36.2340729233131]]]},"properties":{"id":"175191","parcel":"06101004000","address":"604 LEMONT DR","owner":"BRITT, JAMES H., III & TAYLOR","point":[-86.74292564355707,36.23395734740182]}},{"type":"Feature","id":"175193","geometry":{"type":"Polygon","coordinates":[[[-86.742217977996,36.2315426504694],[-86.7424456193262,36.2313753314397],[-86.7426254649127,36.2312456662293],[-86.7426328471451,36.2312373798153],[-86.7427610546197,36.2316761140076],[-86.7429158456112,36.2322740110609],[-86.7428295679467,36.2322874304169],[-86.7427438892665,36.2323031622396],[-86.7426588994875,36.2323211870515],[-86.7425746963392,36.2323414880305],[-86.7425344969644,36.2322488856942],[-86.742217977996,36.2315426504694]]]},"properties":{"id":"175193","parcel":"06101004500","address":"584 JOYCE LN","owner":"OH PROPERTIES LLC","point":[-86.74262060652278,36.231962441471815]}},{"type":"Feature","id":"175195","geometry":{"type":"Polygon","coordinates":[[[-86.7427610546197,36.2316761140076],[-86.743579442871,36.2317359086991],[-86.7435252633212,36.2321774121],[-86.7435218655443,36.2321888734784],[-86.7435162741966,36.2321997562371],[-86.7435086313324,36.232209787324],[-86.7434991281447,36.2322187141134],[-86.7434880050325,36.2322263116152],[-86.7434755394414,36.2322323906615],[-86.7434620436385,36.2322367979199],[-86.7434478592101,36.2322394222367],[-86.7433409845286,36.2322402061235],[-86.7432342109722,36.2322440643577],[-86.7431276741863,36.2322509906974],[-86.7430215075746,36.2322609771126],[-86.7429158456112,36.2322740110609],[-86.7427610546197,36.2316761140076]]]},"properties":{"id":"175195","parcel":"06101004600","address":"524 LEMONT DR","owner":"POPPER, ANNE C.","point":[-86.74319281962478,36.23195588927952]}},{"type":"Feature","id":"175209","geometry":{"type":"Polygon","coordinates":[[[-86.7410076858811,36.2305452223975],[-86.7410451212586,36.2304153317061],[-86.7411852218202,36.2299507780507],[-86.741356128733,36.2299892860278],[-86.7415616736357,36.2300336249081],[-86.7415748012154,36.2300376891662],[-86.7415869234707,36.2300434485376],[-86.7415977107805,36.2300507464265],[-86.7416068687134,36.2300593827605],[-86.7416141470022,36.2300691220479],[-86.7416193462769,36.2300796996441],[-86.7416223270057,36.2300908262036],[-86.7416230062591,36.2301021985144],[-86.7416112432995,36.2301653014664],[-86.7415963459534,36.2302279685278],[-86.7415783410693,36.2302900976912],[-86.7415572543841,36.230351586956],[-86.7415331238958,36.2304123369497],[-86.7415027893171,36.2304862706551],[-86.7414687124832,36.2305591259943],[-86.7414309522969,36.2306307791314],[-86.7413895699036,36.2307011080188],[-86.7410076858811,36.2305452223975]]]},"properties":{"id":"175209","parcel":"06106014200","address":"421 BROADMOOR DR","owner":"WELCH, DEXTER W., JR.","point":[-86.74132086865954,36.2303203087408]}},{"type":"Feature","id":"175217","geometry":{"type":"Polygon","coordinates":[[[-86.7400761447378,36.2304212722408],[-86.7401173885167,36.2298271173778],[-86.7403857536518,36.2298452507122],[-86.740500779721,36.229854435043],[-86.7404151853694,36.2304191945579],[-86.7403647670873,36.230756839648],[-86.7402771942066,36.2307613887224],[-86.7400529805777,36.2307730341206],[-86.7400761447378,36.2304212722408]]]},"properties":{"id":"175217","parcel":"06106016600","address":"433 BROADMOOR DR","owner":"PERRY, FRANCES H.","point":[-86.74027696396477,36.23013642202778]}},{"type":"Feature","id":"175245","geometry":{"type":"Polygon","coordinates":[[[-86.7415808453431,36.2349770926358],[-86.7416446591983,36.2349670476003],[-86.7416971045958,36.2349591262775],[-86.7417499632405,36.2349532833783],[-86.7418031117948,36.2349495340795],[-86.7418564212918,36.2349478863826],[-86.7418759478315,36.2356024345349],[-86.7417241025597,36.235643191333],[-86.7415808453431,36.2349770926358]]]},"properties":{"id":"175245","parcel":"06102000500","address":"615 MARSWEN DR","owner":"BARKER, ASHLEY","point":[-86.74175734133358,36.2352898261606]}},{"type":"Feature","id":"175247","geometry":{"type":"Polygon","coordinates":[[[-86.7413341922878,36.2350273668103],[-86.7413991090861,36.2350148682458],[-86.7414894378923,36.2349942772708],[-86.7415808453431,36.2349770926358],[-86.7417241025597,36.235643191333],[-86.7416504014588,36.2356629729132],[-86.7415414410387,36.2356922186035],[-86.7413341922878,36.2350273668103]]]},"properties":{"id":"175247","parcel":"06102000600","address":"617 MARSWEN DR","owner":"LOVE, SHARON E.","point":[-86.74154402392064,36.23533531137354]}},{"type":"Feature","id":"175249","geometry":{"type":"Polygon","coordinates":[[[-86.7405743911142,36.2351811243412],[-86.7408375719775,36.2351278780879],[-86.7410421051902,36.2357732731667],[-86.7407677175002,36.2357911622828],[-86.7405743911142,36.2351811243412]]]},"properties":{"id":"175249","parcel":"06102000900","address":"629 MARSWEN DR","owner":"CARLSON, EMILY CATHERINE & BACHARI, ALEX KARIM","point":[-86.74080824736964,36.23547719898646]}},{"type":"Feature","id":"175251","geometry":{"type":"Polygon","coordinates":[[[-86.7402598943854,36.2352276286088],[-86.7403391843447,36.2352191522334],[-86.7404180874914,36.2352085683534],[-86.7404965182651,36.2351958883087],[-86.7405743911142,36.2351811243412],[-86.7407677175002,36.2357911622828],[-86.7405490419995,36.2358054188015],[-86.7404014304904,36.2358150422798],[-86.7402598943854,36.2352276286088]]]},"properties":{"id":"175251","parcel":"06102001000","address":"701 MARSWEN DR","owner":"WALKER, ARTHUR W., JR. & TINA M.","point":[-86.74050311201084,36.23550937252692]}},{"type":"Feature","id":"175257","geometry":{"type":"Polygon","coordinates":[[[-86.7419905856082,36.2336207904957],[-86.7416701768915,36.2332964121413],[-86.7415401190696,36.2331670025842],[-86.7415508494269,36.2331592454519],[-86.7416194515269,36.2331069303638],[-86.7416852283994,36.2330522857284],[-86.7417480608355,36.2329954114195],[-86.7425463304326,36.2335124395906],[-86.7426350401526,36.23357122982],[-86.7425324520327,36.2336973188654],[-86.7424271621306,36.2338219364594],[-86.7419905856082,36.2336207904957]]]},"properties":{"id":"175257","parcel":"06102002400","address":"595 JOYCE LN","owner":"WELLS, CLAUDIA J. & JOHN R.","point":[-86.74207831430247,36.23340436213272]}},{"type":"Feature","id":"175259","geometry":{"type":"Polygon","coordinates":[[[-86.7415401190696,36.2331670025842],[-86.7416701768915,36.2332964121413],[-86.7419905856082,36.2336207904957],[-86.7415126718297,36.2339302939818],[-86.7412834551409,36.2337124863274],[-86.741241182358,36.2336745534867],[-86.7412019858236,36.2336345099565],[-86.7411660283735,36.2335925196691],[-86.7411334540073,36.2335487547838],[-86.741104396763,36.2335033929282],[-86.7410789751882,36.2334566208373],[-86.741073452587,36.2334472916384],[-86.7410698345111,36.2334373694499],[-86.741068214542,36.2334271069486],[-86.7410686307261,36.233416766165],[-86.7410710744155,36.2334066121192],[-86.7410754834917,36.2333969020483],[-86.7410817445833,36.2333878844913],[-86.7410896985512,36.2333797911437],[-86.7410991415002,36.2333728260374],[-86.741109833695,36.2333671672877],[-86.7411215006222,36.2333629616794],[-86.741182908688,36.2333433369353],[-86.7412429078002,36.2333210332796],[-86.7413013183638,36.2332961176079],[-86.7413579708634,36.2332686639638],[-86.7414200538068,36.233236403045],[-86.741480790899,36.2332025037721],[-86.7415401190696,36.2331670025842]]]},"properties":{"id":"175259","parcel":"06102002600","address":"4501 BROOMFIELD DR","owner":"VERGARA, NICOLAS P. & FRANCISCO J.","point":[-86.74150880854513,36.233526916801125]}},{"type":"Feature","id":"175306","geometry":{"type":"Polygon","coordinates":[[[-86.7411376892529,36.2345144073244],[-86.7416289591542,36.2343273446185],[-86.7416590000029,36.2343862199393],[-86.7416854769738,36.2344462076446],[-86.7417083264422,36.234507166631],[-86.7417274958814,36.2345689530234],[-86.7417429405174,36.2346314192934],[-86.741754622275,36.2346944205749],[-86.7417625141439,36.2347578056253],[-86.7417613626369,36.234767901277],[-86.7417582985437,36.2347777310878],[-86.7417533941852,36.2347870584863],[-86.7417467698425,36.2347956601253],[-86.741738583753,36.2348033268444],[-86.7417290322461,36.234809878089],[-86.7417183440961,36.2348151529334],[-86.7417067795624,36.2348190263081],[-86.7416946147645,36.2348214036889],[-86.741608657048,36.2348322390032],[-86.7415233662214,36.2348461064703],[-86.741438903312,36.2348629771644],[-86.741355431564,36.2348828212453],[-86.7412559331451,36.2349032106305],[-86.7411376892529,36.2345144073244]]]},"properties":{"id":"175306","parcel":"06102003100","address":"612 MARSWEN DR","owner":"WEST, ALBERT M. & LINDA D.","point":[-86.74144930941611,36.23459956866961]}},{"type":"Feature","id":"175321","geometry":{"type":"Polygon","coordinates":[[[-86.7411059502257,36.2322928386968],[-86.7412083326338,36.2322053859439],[-86.7418141236408,36.2327356874377],[-86.7417455871454,36.2327912809875],[-86.7416800816661,36.2328492234696],[-86.7416177307778,36.23290940598],[-86.7415613950256,36.2329577244346],[-86.741502591181,36.2330040716582],[-86.7414414252906,36.2330483676863],[-86.741378005618,36.2330905316397],[-86.7411020335745,36.2328037891841],[-86.7408329134673,36.2325241455661],[-86.7410683974476,36.2323249156358],[-86.7411059502257,36.2322928386968]]]},"properties":{"id":"175321","parcel":"06102005500","address":"596 JOYCE LN","owner":"SHELTON, RICHARD A.","point":[-86.74131405225151,36.23262989704147]}},{"type":"Feature","id":"175526","geometry":{"type":"Polygon","coordinates":[[[-86.7403162368083,36.2336211711591],[-86.7404067127718,36.233596346908],[-86.7404960124999,36.2335688675088],[-86.7405840161845,36.2335387697484],[-86.7408030770624,36.2334682025051],[-86.740816711059,36.2334646175406],[-86.7408308888177,36.2334629137519],[-86.7408452192112,36.2334631395014],[-86.7408593050192,36.2334652864101],[-86.7408727574495,36.2334692955777],[-86.7408852016902,36.2334750566471],[-86.740896295846,36.2334824103918],[-86.7409057298506,36.2334911514265],[-86.7409132444871,36.233501039807],[-86.7409440353897,36.23355586771],[-86.7409788384467,36.2336090965119],[-86.7410175272661,36.2336605332161],[-86.7410599644155,36.233709993906],[-86.7411059935839,36.2337572983856],[-86.7411554485319,36.2338022755322],[-86.7411848620477,36.2338295651404],[-86.7405925318607,36.2342326135772],[-86.7403162368083,36.2336211711591]]]},"properties":{"id":"175526","parcel":"06102005000","address":"601 JOYCE LN","owner":"INGRAM, MICHAEL A. & KATHERINE D.","point":[-86.7406948930225,36.23403066986976]}},{"type":"Feature","id":"175528","geometry":{"type":"Polygon","coordinates":[[[-86.7405925318607,36.2342326135772],[-86.7411848620477,36.2338295651404],[-86.7413867333948,36.2340239136566],[-86.7408019959513,36.2344412003917],[-86.7405505389852,36.2343834066379],[-86.7405925318607,36.2342326135772]]]},"properties":{"id":"175528","parcel":"06102005100","address":"4504 BROOMFIELD DR","owner":"MAYER, COLLEN & AIMEE SHELIDE","point":[-86.74099320584115,36.23412827201291]}},{"type":"Feature","id":"175659","geometry":{"type":"Polygon","coordinates":[[[-86.7459795198628,36.2312486242064],[-86.7460575466651,36.2306767622717],[-86.7464797238642,36.2307175573917],[-86.7464193119467,36.231287661479],[-86.7459795198628,36.2312486242064]]]},"properties":{"id":"175659","parcel":"06101001500","address":"563 JOYCE LN","owner":"MCKAY, DAVID M. & MARISA L.","point":[-86.74623367430684,36.23098309966265]}},{"type":"Feature","id":"175661","geometry":{"type":"Polygon","coordinates":[[[-86.7445841566737,36.2318505883185],[-86.7446367411342,36.2314568910911],[-86.7450738583446,36.2314992474257],[-86.7449622668539,36.2323251390475],[-86.7445245008838,36.2322860812593],[-86.7445841566737,36.2318505883185]]]},"properties":{"id":"175661","parcel":"06101002100","address":"574 JOYCE LN","owner":"HOWAT, CHAD & KERBI","point":[-86.74477558344837,36.23206880695444]}},{"type":"Feature","id":"175663","geometry":{"type":"Polygon","coordinates":[[[-86.7437431985027,36.2317706089932],[-86.7437866315094,36.231412682331],[-86.7437869452772,36.2314073531102],[-86.7437883525322,36.2314021406278],[-86.7437908112708,36.2313971920459],[-86.7437942549157,36.2313926438632],[-86.7437985856595,36.2313886237582],[-86.7438036822089,36.231385246035],[-86.7438094030368,36.2313826025914],[-86.7438155864416,36.2313807692266],[-86.7438220626989,36.2313797965545],[-86.7438286462912,36.2313797118535],[-86.7438351559227,36.2313805180427],[-86.7446367411342,36.2314568910911],[-86.7445841566737,36.2318505883185],[-86.7437431985027,36.2317706089932]]]},"properties":{"id":"175663","parcel":"06101002400","address":"521 LEMONT DR","owner":"CATRON, REESE & STANSBERRY, ANNE MCCALL","point":[-86.74418900616708,36.23161374881973]}},{"type":"Feature","id":"175665","geometry":{"type":"Polygon","coordinates":[[[-86.74369595893,36.2321565833982],[-86.7437431985027,36.2317706089932],[-86.7445841566737,36.2318505883185],[-86.7445245008838,36.2322860812593],[-86.7437794130593,36.2322335356042],[-86.7437650819442,36.2322327361124],[-86.7437511370556,36.2322299433801],[-86.743737997446,36.2322252404461],[-86.7437260571498,36.2322187708873],[-86.7437156761658,36.2322107262561],[-86.7437071660387,36.2322013506763],[-86.7437007830411,36.2321909255627],[-86.7436967181034,36.2321797633751],[-86.7436950934003,36.2321681995279],[-86.74369595893,36.2321565833982]]]},"properties":{"id":"175665","parcel":"06101002500","address":"525 LEMONT DR","owner":"ROOKS, THERMA BOUTTE","point":[-86.74413893511378,36.23200358428535]}},{"type":"Feature","id":"177205","geometry":{"type":"Polygon","coordinates":[[[-86.7459454327621,36.2315180417326],[-86.7460766621491,36.2315070165216],[-86.7462076598006,36.2314943027553],[-86.7463383901383,36.2314799033579],[-86.746346584904,36.2314791506526],[-86.7463548172415,36.2314795531172],[-86.7463628400814,36.2314810987597],[-86.7463704149397,36.2314837421885],[-86.7463773130124,36.2314874028038],[-86.7463833297125,36.2314919728185],[-86.7463882846366,36.2314973136535],[-86.7463920294523,36.2315032667044],[-86.7463944512358,36.2315096533202],[-86.7463954792227,36.2315162828731],[-86.7463950803918,36.2315229563911],[-86.7463881794815,36.2315823346366],[-86.7463823887872,36.2316345077362],[-86.7463725295178,36.2316862787808],[-86.7463586419758,36.2317374393318],[-86.746340780958,36.2317877844653],[-86.7463190190853,36.2318371118508],[-86.7462934423614,36.2318852226801],[-86.7462641557602,36.2319319243358],[-86.7462312743018,36.2319770277435],[-86.7461949320107,36.2320203536249],[-86.7461552740699,36.2320617262376],[-86.7461124602261,36.2321009805643],[-86.7460666625224,36.2321379578203],[-86.7460180653411,36.23217250996],[-86.7459668631698,36.2322044987889],[-86.7459132616975,36.232233794155],[-86.7458574767529,36.2322602793624],[-86.7459454327621,36.2315180417326]]]},"properties":{"id":"177205","parcel":"06101001600","address":"566 JOYCE LN","owner":"HILL, MARCUS & ANITA","point":[-86.74610555192687,36.23186074160288]}},{"type":"Feature","id":"177209","geometry":{"type":"Polygon","coordinates":[[[-86.7455292111501,36.2313898534056],[-86.7456319743251,36.2306354377742],[-86.7460575466651,36.2306767622717],[-86.7459795198628,36.2312486242064],[-86.7459665074743,36.2313794624451],[-86.7458208857739,36.2313863405243],[-86.7456750795514,36.2313898056314],[-86.7455292111501,36.2313898534056]]]},"properties":{"id":"177209","parcel":"06101001700","address":"559 JOYCE LN","owner":"BROADNAX, ANDREW J","point":[-86.74580302770416,36.230962235612836]}},{"type":"Feature","id":"177213","geometry":{"type":"Polygon","coordinates":[[[-86.7455108125435,36.2315245704618],[-86.7456557407014,36.2315255343103],[-86.7458006482198,36.2315233572557],[-86.7459454327621,36.2315180417326],[-86.7458574767529,36.2322602793624],[-86.7457957527661,36.2322837162327],[-86.7457323890514,36.2323040809191],[-86.7456676196286,36.232321298072],[-86.7456016808535,36.2323353040443],[-86.7455348158837,36.2323460486659],[-86.7454672712991,36.2323534907585],[-86.7453992927121,36.2323576044719],[-86.7455108125435,36.2315245704618]]]},"properties":{"id":"177213","parcel":"06101001701","address":"570 JOYCE LN","owner":"MCLAUGHLIN, JERRY W.","point":[-86.74568128080318,36.23189274680327]}},{"type":"Feature","id":"177217","geometry":{"type":"Polygon","coordinates":[[[-86.7447054273784,36.2309718943192],[-86.744762497179,36.2305501503076],[-86.7451921519268,36.2305931010659],[-86.7450922215431,36.2313606841228],[-86.7446571790359,36.2313221616032],[-86.7447054273784,36.2309718943192]]]},"properties":{"id":"177217","parcel":"06101002000","address":"551 JOYCE LN","owner":"CALDWELL, DONALD KIRK & EILEEN","point":[-86.74494927665417,36.23078249898222]}},{"type":"Feature","id":"177221","geometry":{"type":"Polygon","coordinates":[[[-86.743852288139,36.2308936419757],[-86.7439000191943,36.2304878881989],[-86.7439025640294,36.2304768250014],[-86.7439073048462,36.2304662466713],[-86.743914114155,36.2304564369863],[-86.7439228086641,36.2304476602397],[-86.7439331558595,36.2304401512871],[-86.7439448761972,36.2304341119271],[-86.7439576563824,36.2304297036102],[-86.7439711537941,36.2304270447077],[-86.7439850064624,36.2304262068448],[-86.7439903069257,36.2304260741599],[-86.7440045673191,36.2304279068918],[-86.744762497179,36.2305501503076],[-86.7447054273784,36.2309718943192],[-86.743852288139,36.2308936419757]]]},"properties":{"id":"177221","parcel":"06101002200","address":"513 LEMONT DR","owner":"JOHNSON, JOYCE","point":[-86.74430586643811,36.23072189375001]}},{"type":"Feature","id":"177224","geometry":{"type":"Polygon","coordinates":[[[-86.7438165511631,36.2312048239599],[-86.743852288139,36.2308936419757],[-86.7447054273784,36.2309718943192],[-86.7446571790359,36.2313221616032],[-86.7438535418793,36.2312441529451],[-86.7438462545563,36.2312427404984],[-86.743839371812,36.2312403431973],[-86.7438330923128,36.2312370310175],[-86.7438276027342,36.2312329001444],[-86.7438230610671,36.2312280721754],[-86.7438196010001,36.2312226868823],[-86.7438173252614,36.2312169040552],[-86.7438162988272,36.2312108909265],[-86.7438165511631,36.2312048239599]]]},"properties":{"id":"177224","parcel":"06101002300","address":"517 LEMONT DR","owner":"BASS, CHARLOTTE & RHETT","point":[-86.74425964535713,36.231088357094904]}},{"type":"Feature","id":"177228","geometry":{"type":"Polygon","coordinates":[[[-86.7437098866546,36.2334245189273],[-86.7436547640967,36.2334205034429],[-86.7436561279818,36.2334097133994],[-86.7436654433793,36.233322042887],[-86.7436712493599,36.2332341731703],[-86.743673536786,36.2331461962337],[-86.7436721036206,36.2330524633876],[-86.7436672803531,36.2329207231831],[-86.744456687497,36.2328639235991],[-86.7443844290697,36.2334736568656],[-86.7437098866546,36.2334245189273]]]},"properties":{"id":"177228","parcel":"06101002700","address":"533 LEMONT DR","owner":"OCHRANEK, JOSEPH R. & GRACE A.","point":[-86.74404511354305,36.23319098260924]}},{"type":"Feature","id":"177662","geometry":{"type":"Polygon","coordinates":[[[-86.7416504014588,36.2356629729132],[-86.7417241025597,36.235643191333],[-86.7418759478315,36.2356024345349],[-86.741981712107,36.235574046333],[-86.7424471570863,36.2359794144695],[-86.742351925892,36.2360483711439],[-86.7422538898119,36.2361146971062],[-86.7422041440884,36.2361466654162],[-86.7416504014588,36.2356629729132]]]},"properties":{"id":"177662","parcel":"06102000100","address":"618 LEMONT DR","owner":"PHUNG, CAO & LU, ANNE","point":[-86.74204851163607,36.23582119377817]}},{"type":"Feature","id":"177664","geometry":{"type":"Polygon","coordinates":[[[-86.7421528667227,36.2349578817929],[-86.7422160985517,36.234964341899],[-86.7422814774136,36.2349741252031],[-86.7423463468016,36.2349859304004],[-86.7424106086521,36.2349997391681],[-86.7424741726707,36.2350155313335],[-86.7423018730193,36.2354881119027],[-86.7420534877348,36.2355547810761],[-86.7421528667227,36.2349578817929]]]},"properties":{"id":"177664","parcel":"06102000300","address":"605 MARSWEN DR","owner":"BEASLEY, JIM ALLEN","point":[-86.74224602661556,36.23525151583708]}},{"type":"Feature","id":"177666","geometry":{"type":"Polygon","coordinates":[[[-86.7418564212918,36.2349478863826],[-86.7419128168392,36.2349486242412],[-86.7419929726308,36.2349489088091],[-86.7420730389572,36.2349519958563],[-86.7421528667227,36.2349578817929],[-86.7420534877348,36.2355547810761],[-86.741981712107,36.235574046333],[-86.7418759478315,36.2356024345349],[-86.7418564212918,36.2349478863826]]]},"properties":{"id":"177666","parcel":"06102000400","address":"609 MARSWEN DR","owner":"MCS 2021 IRREVOCABLE TRUST","point":[-86.74198439247625,36.235256075354684]}},{"type":"Feature","id":"177668","geometry":{"type":"Polygon","coordinates":[[[-86.7411448592693,36.2350637682869],[-86.7413341922878,36.2350273668103],[-86.7415414410387,36.2356922186035],[-86.7413027731579,36.2357562778403],[-86.7410871499479,36.2350758971476],[-86.7411448592693,36.2350637682869]]]},"properties":{"id":"177668","parcel":"06102000700","address":"621 MARSWEN DR","owner":"ULREY, SARA","point":[-86.74131509515198,36.23538405982635]}},{"type":"Feature","id":"177670","geometry":{"type":"Polygon","coordinates":[[[-86.7408917239585,36.2351169671219],[-86.7410871499479,36.2350758971476],[-86.7413027731579,36.2357562778403],[-86.7410626934837,36.2357719301846],[-86.7410421051902,36.2357732731667],[-86.7408375719775,36.2351278780879],[-86.7408917239585,36.2351169671219]]]},"properties":{"id":"177670","parcel":"06102000800","address":"623 MARSWEN DR","owner":"GAMBLE, BEN S., III & KELLIE M.","point":[-86.74107017155019,36.235442078194495]}},{"type":"Feature","id":"177677","geometry":{"type":"Polygon","coordinates":[[[-86.7427336113135,36.2334519526884],[-86.7427504076952,36.2333628456291],[-86.7429542948495,36.2329759111296],[-86.743498097798,36.2329322524364],[-86.7435026472725,36.2330565346882],[-86.7435039962239,36.2331472398548],[-86.7435017816665,36.2332301954777],[-86.7434962744361,36.2333130496955],[-86.7434874792815,36.23339571686],[-86.7434728229122,36.2335116311368],[-86.7427336113135,36.2334519526884]]]},"properties":{"id":"177677","parcel":"06101004200","address":"532 LEMONT DR","owner":"FOSTER, ROY & LEE, JAZMIN FAY","point":[-86.74317289825846,36.23318800979723]}},{"type":"Feature","id":"177679","geometry":{"type":"Polygon","coordinates":[[[-86.742521080981,36.2308886459503],[-86.7427019195545,36.230285938035],[-86.7428138507837,36.230304269762],[-86.7429263701136,36.2303200643541],[-86.7430393895323,36.2303333088323],[-86.7430203783286,36.2304031978612],[-86.7429097980651,36.2308324143296],[-86.7426599689854,36.231197722101],[-86.7426328471451,36.2312373798153],[-86.7426254649127,36.2312456662293],[-86.7425236413732,36.2310897117074],[-86.7424789586817,36.2310251567447],[-86.742521080981,36.2308886459503]]]},"properties":{"id":"177679","parcel":"06101005000","address":"405 BROADMOOR DR","owner":"BLACK, RICHARD H., JR. & PAMELA C.","point":[-86.74278383361494,36.23061741660861]}},{"type":"Feature","id":"177680","geometry":{"type":"Polygon","coordinates":[[[-86.7415126718297,36.2339302939818],[-86.7419905856082,36.2336207904957],[-86.7424271621306,36.2338219364594],[-86.7417052926203,36.2341505177342],[-86.7416722615845,36.2341055598443],[-86.7416369796029,36.2340617387208],[-86.7415995074378,36.2340191278912],[-86.7415599091716,36.2339777990602],[-86.7415126718297,36.2339302939818]]]},"properties":{"id":"177680","parcel":"06102002700","address":"4507 BROOMFIELD DR","owner":"WALKER, ALEXANDER","point":[-86.74195205573778,36.23387607757483]}},{"type":"Feature","id":"177711","geometry":{"type":"Polygon","coordinates":[[[-86.7399749999032,36.2352457416449],[-86.7400140204536,36.2352448618304],[-86.7401371287175,36.235237850258],[-86.7402598943854,36.2352276286088],[-86.7404014304904,36.2358150422798],[-86.740072654321,36.2358364761003],[-86.7400350320775,36.235838928156],[-86.7399749999032,36.2352457416449]]]},"properties":{"id":"177711","parcel":"06102001100","address":"703 MARSWEN DR","owner":"BRUNO, ALLISON","point":[-86.74016834337267,36.23553034900435]}},{"type":"Feature","id":"177717","geometry":{"type":"Polygon","coordinates":[[[-86.7417480608355,36.2329954114195],[-86.7418108486318,36.2329360345809],[-86.7418768508596,36.2328789911292],[-86.7419459350958,36.2328243954302],[-86.7420179633061,36.2327723564764],[-86.7420927918622,36.23272297969],[-86.7421702703781,36.2326763615224],[-86.7427504076952,36.2333628456291],[-86.7427336113135,36.2334519526884],[-86.7426350401526,36.23357122982],[-86.7425463304326,36.2335124395906],[-86.7417480608355,36.2329954114195]]]},"properties":{"id":"177717","parcel":"06102002300","address":"591 JOYCE LN","owner":"DOKA, STEWART","point":[-86.74231338340228,36.233179267748554]}},{"type":"Feature","id":"177719","geometry":{"type":"Polygon","coordinates":[[[-86.7417052926203,36.2341505177342],[-86.7424271621306,36.2338219364594],[-86.7424417193047,36.2340729233131],[-86.7424536143901,36.2342569006096],[-86.7418495016824,36.2344149942028],[-86.741826963684,36.2343599869796],[-86.7418012105618,36.2343059142626],[-86.741772302425,36.2342528982504],[-86.741740306048,36.2342010601996],[-86.7417052926203,36.2341505177342]]]},"properties":{"id":"177719","parcel":"06102002800","address":"4511 BROOMFIELD DR","owner":"ENRIGHT, PATRICK C. & PATRICIA M.","point":[-86.74211807043906,36.2341118171504]}},{"type":"Feature","id":"177724","geometry":{"type":"Polygon","coordinates":[[[-86.7408019959513,36.2344412003917],[-86.7413867333948,36.2340239136566],[-86.7414312011107,36.2340653947089],[-86.7414766797723,36.2341146923819],[-86.7415192838315,36.234165647055],[-86.7415589210577,36.2342181511473],[-86.7415955058099,36.2342720880252],[-86.7416289591542,36.2343273446185],[-86.7411376892529,36.2345144073244],[-86.7408019959513,36.2344412003917]]]},"properties":{"id":"177724","parcel":"06102005200","address":"4508 BROOMFIELD DR","owner":"HARPER, THEODORE MILLARD, JR","point":[-86.74132774359386,36.23424458050793]}},{"type":"Feature","id":"177726","geometry":{"type":"Polygon","coordinates":[[[-86.7417377357167,36.2318917243705],[-86.7419680909868,36.2317243896053],[-86.742217977996,36.2315426504694],[-86.7425344969644,36.2322488856942],[-86.7425746963392,36.2323414880305],[-86.7425348022134,36.2323538199224],[-86.7424477416688,36.2323843909924],[-86.7423624319666,36.2324180452293],[-86.7422790393716,36.2324547194286],[-86.7421977267203,36.2324943404938],[-86.7417377357167,36.2318917243705]]]},"properties":{"id":"177726","parcel":"06102005300","address":"586 JOYCE LN","owner":"FANCHER, BETHANY","point":[-86.74216419324175,36.232070366202805]}},{"type":"Feature","id":"177728","geometry":{"type":"Polygon","coordinates":[[[-86.7405757186876,36.2326504366207],[-86.740680363462,36.2326003488814],[-86.7408329134673,36.2325241455661],[-86.7411020335745,36.2328037891841],[-86.741378005618,36.2330905316397],[-86.7413126622241,36.2331273151893],[-86.7412449158909,36.2331611231023],[-86.7411767105369,36.2331914117106],[-86.7411066534888,36.2332187861847],[-86.7410349354077,36.2332431732518],[-86.7410038499575,36.2332549035358],[-86.7405757186876,36.2326504366207]]]},"properties":{"id":"177728","parcel":"06102005600","address":"600 JOYCE LN","owner":"CANTRELL, ALVIN A. & YAMIKA D.","point":[-86.74101260153367,36.23294666845167]}},{"type":"Feature","id":"177748","geometry":{"type":"Polygon","coordinates":[[[-86.7400141071669,36.2329291289457],[-86.7402523851439,36.2328106462937],[-86.7403252869248,36.2327744884244],[-86.7406333398719,36.2333741966516],[-86.7404887551772,36.2334228645594],[-86.7403429595028,36.2334691000326],[-86.7402662152057,36.2334929199145],[-86.7400141071669,36.2329291289457]]]},"properties":{"id":"177748","parcel":"06102005702","address":"606 JOYCE LN","owner":"BOUTWELL, KELLY","point":[-86.74031633016565,36.233151647155644]}},{"type":"Feature","id":"177767","geometry":{"type":"Polygon","coordinates":[[[-86.7399921267944,36.2336984275437],[-86.7400742010218,36.2336821069247],[-86.7401556268287,36.2336637786344],[-86.740236329848,36.2336434611549],[-86.7403162368083,36.2336211711591],[-86.7405925318607,36.2342326135772],[-86.7405505389852,36.2343834066379],[-86.7402486926702,36.234521509299],[-86.7399921267944,36.2336984275437]]]},"properties":{"id":"177767","parcel":"06102004900","address":"605 JOYCE LN","owner":"TISDALE, REGINA Y.","point":[-86.7402736255605,36.233965480341396]}},{"type":"Feature","id":"177769","geometry":{"type":"Polygon","coordinates":[[[-86.7412083326338,36.2322053859439],[-86.7415118113971,36.2320255176129],[-86.7417377357167,36.2318917243705],[-86.7421977267203,36.2324943404938],[-86.7421166026192,36.2325378321131],[-86.7420375694227,36.2325837793555],[-86.7419607377737,36.2326321184579],[-86.7418862204733,36.2326827784339],[-86.7418141236408,36.2327356874377],[-86.7412083326338,36.2322053859439]]]},"properties":{"id":"177769","parcel":"06102005400","address":"592 JOYCE LN","owner":"CAMPBELL, JOEL","point":[-86.74173031946917,36.23234992315065]}},{"type":"Feature","id":"177771","geometry":{"type":"Polygon","coordinates":[[[-86.7403252869248,36.2327744884244],[-86.7405757186876,36.2326504366207],[-86.7410038499575,36.2332549035358],[-86.7406333398719,36.2333741966516],[-86.7403252869248,36.2327744884244]]]},"properties":{"id":"177771","parcel":"06102005700","address":"604 JOYCE LN","owner":"BATSON, JEREMY & LAURA","point":[-86.74064120447085,36.23301464582132]}},{"type":"Feature","id":"178861","geometry":{"type":"Polygon","coordinates":[[[-86.7421861817367,36.2307539033435],[-86.7422948305356,36.2304076585963],[-86.7423567860305,36.2302166373094],[-86.7425151277125,36.2302529298931],[-86.7425766489025,36.2302665823745],[-86.7426389696822,36.2302775955545],[-86.7427019195545,36.230285938035],[-86.742521080981,36.2308886459503],[-86.7424789586817,36.2310251567447],[-86.7423330873175,36.2308002486767],[-86.7421861817367,36.2307539033435]]]},"properties":{"id":"178861","parcel":"06102015900","address":"409 BROADMOOR DR","owner":"KNOTT, LADONNA G.","point":[-86.74242685986982,36.23058118228846]}},{"type":"Feature","id":"178935","geometry":{"type":"Polygon","coordinates":[[[-86.7461958560357,36.235069208644],[-86.74657467009,36.2347610931571],[-86.7464449896446,36.2353636550402],[-86.7463178776345,36.2362471976034],[-86.7459097635045,36.2362019727521],[-86.7459614794635,36.2358454771316],[-86.7460462093845,36.2352531928506],[-86.7460868995671,36.2352014640014],[-86.7461958560357,36.235069208644]]]},"properties":{"id":"178935","parcel":"06100000100","address":"0 WALTON LN","owner":"LUMA SYSTEMS, LLC","point":[-86.74620313703397,36.23560456612952]}},{"type":"Feature","id":"178939","geometry":{"type":"Polygon","coordinates":[[[-86.7443330594629,36.2350090046327],[-86.7444159664389,36.2345217227827],[-86.7444486554769,36.2343198902493],[-86.7444833266199,36.2341120026019],[-86.744517994244,36.2339041149527],[-86.7445526771564,36.2336978746696],[-86.7445873094173,36.2334861415597],[-86.7443844290697,36.2334736568656],[-86.744456687497,36.2328639235991],[-86.7445115408642,36.2324224147847],[-86.7452757883671,36.2324929708754],[-86.7453485833102,36.2324962493069],[-86.7454214896907,36.2324958796489],[-86.7454942283113,36.2324918654266],[-86.7455665222847,36.2324842191642],[-86.7456380948928,36.2324729714105],[-86.7457086750988,36.2324581652974],[-86.7457779919851,36.232439856574],[-86.7458457803407,36.2324181162762],[-86.745911782844,36.2323930262066],[-86.7459757478632,36.2323646816519],[-86.7460374305778,36.2323331922772],[-86.746096595169,36.2322986785075],[-86.74615301814,36.2322612697043],[-86.746206481702,36.2322211105154],[-86.7462567826039,36.2321783536103],[-86.7463037288221,36.2321331624042],[-86.7463471417672,36.2320857092418],[-86.7463868562846,36.2320361753974],[-86.7464227206286,36.2319847483709],[-86.7464545953927,36.2319316264009],[-86.7464823623402,36.2318770112],[-86.7465059133063,36.2318211107269],[-86.7465251602173,36.2317641400259],[-86.7465400283486,36.2317063140584],[-86.7465504608504,36.2316478557861],[-86.7465564197666,36.231588986251],[-86.7465637180631,36.2315185426936],[-86.746586843987,36.2312953628743],[-86.7466347453066,36.2308330723945],[-86.7470305564126,36.2308822695933],[-86.7470903674406,36.2309687054217],[-86.7469925402772,36.23202965831],[-86.7468259490945,36.2329899463404],[-86.7464847086607,36.2335518974342],[-86.7461401314443,36.2339064905473],[-86.7461401482789,36.2339082794236],[-86.7457893042902,36.2342693171696],[-86.7447054786786,36.2350852730488],[-86.7446234585764,36.2350766156486],[-86.7443238671558,36.2353211313739],[-86.744323853839,36.23531971289],[-86.7442753137291,36.2353593289478],[-86.744328627446,36.2350425448884],[-86.7443330594629,36.2350090046327]]]},"properties":{"id":"178939","parcel":"06100000700","address":"575 JOYCE LN","owner":"METRO GOV'T  S  GRA-MAR","point":[-86.7455455453194,36.23323168101492]}},{"type":"Feature","id":"179540","geometry":{"type":"Polygon","coordinates":[[[-86.7448415406559,36.2298689521324],[-86.7448686957243,36.2296556164116],[-86.7453057636373,36.2296941256352],[-86.7453039368594,36.2297161129998],[-86.745224261294,36.2303297387789],[-86.744789239862,36.2302928650149],[-86.7448415406559,36.2298689521324]]]},"properties":{"id":"179540","parcel":"06105000700","address":"314 BROADMOOR DR","owner":"MOORE, KEATON & FLETCHER","point":[-86.74503591941395,36.23008137869915]}},{"type":"Feature","id":"179542","geometry":{"type":"Polygon","coordinates":[[[-86.7440006456208,36.2297933723943],[-86.7448415406559,36.2298689521324],[-86.744789239862,36.2302928650149],[-86.7439782052379,36.2302203968591],[-86.7439721029686,36.2302204344431],[-86.7439663285414,36.2302193713835],[-86.7439608804815,36.2302169319068],[-86.7439558907889,36.2302118904009],[-86.7439519358366,36.2302062783393],[-86.7439491148038,36.2302002330026],[-86.7439474969545,36.2301939044731],[-86.7439471226917,36.2301874493196],[-86.7439479990647,36.2301810261187],[-86.7440006456208,36.2297933723943]]]},"properties":{"id":"179542","parcel":"06105001100","address":"509 LEMONT DR","owner":"MANOUS, DEREK & MICHAEL & RHONDA","point":[-86.74439574521966,36.230024992046914]}},{"type":"Feature","id":"220448","geometry":{"type":"Polygon","coordinates":[[[-86.7480146170803,36.2353208575658],[-86.7480232279221,36.235266768945],[-86.7480872636609,36.2352734598351],[-86.7480786528621,36.2353275484604],[-86.7480146170803,36.2353208575658]]]},"properties":{"id":"220448","parcel":"061010A08400CO","address":"256 ARROWHEAD DR","owner":"MCDOWELL, MICHAEL","point":[-86.74805094038149,36.235297158706054]}},{"type":"Feature","id":"220449","geometry":{"type":"Polygon","coordinates":[[[-86.7479421615127,36.2353670500001],[-86.7479505813094,36.2353141666373],[-86.7480146170803,36.2353208575658],[-86.7480061973257,36.2353737409329],[-86.7479421615127,36.2353670500001]]]},"properties":{"id":"220449","parcel":"061010A07800CO","address":"104 MAMMOTH PASS","owner":"FILLUZZI, JULIANNA","point":[-86.74797838930708,36.23534395378853]}},{"type":"Feature","id":"222002","geometry":{"type":"Polygon","coordinates":[[[-86.7480232279221,36.235266768945],[-86.7480317358075,36.2352133244521],[-86.7480957715038,36.2352200153378],[-86.7480872636609,36.2352734598351],[-86.7480232279221,36.235266768945]]]},"properties":{"id":"222002","parcel":"061010A08300CO","address":"258 ARROWHEAD DR","owner":"LUMA SYSTEMS, LLC","point":[-86.74805949972367,36.235243392146984]}},{"type":"Feature","id":"222004","geometry":{"type":"Polygon","coordinates":[[[-86.7480061973257,36.2353737409329],[-86.7480146170803,36.2353208575658],[-86.7480786528621,36.2353275484604],[-86.7480702331494,36.2353804318319],[-86.7480061973257,36.2353737409329]]]},"properties":{"id":"222004","parcel":"061010A08500CO","address":"254 ARROWHEAD DR","owner":"LUMA SYSTEMS, LLC","point":[-86.74804242510444,36.23535064470222]}},{"type":"Feature","id":"222010","geometry":{"type":"Polygon","coordinates":[[[-86.7479505813094,36.2353141666373],[-86.7479591921942,36.2352600780209],[-86.7480232279221,36.235266768945],[-86.7480146170803,36.2353208575658],[-86.7479505813094,36.2353141666373]]]},"properties":{"id":"222010","parcel":"061010A07900CO","address":"106 MAMMOTH PASS","owner":"GLADDEN, CAROLINE GRACE","point":[-86.74798690462661,36.235290467796744]}},{"type":"Feature","id":"222303","geometry":{"type":"Polygon","coordinates":[[[-86.7480317358075,36.2352133244521],[-86.7480399748824,36.2351615750698],[-86.7481040105376,36.2351682659512],[-86.7480957715038,36.2352200153378],[-86.7480317358075,36.2352133244521]]]},"properties":{"id":"222303","parcel":"061010A08200CO","address":"260 ARROWHEAD DR","owner":"EDMONDS, SHERRY","point":[-86.74806787318283,36.23519079520719]}},{"type":"Feature","id":"222304","geometry":{"type":"Polygon","coordinates":[[[-86.7479591921942,36.2352600780209],[-86.7479677001219,36.2352066335324],[-86.7480317358075,36.2352133244521],[-86.7480232279221,36.235266768945],[-86.7479591921942,36.2352600780209]]]},"properties":{"id":"222304","parcel":"061010A08000CO","address":"108 MAMMOTH PASS","owner":"ROBBINS, TIFFANY DIANE","point":[-86.74799546401152,36.23523670124208]}},{"type":"Feature","id":"222305","geometry":{"type":"Polygon","coordinates":[[[-86.7479333101204,36.2354226514974],[-86.7479973459775,36.2354293424349],[-86.7479901360892,36.2354746279868],[-86.7479261001962,36.2354679370455],[-86.7479333101204,36.2354226514974]]]},"properties":{"id":"222305","parcel":"061010A07600CO","address":"100 MAMMOTH PASS","owner":"BERAN, EMILY","point":[-86.74796172309551,36.23544863974556]}},{"type":"Feature","id":"223359","geometry":{"type":"Polygon","coordinates":[[[-86.7479677001219,36.2352066335324],[-86.747975939238,36.2351548841544],[-86.7480399748824,36.2351615750698],[-86.7480317358075,36.2352133244521],[-86.7479677001219,36.2352066335324]]]},"properties":{"id":"223359","parcel":"061010A08100CO","address":"110 MAMMOTH PASS","owner":"FROST, AARON LUKE","point":[-86.74800383751246,36.23518410430663]}},{"type":"Feature","id":"223363","geometry":{"type":"Polygon","coordinates":[[[-86.7479333101204,36.2354226514974],[-86.7479421615127,36.2353670500001],[-86.7480061973257,36.2353737409329],[-86.7479973459775,36.2354293424349],[-86.7479333101204,36.2354226514974]]]},"properties":{"id":"223363","parcel":"061010A07700CO","address":"102 MAMMOTH PASS","owner":"WINFREE, ABBIE GAEL","point":[-86.7479697537343,36.2353981962208]}}]}