{"type":"FeatureCollection","features":[{"type":"Feature","id":"91480","geometry":{"type":"Polygon","coordinates":[[[-86.7604887696268,36.3001114752186],[-86.7605500253991,36.2997050917654],[-86.7607617277107,36.2991340391722],[-86.7610091855168,36.2984673321564],[-86.761275257236,36.2977500616281],[-86.7612764368639,36.297746879155],[-86.7614857188116,36.2978428033578],[-86.7617910891145,36.2979849273391],[-86.7620946202746,36.2981296108307],[-86.762396278765,36.2982768387366],[-86.7626960321715,36.2984265959543],[-86.7628126566691,36.2984854686507],[-86.7613179739243,36.3001622970929],[-86.7609391300421,36.3003619141065],[-86.7604887696268,36.3001114752186]]]},"properties":{"id":"91480","parcel":"03200003300","address":"1452 CAMPBELL RD","owner":"STROHL, SANDRA S & DEVINE- QIN, METTA KATHERINE S","point":[-86.76170252781895,36.29880958961471]}},{"type":"Feature","id":"92126","geometry":{"type":"Polygon","coordinates":[[[-86.7675877438675,36.3007676416631],[-86.7671970123725,36.3005094346194],[-86.7669640157621,36.3003491172101],[-86.7669479599762,36.300338228523],[-86.7664279633923,36.2994163506578],[-86.766352170983,36.2994745172392],[-86.765785709771,36.2999231146914],[-86.7644553298442,36.2997727600062],[-86.7644365881781,36.2997397428705],[-86.7644143223544,36.2997081908875],[-86.7643097543977,36.2995627134301],[-86.7642237438715,36.2994412896506],[-86.7641050161812,36.2992703569587],[-86.7640382344179,36.2991721624641],[-86.7639924269114,36.2991139609999],[-86.7639439810887,36.2990571758036],[-86.7638929645155,36.2990018857539],[-86.7638394469661,36.2989481679128],[-86.7637801729552,36.2988931345636],[-86.7637182733653,36.2988400283848],[-86.7636538436353,36.2987889325845],[-86.763586983613,36.2987399258365],[-86.7635177964503,36.2986930831891],[-86.7634915229396,36.2986781408344],[-86.7634311368003,36.2986393635717],[-86.7633691570326,36.2986022708323],[-86.763305654189,36.2985669054277],[-86.7632407021528,36.298533309247],[-86.7632011863807,36.2985189379933],[-86.7631635731535,36.2985015409931],[-86.7631282147412,36.298481280049],[-86.7630810848772,36.2984590620123],[-86.7630347903776,36.2984357211557],[-86.7635128827075,36.2982536007432],[-86.766895889745,36.296957596517],[-86.7677568368856,36.2983959377055],[-86.7719182079964,36.2982804378364],[-86.7717168481962,36.2993475467724],[-86.7716848976723,36.2995861873928],[-86.7704270278977,36.2994598823951],[-86.7704463885777,36.2995314548548],[-86.7699324030445,36.3003140427611],[-86.7693293325166,36.3008005236088],[-86.7689786316063,36.3008211596326],[-86.7680564758125,36.3008448764512],[-86.7675877438675,36.3007676416631]]]},"properties":{"id":"92126","parcel":"03200003000","address":"1467 CAMPBELL RD","owner":"LY, MAU T. & ALBERTA R.","point":[-86.76780214249403,36.29892847115608]}},{"type":"Feature","id":"93683","geometry":{"type":"Polygon","coordinates":[[[-86.7613444030431,36.2976156948191],[-86.7613882552952,36.2973055610724],[-86.7621159318168,36.297388327343],[-86.7630258374935,36.2975062040233],[-86.7631647221409,36.2965642168007],[-86.7632223442748,36.2962050997699],[-86.7632705749117,36.2959279010497],[-86.7634775583198,36.2945882693752],[-86.7634774789248,36.2945800307915],[-86.7634788042006,36.2945767266078],[-86.7635461051484,36.2941659037163],[-86.7634747965182,36.2941608601421],[-86.7621070288554,36.2939511363845],[-86.7621230035189,36.2935390218825],[-86.7624198214318,36.2927867642783],[-86.7634534923347,36.2928764107668],[-86.7676153839894,36.2932352980781],[-86.7674744599904,36.2943289221319],[-86.77207208736,36.294779268635],[-86.7721232570371,36.2950855014138],[-86.772277192787,36.2959778347211],[-86.7722517018916,36.2961477604181],[-86.7720677956276,36.2973334274406],[-86.7719182079964,36.2982804378364],[-86.7677568368856,36.2983959377055],[-86.766895889745,36.296957596517],[-86.7635128827075,36.2982536007432],[-86.7630347903776,36.2984357211557],[-86.7627749508181,36.2983052309704],[-86.7624851201782,36.298161745233],[-86.7622232666764,36.2980337395482],[-86.7619021094914,36.2978789123204],[-86.761608930981,36.2977398426994],[-86.7613444030431,36.2976156948191]]]},"properties":{"id":"93683","parcel":"03200002900","address":"1457 CAMPBELL RD","owner":"GRAY, OWEN EDMONDS","point":[-86.76776719311559,36.29550691973478]}},{"type":"Feature","id":"96163","geometry":{"type":"Polygon","coordinates":[[[-86.7599343302306,36.2961577194991],[-86.7599343332851,36.2961576897392],[-86.7601927875505,36.296238672861],[-86.7606218767351,36.2963731183663],[-86.760487679449,36.2972374002444],[-86.7604876503016,36.2972376113164],[-86.7604596625702,36.2972251439593],[-86.7603472462387,36.2971757262073],[-86.760154261825,36.2970922850919],[-86.7600808898363,36.297061114905],[-86.7600490898901,36.2970478071371],[-86.7599548256426,36.297008339879],[-86.7599230257474,36.2969950329789],[-86.759870219597,36.2969733892093],[-86.7598441194391,36.2969626915846],[-86.7598279770533,36.2969560644287],[-86.7599309177414,36.2962258336631],[-86.7599343283931,36.2961577600662],[-86.7599343302306,36.2961577194991]]]},"properties":{"id":"96163","parcel":"03200011900","address":"0 CAMPBELL RD","owner":"MORAN, CAROL","point":[-86.76022283864462,36.29666458787837]}},{"type":"Feature","id":"97189","geometry":{"type":"Polygon","coordinates":[[[-86.760487679449,36.2972374002444],[-86.7606218767351,36.2963731183663],[-86.7613119183491,36.296566010037],[-86.7611392269117,36.297523029517],[-86.7611212242713,36.2975149344197],[-86.761061758099,36.2974883790174],[-86.7610158495974,36.2974677792141],[-86.7610157389241,36.2974677321453],[-86.7608087462837,36.2973761943455],[-86.7606973984531,36.2973277173911],[-86.7605641082242,36.2972702290515],[-86.7604876503016,36.2972376113164],[-86.760487679449,36.2972374002444]]]},"properties":{"id":"97189","parcel":"03200011600","address":"0 CAMPBELL RD","owner":"MORAN, CAROL","point":[-86.76089556588175,36.29690169739848]}},{"type":"Feature","id":"97270","geometry":{"type":"Polygon","coordinates":[[[-86.7599940837709,36.2955941836045],[-86.7601328435018,36.2949608955182],[-86.7613741812679,36.2953389782332],[-86.7614985579796,36.2954157055098],[-86.7616552395306,36.2954266030787],[-86.7632705749117,36.2959279010497],[-86.7632223442748,36.2962050997699],[-86.7631647221409,36.2965642168007],[-86.7615576393999,36.2960755016514],[-86.7599940837709,36.2955941836045]]]},"properties":{"id":"97270","parcel":"03200015500","address":"1439 CAMPBELL RD","owner":"CLAUD, STEPHEN T. & AMANDA HOPE","point":[-86.76163450873084,36.295761057891475]}},{"type":"Feature","id":"97274","geometry":{"type":"Polygon","coordinates":[[[-86.761568315561,36.2939312595217],[-86.7615734776686,36.2938938266737],[-86.7617878009884,36.2939138157785],[-86.7619510548971,36.2934928459001],[-86.7621230035189,36.2935390218825],[-86.7621070288554,36.2939511363845],[-86.7634747965182,36.2941608601421],[-86.7635461051484,36.2941659037163],[-86.7634788042006,36.2945767266078],[-86.7634774789248,36.2945800307915],[-86.7634775583198,36.2945882693752],[-86.7632705749117,36.2959279010497],[-86.7616552395306,36.2954266030787],[-86.7614985579796,36.2954157055098],[-86.7613741812679,36.2953389782332],[-86.761568315561,36.2939312595217]]]},"properties":{"id":"97274","parcel":"03200016000","address":"1441 CAMPBELL RD","owner":"JACKSON, JOHN L. & THERESA G.","point":[-86.76242273930188,36.294963622229766]}},{"type":"Feature","id":"99493","geometry":{"type":"Polygon","coordinates":[[[-86.760025032531,36.2971944583819],[-86.7600250450517,36.2971943708835],[-86.7602287534961,36.2972789938793],[-86.7604311668262,36.2973656281202],[-86.7606322570999,36.2974542611713],[-86.7600239206584,36.2994117278124],[-86.7595492958432,36.2988895458797],[-86.7595492665864,36.2988895136192],[-86.7595492441044,36.2988894912296],[-86.760025032531,36.2971944583819]]]},"properties":{"id":"99493","parcel":"03200015200","address":"1434 CAMPBELL RD","owner":"CADWALLADER, JOHN & REBECCA","point":[-86.76007995643704,36.29817185581919]}},{"type":"Feature","id":"99528","geometry":{"type":"Polygon","coordinates":[[[-86.7611392269117,36.297523029517],[-86.7613119183491,36.296566010037],[-86.7606218767351,36.2963731183663],[-86.7601927875505,36.296238672861],[-86.7599343332851,36.2961576897392],[-86.7599343373492,36.2961576491581],[-86.7599940837709,36.2955941836045],[-86.7615576393999,36.2960755016514],[-86.7631647221409,36.2965642168007],[-86.7630258374935,36.2975062040233],[-86.7621159318168,36.297388327343],[-86.7613882552952,36.2973055610724],[-86.7613444030431,36.2976156948191],[-86.7612910315391,36.2975956648323],[-86.7612389578173,36.2975735069494],[-86.7611883148893,36.2975492753101],[-86.7611392269117,36.297523029517]]]},"properties":{"id":"99528","parcel":"03200015700","address":"1437 CAMPBELL RD","owner":"CREASY, LISA K.A. ET VIR","point":[-86.76217732750344,36.2969374338482]}},{"type":"Feature","id":"105871","geometry":{"type":"Polygon","coordinates":[[[-86.7605379121288,36.2986030511019],[-86.7608558371803,36.2975550415743],[-86.7608559389041,36.2975550841933],[-86.7608647286161,36.2975588933656],[-86.7608858241752,36.2975680378984],[-86.7610820318608,36.2976568532394],[-86.7610821425604,36.2976569030116],[-86.7612764368639,36.297746879155],[-86.761275257236,36.2977500616281],[-86.7610091855168,36.2984673321564],[-86.7607617277107,36.2991340391722],[-86.7606840654135,36.2990980531279],[-86.7604242666504,36.2989776622956],[-86.7605379121288,36.2986030511019]]]},"properties":{"id":"105871","parcel":"03200018200","address":"1444 CAMPBELL RD","owner":"STEVENS, JOHN D.","point":[-86.7609151891722,36.29810824321523]}},{"type":"Feature","id":"242284","geometry":{"type":"Polygon","coordinates":[[[-86.7601923068266,36.2945386061598],[-86.7608891725483,36.2933921788838],[-86.7619510548971,36.2934928459001],[-86.7617878009884,36.2939138157785],[-86.7615734776686,36.2938938266737],[-86.761568315561,36.2939312595217],[-86.7613741812679,36.2953389782332],[-86.7601328435018,36.2949608955182],[-86.7601923068266,36.2945386061598]]]},"properties":{"id":"242284","parcel":"03200021700","address":"1439 B CAMPBELL RD","owner":"ALLEN, DAVID C. & PATRICIA F.","point":[-86.76095188472615,36.294235077945885]}}]}