{"type":"FeatureCollection","features":[{"type":"Feature","id":"112394","geometry":{"type":"Polygon","coordinates":[[[-86.7340560900936,36.2691228444576],[-86.7331517342633,36.2690344735268],[-86.7329824932978,36.2690179700815],[-86.7320602304675,36.2689280314052],[-86.7320192157807,36.2682958811102],[-86.7320066465199,36.2681021520118],[-86.7320015349763,36.2680274621094],[-86.7319713008001,36.2676523150202],[-86.731939240531,36.2672545046535],[-86.7319342076623,36.2671781983308],[-86.7318577055828,36.2660182098846],[-86.7318586199383,36.2660169561299],[-86.7319210098317,36.265928458642],[-86.7319800426104,36.2658384637642],[-86.732035664511,36.26574705384],[-86.7320878206833,36.2656543139228],[-86.732136466318,36.2655603317088],[-86.732181553252,36.2654651931119],[-86.73222304225,36.2653689866953],[-86.7322608940861,36.265271801923],[-86.7322950728734,36.2651737282388],[-86.7323255460804,36.2650748568681],[-86.7323501723734,36.2649837220178],[-86.7323716521234,36.2648920663853],[-86.7323899659765,36.2647999621893],[-86.732405102352,36.2647074797978],[-86.7324170485731,36.2646146913883],[-86.7324585501227,36.2646207115875],[-86.7324710477673,36.264563754049],[-86.7325422600167,36.2645603996815],[-86.7325402732271,36.2645330356449],[-86.7326598882052,36.2645112926912],[-86.7330619445298,36.2644376213456],[-86.7331990910802,36.2644140276078],[-86.7333370461931,36.2643937561873],[-86.7334756865046,36.2643768231512],[-86.7336148875466,36.2643632454753],[-86.7337545259057,36.2643530338207],[-86.7338944792652,36.26434619704],[-86.7340346208488,36.2643427431124],[-86.734174828273,36.2643426736819],[-86.7344401638013,36.2643471159579],[-86.7350981989046,36.2644568606087],[-86.7350930166978,36.2645469008361],[-86.7359079263936,36.2646733240314],[-86.7362313972978,36.2647603639487],[-86.7363027767449,36.2649522898698],[-86.7362762251823,36.2651901637525],[-86.736272619373,36.2652369979564],[-86.7362722406598,36.2652839215487],[-86.7362780081566,36.2655016387276],[-86.735821255688,36.2654452082391],[-86.7357770108091,36.2658300486128],[-86.7362608721567,36.265887057645],[-86.7362120737032,36.2661558911976],[-86.736152794505,36.2664824562055],[-86.7360148966837,36.2672421285377],[-86.7355126425056,36.2671776347853],[-86.7352434323273,36.2686600007723],[-86.7357480485429,36.2687248670214],[-86.7357324927459,36.2688082777121],[-86.7356410924733,36.2692984071946],[-86.7340560900936,36.2691228444576]]]},"properties":{"id":"112394","parcel":"04200001900","address":"726 OLD HICKORY BLVD","owner":"CORNERSTONE CHURCH OF NASHVILLE, INC.","point":[-86.73400013348774,36.26682598434857]}},{"type":"Feature","id":"115377","geometry":{"type":"Polygon","coordinates":[[[-86.7401098754437,36.2694872505063],[-86.7396033955545,36.2693041063077],[-86.7382717973826,36.2685980344947],[-86.7390944706711,36.2670398577839],[-86.7392362131396,36.2669977861419],[-86.7396239112397,36.2665226575805],[-86.7397531816801,36.2661342671677],[-86.7398740211283,36.2657711998694],[-86.7403223577522,36.2658692687888],[-86.7402505441416,36.2660251880202],[-86.7404116293147,36.266057164986],[-86.740488211662,36.2659034163675],[-86.7405426067311,36.2659162655059],[-86.7404294725078,36.2661255445419],[-86.740209205013,36.2665329901466],[-86.7405888079161,36.2665043870269],[-86.7409835941408,36.2666431626339],[-86.7409588728171,36.266694916532],[-86.7409380693363,36.2667477873742],[-86.7409212598185,36.266801583633],[-86.7409085080591,36.2668561048436],[-86.7408998600652,36.2669111524522],[-86.7408953484479,36.2669665234808],[-86.7408949879878,36.2670220123564],[-86.7408987801619,36.2670774189949],[-86.7409067130337,36.2671325370848],[-86.740918755782,36.2671871640355],[-86.7409348653691,36.2672411000343],[-86.7409549809594,36.2672941462784],[-86.7409790295007,36.2673461067435],[-86.7410069235401,36.2673967927031],[-86.741683886238,36.2683991351321],[-86.7417319080637,36.2684740281643],[-86.7417762942811,36.2685503764625],[-86.7418169792641,36.268628065976],[-86.7418538995694,36.268706978134],[-86.7418870017687,36.2687869943042],[-86.7419162335205,36.2688679931434],[-86.7419402866633,36.2689481441559],[-86.7419604700056,36.2690289930473],[-86.7419767545497,36.2691104156262],[-86.7419891135484,36.2691922903909],[-86.7419975291239,36.26927449218],[-86.7420019889791,36.2693568975998],[-86.742002486356,36.2694393805186],[-86.7419990200779,36.2695218165725],[-86.7401098754437,36.2694872505063]],[[-86.7405335026248,36.2692984107206],[-86.7404730085274,36.2688870076299],[-86.7399603099212,36.2689459120392],[-86.7400238064165,36.2693520769987],[-86.7405335026248,36.2692984107206]]]},"properties":{"id":"115377","parcel":"04200004200","address":"1600 NESBITT LN","owner":"UNITED DOMINION REALTY, L.P.","point":[-86.73999496077859,36.267895036333826]}},{"type":"Feature","id":"116225","geometry":{"type":"Polygon","coordinates":[[[-86.7308654388111,36.2606070158572],[-86.7309042849513,36.2603320843193],[-86.7318404447148,36.2604055293558],[-86.7318405360232,36.2604154181259],[-86.7318016018107,36.2606804638921],[-86.7308654388111,36.2606070158572]]]},"properties":{"id":"116225","parcel":"04215002600","address":"214 W MARTHONA RD","owner":"LEGENHAUSEN FAMILY TRUST","point":[-86.73135271618858,36.26051121737797]}},{"type":"Feature","id":"116226","geometry":{"type":"Polygon","coordinates":[[[-86.7308054490552,36.2610166801221],[-86.7308265569604,36.2608781037802],[-86.7317647583772,36.2609515397859],[-86.7317648496768,36.2609614285545],[-86.731744385556,36.2610961546703],[-86.7308054490552,36.2610166801221]]]},"properties":{"id":"116226","parcel":"04215002800","address":"206 W MARTHONA RD","owner":"MONKS, LOGAN","point":[-86.73128515545876,36.260989055314305]}},{"type":"Feature","id":"116227","geometry":{"type":"Polygon","coordinates":[[[-86.7307096446833,36.2617135475882],[-86.7307419723545,36.261490094855],[-86.7316774820932,36.2615651962151],[-86.7316774717641,36.2615652827968],[-86.7316483297978,36.261787329493],[-86.7316386109628,36.2618368340282],[-86.7307024344558,36.2617633847558],[-86.7307096446833,36.2617135475882]]]},"properties":{"id":"116227","parcel":"04215003000","address":"132 W MARTHONA RD","owner":"TOMLINSON, ANDREW & GRIFFEY, DIANNA","point":[-86.73119406304829,36.26163941730726]}},{"type":"Feature","id":"116228","geometry":{"type":"Polygon","coordinates":[[[-86.7305422052816,36.2629268785642],[-86.7305763245232,36.2626541713331],[-86.7315125092095,36.2627276215765],[-86.7314736459696,36.2630003578004],[-86.7305422052816,36.2629268785642]]]},"properties":{"id":"116228","parcel":"04215003400","address":"116 W MARTHONA RD","owner":"PHILLIPS, BENJAMIN & ELIZABETH","point":[-86.73102648249085,36.26282724908922]}},{"type":"Feature","id":"116719","geometry":{"type":"Polygon","coordinates":[[[-86.730659132439,36.2620702109263],[-86.7307024344558,36.2617633847558],[-86.7316386109628,36.2618368340282],[-86.7316087723611,36.2620584216756],[-86.7315953125217,36.2621436596262],[-86.730659132439,36.2620702109263]]]},"properties":{"id":"116719","parcel":"04215003100","address":"128 W MARTHONA RD","owner":"SHORT, HANNAH & DAMRON, BENJAMIN","point":[-86.73115021226641,36.261946564558016]}},{"type":"Feature","id":"116720","geometry":{"type":"Polygon","coordinates":[[[-86.7304760147019,36.2634003101766],[-86.7305422052816,36.2629268785642],[-86.7314736459696,36.2630003578004],[-86.7314711002913,36.2630185034702],[-86.7314118807956,36.2634380524015],[-86.7314081154658,36.2634710389694],[-86.7304760147019,36.2634003101766]]]},"properties":{"id":"116720","parcel":"04215003500","address":"112 W MARTHONA RD","owner":"EITNEIER, LUKE J. & ABBY","point":[-86.73097342896902,36.26320940757456]}},{"type":"Feature","id":"117063","geometry":{"type":"Polygon","coordinates":[[[-86.7385912573562,36.262537847763],[-86.7390173537783,36.2623869624002],[-86.739691727392,36.2624855437183],[-86.73960802278,36.2628937100792],[-86.7389424861353,36.262810982962],[-86.7389424204217,36.2628109770551],[-86.7385911786001,36.2625378752816],[-86.7385912573562,36.262537847763]]]},"properties":{"id":"117063","parcel":"04214003800","address":"109 RHINE DR","owner":"WARNER, PATRICK","point":[-86.73920969778808,36.262675392779116]}},{"type":"Feature","id":"117066","geometry":{"type":"Polygon","coordinates":[[[-86.7367974240007,36.2626757361947],[-86.7368829699814,36.2621725156975],[-86.7372967001512,36.2621991103604],[-86.7372965912537,36.2621993669773],[-86.7372336414272,36.2623483819576],[-86.7368505882366,36.2628041588551],[-86.7368474975223,36.2628078358387],[-86.7367788909381,36.262798364824],[-86.7367839758598,36.2627615244267],[-86.7367974240007,36.2626757361947]]]},"properties":{"id":"117066","parcel":"04214004500","address":"106 HOLIDAY DR","owner":"SLATE, ROBERT W. II","point":[-86.73696062618247,36.26251193854458]}},{"type":"Feature","id":"117069","geometry":{"type":"Polygon","coordinates":[[[-86.7368829699814,36.2621725156975],[-86.7369797234937,36.2615609957093],[-86.7374909910271,36.2616084209263],[-86.7373815531594,36.2619131802714],[-86.7372967001512,36.2621991103604],[-86.7368829699814,36.2621725156975]]]},"properties":{"id":"117069","parcel":"04214004600","address":"108 HOLIDAY DR","owner":"BRACEY, BETTY JEAN","point":[-86.73719227637689,36.261760264763076]}},{"type":"Feature","id":"117072","geometry":{"type":"Polygon","coordinates":[[[-86.7369797234937,36.2615609957093],[-86.7370054423541,36.2614086552033],[-86.7370169236176,36.2613488328614],[-86.737032243859,36.2612895783176],[-86.7370513622683,36.261231051339],[-86.7370742257953,36.2611734117671],[-86.7371007735841,36.2611168176884],[-86.7371309325056,36.2610614236589],[-86.7371646193663,36.2610073788882],[-86.7372017442885,36.2609548317254],[-86.7372422051131,36.2609039260881],[-86.7372858907211,36.2608547996396],[-86.7376265198484,36.2610092990457],[-86.7375588871957,36.2616145991285],[-86.7369797234937,36.2615609957093]]]},"properties":{"id":"117072","parcel":"04214004700","address":"110 HOLIDAY DR","owner":"LOVE, LATRENDA C.","point":[-86.73732006972928,36.26126092625013]}},{"type":"Feature","id":"117096","geometry":{"type":"Polygon","coordinates":[[[-86.7392196659161,36.2646058119219],[-86.7393941182938,36.2643256501893],[-86.7401562086962,36.2646412842628],[-86.7396963898857,36.2648023259878],[-86.7395201197089,36.2647292858335],[-86.739519997949,36.2647292370103],[-86.739398928384,36.2646794812968],[-86.7392196659161,36.2646058119219]]]},"properties":{"id":"117096","parcel":"04210002600","address":"100 RHINE DR","owner":"JORDAN, FRANK, III","point":[-86.73952073949016,36.264466196989645]}},{"type":"Feature","id":"118356","geometry":{"type":"Polygon","coordinates":[[[-86.7307806341501,36.2611948352507],[-86.7308054490552,36.2610166801221],[-86.731744385556,36.2610961546703],[-86.7317259363399,36.26122867135],[-86.7317118537441,36.2613199541274],[-86.7312450789744,36.2612414713924],[-86.7307806341501,36.2611948352507]]]},"properties":{"id":"118356","parcel":"04215013400","address":"204 W MARTHONA RD","owner":"JACKSON, MATTHEW","point":[-86.73126251151794,36.2611454959357]}},{"type":"Feature","id":"118509","geometry":{"type":"Polygon","coordinates":[[[-86.7309042849513,36.2603320843193],[-86.7309431448685,36.2600587965261],[-86.7318820357561,36.2601344237365],[-86.7318794316164,36.2601459772034],[-86.7318404447148,36.2604055293558],[-86.7309042849513,36.2603320843193]]]},"properties":{"id":"118509","parcel":"04215002500","address":"218 W MARTHONA RD","owner":"VIRULA, REBECCA","point":[-86.731391481278,36.260239030910334]}},{"type":"Feature","id":"118513","geometry":{"type":"Polygon","coordinates":[[[-86.7307480729137,36.2614435034517],[-86.7307806341501,36.2611948352507],[-86.7312450789744,36.2612414713924],[-86.7317118537441,36.2613199541274],[-86.7317090515336,36.2613387484565],[-86.7316843836436,36.2615041710406],[-86.7316774820932,36.2615651962151],[-86.7307419723545,36.261490094855],[-86.7307480729137,36.2614435034517]]]},"properties":{"id":"118513","parcel":"04215002900","address":"200 W MARTHONA RD","owner":"GREER, YVONNE S.","point":[-86.73122807665672,36.26139112582897]}},{"type":"Feature","id":"118517","geometry":{"type":"Polygon","coordinates":[[[-86.7306158655266,36.2623808815326],[-86.730659132439,36.2620702109263],[-86.7315953125217,36.2621436596262],[-86.7315609231866,36.2623867017941],[-86.7315493329308,36.2624543479057],[-86.7306158655266,36.2623808815326]]]},"properties":{"id":"118517","parcel":"04215003200","address":"124 W MARTHONA RD","owner":"HOU, MISUK","point":[-86.73110545588547,36.26226227128527]}},{"type":"Feature","id":"118710","geometry":{"type":"Polygon","coordinates":[[[-86.7388356125245,36.2633610276988],[-86.7389424204217,36.2628109770551],[-86.7389424861353,36.262810982962],[-86.73960802278,36.2628937100792],[-86.7395110729985,36.2633728282897],[-86.7395061339311,36.2633887915579],[-86.7394994033838,36.2633996512445],[-86.739490677269,36.2634095353817],[-86.7394801647986,36.2634182047612],[-86.7394681222087,36.2634254505291],[-86.7394548372133,36.2634310978861],[-86.7394406323856,36.2634350105732],[-86.7394258518287,36.2634370936567],[-86.7394108500734,36.2634372963],[-86.7393959909899,36.2634356144745],[-86.7390604482972,36.2633915180631],[-86.7388357339878,36.2633610449811],[-86.7388356125245,36.2633610276988]]]},"properties":{"id":"118710","parcel":"04214003900","address":"107 RHINE DR","owner":"ALVARADO, LEYLA C.","point":[-86.7392208604286,36.26312736743227]}},{"type":"Feature","id":"118714","geometry":{"type":"Polygon","coordinates":[[[-86.7372858907211,36.2608547996396],[-86.7374421714387,36.260654412038],[-86.7375319189291,36.2605390425003],[-86.7375738943172,36.2604832806204],[-86.7376125344786,36.2604259601068],[-86.7376477515968,36.2603672103765],[-86.7376794657045,36.2603071671069],[-86.7377076046158,36.2602459650264],[-86.737708318484,36.2602497305635],[-86.7377803743614,36.2606300996139],[-86.7377785606695,36.2606523587436],[-86.7377575420079,36.2609101566104],[-86.7377144329903,36.260906664314],[-86.7376377179067,36.2609004499094],[-86.7376265198484,36.2610092990457],[-86.7372858907211,36.2608547996396]]]},"properties":{"id":"118714","parcel":"04214004800","address":"114 HOLIDAY DR","owner":"COOGAN, RUTH MARIE","point":[-86.7376342856215,36.26058452317272]}},{"type":"Feature","id":"118718","geometry":{"type":"Polygon","coordinates":[[[-86.738639728899,36.2617037850283],[-86.7386506285191,36.2616373239334],[-86.738754842313,36.261027679087],[-86.7387609601438,36.2608837584258],[-86.738760961815,36.2608836989336],[-86.7394685001794,36.2610277184969],[-86.7393737255465,36.2615246474199],[-86.7393352703053,36.2617262597517],[-86.739335222397,36.261726253736],[-86.7393351733759,36.2617262477273],[-86.7391798224853,36.2617061459776],[-86.7390049378062,36.2616835183425],[-86.738991898696,36.2617514345404],[-86.7388254829935,36.2617289585358],[-86.7386397129716,36.2617038671387],[-86.738639728899,36.2617037850283]]]},"properties":{"id":"118718","parcel":"04214005000","address":"505 TUCKAHOE DR","owner":"CHILDS, DONALD, JR.","point":[-86.73906673288603,36.261276168999416]}},{"type":"Feature","id":"118762","geometry":{"type":"Polygon","coordinates":[[[-86.7393941182938,36.2643256501893],[-86.7394295293763,36.2642602107143],[-86.7394620868876,36.2641938063354],[-86.7394917515376,36.2641265193085],[-86.7395184873752,36.2640584318685],[-86.7400135981144,36.2641900032088],[-86.740180552534,36.2646328942149],[-86.7401562086962,36.2646412842628],[-86.7393941182938,36.2643256501893]]]},"properties":{"id":"118762","parcel":"04210002700","address":"102 RHINE DR","owner":"BLANKENSHIP, NORMA C. & NEISLER, JUDY L.","point":[-86.73994391686989,36.26447961339498]}},{"type":"Feature","id":"118774","geometry":{"type":"Polygon","coordinates":[[[-86.7308024290294,36.2675314507263],[-86.7309870530241,36.2672468456413],[-86.7319713008001,36.2676523150202],[-86.7320015349763,36.2680274621094],[-86.7308024290294,36.2675314507263]]]},"properties":{"id":"118774","parcel":"04211000500","address":"509 N GRAYCROFT AVE","owner":"WEST END SYNAGOGUE CONGREGATION KHAL KODESH ADATH","point":[-86.73138656750652,36.26759188363268]}},{"type":"Feature","id":"118778","geometry":{"type":"Polygon","coordinates":[[[-86.7305318121259,36.2669106349182],[-86.7308086440483,36.266173987523],[-86.7313475252449,36.2663745835563],[-86.7309141934735,36.2670545976782],[-86.7305318121259,36.2669106349182]]]},"properties":{"id":"118778","parcel":"04211000800","address":"504 N GRAYCROFT AVE","owner":"JOHNSON, MARK A. & ROBERT T.","point":[-86.73090459308578,36.26664253103153]}},{"type":"Feature","id":"118782","geometry":{"type":"Polygon","coordinates":[[[-86.7300886816767,36.2661341162001],[-86.7301386325493,36.2655932263805],[-86.7310047222088,36.2656432483493],[-86.7308086440483,36.266173987523],[-86.7300886816767,36.2661341162001]]]},"properties":{"id":"118782","parcel":"04211001500","address":"503 N MARTHONA RD","owner":"GOSSETT, MARGARET LOUISE","point":[-86.7305125904782,36.26588860630738]}},{"type":"Feature","id":"119195","geometry":{"type":"Polygon","coordinates":[[[-86.740180552534,36.2646328942149],[-86.7402434362913,36.2646105331835],[-86.7399331633644,36.2651884920734],[-86.7399040260561,36.2652427701531],[-86.7395416356629,36.2650851136554],[-86.7395796180888,36.2650168501507],[-86.7395796684041,36.2650167561138],[-86.7396963898857,36.2648023259878],[-86.7401562086962,36.2646412842628],[-86.740180552534,36.2646328942149]]]},"properties":{"id":"119195","parcel":"04210002400","address":"94 RHINE DR","owner":"CRADDOCK, JERRY R., JR.","point":[-86.73986021357177,36.26491002450947]}},{"type":"Feature","id":"119199","geometry":{"type":"Polygon","coordinates":[[[-86.7395555213556,36.2649003968819],[-86.739519997949,36.2647292370103],[-86.7395201197089,36.2647292858335],[-86.7396963898857,36.2648023259878],[-86.7395796684041,36.2650167561138],[-86.7395555213556,36.2649003968819]]]},"properties":{"id":"119199","parcel":"04210002500","address":"96 RHINE DR","owner":"CRADDOCK, JERRY R., JR.","point":[-86.73960747718375,36.26485132122887]}},{"type":"Feature","id":"119210","geometry":{"type":"Polygon","coordinates":[[[-86.7308086440483,36.266173987523],[-86.7310047222088,36.2656432483493],[-86.7316551996897,36.265889794497],[-86.731468077668,36.2661846981181],[-86.7313475252449,36.2663745835563],[-86.7308086440483,36.266173987523]]]},"properties":{"id":"119210","parcel":"04211000900","address":"502 N GRAYCROFT AVE","owner":"REDEEN, JENNA","point":[-86.73121300544511,36.26603184925352]}},{"type":"Feature","id":"119214","geometry":{"type":"Polygon","coordinates":[[[-86.7310047222088,36.2656432483493],[-86.7310147546519,36.2656160675483],[-86.7311070642125,36.2653341852367],[-86.7314345946821,36.265257973573],[-86.7319514888075,36.2653777695471],[-86.7319129492903,36.2654571751108],[-86.7318718678808,36.2655357407769],[-86.7318282718942,36.2656134123029],[-86.7317880702812,36.2656806115754],[-86.7316551996897,36.265889794497],[-86.7310047222088,36.2656432483493]]]},"properties":{"id":"119214","parcel":"04211001000","address":"500 N GRAYCROFT AVE","owner":"WILLIAMS, LINDEL","point":[-86.73143950781916,36.26557365538871]}},{"type":"Feature","id":"119218","geometry":{"type":"Polygon","coordinates":[[[-86.7301801951019,36.265138120304],[-86.7302224307896,36.2646671049932],[-86.7302241306219,36.2646558012802],[-86.7302282146682,36.2646449058423],[-86.7302345612978,36.2646347456631],[-86.7302429796777,36.2646256256133],[-86.7302532163752,36.2646178202997],[-86.7302649641689,36.2646115640983],[-86.7302778697808,36.2646070447992],[-86.7302915449621,36.2646043990328],[-86.7303055786684,36.2646037049872],[-86.7303195504381,36.2646049850305],[-86.7304666183033,36.2646231718206],[-86.730614291149,36.2646378038879],[-86.7307624352679,36.264648865816],[-86.7309109214782,36.2646563502734],[-86.7308070618628,36.2651848546193],[-86.7301801951019,36.265138120304]]]},"properties":{"id":"119218","parcel":"04211001300","address":"708 OLD HICKORY BLVD","owner":"ANGEL-ONATE, JOSE DE JESUS & ANGEL J. O.","point":[-86.73053177375984,36.26490335761646]}},{"type":"Feature","id":"119222","geometry":{"type":"Polygon","coordinates":[[[-86.7300206425147,36.2668794883937],[-86.7305144103275,36.2669040835521],[-86.7305318121259,36.2669106349182],[-86.7309141934735,36.2670545976782],[-86.7306518945651,36.2674664334479],[-86.7306428465799,36.2674767009964],[-86.7306317466411,36.2674855497811],[-86.7306189273015,36.2674927155303],[-86.7306047749971,36.2674979841162],[-86.7305897122825,36.2675011961681],[-86.7305741912284,36.2675022552238],[-86.7305586767454,36.2675011296333],[-86.730543634359,36.2674978544345],[-86.7304893514609,36.267480691301],[-86.7304368038616,36.2674602930199],[-86.7303862842063,36.2674367740848],[-86.7303380741522,36.2674102643771],[-86.730292443296,36.2673809136785],[-86.7302496480038,36.2673488853698],[-86.7302099258627,36.2673143582661],[-86.7301734978903,36.2672775248015],[-86.7301405696474,36.2672385910223],[-86.7301113245441,36.2671977748242],[-86.7300859238157,36.2671553032496],[-86.7300645121108,36.2671114151565],[-86.7300472074105,36.2670663540703],[-86.7300341066339,36.2670203726555],[-86.7300252844751,36.2669737273155],[-86.7300207878317,36.2669266773248],[-86.7300206425147,36.2668794883937]]]},"properties":{"id":"119222","parcel":"04211001700","address":"509 N MARTHONA RD","owner":"CECIL ALMERON BUTLER LEGACY TRUST, THE","point":[-86.73046704786357,36.26717736985732]}},{"type":"Feature","id":"119227","geometry":{"type":"Polygon","coordinates":[[[-86.7294717981769,36.2678032005468],[-86.730078696687,36.2674017719369],[-86.7301172358036,36.267436664022],[-86.7301585165702,36.2674694351361],[-86.7302023629475,36.267499943043],[-86.7302485845446,36.2675280582109],[-86.7302969832376,36.2675536574631],[-86.730347351027,36.2675766330041],[-86.730399469955,36.2675968834074],[-86.7304531177607,36.2676143234953],[-86.7304664208521,36.267620999681],[-86.7304780897953,36.2676294458634],[-86.7304877705341,36.267639404626],[-86.7304951709084,36.2676505722149],[-86.7305000629961,36.2676626111424],[-86.7305022998563,36.2676751554924],[-86.7305018145243,36.267687822643],[-86.7304986190569,36.2677002303957],[-86.7304928134601,36.2677119996253],[-86.730421994435,36.2678220922853],[-86.7303549253953,36.2679337132695],[-86.7302916567973,36.2680467811679],[-86.7302322368231,36.2681612091762],[-86.7294717981769,36.2678032005468]]]},"properties":{"id":"119227","parcel":"04211002200","address":"600 N GRAYCROFT AVE","owner":"OOTS, ROBERT G. & YVONNE D.","point":[-86.7300025117724,36.26775764679144]}},{"type":"Feature","id":"119239","geometry":{"type":"Polygon","coordinates":[[[-86.7387508949018,36.2608101254105],[-86.7399015853884,36.2606212507736],[-86.7399094373337,36.2606629563378],[-86.7399256546266,36.2607361550504],[-86.7399382640467,36.260809818361],[-86.7399472444689,36.2608838301397],[-86.7399525825324,36.260958071505],[-86.7399542682479,36.2610324271597],[-86.7394685001794,36.2610277184969],[-86.738760961815,36.2608836989336],[-86.738757385981,36.2608578767824],[-86.7387507793255,36.2608101423395],[-86.7387508949018,36.2608101254105]]]},"properties":{"id":"119239","parcel":"04214005200","address":"117 RHINE DR","owner":"ORELLANA, LUIS ERNESTO & GUEVARRA, GUADALUPE","point":[-86.73934779796666,36.2608353048137]}},{"type":"Feature","id":"119280","geometry":{"type":"Polygon","coordinates":[[[-86.7308529011132,36.2606944436054],[-86.7308654388111,36.2606070158572],[-86.7318016018107,36.2606804638921],[-86.7318016576016,36.2606865063781],[-86.7317647583772,36.2609515397859],[-86.7308265569604,36.2608781037802],[-86.7308529011132,36.2606944436054]]]},"properties":{"id":"119280","parcel":"04215002700","address":"208 W MARTHONA RD","owner":"EDGIN, MARY ANNETTE","point":[-86.73131360008917,36.26078733908553]}},{"type":"Feature","id":"119286","geometry":{"type":"Polygon","coordinates":[[[-86.7305763245232,36.2626541713331],[-86.7306158655266,36.2623808815326],[-86.7315493329308,36.2624543479057],[-86.7315169301365,36.2626918840468],[-86.7315125092095,36.2627276215765],[-86.7305763245232,36.2626541713331]]]},"properties":{"id":"119286","parcel":"04215003300","address":"120 W MARTHONA RD","owner":"NICHOLLS, KEITH G","point":[-86.7310632462907,36.262554261549724]}},{"type":"Feature","id":"119532","geometry":{"type":"Polygon","coordinates":[[[-86.7384933871588,36.2625269361417],[-86.7386358745731,36.2617260548358],[-86.7386397129716,36.2617038671387],[-86.7388254829935,36.2617289585358],[-86.738991898696,36.2617514345404],[-86.7389918849357,36.2617515103288],[-86.7389792982423,36.261818538738],[-86.739128917205,36.2618373446708],[-86.7397087450919,36.2619102203125],[-86.739725898133,36.2619148351168],[-86.7397419722079,36.2619215293793],[-86.7397438865315,36.2619225081254],[-86.7397476414468,36.2619245543906],[-86.7397512984183,36.2619267184166],[-86.739756945613,36.261930958436],[-86.7397629121798,36.2619354353292],[-86.7397662312798,36.2619388379267],[-86.7397676006371,36.2619402093449],[-86.7397772836837,36.2619519139753],[-86.7397844899725,36.2619647377882],[-86.7397890282461,36.261978339483],[-86.7397907782797,36.2619923574969],[-86.7397896931911,36.262006419003],[-86.739691727392,36.2624855437183],[-86.7390173537783,36.2623869624002],[-86.7385912573562,36.262537847763],[-86.7385911786001,36.2625378752816],[-86.7384935552906,36.262526945929],[-86.7384933871588,36.2625269361417]]]},"properties":{"id":"119532","parcel":"04214003700","address":"113 RHINE DR","owner":"COLSON SERVICES, LLC","point":[-86.7391515535019,36.26219614209987]}},{"type":"Feature","id":"119568","geometry":{"type":"Polygon","coordinates":[[[-86.7395184873752,36.2640584318685],[-86.7395513911183,36.2639689211254],[-86.7395800257929,36.2638784541444],[-86.7396043492325,36.2637871618664],[-86.7396243248943,36.2636951815064],[-86.7396275901739,36.2636832696445],[-86.7396331309735,36.2636719224521],[-86.7396408097281,36.2636614246619],[-86.73965043411,36.2636520361068],[-86.7396617637229,36.2636439934819],[-86.7396745166351,36.2636374949827],[-86.7396883749946,36.263632705679],[-86.7397029904582,36.2636297430617],[-86.7397179998043,36.2636286805517],[-86.7398508549585,36.2636661024127],[-86.739982311462,36.2637066338633],[-86.7401122588576,36.2637502431399],[-86.7402405855153,36.2637968921777],[-86.7400135981144,36.2641900032088],[-86.7395184873752,36.2640584318685]]]},"properties":{"id":"119568","parcel":"04210002800","address":"600 WESTCHESTER DR","owner":"JACKSON, CALVIN J. & AMENTHEIA S.","point":[-86.73986616314586,36.263924341461134]}},{"type":"Feature","id":"119584","geometry":{"type":"Polygon","coordinates":[[[-86.7317573684001,36.2661829467931],[-86.7318577055828,36.2660182098846],[-86.7319342076623,36.2671781983308],[-86.7312137598093,36.2668911157411],[-86.7315400961401,36.2665246136368],[-86.7317573684001,36.2661829467931]]]},"properties":{"id":"119584","parcel":"04211000700","address":"505 N GRAYCROFT AVE","owner":"EMMETT, ROBERT II","point":[-86.73164009739844,36.26670845556828]}},{"type":"Feature","id":"119588","geometry":{"type":"Polygon","coordinates":[[[-86.7314345946821,36.265257973573],[-86.7315378022603,36.2646591497392],[-86.7316745168142,36.2646525631539],[-86.7318109855522,36.2646432210081],[-86.7319471261533,36.2646311283073],[-86.7320828507492,36.2646162918934],[-86.7320969728232,36.2646161297375],[-86.7321109385296,36.2646178340948],[-86.7321243735293,36.2646213603688],[-86.7321369185882,36.2646266125007],[-86.7321482407715,36.264633450112],[-86.7321580323643,36.2646416921154],[-86.7321660353452,36.2646511156658],[-86.7321720348344,36.2646614697179],[-86.732175868021,36.2646724776764],[-86.7321774353582,36.2646838445379],[-86.7321765349724,36.2646964862845],[-86.7321183766293,36.2649369254547],[-86.7320938839019,36.2650207404761],[-86.7320662512877,36.265103912099],[-86.7320355047861,36.2651863644597],[-86.7320016737271,36.2652680207726],[-86.7319647885539,36.2653488042454],[-86.7319514888075,36.2653777695471],[-86.7314345946821,36.265257973573]]]},"properties":{"id":"119588","parcel":"04211001100","address":"712 OLD HICKORY BLVD","owner":"TAYLOR, RICKY C.","point":[-86.73179453800518,36.26497813466596]}},{"type":"Feature","id":"119592","geometry":{"type":"Polygon","coordinates":[[[-86.7308070618628,36.2651848546193],[-86.7309109214782,36.2646563502734],[-86.731036190066,36.2646618264421],[-86.7311615873675,36.2646648467236],[-86.7312870365366,36.2646654061751],[-86.7314124652449,36.2646635070366],[-86.7315378022603,36.2646591497392],[-86.7314345946821,36.265257973573],[-86.7311070642125,36.2653341852367],[-86.7311049120478,36.2653346858276],[-86.7308070618628,36.2651848546193]]]},"properties":{"id":"119592","parcel":"04211001200","address":"710 OLD HICKORY BLVD","owner":"MAHMOUD, FAYZEH H","point":[-86.73117498688502,36.264925418260134]}},{"type":"Feature","id":"119596","geometry":{"type":"Polygon","coordinates":[[[-86.7301386325493,36.2655932263805],[-86.7301662202035,36.2652912497307],[-86.7301801951019,36.265138120304],[-86.7308070618628,36.2651848546193],[-86.7311049120478,36.2653346858276],[-86.7311070642125,36.2653341852367],[-86.7310147546519,36.2656160675483],[-86.7310047222088,36.2656432483493],[-86.7301386325493,36.2655932263805]]]},"properties":{"id":"119596","parcel":"04211001400","address":"501 N MARTHONA RD","owner":"ROBLES, MELANIA","point":[-86.73060739018257,36.26546392469068]}},{"type":"Feature","id":"119599","geometry":{"type":"Polygon","coordinates":[[[-86.730083274093,36.2661930719296],[-86.7300886816767,36.2661341162001],[-86.7308086440483,36.266173987523],[-86.7305318121259,36.2669106349182],[-86.7305144103275,36.2669040835521],[-86.7300206425147,36.2668794883937],[-86.7300227513112,36.2668521644889],[-86.730083274093,36.2661930719296]]]},"properties":{"id":"119599","parcel":"04211001600","address":"505 N MARTHONA RD","owner":"ALVARADO, MANUEL & ALEXANDRA GORDON ETAL","point":[-86.73036505675122,36.26652332208985]}},{"type":"Feature","id":"119621","geometry":{"type":"Polygon","coordinates":[[[-86.7387725464273,36.2605254205007],[-86.7398331662385,36.2603409264709],[-86.7399015853884,36.2606212507736],[-86.7387508949018,36.2608101254105],[-86.7387507793255,36.2608101423395],[-86.7387633031238,36.2606463425669],[-86.7387725464273,36.2605254205007]]]},"properties":{"id":"119621","parcel":"04214005300","address":"119 RHINE DR","owner":"HUTCHERSON, LINDA N. & JOE B.,SR.","point":[-86.73932958161717,36.26057332065879]}},{"type":"Feature","id":"119625","geometry":{"type":"Polygon","coordinates":[[[-86.7387941301423,36.2602209219976],[-86.7397744284198,36.260080322403],[-86.7397886936416,36.260149592865],[-86.7398048892476,36.260218583837],[-86.7398331662385,36.2603409264709],[-86.7387725464273,36.2605254205007],[-86.7387941301423,36.2602209219976]]]},"properties":{"id":"119625","parcel":"04214005400","address":"121 RHINE DR","owner":"ALEXANDER, KAREN SOCORRO & OLANDRIA, CZARINA RAQUEL","point":[-86.73930475534557,36.260280905980665]}},{"type":"Feature","id":"119629","geometry":{"type":"Polygon","coordinates":[[[-86.7387931227088,36.2600033665179],[-86.7387921097172,36.2597858110582],[-86.7387922221302,36.2597858130747],[-86.7397501735961,36.2598074197386],[-86.7397522965834,36.2598895414511],[-86.7397561984365,36.2599441833114],[-86.7397621355121,36.2599988118104],[-86.7397744284198,36.260080322403],[-86.7387941301423,36.2602209219976],[-86.7387931227088,36.2600033665179]]]},"properties":{"id":"119629","parcel":"04214005500","address":"123 RHINE DR","owner":"SOTO, IMELDA LOPEZ ETAL","point":[-86.73928104038322,36.260041839504716]}},{"type":"Feature","id":"119702","geometry":{"type":"Polygon","coordinates":[[[-86.7310661758529,36.2671226935228],[-86.7312137598093,36.2668911157411],[-86.7319342076623,36.2671781983308],[-86.731939240531,36.2672545046535],[-86.7319713008001,36.2676523150202],[-86.7309870530241,36.2672468456413],[-86.7310661758529,36.2671226935228]]]},"properties":{"id":"119702","parcel":"04211000600","address":"507 N GRAYCROFT AVE","owner":"FOWLER, DAN J.","point":[-86.73172059204327,36.267452883675105]}},{"type":"Feature","id":"119706","geometry":{"type":"Polygon","coordinates":[[[-86.7393352703053,36.2617262597517],[-86.7393737255465,36.2615246474199],[-86.7394685001794,36.2610277184969],[-86.7399542682479,36.2610324271597],[-86.7399528238804,36.2610950155376],[-86.7399486556552,36.2611575232592],[-86.7399417717613,36.2612198745695],[-86.7399321781201,36.2612819892212],[-86.7398433555723,36.2617231501599],[-86.7398401563235,36.2617336592989],[-86.7398350203624,36.2617436521673],[-86.7398280668105,36.261752895515],[-86.7398194583735,36.2617611756527],[-86.7398093946638,36.2617682984923],[-86.7397981111721,36.2617740985656],[-86.739785869278,36.2617784417898],[-86.7397728644849,36.2617809322239],[-86.739759559803,36.2617819347399],[-86.7397462110206,36.2617814315494],[-86.7393353193347,36.2617262666616],[-86.7393352703053,36.2617262597517]]]},"properties":{"id":"119706","parcel":"04214005100","address":"115 RHINE DR","owner":"QUEENER, LLOYD E. & NANNIE L.","point":[-86.73965230514818,36.261403317240955]}},{"type":"Feature","id":"119772","geometry":{"type":"Polygon","coordinates":[[[-86.7293190604467,36.2600526763187],[-86.7293401566476,36.2599124528121],[-86.730772077954,36.2600460953316],[-86.7307359303416,36.2603193648633],[-86.729301305304,36.2601873856839],[-86.7293190604467,36.2600526763187]]]},"properties":{"id":"119772","parcel":"04215004800","address":"217 W MARTHONA RD","owner":"HOFFMAN, ZACHARY & ALEKSANDRA & KRICK, JONATHAN","point":[-86.73003602366535,36.260121671395304]}},{"type":"Feature","id":"120678","geometry":{"type":"Polygon","coordinates":[[[-86.7366193730895,36.2600875095206],[-86.7367731483209,36.2598453861744],[-86.7376212335463,36.2599314126604],[-86.7376135489333,36.2599891012054],[-86.7376021916426,36.2600463912866],[-86.737587192502,36.2601031286024],[-86.7375685901628,36.260159162408],[-86.7375464355169,36.2602143418838],[-86.7375207872796,36.260268519767],[-86.7374917141985,36.2603215505359],[-86.7374592939741,36.2603732940214],[-86.7374236132097,36.2604236099997],[-86.7373847685832,36.2604723644945],[-86.7366193730895,36.2600875095206]]]},"properties":{"id":"120678","parcel":"04214006200","address":"115 HOLIDAY DR","owner":"HUDSON, VALITA GAYE & MAULDIN, DEBORAH K.","point":[-86.73718550289712,36.26018593534998]}},{"type":"Feature","id":"120682","geometry":{"type":"Polygon","coordinates":[[[-86.733977312617,36.2617215624001],[-86.7340205637681,36.261410890543],[-86.7340416112994,36.261266270264],[-86.7349459579127,36.2613459309755],[-86.7349274783512,36.2614746045561],[-86.7349177278896,36.2615301947467],[-86.7349111974911,36.2615860934046],[-86.7349079004919,36.2616421778804],[-86.7349078446732,36.2616983264595],[-86.7343896757625,36.261711365902],[-86.7343853274467,36.2617547943076],[-86.7339748150895,36.2617452018078],[-86.733977312617,36.2617215624001]]]},"properties":{"id":"120682","parcel":"04214007800","address":"408 WESTCHESTER DR","owner":"MAI, ANDREA M. & STAGGS, MISTY L.","point":[-86.73446535490542,36.261501385453236]}},{"type":"Feature","id":"120689","geometry":{"type":"Polygon","coordinates":[[[-86.738811252596,36.2641682416341],[-86.738811277233,36.2641681387421],[-86.7388491586983,36.2639997319669],[-86.7389571679938,36.2635196094886],[-86.7393810216356,36.2635763546667],[-86.7393942818289,36.2635794972752],[-86.7394067530287,36.2635843129073],[-86.7394181147008,36.263590679153],[-86.7394280781867,36.2635984310493],[-86.7394363856835,36.2636073709997],[-86.7394428247271,36.2636172704879],[-86.7394472326852,36.2636278745571],[-86.7394494935204,36.2636389126438],[-86.7394495511685,36.2636501012002],[-86.7394437098021,36.2637185762953],[-86.7394341555545,36.2637867766974],[-86.7394209049853,36.2638545698218],[-86.7394039858158,36.2639218266201],[-86.7393834301938,36.263988415313],[-86.7393592769781,36.2640542076846],[-86.7393315739305,36.2641190754644],[-86.7393003744023,36.2641828930508],[-86.7392657373435,36.2642455384132],[-86.7392277328328,36.2643068894524],[-86.738811252596,36.2641682416341]]]},"properties":{"id":"120689","parcel":"04210003900","address":"105 RHINE DR","owner":"SIMPSON, SHAUNDRA & DAVIDSON, DEANGELO","point":[-86.73914347949437,36.26388761193484]}},{"type":"Feature","id":"120690","geometry":{"type":"Polygon","coordinates":[[[-86.7384898723261,36.2646251073374],[-86.7387411861339,36.2641472456704],[-86.738811252596,36.2641682416341],[-86.7392277328328,36.2643068894524],[-86.7392104710285,36.264337319097],[-86.7391908186262,36.2643667810086],[-86.7391688557331,36.2643951539301],[-86.7389064012553,36.2647609035305],[-86.7386402314333,36.264674173937],[-86.7384899605158,36.2646251365394],[-86.7384898723261,36.2646251073374]]]},"properties":{"id":"120690","parcel":"04210004000","address":"101 RHINE DR","owner":"EAGON, JAMES","point":[-86.73881830464482,36.26451010696843]}},{"type":"Feature","id":"120693","geometry":{"type":"Polygon","coordinates":[[[-86.7324164853855,36.2642335403777],[-86.7324639360957,36.2638624076087],[-86.7332514537003,36.2639235593904],[-86.7334327128388,36.2639372929677],[-86.7333838363835,36.2641535034194],[-86.7333132219638,36.264160566868],[-86.7332428723799,36.2641691923207],[-86.733242979092,36.2641807266516],[-86.7330470320573,36.2642103459377],[-86.7328519245944,36.2642434007499],[-86.7326577489092,36.2642798761133],[-86.732588677107,36.2642934781985],[-86.7325196154511,36.2643081805971],[-86.7325033516396,36.2643102024264],[-86.7324900125743,36.2643099480173],[-86.7324768957017,36.2643079663844],[-86.732464339801,36.2643043077463],[-86.7324526707062,36.2642990665612],[-86.7324421901515,36.2642923788903],[-86.7324331690457,36.2642844170313],[-86.7324258385439,36.264275386869],[-86.7324203922235,36.2642655224543],[-86.7324169670995,36.2642550789092],[-86.7324156535736,36.264244325157],[-86.7324164853855,36.2642335403777]]]},"properties":{"id":"120693","parcel":"04210005000","address":"98 S GRAYCROFT AVE","owner":"OLIVER, DOUGLASS","point":[-86.73292454546912,36.26404431905516]}},{"type":"Feature","id":"120694","geometry":{"type":"Polygon","coordinates":[[[-86.7325210084015,36.2634313344157],[-86.7325229320042,36.2634192353146],[-86.7333145057184,36.2634792634682],[-86.733274350574,36.2637586015619],[-86.7332514537003,36.2639235593904],[-86.7324639360957,36.2638624076087],[-86.7325210084015,36.2634313344157]]]},"properties":{"id":"120694","parcel":"04210005100","address":"100 S GRAYCROFT AVE","owner":"JEHODY PROPERTY, LLC","point":[-86.73289541768783,36.26361804213942]}},{"type":"Feature","id":"120702","geometry":{"type":"Polygon","coordinates":[[[-86.733844163989,36.2621415617755],[-86.7339040128282,36.2617181619877],[-86.733977312617,36.2617215624001],[-86.7339748150895,36.2617452018078],[-86.7343853274467,36.2617547943076],[-86.7343447898057,36.2621385206181],[-86.7340205594732,36.2621426903903],[-86.733844163989,36.2621415617755]]]},"properties":{"id":"120702","parcel":"04214008400","address":"111 HEAD DR","owner":"HAMILTON, NATHAN ANDREW","point":[-86.73411846401011,36.261946109574176]}},{"type":"Feature","id":"122250","geometry":{"type":"Polygon","coordinates":[[[-86.7367394150978,36.2606586985875],[-86.7366608177059,36.2606053393661],[-86.7366093215869,36.2605716773648],[-86.7365559839765,36.2605399516181],[-86.7365009167605,36.2605102272326],[-86.7364442340244,36.2604825665975],[-86.7363860531494,36.260457027576],[-86.7366193730895,36.2600875095206],[-86.7373847685832,36.2604723644945],[-86.7372369735653,36.2606556640904],[-86.7371165077887,36.2608047388646],[-86.7371041259274,36.260815091251],[-86.7370897211766,36.2608235543549],[-86.7370737262728,36.260829872287],[-86.7370566224223,36.2608338555547],[-86.7370389270938,36.2608353847413],[-86.7370211717801,36.260834412444],[-86.7370038909202,36.2608309687493],[-86.7369876062784,36.2608251568218],[-86.7369728069063,36.2608171521252],[-86.7367394150978,36.2606586985875]]]},"properties":{"id":"122250","parcel":"04214006300","address":"405 TUCKAHOE DR","owner":"VON HOPFFGARTEN, DANIEL N.","point":[-86.73688637032804,36.260464699188056]}},{"type":"Feature","id":"122251","geometry":{"type":"Polygon","coordinates":[[[-86.7359106238011,36.2603231243232],[-86.7360377978811,36.259772951818],[-86.7362964777935,36.2597966476537],[-86.7367731483209,36.2598453861744],[-86.7366193730895,36.2600875095206],[-86.7363860531494,36.260457027576],[-86.7363220679887,36.2604298286579],[-86.7362564990028,36.2604052304261],[-86.7361895047676,36.2603832931964],[-86.7361212515724,36.2603640691267],[-86.7360519067935,36.2603476076649],[-86.7359816399403,36.2603339483326],[-86.7359106238011,36.2603231243232]]]},"properties":{"id":"122251","parcel":"04214006400","address":"403 TUCKAHOE DR","owner":"HOORMANN, MARION J. & CATHERINE A.","point":[-86.73624131025935,36.260205265217024]}},{"type":"Feature","id":"122252","geometry":{"type":"Polygon","coordinates":[[[-86.7360387346655,36.2611887446811],[-86.7360492206758,36.2610029844823],[-86.736301699738,36.2605778600629],[-86.7363606768555,36.2606027354647],[-86.7364178379344,36.2606302517284],[-86.7364730018986,36.2606603225395],[-86.7365179986989,36.26068783268],[-86.7365614544846,36.2607169230609],[-86.7369225754465,36.2609597528119],[-86.7369349919348,36.2609705938338],[-86.7369449490401,36.2609829873711],[-86.7369521551864,36.2609965729034],[-86.7369564019199,36.2610109533535],[-86.7369575651636,36.261025710401],[-86.7369556086151,36.2610404107702],[-86.7369505928497,36.2610546278041],[-86.7369230632343,36.2611098813826],[-86.7368987141745,36.2611661051222],[-86.7368775979913,36.2612231806428],[-86.7368597591669,36.261280984205],[-86.7360387346655,36.2611887446811]]]},"properties":{"id":"122252","parcel":"04214006600","address":"404 TUCKAHOE DR","owner":"MORENO, JOSE & ANA","point":[-86.73644489796175,36.26083768377682]}},{"type":"Feature","id":"122253","geometry":{"type":"Polygon","coordinates":[[[-86.7357406131006,36.2625437272184],[-86.7359741811491,36.262126959804],[-86.7367003887854,36.2622351611547],[-86.7366283449537,36.2626586366877],[-86.7366241238244,36.2626700036379],[-86.7366177172992,36.2626806791384],[-86.7366092886536,36.2626903900188],[-86.7365990536911,36.2626988871221],[-86.7365872763587,36.2627059525409],[-86.7365742576691,36.2627114050931],[-86.7365603312919,36.2627151048547],[-86.7365458535796,36.2627169577268],[-86.7365311968914,36.2627169154766],[-86.7364525253839,36.2627064448598],[-86.7363743594321,36.2626937306256],[-86.7362967959978,36.2626787875052],[-86.7359685409466,36.2626154092438],[-86.7358910755116,36.2625947036319],[-86.7358150314765,36.2625707881068],[-86.7357406131006,36.2625437272184]]]},"properties":{"id":"122253","parcel":"04214006900","address":"417 WESTCHESTER DR","owner":"HALTERMAN, DAVID","point":[-86.73625076733542,36.262389511895876]}},{"type":"Feature","id":"122255","geometry":{"type":"Polygon","coordinates":[[[-86.7341515663455,36.2604667778498],[-86.734156090596,36.2604425772597],[-86.7350577353829,36.2605244498383],[-86.7350366843137,36.2606690676564],[-86.7349984246581,36.2609319149691],[-86.7340961219432,36.2608527920099],[-86.7341076504861,36.2607791031575],[-86.7341515663455,36.2604667778498]]]},"properties":{"id":"122255","parcel":"04214007600","address":"404 WESTCHESTER DR","owner":"EIDSON, TRAVIS P. & ADKINS, SHELLEY M.","point":[-86.73457202880076,36.26072408600227]}},{"type":"Feature","id":"122256","geometry":{"type":"Polygon","coordinates":[[[-86.7340644385018,36.2610941702251],[-86.7340961219432,36.2608527920099],[-86.7349984246581,36.2609319149691],[-86.7349459579127,36.2613459309755],[-86.7340416112994,36.261266270264],[-86.7340644385018,36.2610941702251]]]},"properties":{"id":"122256","parcel":"04214007700","address":"406 WESTCHESTER DR","owner":"BOGGS, BRANDON C. & KATHARINE J.","point":[-86.73450986289652,36.26118123510625]}},{"type":"Feature","id":"122268","geometry":{"type":"Polygon","coordinates":[[[-86.7313590641314,36.2638163568785],[-86.7314006434066,36.2635436043243],[-86.7323233960989,36.2636303147795],[-86.7323082477251,36.2637529221338],[-86.7322607303019,36.2638966028616],[-86.7317861231306,36.2638533288388],[-86.7314459562257,36.263822423556],[-86.7313590641314,36.2638163568785]]]},"properties":{"id":"122268","parcel":"04211006100","address":"95 S GRAYCROFT AVE","owner":"MILLER, NATHAN SR & SARA L","point":[-86.7318471109819,36.263690568571555]}},{"type":"Feature","id":"122688","geometry":{"type":"Polygon","coordinates":[[[-86.7359997845592,36.2617427749995],[-86.7360063642769,36.2616476891004],[-86.7367812808359,36.2617418583589],[-86.7367003887854,36.2622351611547],[-86.7359741811491,36.262126959804],[-86.7359997845592,36.2617427749995]]]},"properties":{"id":"122688","parcel":"04214006800","address":"109 HOLIDAY DR","owner":"TEEPLE, CHRISTINA M.","point":[-86.73636816928463,36.26193570817113]}},{"type":"Feature","id":"122690","geometry":{"type":"Polygon","coordinates":[[[-86.7351712757307,36.2609171285937],[-86.7352064507712,36.2606680349116],[-86.7352355680148,36.2604618357067],[-86.7352380612127,36.2604512102184],[-86.7352426095649,36.2604410399702],[-86.7352490952921,36.2604315843349],[-86.7352573548246,36.260423084939],[-86.7352671776065,36.2604157566575],[-86.7352783138764,36.2604097866656],[-86.7352904801478,36.2604053253927],[-86.7353033681189,36.2604024873697],[-86.7353166490661,36.2604013448936],[-86.7353299849539,36.2604019261572],[-86.7357876302354,36.2604469378437],[-86.7358643043838,36.2604557591592],[-86.7359402709388,36.2604679517749],[-86.7360153036595,36.2604834783165],[-86.7360891806802,36.2605022932727],[-86.7361616822598,36.2605243403049],[-86.7362325919109,36.2605495540425],[-86.736301699738,36.2605778600629],[-86.7360492206758,36.2610029844823],[-86.7351712757307,36.2609171285937]]]},"properties":{"id":"122690","parcel":"04214007300","address":"400 TUCKAHOE DR","owner":"MILLER, DAVID EDWARD II & TIPPS, KIMBERLI JOI MILLER","point":[-86.73568087496612,36.2607936700047]}},{"type":"Feature","id":"122691","geometry":{"type":"Polygon","coordinates":[[[-86.7343272819722,36.2622990515465],[-86.7343447898057,36.2621385206181],[-86.7343853274467,36.2617547943076],[-86.7343896757625,36.261711365902],[-86.7349078446732,36.2616983264595],[-86.7349123014291,36.2617573559002],[-86.7349205760726,36.261816115181],[-86.7349326481825,36.2618744413007],[-86.7349484828958,36.261932174049],[-86.7349680375686,36.2619891541645],[-86.734991257332,36.2620452242619],[-86.7350180784482,36.2621002306144],[-86.7350484271802,36.2621540213586],[-86.7350540621873,36.2621646523721],[-86.7350573726676,36.2621759058624],[-86.7350582598617,36.2621874525764],[-86.7350566994663,36.2621989519926],[-86.7350527350915,36.2622100667813],[-86.7350464849959,36.2622204690726],[-86.7350381333101,36.2622298540277],[-86.7350279234185,36.2622379461886],[-86.7350161569133,36.2622445066938],[-86.7350031803248,36.2622493423723],[-86.7349520603674,36.2622664848657],[-86.7348997596099,36.2622811020303],[-86.734846465658,36.2622931431555],[-86.7347923739739,36.2623025646933],[-86.7347376789747,36.2623093303122],[-86.7346825807581,36.2623134162638],[-86.7346272784016,36.2623148087201],[-86.7343272819722,36.2622990515465]]]},"properties":{"id":"122691","parcel":"04214007900","address":"412 WESTCHESTER DR","owner":"KELLEY, THOMAS & TIFFANY","point":[-86.73466870036154,36.26201649985296]}},{"type":"Feature","id":"122698","geometry":{"type":"Polygon","coordinates":[[[-86.7381857868215,36.264280569656],[-86.7382597726751,36.2639216328818],[-86.7387411861339,36.2641472456704],[-86.7384898723261,36.2646251073374],[-86.7381942191178,36.2645609969255],[-86.7381915819555,36.2644745308638],[-86.7381857868215,36.264280569656]]]},"properties":{"id":"122698","parcel":"04210004100","address":"725 OLD HICKORY BLVD","owner":"ALBARATI HOLDINGS, LLC","point":[-86.7384527478218,36.2642138845048]}},{"type":"Feature","id":"122699","geometry":{"type":"Polygon","coordinates":[[[-86.7333145057184,36.2634792634682],[-86.7333284637231,36.263374793453],[-86.7337704105468,36.2634078215569],[-86.7337678439272,36.263423770178],[-86.7337142184141,36.2637866973874],[-86.733274350574,36.2637586015619],[-86.7333145057184,36.2634792634682]]]},"properties":{"id":"122699","parcel":"04210004800","address":"103 HEAD DR","owner":"JOHNSON, ABBIGAIL B. ETAL","point":[-86.73351664450189,36.26361942781]}},{"type":"Feature","id":"122700","geometry":{"type":"Polygon","coordinates":[[[-86.7382226470257,36.2639042818735],[-86.7383132173022,36.2634312466219],[-86.7389570042018,36.2635195879591],[-86.7389571679938,36.2635196094886],[-86.7388491586983,36.2639997319669],[-86.738811277233,36.2641681387421],[-86.738811252596,36.2641682416341],[-86.7387411861339,36.2641472456704],[-86.7382597726751,36.2639216328818],[-86.7382436224807,36.2639140845129],[-86.7382226470257,36.2639042818735]]]},"properties":{"id":"122700","parcel":"04210005200","address":"596 WESTCHESTER DR","owner":"DONKIN, KATHY & THOMAS P. & BILLY R.","point":[-86.73858667590744,36.2637119391869]}},{"type":"Feature","id":"122708","geometry":{"type":"Polygon","coordinates":[[[-86.7333284637231,36.263374793453],[-86.73337621467,36.2630366239701],[-86.7338479867201,36.263067273553],[-86.7337975621116,36.2634098548179],[-86.7337704105468,36.2634078215569],[-86.7333284637231,36.263374793453]]]},"properties":{"id":"122708","parcel":"04214008800","address":"105 HEAD DR","owner":"BUESSER, COLIN","point":[-86.73358776362562,36.263221032759915]}},{"type":"Feature","id":"122709","geometry":{"type":"Polygon","coordinates":[[[-86.7326368868129,36.2625367614241],[-86.7326416350854,36.262536732637],[-86.7334385915684,36.2625928817111],[-86.733433423767,36.2626209326594],[-86.73337621467,36.2630366239701],[-86.7326457485305,36.2629817197449],[-86.7325771789625,36.2629760926192],[-86.7326368868129,36.2625367614241]]]},"properties":{"id":"122709","parcel":"04214009000","address":"104 S GRAYCROFT AVE","owner":"TITTLE FAMILY TRUST","point":[-86.73300514817745,36.26279851306807]}},{"type":"Feature","id":"122710","geometry":{"type":"Polygon","coordinates":[[[-86.7326937489967,36.2620831636211],[-86.7327507814762,36.2616476949637],[-86.7335646183882,36.2616965984728],[-86.733500315504,36.2621518903035],[-86.7326937489967,36.2620831636211]]]},"properties":{"id":"122710","parcel":"04214009200","address":"108 S GRAYCROFT AVE","owner":"WACHTER, MARK A. ET UX","point":[-86.73312818721905,36.261889879621464]}},{"type":"Feature","id":"122711","geometry":{"type":"Polygon","coordinates":[[[-86.7327919857815,36.2613353876094],[-86.7328323985856,36.2610104478029],[-86.7340644385018,36.2610941702251],[-86.7340416112994,36.261266270264],[-86.7340205637681,36.261410890543],[-86.7327919857815,36.2613353876094]]]},"properties":{"id":"122711","parcel":"04214009400","address":"112 S GRAYCROFT AVE","owner":"VANDERGRIFF, SARAH E.","point":[-86.73343232647896,36.2611788385753]}},{"type":"Feature","id":"122724","geometry":{"type":"Polygon","coordinates":[[[-86.7317861231306,36.2638533288388],[-86.7322607303019,36.2638966028616],[-86.7322215051173,36.2642770234555],[-86.732218344255,36.2642908442042],[-86.732212580738,36.2643041021258],[-86.7322043540662,36.2643164782369],[-86.7321938629275,36.2643276757262],[-86.7321813585537,36.2643374236001],[-86.732165470376,36.2643462573873],[-86.7321479424083,36.2643527461656],[-86.7321292981355,36.2643566956999],[-86.731989835767,36.2643724884951],[-86.7318499524818,36.2643856087964],[-86.7317097250031,36.2643960480267],[-86.7317861231306,36.2638533288388]]]},"properties":{"id":"122724","parcel":"04211006200","address":"657 OLD HICKORY BLVD","owner":"JOHNS, ROSE E & ALZIE LEE","point":[-86.73199726372684,36.26408626701887]}},{"type":"Feature","id":"122725","geometry":{"type":"Polygon","coordinates":[[[-86.7303539044796,36.2642839295495],[-86.7304302206633,36.2637313242415],[-86.7307758139315,36.2637621986644],[-86.730675726576,36.2643852690114],[-86.730575575515,36.2643759869997],[-86.7304251634952,36.2643604143259],[-86.7304113258014,36.2643572552997],[-86.7303982997733,36.2643523258365],[-86.7303864293711,36.2643457554386],[-86.7303760277946,36.2643377170542],[-86.730367368539,36.2643284226247],[-86.7303606786516,36.2643181159156],[-86.7303561353683,36.2643070698331],[-86.7303538570868,36.2642955729602],[-86.7303539044796,36.2642839295495]]]},"properties":{"id":"122725","parcel":"04211006600","address":"641 OLD HICKORY BLVD","owner":"IBBIE TRUST & BOND, VICTOR & VICKEY","point":[-86.73056191692217,36.26402305767213]}},{"type":"Feature","id":"122726","geometry":{"type":"Polygon","coordinates":[[[-86.7304696310674,36.2634437516099],[-86.7304760147019,36.2634003101766],[-86.7314081154658,36.2634710389694],[-86.7314006434066,36.2635436043243],[-86.7313590641314,36.2638163568785],[-86.7312857191258,36.2638080109369],[-86.7307758139315,36.2637621986644],[-86.7304302206633,36.2637313242415],[-86.7304696310674,36.2634437516099]]]},"properties":{"id":"122726","parcel":"04211006700","address":"108 W MARTHONA RD","owner":"ALUKONIS, ANNE B.","point":[-86.73091470148401,36.26363746362543]}},{"type":"Feature","id":"122742","geometry":{"type":"Polygon","coordinates":[[[-86.733500315504,36.2621518903035],[-86.7335646183882,36.2616965984728],[-86.7339040128282,36.2617181619877],[-86.733844163989,36.2621415617755],[-86.7338327988911,36.2622328309904],[-86.7334907248848,36.2622151291258],[-86.733500315504,36.2621518903035]]]},"properties":{"id":"122742","parcel":"04214012100","address":"115 HEAD DR","owner":"EDDY, JOHN N & BATSON- EDDY, DIANNA","point":[-86.73370293488992,36.261929480965165]}},{"type":"Feature","id":"122743","geometry":{"type":"Polygon","coordinates":[[[-86.7314118807956,36.2634380524015],[-86.7314711002913,36.2630185034702],[-86.732395096835,36.263093668141],[-86.7323500608713,36.2634323705085],[-86.7323233960989,36.2636303147795],[-86.7314006434066,36.2635436043243],[-86.7314081154658,36.2634710389694],[-86.7314118807956,36.2634380524015]]]},"properties":{"id":"122743","parcel":"04215000100","address":"97 S GRAYCROFT AVE","owner":"MILLER, NATHAN P. & SARA L.","point":[-86.7319047308863,36.26326197160527]}},{"type":"Feature","id":"122744","geometry":{"type":"Polygon","coordinates":[[[-86.7317259363399,36.26122867135],[-86.731744385556,36.2610961546703],[-86.7326292188554,36.2611935304695],[-86.7326367014124,36.2611956832328],[-86.7326297672941,36.2612528621712],[-86.7326209868966,36.2613303788982],[-86.7325842018394,36.2616075001769],[-86.7316843836436,36.2615041710406],[-86.7317090515336,36.2613387484565],[-86.7317118537441,36.2613199541274],[-86.7317259363399,36.26122867135]]]},"properties":{"id":"122744","parcel":"04215000700","address":"109 S GRAYCROFT AVE","owner":"COORDINATION PLUS, LLC & MISTY MEADOWS PROP.,LLC","point":[-86.7321526716908,36.261422481633275]}},{"type":"Feature","id":"123343","geometry":{"type":"Polygon","coordinates":[[[-86.7340489284974,36.263374814678],[-86.7341107146853,36.2629409650012],[-86.7345704081255,36.2629859689061],[-86.7345436212394,36.2632432494704],[-86.7345262932293,36.2633996308708],[-86.734525460848,36.2634070801799],[-86.7340492247028,36.2633748345086],[-86.7340489284974,36.263374814678]]]},"properties":{"id":"123343","parcel":"04214012200","address":"112 HEAD DR","owner":"WILLIAMS, BOBBIE RUTH SLATE","point":[-86.73432157454545,36.26311408646251]}},{"type":"Feature","id":"123347","geometry":{"type":"Polygon","coordinates":[[[-86.7345387342081,36.2624597005576],[-86.7345556892828,36.2624591856301],[-86.7345885964201,36.2624600409529],[-86.7345919848646,36.2624602609866],[-86.7346238392656,36.2624631595042],[-86.734623904987,36.2624631663146],[-86.7345967444594,36.2627286036336],[-86.7345704081255,36.2629859689061],[-86.7341107146853,36.2629409650012],[-86.7341266472507,36.2628305292769],[-86.7341100113642,36.2628283880499],[-86.7340926991534,36.2628261581011],[-86.734093302307,36.2628149826535],[-86.7340943018151,36.2628038264279],[-86.7340962321166,36.2627889937932],[-86.7341026776347,36.2627577401554],[-86.7341122206217,36.2627270102475],[-86.7341177833996,36.2627127918217],[-86.7341223830546,36.2627022436925],[-86.7341273543198,36.262691806862],[-86.734127401285,36.2626917110452],[-86.7341291355287,36.2626883920538],[-86.7341291880161,36.2626882916972],[-86.7341309088369,36.2626850854424],[-86.7341310160457,36.2626848856169],[-86.7341328853985,36.2626814955079],[-86.7341514931805,36.2626516739539],[-86.7341732636526,36.2626232913905],[-86.734198027463,36.2625965669451],[-86.7342009522603,36.2625937075622],[-86.7342011254406,36.2625935415829],[-86.7342039106582,36.2625908714073],[-86.7342039989217,36.2625907888581],[-86.7342069048822,36.262588058467],[-86.7342199508979,36.2625760503767],[-86.7342281807051,36.262569471784],[-86.7342441907161,36.26255667422],[-86.734257969602,36.2625473762108],[-86.7342647350906,36.2625428613424],[-86.734268157706,36.2625406433204],[-86.7342785761258,36.2625341460561],[-86.7342928274422,36.2625258725871],[-86.7343037721622,36.262519967843],[-86.7343111842125,36.2625161736411],[-86.7343149229174,36.2625143205022],[-86.7343188401215,36.2625123950804],[-86.7343227809612,36.2625104983546],[-86.7343307303257,36.2625068036279],[-86.7343716872149,36.2624901755846],[-86.7343800997659,36.2624872278724],[-86.7343843321113,36.2624858052284],[-86.7343885825617,36.2624844149189],[-86.7343955466443,36.2624824781883],[-86.7343997129294,36.2624812524158],[-86.7344038928518,36.2624800572024],[-86.7344080875242,36.2624788925415],[-86.734435675038,36.2624721602409],[-86.7344637239701,36.262466824757],[-86.7344680755108,36.2624661358972],[-86.7344724340288,36.2624654794394],[-86.7344767995157,36.2624648544826],[-86.7344849942571,36.2624637421126],[-86.7344932124483,36.262462758477],[-86.7345221365032,36.2624603512005],[-86.734530431416,36.2624599610139],[-86.7345387342081,36.2624597005576]]]},"properties":{"id":"123347","parcel":"04214012300","address":"116 HEAD DR","owner":"WILLIAMS, BOBBIE RUTH SLATE","point":[-86.73435626364746,36.26272043709604]}},{"type":"Feature","id":"123355","geometry":{"type":"Polygon","coordinates":[[[-86.7315125092095,36.2627276215765],[-86.7315169301365,36.2626918840468],[-86.7324334616661,36.2627670963004],[-86.732395096835,36.263093668141],[-86.7314711002913,36.2630185034702],[-86.7314736459696,36.2630003578004],[-86.7315125092095,36.2627276215765]]]},"properties":{"id":"123355","parcel":"04215000200","address":"99 S GRAYCROFT AVE","owner":"A & F RENTAL PROPERTIES, LLC","point":[-86.73195502526994,36.26288373131321]}},{"type":"Feature","id":"123359","geometry":{"type":"Polygon","coordinates":[[[-86.7315493329308,36.2624543479057],[-86.7315609231866,36.2623867017941],[-86.7324747421934,36.2624624771945],[-86.7324334616661,36.2627670963004],[-86.7315169301365,36.2626918840468],[-86.7315493329308,36.2624543479057]]]},"properties":{"id":"123359","parcel":"04215000300","address":"101 S GRAYCROFT AVE","owner":"GREGORY, JUSTIN & STELLA","point":[-86.73199588806105,36.26257718169814]}},{"type":"Feature","id":"123363","geometry":{"type":"Polygon","coordinates":[[[-86.7316774820932,36.2615651962151],[-86.7316843836436,36.2615041710406],[-86.7325842018394,36.2616075001769],[-86.7325798258982,36.2616426282487],[-86.732552625198,36.2618609638096],[-86.7316483297978,36.261787329493],[-86.7316774717641,36.2615652827968],[-86.7316774820932,36.2615651962151]]]},"properties":{"id":"123363","parcel":"04215000600","address":"107 S GRAYCROFT AVE","owner":"LEFTWICH, KATHY E & DARRELL","point":[-86.7321143221266,36.261714980326005]}},{"type":"Feature","id":"123366","geometry":{"type":"Polygon","coordinates":[[[-86.731744385556,36.2610961546703],[-86.7317648496768,36.2609614285545],[-86.7326279798005,36.261059485537],[-86.7326551287883,36.2610609693093],[-86.7326367014124,36.2611956832328],[-86.7326292188554,36.2611935304695],[-86.731744385556,36.2610961546703]]]},"properties":{"id":"123366","parcel":"04215000800","address":"111 S GRAYCROFT AVE","owner":"LYONS, CORA E. & RONALD W.","point":[-86.73219989764404,36.261078563171345]}},{"type":"Feature","id":"123369","geometry":{"type":"Polygon","coordinates":[[[-86.7318404447148,36.2604055293558],[-86.7318794316164,36.2601459772034],[-86.732620281463,36.2602266444664],[-86.7327622017856,36.2602417170188],[-86.7327253973908,36.260516638623],[-86.7326228611022,36.2605057235162],[-86.7318405360232,36.2604154181259],[-86.7318404447148,36.2604055293558]]]},"properties":{"id":"123369","parcel":"04215001100","address":"117 S GRAYCROFT AVE","owner":"JOHNSON, BETTY CLEO","point":[-86.73230200026623,36.26032362559188]}},{"type":"Feature","id":"123672","geometry":{"type":"Polygon","coordinates":[[[-86.7355932288755,36.2631830239981],[-86.7357841907929,36.2627071822722],[-86.7358297458,36.2627221989578],[-86.7358762717717,36.2627351161304],[-86.7359236214233,36.2627458923275],[-86.7362491832701,36.2628114825434],[-86.7363413093727,36.2628290298699],[-86.736434206434,36.2628436713328],[-86.7365277351358,36.2628553852483],[-86.7365402479374,36.2628570447752],[-86.7365522888789,36.2628602600155],[-86.7365635667765,36.2628649525333],[-86.7365738056984,36.2628710086521],[-86.7365827561101,36.2628782811883],[-86.7365902026967,36.2628865930087],[-86.7365959599459,36.2628957406628],[-86.7365998922615,36.2629055032717],[-86.736601900602,36.2629156417094],[-86.7365979641252,36.2630030203054],[-86.7361735609265,36.2632517362914],[-86.7359211591485,36.2632843141599],[-86.7359278093962,36.2631969199729],[-86.7355932288755,36.2631830239981]]]},"properties":{"id":"123672","parcel":"04214008200","address":"418 WESTCHESTER DR","owner":"BROWN, STERLING GOLLER","point":[-86.73614187183674,36.26295832141344]}},{"type":"Feature","id":"123674","geometry":{"type":"Polygon","coordinates":[[[-86.7338327988911,36.2622328309904],[-86.733844163989,36.2621415617755],[-86.7340205594732,36.2621426903903],[-86.734003891355,36.262247724045],[-86.7338327988911,36.2622328309904]]]},"properties":{"id":"123674","parcel":"04214008500","address":"0 HEAD DR","owner":"EDDY, JOHN N & BATSON- EDDY, DIANNA","point":[-86.73392590607139,36.262187759007695]}},{"type":"Feature","id":"123676","geometry":{"type":"Polygon","coordinates":[[[-86.7334385915684,36.2625928817111],[-86.7334907248848,36.2622151291258],[-86.7338327988911,36.2622328309904],[-86.734003891355,36.262247724045],[-86.7339398612532,36.2626590626672],[-86.7339079634147,36.2626576080212],[-86.733433423767,36.2626209326594],[-86.7334385915684,36.2625928817111]]]},"properties":{"id":"123676","parcel":"04214008600","address":"109 HEAD DR","owner":"HILL, GARY LEE","point":[-86.73371971365034,36.26242029981448]}},{"type":"Feature","id":"123678","geometry":{"type":"Polygon","coordinates":[[[-86.73337621467,36.2630366239701],[-86.733433423767,36.2626209326594],[-86.7339079634147,36.2626576080212],[-86.7338479867201,36.263067273553],[-86.73337621467,36.2630366239701]]]},"properties":{"id":"123678","parcel":"04214008700","address":"107 HEAD DR","owner":"ESKANDAR, FARES WASIM & ABDELSHAHED, WASSEM","point":[-86.73364125509218,36.26284711443829]}},{"type":"Feature","id":"123680","geometry":{"type":"Polygon","coordinates":[[[-86.7325229320042,36.2634192353146],[-86.7325771789625,36.2629760926192],[-86.7326457485305,36.2629817197449],[-86.73337621467,36.2630366239701],[-86.7333284637231,36.263374793453],[-86.7333145057184,36.2634792634682],[-86.7325229320042,36.2634192353146]]]},"properties":{"id":"123680","parcel":"04214008900","address":"102 S GRAYCROFT AVE","owner":"STARKS, MISTY DAWN & KENNETH DEAN","point":[-86.73295081474181,36.26320481292173]}},{"type":"Feature","id":"123682","geometry":{"type":"Polygon","coordinates":[[[-86.7334385915684,36.2625928817111],[-86.7326416350854,36.262536732637],[-86.7326368868129,36.2625367614241],[-86.7326412694338,36.2624971766825],[-86.7326937489967,36.2620831636211],[-86.733500315504,36.2621518903035],[-86.7334907248848,36.2622151291258],[-86.7334385915684,36.2625928817111]]]},"properties":{"id":"123682","parcel":"04214009100","address":"106 S GRAYCROFT AVE","owner":"HILL, GARY LEE","point":[-86.73306519901938,36.2623561518802]}},{"type":"Feature","id":"123684","geometry":{"type":"Polygon","coordinates":[[[-86.7328323985856,36.2610104478029],[-86.7328735852604,36.2606959432376],[-86.7341076504861,36.2607791031575],[-86.7340961219432,36.2608527920099],[-86.7340644385018,36.2610941702251],[-86.7328323985856,36.2610104478029]]]},"properties":{"id":"123684","parcel":"04214009500","address":"114 S GRAYCROFT AVE","owner":"FLETCHER, HEATHER C & MCELHINEY, ANDREW T","point":[-86.73346424810464,36.26093162155001]}},{"type":"Feature","id":"123686","geometry":{"type":"Polygon","coordinates":[[[-86.7329147512749,36.2603792397229],[-86.7329578404316,36.2600504388465],[-86.7341921755838,36.2601638130546],[-86.734156090596,36.2604425772597],[-86.7341515663455,36.2604667778498],[-86.7329147512749,36.2603792397229]]]},"properties":{"id":"123686","parcel":"04214009700","address":"118 S GRAYCROFT AVE","owner":"DAVIS, NORMAN ET UX","point":[-86.73355355086295,36.2602715282915]}},{"type":"Feature","id":"123706","geometry":{"type":"Polygon","coordinates":[[[-86.7313597908427,36.2644097021787],[-86.7314459562257,36.263822423556],[-86.7317861231306,36.2638533288388],[-86.7317097250031,36.2643960480267],[-86.731593287537,36.2644037204659],[-86.7314765997944,36.2644082733121],[-86.7313597908427,36.2644097021787]]]},"properties":{"id":"123706","parcel":"04211006300","address":"653 OLD HICKORY BLVD","owner":"MOSELEY, STEPHANIE L.","point":[-86.73157482317491,36.264124300099375]}},{"type":"Feature","id":"123708","geometry":{"type":"Polygon","coordinates":[[[-86.7311908754145,36.2644107243205],[-86.7312857191258,36.2638080109369],[-86.7313590641314,36.2638163568785],[-86.7314459562257,36.263822423556],[-86.7313597908427,36.2644097021787],[-86.7311908754145,36.2644107243205]]]},"properties":{"id":"123708","parcel":"04211006400","address":"649 OLD HICKORY BLVD","owner":"WILLIAMS, BOBBIE RUTH SLATE","point":[-86.73132008805511,36.2641158769487]}},{"type":"Feature","id":"123710","geometry":{"type":"Polygon","coordinates":[[[-86.730675726576,36.2643852690114],[-86.7307758139315,36.2637621986644],[-86.7312857191258,36.2638080109369],[-86.7311908754145,36.2644107243205],[-86.7310618430477,36.2644080991753],[-86.7309329256813,36.2644029794646],[-86.7308041956854,36.264395367455],[-86.730675726576,36.2643852690114]]]},"properties":{"id":"123710","parcel":"04211006500","address":"645 OLD HICKORY BLVD","owner":"POLICASTRO, JOZELLA A.","point":[-86.73098119636823,36.26409664143718]}},{"type":"Feature","id":"123752","geometry":{"type":"Polygon","coordinates":[[[-86.7318820357561,36.2601344237365],[-86.7319162387733,36.2598710558266],[-86.7327962727107,36.2599646138271],[-86.7327622017856,36.2602417170188],[-86.732620281463,36.2602266444664],[-86.7318794316164,36.2601459772034],[-86.7318820357561,36.2601344237365]]]},"properties":{"id":"123752","parcel":"04215001200","address":"119 S GRAYCROFT AVE","owner":"RAY, TOMMY DAVIS, SR. & ROWENA RUTH","point":[-86.73233945112368,36.26004952032119]}},{"type":"Feature","id":"123975","geometry":{"type":"Polygon","coordinates":[[[-86.7360187548084,36.26144818241],[-86.7360387346655,36.2611887446811],[-86.7368597591669,36.261280984205],[-86.7368363473033,36.2613899077238],[-86.7367812808359,36.2617418583589],[-86.7360063642769,36.2616476891004],[-86.7360187548084,36.26144818241]]]},"properties":{"id":"123975","parcel":"04214006700","address":"111 HOLIDAY DR","owner":"AKIN, CLAUDIA B.(LE) & ROBT. L. ET UX","point":[-86.73641195314924,36.26154881656099]}},{"type":"Feature","id":"123977","geometry":{"type":"Polygon","coordinates":[[[-86.7341921755838,36.2601638130546],[-86.7342106560501,36.2600351413388],[-86.7351075084895,36.2601126481903],[-86.7350577353829,36.2605244498383],[-86.734156090596,36.2604425772597],[-86.7341921755838,36.2601638130546]]]},"properties":{"id":"123977","parcel":"04214007500","address":"402 WESTCHESTER DR","owner":"CURTIS, ANTHONY H. ET UX","point":[-86.73462918341497,36.26030420558242]}},{"type":"Feature","id":"123991","geometry":{"type":"Polygon","coordinates":[[[-86.7396831872111,36.263387707969],[-86.7397720952345,36.2629558864248],[-86.7403637251421,36.2630352216065],[-86.7401458285461,36.2633848753196],[-86.7400302188854,36.2635723809091],[-86.7399727356825,36.2635554245686],[-86.7398281871803,36.2635140053248],[-86.7397292293336,36.2634868663981],[-86.7397165647417,36.2634814814973],[-86.7397051968709,36.2634744520038],[-86.7396954480671,36.2634659751192],[-86.7396875932546,36.2634562942988],[-86.7396818564542,36.2634456839514],[-86.7396784018138,36.263434442285],[-86.7396773258188,36.2634228913532],[-86.7396786593497,36.2634113590191],[-86.7396831872111,36.263387707969]]]},"properties":{"id":"123991","parcel":"04210003800","address":"601 WESTCHESTER DR","owner":"BOWMAN, JEFFREY K. &  CARMEN R.","point":[-86.73998739109271,36.26320946756266]}},{"type":"Feature","id":"123993","geometry":{"type":"Polygon","coordinates":[[[-86.7332514537003,36.2639235593904],[-86.733274350574,36.2637586015619],[-86.7337142184141,36.2637866973874],[-86.7336604438307,36.2641336942048],[-86.7335499328489,36.264141232516],[-86.7333838363835,36.2641535034194],[-86.7334327128388,36.2639372929677],[-86.7332514537003,36.2639235593904]]]},"properties":{"id":"123993","parcel":"04210004900","address":"101 HEAD DR","owner":"HEAD 2026 TENNESSEE COMMUNITY PROPERTY T","point":[-86.73354309989493,36.264035485892]}},{"type":"Feature","id":"123995","geometry":{"type":"Polygon","coordinates":[[[-86.7340435943291,36.2634145638625],[-86.7340489284974,36.263374814678],[-86.7340492247028,36.2633748345086],[-86.734525460848,36.2634070801799],[-86.7345228643063,36.263419183405],[-86.7344714142248,36.2639091258335],[-86.7344518084696,36.2640958342651],[-86.734451798185,36.2640959253529],[-86.7344339698979,36.2640968808695],[-86.7343793459327,36.2640997993879],[-86.7343246496179,36.2641016359311],[-86.7342951921855,36.264102513386],[-86.7342608637855,36.264103399701],[-86.7341825619869,36.2641044819672],[-86.7341042478546,36.2641043529901],[-86.7341039173079,36.2641043504919],[-86.734034702258,36.2641034046474],[-86.7340346465507,36.2641033977758],[-86.7340220598057,36.2641010994587],[-86.7340099800579,36.264097428175],[-86.733998633868,36.2640924537468],[-86.733988235764,36.2640862686004],[-86.7339866497469,36.2640852886711],[-86.733986137086,36.2640848483744],[-86.7339774186556,36.264077378671],[-86.7339743558726,36.2640738770269],[-86.7339695305706,36.264068361901],[-86.7339653669667,36.2640613548077],[-86.7339636757459,36.2640585081464],[-86.7339612075069,36.2640517908692],[-86.7339598358695,36.2640480031741],[-86.7339582249339,36.2640372422306],[-86.7339579587436,36.2640264037243],[-86.7339747974214,36.2639060930681],[-86.734042582438,36.2634221016788],[-86.7340435943291,36.2634145638625]]]},"properties":{"id":"123995","parcel":"04210005300","address":"100 HEAD DR","owner":"MEHR, KAMRAN KAMI","point":[-86.73425286072602,36.2636646401283]}},{"type":"Feature","id":"124453","geometry":{"type":"Polygon","coordinates":[[[-86.7345704081255,36.2629859689061],[-86.7345967444594,36.2627286036336],[-86.734623904987,36.2624631663146],[-86.7346237980512,36.2624516292754],[-86.7346851210436,36.2624509590637],[-86.7347462840602,36.2624473175001],[-86.7348070679752,36.2624407167322],[-86.7348672548844,36.2624311806166],[-86.7349266292098,36.2624187438111],[-86.7349849776911,36.2624034508736],[-86.7350420916118,36.262385356248],[-86.7351262725377,36.2623551762259],[-86.7351396806703,36.2623523530845],[-86.735153465085,36.2623512246898],[-86.7351672999701,36.2623518182585],[-86.7351808602341,36.2623541186447],[-86.7351938259981,36.2623580728188],[-86.7352058914647,36.2623635862087],[-86.7352167738956,36.2623705307561],[-86.7352262146991,36.2623787422063],[-86.7352607450762,36.2624138643771],[-86.7352978763408,36.2624472006748],[-86.7353374693288,36.2624786248687],[-86.7353793749191,36.2625080170975],[-86.7349799918091,36.2628944755621],[-86.7349480542665,36.2631814555093],[-86.734943856141,36.263240816043],[-86.734543734745,36.2632432487805],[-86.7345436212394,36.2632432494704],[-86.7345704081255,36.2629859689061]]]},"properties":{"id":"124453","parcel":"04214008000","address":"414 WESTCHESTER DR","owner":"LUTTRELL, KIEFER & STUBBS, MALLORY","point":[-86.73482668551559,36.26281162470613]}},{"type":"Feature","id":"124465","geometry":{"type":"Polygon","coordinates":[[[-86.7327507814762,36.2616476949637],[-86.7327919857815,36.2613353876094],[-86.7340205637681,36.261410890543],[-86.733977312617,36.2617215624001],[-86.7339040128282,36.2617181619877],[-86.7335646183882,36.2616965984728],[-86.7327507814762,36.2616476949637]]]},"properties":{"id":"124465","parcel":"04214009300","address":"110 S GRAYCROFT AVE","owner":"DUGGINS, AMANDA & CHRISTOPHER","point":[-86.73338523657848,36.261529293469444]}},{"type":"Feature","id":"124470","geometry":{"type":"Polygon","coordinates":[[[-86.7328753744195,36.2606821947626],[-86.7329147512749,36.2603792397229],[-86.7341515663455,36.2604667778498],[-86.7341076504861,36.2607791031575],[-86.7328735852604,36.2606959432376],[-86.7328753744195,36.2606821947626]]]},"properties":{"id":"124470","parcel":"04214009600","address":"116 S GRAYCROFT AVE","owner":"DAVIS, KEVIN W.","point":[-86.73351289052417,36.26057448671904]}},{"type":"Feature","id":"124515","geometry":{"type":"Polygon","coordinates":[[[-86.729841129933,36.2642952684019],[-86.7299365259741,36.2636777192644],[-86.7302624455177,36.2637087139846],[-86.7301861180648,36.2642602206396],[-86.7301842502678,36.2642711702794],[-86.7301801005462,36.2642817002104],[-86.730173789582,36.2642915014788],[-86.7301655050255,36.2643002863562],[-86.7301554893212,36.2643077956224],[-86.7301440375815,36.264313809394],[-86.7301314853704,36.2643181499013],[-86.7301182021186,36.264320691442],[-86.730104577744,36.2643213577584],[-86.7300910138244,36.2643201302022],[-86.729841129933,36.2642952684019]]]},"properties":{"id":"124515","parcel":"04211006900","address":"635 OLD HICKORY BLVD","owner":"TEMPLE, JOZELLA M.","point":[-86.73005676995928,36.26398408938838]}},{"type":"Feature","id":"124540","geometry":{"type":"Polygon","coordinates":[[[-86.7383907520265,36.2631024345058],[-86.7384933871588,36.2625269361417],[-86.7384935552906,36.262526945929],[-86.7385911786001,36.2625378752816],[-86.7389424204217,36.2628109770551],[-86.7388356125245,36.2633610276988],[-86.7383560621622,36.2632969315373],[-86.7383907520265,36.2631024345058]]]},"properties":{"id":"124540","parcel":"04214011300","address":"597 WESTCHESTER DR","owner":"VOUNG, ANESSA P. & MOROZ, MICHAEL","point":[-86.738665428577,36.26295670357194]}},{"type":"Feature","id":"124638","geometry":{"type":"Polygon","coordinates":[[[-86.7315953125217,36.2621436596262],[-86.7316087723611,36.2620584216756],[-86.7325184978722,36.2621320242866],[-86.7324747421934,36.2624624771945],[-86.7315609231866,36.2623867017941],[-86.7315953125217,36.2621436596262]]]},"properties":{"id":"124638","parcel":"04215000400","address":"103 S GRAYCROFT AVE","owner":"PADGETT, JACOB & MOODY, EMILY","point":[-86.73203935536502,36.26226621489398]}},{"type":"Feature","id":"124644","geometry":{"type":"Polygon","coordinates":[[[-86.7316386109628,36.2618368340282],[-86.7316483297978,36.261787329493],[-86.732552625198,36.2618609638096],[-86.7325184978722,36.2621320242866],[-86.7316087723611,36.2620584216756],[-86.7316386109628,36.2618368340282]]]},"properties":{"id":"124644","parcel":"04215000500","address":"105 S GRAYCROFT AVE","owner":"WATSON, N. LEON, JR. & SARA N.","point":[-86.73208113535654,36.26195969465347]}},{"type":"Feature","id":"124649","geometry":{"type":"Polygon","coordinates":[[[-86.7317647583772,36.2609515397859],[-86.7318016576016,36.2606865063781],[-86.7326253797913,36.2607782067261],[-86.7326912559974,36.2607860509788],[-86.7326551287883,36.2610609693093],[-86.7326279798005,36.261059485537],[-86.7317648496768,36.2609614285545],[-86.7317647583772,36.2609515397859]]]},"properties":{"id":"124649","parcel":"04215000900","address":"113 S GRAYCROFT AVE","owner":"LYONS, CORA E. & RONALD W.","point":[-86.73222833433827,36.26086879701332]}},{"type":"Feature","id":"124654","geometry":{"type":"Polygon","coordinates":[[[-86.7318016018107,36.2606804638921],[-86.7318405360232,36.2604154181259],[-86.7326228611022,36.2605057235162],[-86.7327253973908,36.260516638623],[-86.7327042826002,36.2606832322683],[-86.7326912559974,36.2607860509788],[-86.7326253797913,36.2607782067261],[-86.7318016576016,36.2606865063781],[-86.7318016018107,36.2606804638921]]]},"properties":{"id":"124654","parcel":"04215001000","address":"115 S GRAYCROFT AVE","owner":"PROFFITT, KEITH D.","point":[-86.73226433485773,36.260598554020476]}}]}