{"type":"FeatureCollection","features":[{"type":"Feature","id":"263570","geometry":{"type":"Polygon","coordinates":[[[-86.6957310234754,36.1822124481581],[-86.6961210106059,36.1818311294171],[-86.6967583513041,36.1822510462235],[-86.696656705248,36.182328768022],[-86.6965575352246,36.182408563663],[-86.6964609052673,36.1824903823125],[-86.6963896658878,36.1825490272449],[-86.6963158574359,36.1826055455604],[-86.6962518986729,36.1826519156239],[-86.6961864300123,36.1826968811855],[-86.6961195000839,36.1827404095173],[-86.6955693878591,36.1823705618853],[-86.6955693442434,36.1823705323951],[-86.695604882689,36.182335784163],[-86.6957310234754,36.1822124481581]]]},"properties":{"id":"263570","parcel":"08406000200","address":"118 TWO RIVERS CT","owner":"MCKINNEY, THOMAS M.& STEVENS, KAREN L.","point":[-86.69618103221487,36.18228857213086]}},{"type":"Feature","id":"263573","geometry":{"type":"Polygon","coordinates":[[[-86.6939944217357,36.1816036962557],[-86.6941001961482,36.1815024679426],[-86.6941599705202,36.1815572146152],[-86.6944370750931,36.1818110062104],[-86.6946323881752,36.1819037099084],[-86.6946140530223,36.1819220415739],[-86.6945447144628,36.1819912985276],[-86.6943566482691,36.1821841214717],[-86.6941682452501,36.1823787034995],[-86.6941659351762,36.1823831608912],[-86.694165204321,36.1823829821382],[-86.6940304590266,36.1823499551541],[-86.6937800991655,36.182288589096],[-86.6937656973251,36.1822838185827],[-86.6937524379329,36.1822772218603],[-86.6937406693663,36.1822689726726],[-86.6937307025837,36.1822592882391],[-86.6937228010725,36.182248423905],[-86.6937171718926,36.1822366659822],[-86.6937140851196,36.182222989089],[-86.6937138101383,36.1822090860444],[-86.6937219064599,36.1821483983027],[-86.6937335691835,36.1820880938287],[-86.693748772811,36.182028308858],[-86.6937676750714,36.1819713172607],[-86.6937900754332,36.1819151644554],[-86.6938159184402,36.1818599931578],[-86.6938451396883,36.1818059398261],[-86.6938776658965,36.1817531427716],[-86.6939134148204,36.1817017322458],[-86.6939522964426,36.1816518394458],[-86.6939944217357,36.1816036962557]]]},"properties":{"id":"263573","parcel":"08406002000","address":"100 RUSTIC CT","owner":"COOPER, WILMA LEIGH & AKINS, MARGARET L.","point":[-86.69418314689243,36.1819466604523]}},{"type":"Feature","id":"263576","geometry":{"type":"Polygon","coordinates":[[[-86.6929253974685,36.1805622494271],[-86.6937446510108,36.1812508982481],[-86.6939717104888,36.1814394785888],[-86.6939158635357,36.181493864361],[-86.6938635381255,36.1815505055448],[-86.6938148752611,36.1816092535278],[-86.6937700014242,36.1816699516696],[-86.692919255607,36.1812556388021],[-86.6922563430598,36.1809308934224],[-86.6923724924917,36.1808751919105],[-86.6924868814723,36.180817144492],[-86.692599434726,36.180756788555],[-86.6927100858551,36.1806941596348],[-86.6928187629678,36.1806293005082],[-86.6929253974685,36.1805622494271]]]},"properties":{"id":"263576","parcel":"08406002100","address":"109 RUSTIC CT","owner":"SNOW, STIRLING H. & OTWELL, JANIN D.","point":[-86.69306838139666,36.181091072208226]}},{"type":"Feature","id":"263579","geometry":{"type":"Polygon","coordinates":[[[-86.6927236098026,36.1816677196034],[-86.6921573457804,36.1817792007734],[-86.6917405904815,36.1818607047848],[-86.6916742322146,36.181711645447],[-86.6914731186983,36.1812639308993],[-86.6914592877244,36.1812321443023],[-86.6915960345425,36.1811890450377],[-86.6917313419462,36.181143058119],[-86.6918651168118,36.1810942147275],[-86.6919972693827,36.1810425496305],[-86.6921277076719,36.1809880967071],[-86.6922563430598,36.1809308934224],[-86.692919255607,36.1812556388021],[-86.6937700014242,36.1816699516696],[-86.6937382117866,36.181712906318],[-86.693709683496,36.1817573419114],[-86.6936845229454,36.1818030929103],[-86.6936628209733,36.1818499947657],[-86.6936446572313,36.1818978748813],[-86.6936300991195,36.181946558027],[-86.6927236098026,36.1816677196034]]]},"properties":{"id":"263579","parcel":"08406002200","address":"105 RUSTIC CT","owner":"DAY, JOSHUA & SARAH","point":[-86.69246005683692,36.181466532013964]}},{"type":"Feature","id":"263580","geometry":{"type":"Polygon","coordinates":[[[-86.6908367151359,36.1821916867368],[-86.6912345699629,36.1819641450422],[-86.6916742322146,36.181711645447],[-86.6917405904815,36.1818607047848],[-86.6915081324923,36.1824043024484],[-86.6912389782829,36.1824701243963],[-86.6908934059359,36.1825539630655],[-86.6908517283282,36.1824382807742],[-86.6908457949399,36.1824118393503],[-86.6908431781183,36.1823850481844],[-86.6908439024633,36.182358179316],[-86.6908479625755,36.1823315067586],[-86.6908553152273,36.182305301137],[-86.690860979258,36.1822861277874],[-86.6908631228534,36.1822664888059],[-86.6908617007752,36.1822468062407],[-86.690856741179,36.1822275044234],[-86.6908483532933,36.1822089982089],[-86.6908367151359,36.1821916867368]]]},"properties":{"id":"263580","parcel":"08407002300","address":"2904 WINDEMERE CT","owner":"NEWMAN, DONAVON T. & LINDA J.","point":[-86.69134133692944,36.18207870460557]}},{"type":"Feature","id":"263582","geometry":{"type":"Polygon","coordinates":[[[-86.692839607834,36.1819648010811],[-86.6927236098026,36.1816677196034],[-86.6936300991195,36.181946558027],[-86.6936209565401,36.1819856188548],[-86.6936108030549,36.1820247675044],[-86.6935930130774,36.1821015488407],[-86.6935779156272,36.1821787085532],[-86.6935600474829,36.1822020447676],[-86.6935600211023,36.182202079167],[-86.6935600002091,36.1822021054235],[-86.6935599682545,36.1822021380525],[-86.6935386234607,36.1822234069215],[-86.6935385926019,36.1822234377415],[-86.693538562839,36.1822234667529],[-86.6935385286294,36.1822234957896],[-86.6935137196297,36.1822422132639],[-86.6934863943756,36.1822584667254],[-86.6934569255934,36.1822720359268],[-86.6934568801726,36.1822720542129],[-86.6934568414139,36.1822720715594],[-86.6934567948578,36.1822720871482],[-86.6934253560073,36.1822822122314],[-86.6934253094354,36.1822822260178],[-86.6934252728529,36.1822822379443],[-86.6934252251378,36.1822822481322],[-86.6933923655188,36.1822890683396],[-86.6933214700769,36.1822949479725],[-86.6933213500956,36.1822949576742],[-86.6932506897005,36.182303182794],[-86.6932271786119,36.1823064487808],[-86.6931519663035,36.1823188160314],[-86.693077459935,36.1823337306463],[-86.6930037926872,36.1823511675282],[-86.6929916979645,36.1823543174614],[-86.692839607834,36.1819648010811]]]},"properties":{"id":"263582","parcel":"08406002300","address":"2609 WINDEMERE DR","owner":"PIPER, MATTHEW","point":[-86.69323524866792,36.18200421844237]}},{"type":"Feature","id":"263585","geometry":{"type":"Polygon","coordinates":[[[-86.6915081324923,36.1824043024484],[-86.6917405904815,36.1818607047848],[-86.6922338293561,36.182655807057],[-86.6917784553637,36.1828466525011],[-86.6915081324923,36.1824043024484]]]},"properties":{"id":"263585","parcel":"08406002600","address":"2625 WINDEMERE DR","owner":"BAUER, JEAN M.","point":[-86.6917670081296,36.18213287103784]}},{"type":"Feature","id":"263588","geometry":{"type":"Polygon","coordinates":[[[-86.6908997880578,36.1832659091976],[-86.6909837292214,36.1832491304058],[-86.6913122548206,36.1843464839138],[-86.6907620403211,36.184279858896],[-86.6906437373151,36.1833015338273],[-86.6907295506674,36.1832921537491],[-86.6907296650372,36.1832921377733],[-86.6908148942788,36.1832802825152],[-86.6908150530217,36.1832802554704],[-86.6908996559875,36.1832659351887],[-86.6908997880578,36.1832659091976]]]},"properties":{"id":"263588","parcel":"08407000100","address":"2632 WINDEMERE DR","owner":"ZHAMBALA HOLDINGS, LLC","point":[-86.69092454656942,36.18379126887379]}},{"type":"Feature","id":"263968","geometry":{"type":"Polygon","coordinates":[[[-86.696731555538,36.1812325975375],[-86.6967694082586,36.1811950191531],[-86.6968253141391,36.1812331550052],[-86.6975186242,36.1816983458],[-86.697394765833,36.1817938369314],[-86.6972453148228,36.1819076018791],[-86.6971449991233,36.1819829001413],[-86.6964468874619,36.181511142224],[-86.696731555538,36.1812325975375]]]},"properties":{"id":"263968","parcel":"08406000400","address":"110 TWO RIVERS CT","owner":"SMITH, EVA MAE TRUSTEE","point":[-86.69698226433708,36.18160474396662]}},{"type":"Feature","id":"263970","geometry":{"type":"Polygon","coordinates":[[[-86.6912458353238,36.1831794424583],[-86.6913493358493,36.1831383841622],[-86.6917661042836,36.1839280407756],[-86.6920666914672,36.1844388573546],[-86.6913122548206,36.1843464839138],[-86.6909837292214,36.1832491304058],[-86.6910721702976,36.183228609005],[-86.6910722989542,36.1832285740207],[-86.6911595815239,36.1832053689303],[-86.6911597167955,36.1832053275992],[-86.6912458353238,36.1831794424583]]]},"properties":{"id":"263970","parcel":"08406001200","address":"2628 WINDEMERE DR","owner":"BRISSIE, GEORGE S. ET UX","point":[-86.69133618192608,36.18358848637024]}},{"type":"Feature","id":"263972","geometry":{"type":"Polygon","coordinates":[[[-86.6952071864791,36.1808685835031],[-86.6952808904454,36.180828272884],[-86.6952806665691,36.1808302542405],[-86.6952724976969,36.1809028094178],[-86.695263035048,36.1809344179128],[-86.6951502822078,36.1813110798876],[-86.6951233877795,36.181400921777],[-86.695087472712,36.1814398620006],[-86.6948760768,36.1816570919392],[-86.6947415553855,36.1817937499451],[-86.6946323881752,36.1819037099084],[-86.6944370750931,36.1818110062104],[-86.6941599705202,36.1815572146152],[-86.6941001961482,36.1815024679426],[-86.6941316626211,36.1814739433126],[-86.6941652400275,36.1814470495313],[-86.6942008013944,36.1814218864657],[-86.6942382119362,36.1813985504226],[-86.6942773279275,36.1813771323529],[-86.6945182870554,36.181245351208],[-86.6948959076351,36.1810388265343],[-86.6952071864791,36.1808685835031]]]},"properties":{"id":"263972","parcel":"08406001700","address":"106 RUSTIC CT","owner":"JONES, JERRY DANIEL & TIANO, CYNTHIA ANN","point":[-86.69473976562719,36.181344173114766]}},{"type":"Feature","id":"263974","geometry":{"type":"Polygon","coordinates":[[[-86.6911227921846,36.1830632221418],[-86.6911009917477,36.1830569164653],[-86.6910806260452,36.1830479988354],[-86.6910621693628,36.1830366756296],[-86.6910621269856,36.1830366605508],[-86.6910621078359,36.1830366318201],[-86.6908934059359,36.1825539630655],[-86.6912389782829,36.1824701243963],[-86.6915081324923,36.1824043024484],[-86.6917784553637,36.1828466525011],[-86.6912135603786,36.1830562846021],[-86.6911916818372,36.1830624528094],[-86.6911688685177,36.183065708089],[-86.69114570669,36.1830659668719],[-86.6911227921846,36.1830632221418]]]},"properties":{"id":"263974","parcel":"08406002700","address":"2629 WINDEMERE DR","owner":"CENTER, WARREN E. & SHERRY M.","point":[-86.69131689160986,36.182700259510895]}},{"type":"Feature","id":"263976","geometry":{"type":"Polygon","coordinates":[[[-86.6902848721608,36.1833372041902],[-86.6902865029109,36.1833136738198],[-86.6903759534299,36.183314458319],[-86.6904653839936,36.1833126941068],[-86.6905546812254,36.1833083845356],[-86.6906437373151,36.1833015338273],[-86.6907620403211,36.184279858896],[-86.6902253421376,36.1842155144926],[-86.6902240433711,36.1842153587904],[-86.6902276109766,36.1841638603189],[-86.6902848721608,36.1833372041902]]]},"properties":{"id":"263976","parcel":"08407000200","address":"2636 WINDEMERE DR","owner":"PHENEVONGSA, RACHELLE & PHOUTHONG","point":[-86.6904772057735,36.183751103784545]}},{"type":"Feature","id":"264730","geometry":{"type":"Polygon","coordinates":[[[-86.6913493358493,36.1831383841622],[-86.6917914398607,36.1829629999971],[-86.6922558702855,36.1837472104229],[-86.6922816813861,36.1837855326347],[-86.6924666183932,36.1840585708371],[-86.6922910497237,36.1842292541012],[-86.6920666914672,36.1844388573546],[-86.6917661042836,36.1839280407756],[-86.6913493358493,36.1831383841622]]]},"properties":{"id":"264730","parcel":"08406001300","address":"2624 WINDEMERE DR","owner":"PUGH, DAVID L. & NICOLE","point":[-86.6917928030131,36.18344277292436]}},{"type":"Feature","id":"264731","geometry":{"type":"Polygon","coordinates":[[[-86.6918289677479,36.1829481124458],[-86.6922400728991,36.1827785182024],[-86.6926483783803,36.1834520851247],[-86.69264840655,36.1834521282235],[-86.6927357476384,36.1835856379237],[-86.6928249054101,36.1837219256258],[-86.6925585507778,36.1839721931949],[-86.6925248632154,36.1840038457785],[-86.6924666183932,36.1840585708371],[-86.6922816813861,36.1837855326347],[-86.6922558702855,36.1837472104229],[-86.6917914398607,36.1829629999971],[-86.6918289677479,36.1829481124458]]]},"properties":{"id":"264731","parcel":"08406001400","address":"2620 WINDEMERE DR","owner":"ILER, RACHELLE","point":[-86.692218204248,36.18320753894652]}},{"type":"Feature","id":"264732","geometry":{"type":"Polygon","coordinates":[[[-86.6922400728991,36.1827785182024],[-86.692579279664,36.1826385836007],[-86.6926528609953,36.1826071896779],[-86.6927277784601,36.1825779483602],[-86.6928039390053,36.1825508971307],[-86.6931505519002,36.1831404306853],[-86.692964818619,36.1832134696959],[-86.6926483783803,36.1834520851247],[-86.6922400728991,36.1827785182024]]]},"properties":{"id":"264732","parcel":"08406001500","address":"2616 WINDEMERE DR","owner":"PHENEVONGSA, RACHELLE & PHOUTHONG","point":[-86.69269695658934,36.1829594795304]}},{"type":"Feature","id":"264765","geometry":{"type":"Polygon","coordinates":[[[-86.6897458091331,36.1822160480759],[-86.6896290099444,36.1821112293287],[-86.690525477107,36.1822511507067],[-86.6905241226215,36.1822733294219],[-86.6905272706922,36.1822953895523],[-86.6905348360667,36.1823167322483],[-86.6905466136279,36.1823367818768],[-86.6905622840383,36.1823549959029],[-86.690581424998,36.1823708810487],[-86.6906094157198,36.1823894977505],[-86.6906347664629,36.1824104538954],[-86.6906571816051,36.1824335051328],[-86.6906763986454,36.1824583807859],[-86.6906921938337,36.1824847919309],[-86.6907505540525,36.1826492802187],[-86.6901939514509,36.1827821242368],[-86.6897458091331,36.1822160480759]]]},"properties":{"id":"264765","parcel":"08407002700","address":"2907 WINDEMERE CT","owner":"LOVELL, WALTER M. & CONNIE W.","point":[-86.69029654066162,36.18244498569872]}},{"type":"Feature","id":"264766","geometry":{"type":"Polygon","coordinates":[[[-86.6901939514509,36.1827821242368],[-86.6907505540525,36.1826492802187],[-86.6908970847891,36.1830696161172],[-86.6908926774802,36.1830851456931],[-86.6908854602139,36.1830999676395],[-86.6908755946373,36.1831137502688],[-86.6908755671357,36.1831137837728],[-86.6908755484569,36.1831138091149],[-86.690875516485,36.1831138399407],[-86.6908627921703,36.1831259094137],[-86.6908627623826,36.1831259357206],[-86.6908627370258,36.1831259601997],[-86.6908627005759,36.1831259874461],[-86.6908474350729,36.1831360418256],[-86.6908304893397,36.1831441356669],[-86.6908122431293,36.1831500883469],[-86.6907946562398,36.1831531117659],[-86.6907131022527,36.1831671062997],[-86.6907130023506,36.1831671239953],[-86.6906307917338,36.1831782309926],[-86.6906306740291,36.1831782469873],[-86.6905454406735,36.1831864268071],[-86.6904598570666,36.1831916641579],[-86.69037407432,36.1831939482611],[-86.6902882502704,36.1831932746089],[-86.6902529237752,36.1831919976359],[-86.6902528514925,36.1831919953454],[-86.6902175593677,36.1831901963368],[-86.6901823393484,36.1831878678668],[-86.6901822180969,36.1831878595474],[-86.6901470569142,36.1831850098034],[-86.6901939514509,36.1827821242368]]]},"properties":{"id":"264766","parcel":"08407002800","address":"2633 WINDEMERE DR","owner":"WILLIAMS, RACHEL & MICHAEL SHANE","point":[-86.69051228844054,36.18292578479252]}},{"type":"Feature","id":"264835","geometry":{"type":"Polygon","coordinates":[[[-86.6907033261908,36.1821287111692],[-86.6908151690631,36.1813528559934],[-86.6912294346937,36.1812970093322],[-86.6913470728188,36.1812646528211],[-86.6914592877244,36.1812321443023],[-86.6914731186983,36.1812639308993],[-86.6916742322146,36.181711645447],[-86.6912345699629,36.1819641450422],[-86.6908367151359,36.1821916867368],[-86.6908199079629,36.1821750690711],[-86.690800358736,36.1821605580146],[-86.6907784624547,36.1821484478199],[-86.6907546637263,36.1821389846892],[-86.6907294478262,36.182132361418],[-86.6907033261908,36.1821287111692]]]},"properties":{"id":"264835","parcel":"08407002400","address":"2908 WINDEMERE CT","owner":"HARDIN, SHANNON C.","point":[-86.69109995695099,36.18183698141284]}},{"type":"Feature","id":"264985","geometry":{"type":"Polygon","coordinates":[[[-86.689478442124,36.1902513629899],[-86.6888553522197,36.1897930715667],[-86.6889706035971,36.1895182596864],[-86.6892484492805,36.1888557369507],[-86.6892931996864,36.1887666607695],[-86.6893417605334,36.1886789056854],[-86.6893940771712,36.1885925810582],[-86.6894500815543,36.1885077900147],[-86.6895097067737,36.1884246383792],[-86.6895728803078,36.1883432256991],[-86.6896395251889,36.1882636515466],[-86.6897095588839,36.1881860146247],[-86.6897828965985,36.1881104091428],[-86.6898594490684,36.1880369266321],[-86.6911366110541,36.1867588415963],[-86.6912758133,36.1866200241927],[-86.6933041836528,36.1845899863357],[-86.6938971416479,36.1846612993179],[-86.6938890000879,36.184697253152],[-86.693876920908,36.1847324707576],[-86.6938609994738,36.1847666703928],[-86.6938413645658,36.1847995773332],[-86.6938181739564,36.1848309266018],[-86.6937916133295,36.1848604665795],[-86.6937618962811,36.1848879590056],[-86.6937292610312,36.1849131844046],[-86.6936939704003,36.1849359393819],[-86.6936563096254,36.1849560411434],[-86.6936165785779,36.1849733275402],[-86.6935810788236,36.1849825963539],[-86.6935427900165,36.1849961035752],[-86.6935063959688,36.1850127011297],[-86.6934722764957,36.1850322155983],[-86.6934407844886,36.1850544457776],[-86.6934122481065,36.1850791590628],[-86.6933869641698,36.1851060986949],[-86.6933651948478,36.1851349864839],[-86.6933471665161,36.18516551921],[-86.6932979762535,36.1852172644599],[-86.6932514503211,36.1852706058387],[-86.693207666842,36.1853254500714],[-86.6931666995164,36.1853817066119],[-86.6931286175593,36.1854392804335],[-86.6930800231382,36.1855046708222],[-86.6930276896169,36.1855681359365],[-86.6929717347472,36.1856295381045],[-86.6929122807368,36.1856887405298],[-86.6928494598395,36.1857456108647],[-86.6927834121714,36.1858000257288],[-86.6927255240098,36.1858482354398],[-86.6926701460811,36.1858983458929],[-86.692617374366,36.1859502718225],[-86.6925672981364,36.1860039234953],[-86.692520004426,36.1860592093884],[-86.6924331034234,36.1861580377995],[-86.6923435323857,36.1862552871309],[-86.6922513342489,36.186350909364],[-86.6921565553086,36.1864448591645],[-86.6920592407336,36.1865370894021],[-86.6920309598544,36.1865561535988],[-86.6920053308115,36.1865775404512],[-86.6919826416668,36.1866010076741],[-86.6919631480546,36.186626291538],[-86.6919470687426,36.1866531077954],[-86.6919412528589,36.1866764188165],[-86.6919310967619,36.1866987326863],[-86.691916841527,36.1867195189836],[-86.6918988242083,36.1867382890959],[-86.6918774689616,36.1867545980735],[-86.6918508098129,36.1867673873877],[-86.6918226972695,36.1867846065954],[-86.6917973290752,36.186804430027],[-86.691775072976,36.1868265734833],[-86.6917562463854,36.1868507179046],[-86.6917411219968,36.186876515647],[-86.6917299156103,36.1869035968608],[-86.6917227916908,36.1869315694591],[-86.691719960159,36.1869565838691],[-86.6917065880707,36.1870098148645],[-86.6916892959422,36.1870622977415],[-86.6916681455007,36.1871138446831],[-86.6916432140384,36.1871642677829],[-86.6916145922599,36.1872133871687],[-86.6915823819956,36.1872610238055],[-86.6915467007044,36.1873070057787],[-86.6915076770261,36.1873511683195],[-86.6914654507582,36.1873933511016],[-86.691420176215,36.1874334009252],[-86.6913720155804,36.1874711744595],[-86.6913270795617,36.1875064483468],[-86.6912838565758,36.1875431021472],[-86.6912156443046,36.1876030505114],[-86.691150422493,36.1876651483389],[-86.6910882936869,36.1877292977115],[-86.6910293581629,36.1877953953165],[-86.6909737062008,36.1878633387998],[-86.6909214280342,36.1879330203999],[-86.6908726049806,36.1880043297021],[-86.6908273139033,36.1880771554163],[-86.6907856260609,36.1881513808764],[-86.6907476082737,36.1882268903429],[-86.6907246287064,36.1882960139698],[-86.6906977953636,36.1883642196271],[-86.6906671648156,36.1884313654911],[-86.6906328003274,36.1884973124033],[-86.6905947718749,36.1885619256732],[-86.6905531594325,36.188625069651],[-86.6905080485891,36.1886866149639],[-86.6904595327408,36.1887464348979],[-86.6904077108511,36.1888044036082],[-86.6903526919611,36.1888604033038],[-86.690294588456,36.1889143170755],[-86.6902335216712,36.1889660342719],[-86.6901861338687,36.1890070600336],[-86.6901419993584,36.18905040504],[-86.6901012912226,36.1890958997701],[-86.6900641691487,36.1891433684708],[-86.6900307782628,36.1891926228544],[-86.6900012481039,36.1892434720182],[-86.6899756936964,36.1892957179325],[-86.6899542155503,36.18934915544],[-86.6899368985879,36.1894035767684],[-86.6899238087853,36.1894587688459],[-86.6899149976349,36.189514515078],[-86.6899038963061,36.1895844746005],[-86.6898888337225,36.1896539457435],[-86.6898698408378,36.1897227814235],[-86.6898469575003,36.1897908345063],[-86.6898202313729,36.1898579614174],[-86.6897897223563,36.1899240194134],[-86.6897554914948,36.1899888693492],[-86.689717613175,36.190052372003],[-86.6896761684943,36.1901143926211],[-86.689631243045,36.190174801831],[-86.6895829346421,36.1902334692894],[-86.6895313444997,36.1902902718432],[-86.689478442124,36.1902513629899]]]},"properties":{"id":"264985","parcel":"08400002100","address":"0 TWO RIVERS CT","owner":"METRO GOV'T  P  TWO RIVERS","point":[-86.6909211097684,36.18745106226104]}},{"type":"Feature","id":"265406","geometry":{"type":"Polygon","coordinates":[[[-86.6945018113169,36.1834165457692],[-86.6955693442434,36.1823705323951],[-86.6955693878591,36.1823705618853],[-86.6961195000839,36.1827404095173],[-86.6960556343616,36.1827801763133],[-86.6959900612269,36.1828180728921],[-86.6959488347551,36.1828375713742],[-86.6959095398432,36.1828595353672],[-86.695872402196,36.1828838410008],[-86.695837631821,36.1829103491735],[-86.6958054274997,36.1829389082315],[-86.6957791548593,36.182965381828],[-86.6957504390541,36.1829901309704],[-86.6957194533525,36.1830130104572],[-86.6956863799804,36.1830338822452],[-86.6956514179581,36.1830526217132],[-86.6956147764302,36.1830691177012],[-86.6955883227196,36.1830749507638],[-86.6955630167411,36.1830834954047],[-86.6955392741234,36.183094606831],[-86.6955174934891,36.1831081024953],[-86.6954980341814,36.1831237577172],[-86.6954812218701,36.1831413110593],[-86.6954360075923,36.1831859540282],[-86.6953878064912,36.1832284935221],[-86.6953367663857,36.1832687980034],[-86.6952830440446,36.183306742192],[-86.6952268063379,36.1833422115647],[-86.6951450667468,36.1833990352815],[-86.6950658721443,36.1834581812526],[-86.6949893241488,36.1835195740934],[-86.6949155176781,36.1835831348529],[-86.6948445476511,36.1836487845803],[-86.6947821467654,36.1837041448452],[-86.6947228534977,36.1837617069935],[-86.6946667869101,36.1838213558845],[-86.6946140593719,36.1838829737126],[-86.6945647743129,36.1839464373158],[-86.6945190306778,36.1840116190514],[-86.6944769746705,36.1840686763381],[-86.6944315270333,36.1841239983679],[-86.6943827933252,36.1841774520449],[-86.6943308947014,36.1842289077885],[-86.6942759512856,36.1842782450364],[-86.6942180976624,36.1843253440443],[-86.694157470712,36.1843700931665],[-86.6940942162329,36.1844123834095],[-86.6940608346118,36.1844325742578],[-86.6940298204065,36.1844551109815],[-86.6940014243871,36.1844798109877],[-86.693975873845,36.1845064764973],[-86.6939533770162,36.1845348918156],[-86.6939341142267,36.1845648278893],[-86.6939182401241,36.184596043195],[-86.6939058814775,36.1846282864555],[-86.6938971416479,36.1846612993179],[-86.6933041836528,36.1845899863357],[-86.6939105373187,36.183995893434],[-86.6945018113169,36.1834165457692]]]},"properties":{"id":"265406","parcel":"08406000100","address":"124 TWO RIVERS CT","owner":"CHOU HO, JUI-LIEN","point":[-86.69472857280229,36.18348811553738]}},{"type":"Feature","id":"265408","geometry":{"type":"Polygon","coordinates":[[[-86.6961210106059,36.1818311294171],[-86.6963151927685,36.1816404566568],[-86.6964468874619,36.181511142224],[-86.6971449991233,36.1819829001413],[-86.6970035379732,36.1820804130953],[-86.6968647915439,36.1821784599763],[-86.6968123490175,36.1822155034282],[-86.6967583513041,36.1822510462235],[-86.6961210106059,36.1818311294171]]]},"properties":{"id":"265408","parcel":"08406000300","address":"114 TWO RIVERS CT","owner":"LEWIS, LYNN GRIFFITH","point":[-86.6966344314217,36.18190701948839]}},{"type":"Feature","id":"265410","geometry":{"type":"Polygon","coordinates":[[[-86.6967694082586,36.1811950191531],[-86.6970946173763,36.1808766823836],[-86.6976168259241,36.1812285835557],[-86.6978881415112,36.1814094194707],[-86.6978356047846,36.181446258438],[-86.6977679567752,36.1814975381864],[-86.6977028800144,36.1815509606501],[-86.6976404793645,36.1816064405089],[-86.6975186242,36.1816983458],[-86.6968253141391,36.1812331550052],[-86.6967694082586,36.1811950191531]]]},"properties":{"id":"265410","parcel":"08406000500","address":"106 TWO RIVERS CT","owner":"EDWARDS, BRENT A.","point":[-86.69735629225391,36.18132128731565]}},{"type":"Feature","id":"265411","geometry":{"type":"Polygon","coordinates":[[[-86.692964818619,36.1832134696959],[-86.6931505519002,36.1831404306853],[-86.6932530596354,36.183315652422],[-86.6931975318093,36.1833683434271],[-86.6928780730585,36.1836714753562],[-86.6928249054101,36.1837219256258],[-86.6927357476384,36.1835856379237],[-86.69264840655,36.1834521282235],[-86.6926483783803,36.1834520851247],[-86.692964818619,36.1832134696959]]]},"properties":{"id":"265411","parcel":"08406000900","address":"0 BRILEY PKWY","owner":"PHENEVONGSA, RACHELLE & PHOUTHONG","point":[-86.69292871637367,36.183410229369294]}},{"type":"Feature","id":"265413","geometry":{"type":"Polygon","coordinates":[[[-86.6934130324945,36.1824175466728],[-86.6934780439723,36.1824152616617],[-86.6935431183573,36.1824159765454],[-86.6935431683902,36.1824159771593],[-86.6935432106415,36.1824159778178],[-86.6935432606903,36.182415980234],[-86.6936081289266,36.1824196920519],[-86.6936082212424,36.182419696929],[-86.6936727987953,36.1824263998585],[-86.6936728655585,36.1824264066849],[-86.6937369355101,36.182436084849],[-86.6937961822357,36.1824479852646],[-86.693854595551,36.1824623427671],[-86.6939120194803,36.1824791185988],[-86.6939683013353,36.182498268576],[-86.6940232939383,36.1825197430758],[-86.6940573489355,36.1825346803285],[-86.6940239818633,36.1825816087483],[-86.6938007238824,36.1827941886083],[-86.6936122370918,36.1829736596951],[-86.6932530596354,36.183315652422],[-86.6931505519002,36.1831404306853],[-86.6928039390053,36.1825508971307],[-86.6928755564014,36.1825284890777],[-86.6929480863227,36.1825080990701],[-86.6930214411565,36.182489751042],[-86.6930955332828,36.1824734680267],[-86.6931572366436,36.1824564593877],[-86.6931573154146,36.1824564409102],[-86.6932200312114,36.1824423221706],[-86.6932201166839,36.1824423072596],[-86.6932837328335,36.1824311006919],[-86.6933480872909,36.1824228360657],[-86.6933481395078,36.1824228321608],[-86.6934129324679,36.1824175499512],[-86.6934130324945,36.1824175466728]]]},"properties":{"id":"265413","parcel":"08406001600","address":"2608 WINDEMERE DR","owner":"WEISS, EDWARD F. & MARGARET S. MOORE","point":[-86.6933525771364,36.18288301819664]}},{"type":"Feature","id":"265415","geometry":{"type":"Polygon","coordinates":[[[-86.6921573457804,36.1817792007734],[-86.6927236098026,36.1816677196034],[-86.692839607834,36.1819648010811],[-86.6929916979645,36.1823543174614],[-86.6929121536833,36.1823770522774],[-86.6929120527655,36.1823770807957],[-86.6928339648063,36.1824031265374],[-86.6927574327769,36.1824320509332],[-86.6926826206704,36.1824637926603],[-86.6926096846599,36.1824982859354],[-86.6921573457804,36.1817792007734]]]},"properties":{"id":"265415","parcel":"08406002400","address":"2617 WINDEMERE DR","owner":"CHILDERS, JOHN","point":[-86.69265571069984,36.18215889223588]}},{"type":"Feature","id":"265417","geometry":{"type":"Polygon","coordinates":[[[-86.6917405904815,36.1818607047848],[-86.6921573457804,36.1817792007734],[-86.6926096846599,36.1824982859354],[-86.6922338293561,36.182655807057],[-86.6917405904815,36.1818607047848]]]},"properties":{"id":"265417","parcel":"08406002500","address":"2621 WINDEMERE DR","owner":"HESKJE, GARY A. & MARY E.","point":[-86.692173750137,36.18217949258579]}},{"type":"Feature","id":"265456","geometry":{"type":"Polygon","coordinates":[[[-86.6898864814868,36.1814812346694],[-86.6908151690631,36.1813528559934],[-86.6907033261908,36.1821287111692],[-86.6906803106224,36.1821284994717],[-86.6906574739615,36.1821308328026],[-86.6906352427168,36.1821356663628],[-86.6906140319038,36.1821429121587],[-86.6905942360892,36.1821524318436],[-86.6905762250699,36.1821640511624],[-86.6898864814868,36.1814812346694]]]},"properties":{"id":"265456","parcel":"08407002500","address":"2910 WINDEMERE CT","owner":"LILLIE, ERIK SORG & HEARD, BARRY CURTIS","point":[-86.69048152420373,36.18180538014434]}},{"type":"Feature","id":"265679","geometry":{"type":"Polygon","coordinates":[[[-86.6972343801328,36.180431952572],[-86.6982233249004,36.1794526830378],[-86.6984142473823,36.179585634706],[-86.697417151215,36.1805627546936],[-86.6972343801328,36.180431952572]]]},"properties":{"id":"265679","parcel":"08400002600","address":"0 TWO RIVERS CT","owner":"METRO GOV'T  PW  PUBLIC WORKS","point":[-86.69782208493909,36.180008789488845]}},{"type":"Feature","id":"268056","geometry":{"type":"Polygon","coordinates":[[[-86.6918607484895,36.1800189445373],[-86.6919217693134,36.1800153872122],[-86.6919823447715,36.1800084373647],[-86.6920421872178,36.1799981281884],[-86.6922003481573,36.1804938874358],[-86.691874369216,36.1806094833898],[-86.6918607484895,36.1800189445373]]]},"properties":{"id":"268056","parcel":"08410001400","address":"2208 WEONA DR","owner":"FINCH, JOSEPH DOUGLAS","point":[-86.69199544058519,36.18025632579253]}},{"type":"Feature","id":"268232","geometry":{"type":"Polygon","coordinates":[[[-86.6973284539209,36.1806489750827],[-86.697736929057,36.1805521159408],[-86.6983266625155,36.1810299884885],[-86.6982907505664,36.1810592339098],[-86.6982574248727,36.1810904255017],[-86.6982268464508,36.1811234163308],[-86.6981908306465,36.1811670193874],[-86.6981520806575,36.1812090547322],[-86.6981107010819,36.1812494072975],[-86.698066801052,36.1812879719037],[-86.6980205008175,36.1813246433065],[-86.6979719218121,36.1813593243664],[-86.6979211943951,36.1813919214972],[-86.6978928631881,36.181406919118],[-86.6978881415112,36.1814094194707],[-86.6976168259241,36.1812285835557],[-86.6970946173763,36.1808766823836],[-86.6972009259146,36.1807731599227],[-86.6973284539209,36.1806489750827]]]},"properties":{"id":"268232","parcel":"08410000100","address":"100 TWO RIVERS CT","owner":"JARRETT, JAMES L. ET UX","point":[-86.69772008741204,36.18095336087484]}},{"type":"Feature","id":"268653","geometry":{"type":"Polygon","coordinates":[[[-86.6920421872178,36.1799981281884],[-86.6920855137452,36.1799864725577],[-86.6921279706548,36.1799728751767],[-86.6921694249094,36.1799573782671],[-86.6922097468542,36.1799400294389],[-86.6924929069521,36.1803540329454],[-86.6922003481573,36.1804938874358],[-86.6920421872178,36.1799981281884]]]},"properties":{"id":"268653","parcel":"08410001500","address":"2206 WEONA DR","owner":"SILVA, KATHERINE","point":[-86.6922350990076,36.18017599736942]}},{"type":"Feature","id":"268654","geometry":{"type":"Polygon","coordinates":[[[-86.6922097468542,36.1799400294389],[-86.6922481721922,36.1799226752504],[-86.6922855353214,36.1799038589893],[-86.6923217509986,36.1798836217021],[-86.6923662343564,36.1798556213021],[-86.6927692686118,36.1802219629375],[-86.6927688423859,36.1802221663644],[-86.6924929069521,36.1803540329454],[-86.6922097468542,36.1799400294389]]]},"properties":{"id":"268654","parcel":"08410001600","address":"2204 WEONA DR","owner":"QUALLS, BELINDA HASKINS","point":[-86.69246018731108,36.180080921199284]}},{"type":"Feature","id":"271000","geometry":{"type":"Polygon","coordinates":[[[-86.690655677831,36.1804697703177],[-86.6913469871283,36.1798548701543],[-86.6913825338092,36.1798812005524],[-86.6914204100763,36.1799053004987],[-86.6914604057552,36.1799270351047],[-86.6915022963217,36.1799462812807],[-86.6910058724106,36.1808391661852],[-86.690655677831,36.1804697703177]]]},"properties":{"id":"271000","parcel":"08411000100","address":"2214 WEONA DR","owner":"CASTLE, DAVID R. & FOULKS, LINDA","point":[-86.69115334858124,36.180208218415515]}},{"type":"Feature","id":"271002","geometry":{"type":"Polygon","coordinates":[[[-86.6904614440797,36.1802665010499],[-86.6912159773322,36.1797523315372],[-86.6912578904677,36.1797879661714],[-86.6913015854016,36.1798221656961],[-86.6913469871283,36.1798548701543],[-86.690655677831,36.1804697703177],[-86.6904614440797,36.1802665010499]]]},"properties":{"id":"271002","parcel":"08411000200","address":"2216 WEONA DR","owner":"CHEN, MATTHEW VERDON DANQING & BELLER, YENG LAN EMMA","point":[-86.69093949596072,36.1800607775105]}},{"type":"Feature","id":"271052","geometry":{"type":"Polygon","coordinates":[[[-86.6896326057336,36.1806536278496],[-86.6904614440797,36.1802665010499],[-86.690655677831,36.1804697703177],[-86.6910058724106,36.1808391661852],[-86.6910561354364,36.1808910703835],[-86.6910541070758,36.1808916380719],[-86.6909471087616,36.1809216117617],[-86.690846899659,36.1809496836001],[-86.6896548827294,36.1807216267646],[-86.6896563458144,36.1807071847406],[-86.6896547595859,36.1806927520258],[-86.689650172154,36.1806787474308],[-86.6896427149081,36.180665578475],[-86.6896326057336,36.1806536278496]]]},"properties":{"id":"271052","parcel":"08411002900","address":"2223 AUBREY CT","owner":"WALKER, NEITA HILTON","point":[-86.69028772991793,36.18056207172942]}},{"type":"Feature","id":"271268","geometry":{"type":"Polygon","coordinates":[[[-86.6932225779679,36.1803696240307],[-86.6936664257526,36.1803651511165],[-86.6943480424761,36.1811840210734],[-86.6942792150418,36.1812202969708],[-86.6942124972288,36.18125907521],[-86.6941480239458,36.1813002739054],[-86.6940866664273,36.1813444891911],[-86.6940278540546,36.181390923133],[-86.6939717104888,36.1814394785888],[-86.6937446510108,36.1812508982481],[-86.6929253974685,36.1805622494271],[-86.6930613629625,36.1804692520359],[-86.6931948296305,36.1803739039315],[-86.6932005541511,36.1803697505012],[-86.6932014356819,36.1803697454391],[-86.6932225779679,36.1803696240307]]]},"properties":{"id":"271268","parcel":"08410001100","address":"113 RUSTIC CT","owner":"BEAIRD, ELI AUSTIN & CORI MARIE","point":[-86.69369221531794,36.180873279367745]}},{"type":"Feature","id":"271271","geometry":{"type":"Polygon","coordinates":[[[-86.6910058724106,36.1808391661852],[-86.6915022963217,36.1799462812807],[-86.6915434133608,36.1799647838281],[-86.6915863260295,36.1799803794264],[-86.6916307198611,36.179992957218],[-86.6916762738673,36.1800024235069],[-86.6914390564441,36.1807770747146],[-86.6912254589139,36.1808406632909],[-86.6910561354364,36.1808910703835],[-86.6910058724106,36.1808391661852]]]},"properties":{"id":"271271","parcel":"08410001200","address":"2212 WEONA DR","owner":"OCADIZ, ALBERTO I. & MARIA A.","point":[-86.69140691877027,36.18038936070508]}},{"type":"Feature","id":"271274","geometry":{"type":"Polygon","coordinates":[[[-86.6914390564441,36.1807770747146],[-86.6916762738673,36.1800024235069],[-86.6917216336027,36.1800110274853],[-86.6917676956804,36.1800166694884],[-86.6918141663017,36.1800193142474],[-86.6918607484895,36.1800189445373],[-86.691874369216,36.1806094833898],[-86.6918635374935,36.1806137678696],[-86.6918606259799,36.1806149183404],[-86.6917429222556,36.1806625683084],[-86.6916241467563,36.1807084380048],[-86.6915410650374,36.1807399551457],[-86.6914390564441,36.1807770747146]]]},"properties":{"id":"271274","parcel":"08410001300","address":"2210 WEONA DR","owner":"ROBINSON, DURWARD FRANKLIN III","point":[-86.69172425599542,36.18031408985821]}},{"type":"Feature","id":"271668","geometry":{"type":"Polygon","coordinates":[[[-86.6895617656979,36.1806122771842],[-86.6896767180893,36.1804270191808],[-86.6901960667362,36.1799867211678],[-86.6903301097038,36.1801266034385],[-86.6904614440797,36.1802665010499],[-86.6896326057336,36.1806536278496],[-86.6896185093493,36.1806396829829],[-86.6896016560253,36.1806279204907],[-86.6895825501989,36.1806186925865],[-86.6895617656979,36.1806122771842]]]},"properties":{"id":"271668","parcel":"08411002800","address":"2225 AUBREY CT","owner":"BOGITSH, ANDREW","point":[-86.69003034398818,36.18034666046953]}},{"type":"Feature","id":"271670","geometry":{"type":"Polygon","coordinates":[[[-86.6896024472445,36.1812383703059],[-86.6895120011224,36.1808125463381],[-86.6895319977475,36.1808129809873],[-86.6895500627048,36.1808112951892],[-86.6895676540669,36.1808075617292],[-86.6895844200672,36.1808018547175],[-86.6896000270779,36.1807942887178],[-86.6896141629146,36.1807850151229],[-86.6896261244798,36.1807747436358],[-86.6896363013737,36.1807632764582],[-86.6896445130412,36.1807508165041],[-86.689650615769,36.1807375845021],[-86.6896548827294,36.1807216267646],[-86.690846899659,36.1809496836001],[-86.6906746331832,36.1809872099769],[-86.6905015277147,36.1810221119328],[-86.6903276476591,36.1810543791819],[-86.6901530518403,36.1810839987673],[-86.6899778013297,36.1811109604231],[-86.6899585113945,36.1811138177128],[-86.6900314673709,36.1811783986189],[-86.6899220568828,36.1811937847847],[-86.6896024472445,36.1812383703059]]]},"properties":{"id":"271670","parcel":"08411003000","address":"2222 AUBREY CT","owner":"HOLLANDSWORTH, LISA & HINTON, ROY H. SR.","point":[-86.69015260621191,36.18096687435113]}}]}