{"type":"FeatureCollection","features":[{"type":"Feature","id":"55104","geometry":{"type":"Polygon","coordinates":[[[-86.7182389549122,36.2994792856466],[-86.7176059215855,36.299427007036],[-86.7170553556689,36.2993857303267],[-86.7170218350419,36.2993832200309],[-86.7165429622135,36.2993410138039],[-86.7163926537026,36.2993276542852],[-86.7168208228728,36.2980955458092],[-86.7169242724089,36.2980514237207],[-86.7170295949958,36.2980103104565],[-86.7171366597314,36.297972257257],[-86.7172458464375,36.2979353143059],[-86.7173566539761,36.297901679968],[-86.7174689268985,36.2978713993217],[-86.7175825119758,36.2978445165316],[-86.7176972525579,36.297821066771],[-86.7190715873481,36.2975777325451],[-86.7190856509036,36.2975772208144],[-86.7190996268331,36.297578585064],[-86.7191131373668,36.2975817869854],[-86.7191258143287,36.2975867413494],[-86.7191373158033,36.2975933123019],[-86.7191473273305,36.2976013223686],[-86.7191555808558,36.2976105550468],[-86.7191618480837,36.297620758449],[-86.7191659628415,36.2976316559849],[-86.7191816792083,36.2976921621345],[-86.7190718471341,36.297710858062],[-86.7188994114274,36.2977402064968],[-86.7186232523486,36.2977310686697],[-86.7183974904689,36.2977694951052],[-86.7181749943274,36.2978073636835],[-86.7179524783859,36.2978451589687],[-86.7179444675744,36.297846479077],[-86.7178375425104,36.2978660965997],[-86.7177314107278,36.2978883643427],[-86.7177236623141,36.2978901379999],[-86.7177234201155,36.2978901944127],[-86.7176393082731,36.2979108884814],[-86.7175558755705,36.2979333079213],[-86.7174731742131,36.2979574398068],[-86.7174657723327,36.2979597377093],[-86.7174583738244,36.2979620391963],[-86.7173767419535,36.29798895668],[-86.7172959982758,36.2980175730648],[-86.7172161949484,36.2980478700184],[-86.717124893194,36.2980857036174],[-86.716927840947,36.2981707858207],[-86.7167687075261,36.298399054749],[-86.7167047045301,36.2986107672227],[-86.7166479390018,36.2987974798858],[-86.7165324043927,36.2991796661087],[-86.7167175728303,36.2992861384552],[-86.7170470082817,36.2993149512773],[-86.71706603122,36.2993170365545],[-86.717442972873,36.2993455656319],[-86.7177981886639,36.2993731248258],[-86.7182994770313,36.29941622302],[-86.7187913079899,36.299454546575],[-86.718872698275,36.2994608885814],[-86.7189927354197,36.2992261334767],[-86.7191626731561,36.2991053555906],[-86.7194159782678,36.2989719950197],[-86.7195646765406,36.2987546499471],[-86.7197344829409,36.2985448701149],[-86.7197372805183,36.2982547753621],[-86.7198259215857,36.2982648668358],[-86.7198164180833,36.2985987724689],[-86.7197198224823,36.298724058875],[-86.7195915544181,36.29879953977],[-86.7195153382405,36.2989269028045],[-86.7194755760662,36.2990326221101],[-86.7193965860142,36.2990786916855],[-86.7191496981998,36.2991713595505],[-86.7190490346367,36.2993719385124],[-86.7190295735559,36.2995469244092],[-86.718762617892,36.2995239126737],[-86.718726751652,36.2995208300939],[-86.7184101210195,36.2994936517838],[-86.7183917119116,36.2994921065121],[-86.7182389549122,36.2994792856466]]]},"properties":{"id":"55104","parcel":"033040B90000CO","address":"0 DRY CREEK RD","owner":"O.I.C. DRY CREEK POINTE","point":[-86.71976498431239,36.298571796768684]}},{"type":"Feature","id":"93297","geometry":{"type":"Polygon","coordinates":[[[-86.719084578457,36.299551824407],[-86.7190846076084,36.2995517241971],[-86.719555204509,36.2995791407869],[-86.7195551684655,36.299579217606],[-86.719164518779,36.3002797400128],[-86.7191100301629,36.3002587932868],[-86.7190542524902,36.3002402001036],[-86.7189973432011,36.3002240108956],[-86.7189394585812,36.3002102715955],[-86.7188807604005,36.3001990190919],[-86.719084578457,36.299551824407]]]},"properties":{"id":"93297","parcel":"03304002700","address":"111 DRAPER DR","owner":"RIVES, WILLIAM","point":[-86.71918033501873,36.29988903045989]}},{"type":"Feature","id":"93299","geometry":{"type":"Polygon","coordinates":[[[-86.7155261334106,36.2995536040446],[-86.7156586824916,36.2992737320991],[-86.716357406227,36.2993245213744],[-86.7163575243192,36.299324529687],[-86.7163224541503,36.2997994133852],[-86.7163223963639,36.2997994254436],[-86.7158869149693,36.299971205237],[-86.7155311953004,36.3001134062152],[-86.7154914087411,36.3001298025211],[-86.7154649276429,36.3001407181078],[-86.7153609487327,36.3002093392509],[-86.7152969222447,36.3002515792731],[-86.7152710307968,36.3001790960562],[-86.7152593239296,36.3001463299176],[-86.7153072593871,36.3000427609137],[-86.7153828425082,36.2998736504008],[-86.7153944026721,36.299847759067],[-86.7155261334106,36.2995536040446]]]},"properties":{"id":"93299","parcel":"03304003300","address":"0 DRAPER DR","owner":"MERIDIAN CAPITAL GROUP, LLC","point":[-86.7159015172334,36.29967645525963]}},{"type":"Feature","id":"93305","geometry":{"type":"Polygon","coordinates":[[[-86.7146980792551,36.2984212651325],[-86.7158454063624,36.2983820637086],[-86.7157157321699,36.2988278380658],[-86.7146697948004,36.2986719526208],[-86.7146825800635,36.2986225283986],[-86.7146918257632,36.2985725897673],[-86.7146975011242,36.2985223036372],[-86.7146995876019,36.2984718350436],[-86.7146980789467,36.298421354356],[-86.7146980792551,36.2984212651325]]]},"properties":{"id":"93305","parcel":"03304004500","address":"523 ALTA LOMA RD","owner":"WOOTTEN, BRANDON & SWENSON, KYLA","point":[-86.71523458205522,36.29859886402688]}},{"type":"Feature","id":"93567","geometry":{"type":"Polygon","coordinates":[[[-86.7189137644225,36.2988751377739],[-86.7189353259257,36.2988616596397],[-86.7191626731561,36.2991053555906],[-86.7189927354197,36.2992261334767],[-86.7187318340005,36.2989907991332],[-86.7187590164588,36.2989718694208],[-86.7189137644225,36.2988751377739]]]},"properties":{"id":"93567","parcel":"033040B00700CO","address":"210 DRY CREEK POINTE CT","owner":"WILLIAMS, TAMMY & TRACI","point":[-86.71895226571557,36.299048089337624]}},{"type":"Feature","id":"93571","geometry":{"type":"Polygon","coordinates":[[[-86.7178097329828,36.299298887768],[-86.7183546686015,36.2990703130629],[-86.718366538813,36.2990868359812],[-86.7183810468786,36.2991019174788],[-86.718397926445,36.299115283361],[-86.7184168724869,36.2991266921072],[-86.7184375413069,36.2991359348709],[-86.7182994770313,36.29941622302],[-86.7177981886639,36.2993731248258],[-86.7178097329828,36.299298887768]]]},"properties":{"id":"93571","parcel":"033040B01000CO","address":"213 DRY CREEK POINTE CT","owner":"MORTON, LATARCHAL DUNYELDA","point":[-86.71820086840508,36.299217593784235]}},{"type":"Feature","id":"93620","geometry":{"type":"Polygon","coordinates":[[[-86.7130127486295,36.2991585751891],[-86.7130866005529,36.2989983011402],[-86.7130867579667,36.2989983488782],[-86.7141856975495,36.2993294124636],[-86.7140509626217,36.2996293534334],[-86.7129508590123,36.2992930593529],[-86.7129507974804,36.2992930263702],[-86.7129665325871,36.2992588716077],[-86.7130127486295,36.2991585751891]]]},"properties":{"id":"93620","parcel":"03304005900","address":"516 ALTA LOMA RD","owner":"PEGRAM, DAVID","point":[-86.71356786958428,36.29931123652309]}},{"type":"Feature","id":"93622","geometry":{"type":"Polygon","coordinates":[[[-86.7135520384146,36.2987010349814],[-86.7137257027173,36.2985193052077],[-86.7137258210758,36.2985193432619],[-86.7144640329995,36.2987344280372],[-86.7144453101517,36.2987789269518],[-86.7144232771058,36.2988224207248],[-86.7143980148032,36.2988647493585],[-86.7143204810335,36.2990349694258],[-86.713474909317,36.2987817482849],[-86.7135520384146,36.2987010349814]]]},"properties":{"id":"93622","parcel":"03304006100","address":"520 ALTA LOMA RD","owner":"HENRIQUEZ, MARIA ELENA","point":[-86.71397785917041,36.29875553780966]}},{"type":"Feature","id":"93624","geometry":{"type":"Polygon","coordinates":[[[-86.7139516272745,36.298284482434],[-86.7142340210601,36.2979894397927],[-86.7144021176038,36.2981153560379],[-86.7139516272745,36.298284482434]]]},"properties":{"id":"93624","parcel":"03304006300","address":"0 ALTA LOMA RD","owner":"MAJORS, DAVID A.","point":[-86.71410488370661,36.29819974733615]}},{"type":"Feature","id":"94225","geometry":{"type":"Polygon","coordinates":[[[-86.7171091440015,36.2906858052912],[-86.7174794571711,36.2905549769543],[-86.7176339402567,36.2908319279371],[-86.7176917685631,36.2909355985559],[-86.717053363692,36.2911690848719],[-86.7166614695401,36.2910587817644],[-86.7167051734724,36.2910182853579],[-86.7167509782814,36.2909758442369],[-86.7168817252933,36.2908513640368],[-86.7171091440015,36.2906858052912]]]},"properties":{"id":"94225","parcel":"03312014100","address":"506 JANETTE AVE","owner":"WARREN, THOMAS R., JR.","point":[-86.71725368994171,36.29089340381965]}},{"type":"Feature","id":"94736","geometry":{"type":"Polygon","coordinates":[[[-86.7179308633084,36.2987350430805],[-86.7181532277905,36.2986520160201],[-86.718394242914,36.2988981619789],[-86.7184003719435,36.2989044206524],[-86.7183828147392,36.2989182272784],[-86.7183676201735,36.2989337628424],[-86.7183550486084,36.2989507635406],[-86.7183550255559,36.2989507997268],[-86.7183550068504,36.2989508241711],[-86.7183549882593,36.298950861232],[-86.7183450908744,36.2989714104049],[-86.7183393772745,36.2989930396269],[-86.7178694982428,36.2989287925051],[-86.7178943390733,36.2987489947077],[-86.7179308633084,36.2987350430805]]]},"properties":{"id":"94736","parcel":"033040B01200CO","address":"209 DRY CREEK POINTE CT","owner":"RILEY, YVONNE","point":[-86.71810287127556,36.29882348095597]}},{"type":"Feature","id":"94739","geometry":{"type":"Polygon","coordinates":[[[-86.7180110043795,36.2982917576385],[-86.7180750131722,36.2982810620025],[-86.7181532277905,36.2986520160201],[-86.7179308633084,36.2987350430805],[-86.717841350679,36.2983175723283],[-86.7180110043795,36.2982917576385]]]},"properties":{"id":"94739","parcel":"033040B02000CO","address":"210 NATHAN DR","owner":"WILKERSON, GERALDINE M LIVING TRUST, THE","point":[-86.71799758721616,36.29848479498036]}},{"type":"Feature","id":"94740","geometry":{"type":"Polygon","coordinates":[[[-86.717547917544,36.2984181187792],[-86.7175717479409,36.2984005592682],[-86.7175975182677,36.2983848961423],[-86.7176249993468,36.2983712713526],[-86.7176539450976,36.2983598044197],[-86.717688362323,36.2983477741758],[-86.7177237758781,36.2983378207503],[-86.7177599969706,36.2983299966333],[-86.7177968289262,36.2983243444483],[-86.717841350679,36.2983175723283],[-86.7179308633084,36.2987350430805],[-86.7178943390733,36.2987489947077],[-86.717547917544,36.2984181187792]]]},"properties":{"id":"94740","parcel":"033040B02100CO","address":"212 NATHAN DR","owner":"PARRELLI, SCOTT & EMILY","point":[-86.71780536356391,36.29857673681209]}},{"type":"Feature","id":"94741","geometry":{"type":"Polygon","coordinates":[[[-86.717442972873,36.2993455656319],[-86.7173007808712,36.2990079839675],[-86.7173236036985,36.2989972870454],[-86.7173446758633,36.2989844501714],[-86.717363689507,36.2989696563202],[-86.717380371594,36.2989531225069],[-86.7178251644678,36.299204301288],[-86.7178097329828,36.299298887768],[-86.7177981886639,36.2993731248258],[-86.717442972873,36.2993455656319]]]},"properties":{"id":"94741","parcel":"033040B02500CO","address":"220 NATHAN DR","owner":"CALDWELL, DARRELL & LISA LIVING TRUST","point":[-86.71749680996994,36.29910598660523]}},{"type":"Feature","id":"94758","geometry":{"type":"Polygon","coordinates":[[[-86.7170470082817,36.2993149512773],[-86.7171812898335,36.2990037486903],[-86.7172041665674,36.2990110562435],[-86.7172282215778,36.2990152033988],[-86.7172527924747,36.2990160742216],[-86.7172772032353,36.2990136456852],[-86.7173007808712,36.2990079839675],[-86.717442972873,36.2993455656319],[-86.71706603122,36.2993170365545],[-86.7170470082817,36.2993149512773]]]},"properties":{"id":"94758","parcel":"033040B02600CO","address":"222 NATHAN DR","owner":"THOMAS, JEFFREY R. & JANET L.","point":[-86.71723943941258,36.29916572458417]}},{"type":"Feature","id":"94759","geometry":{"type":"Polygon","coordinates":[[[-86.7165324043927,36.2991796661087],[-86.7170972115481,36.2989377708817],[-86.7171143134695,36.2989572793081],[-86.7171342333723,36.2989749487302],[-86.7171566705015,36.2989905168701],[-86.7171812898335,36.2990037486903],[-86.7170470082817,36.2993149512773],[-86.7167175728303,36.2992861384552],[-86.7165324043927,36.2991796661087]]]},"properties":{"id":"94759","parcel":"033040B02700CO","address":"227 NATHAN DR","owner":"JOHNSON, EVELYN M.","point":[-86.71694074014215,36.29909190648214]}},{"type":"Feature","id":"94855","geometry":{"type":"Polygon","coordinates":[[[-86.7187298738998,36.2989923302594],[-86.7187318340005,36.2989907991332],[-86.7189927354197,36.2992261334767],[-86.718872698275,36.2994608885814],[-86.7187913079899,36.299454546575],[-86.7185830604704,36.2991338669224],[-86.718602422655,36.2991247467511],[-86.718602465894,36.299124726667],[-86.7186025035338,36.2991247030113],[-86.718602542287,36.299124679349],[-86.7186202176227,36.2991135846923],[-86.718635946044,36.2991006892318],[-86.7186359747611,36.2991006638267],[-86.7186360056474,36.2991006321],[-86.7186360321215,36.2991006049058],[-86.7186494754506,36.2990861855274],[-86.7186495052155,36.2990861529062],[-86.7186495271954,36.2990861212325],[-86.7186495513774,36.299086086842],[-86.7186605454003,36.2990703283735],[-86.7186800735893,36.2990423237294],[-86.7187032764037,36.2990162195617],[-86.7187298738998,36.2989923302594]]]},"properties":{"id":"94855","parcel":"033040B00800CO","address":"212 DRY CREEK POINTE CT","owner":"HUNTER, KATRINA","point":[-86.7188255813815,36.29934018384171]}},{"type":"Feature","id":"94856","geometry":{"type":"Polygon","coordinates":[[[-86.7178251644678,36.299204301288],[-86.7178694982428,36.2989287925051],[-86.7183393772745,36.2989930396269],[-86.7183379480336,36.2990118603948],[-86.7183399476073,36.2990318711421],[-86.7183399512578,36.2990319053672],[-86.7183399549,36.2990319386911],[-86.7183399652711,36.2990319773823],[-86.7183455659638,36.2990515521676],[-86.7183546686015,36.2990703130629],[-86.7178097329828,36.299298887768],[-86.7178251644678,36.299204301288]]]},"properties":{"id":"94856","parcel":"033040B01100CO","address":"211 DRY CREEK POINTE CT","owner":"YATES, KAREN E. & REGINALD J.","point":[-86.71801520257516,36.29913713128337]}},{"type":"Feature","id":"94857","geometry":{"type":"Polygon","coordinates":[[[-86.718394242914,36.2988981619789],[-86.7181532277905,36.2986520160201],[-86.7183788388886,36.2985654869015],[-86.7186441051052,36.2988555088578],[-86.7186230181596,36.2988614119837],[-86.7185869369545,36.2988687191208],[-86.718586888051,36.2988687284237],[-86.7185868513774,36.2988687358515],[-86.7185868013361,36.2988687424576],[-86.7185499992069,36.2988727950204],[-86.7185499491493,36.2988727998241],[-86.7185499102246,36.2988728045615],[-86.7185498601424,36.2988728066616],[-86.7185126395928,36.2988735677039],[-86.7184899021028,36.2988745022204],[-86.7184674697804,36.2988776582538],[-86.7184456762218,36.298882990563],[-86.7184456362493,36.2988830025165],[-86.7184455973736,36.298883012661],[-86.7184455518836,36.2988830300547],[-86.7184220334902,36.2988922650218],[-86.7184219946636,36.2988922805735],[-86.7184219580554,36.2988922952107],[-86.7184219170676,36.298892317985],[-86.7184003719435,36.2989044206524],[-86.718394242914,36.2988981619789]]]},"properties":{"id":"94857","parcel":"033040B01300CO","address":"207 DRY CREEK POINTE CT","owner":"SCHARKLEY, PATRICIA ANN","point":[-86.7184019442991,36.298753770411146]}},{"type":"Feature","id":"94859","geometry":{"type":"Polygon","coordinates":[[[-86.7182359927746,36.2982541620629],[-86.7183100425473,36.2982411022053],[-86.7183788388886,36.2985654869015],[-86.7181532277905,36.2986520160201],[-86.7180750131722,36.2982810620025],[-86.7182359927746,36.2982541620629]]]},"properties":{"id":"94859","parcel":"033040B01900CO","address":"208 NATHAN DR","owner":"WU, ZENG YU & ELSIE M. WANG","point":[-86.71822683824925,36.29842327434277]}},{"type":"Feature","id":"94860","geometry":{"type":"Polygon","coordinates":[[[-86.7174009793682,36.298830486118],[-86.7173916115571,36.2988124134618],[-86.7173847067251,36.2987936277371],[-86.717380344801,36.2987743492715],[-86.7173785756949,36.2987548030766],[-86.7173775217263,36.29872398546],[-86.7173806503689,36.2986932601852],[-86.7173879215614,36.2986629987963],[-86.7173917883874,36.2986398998556],[-86.7178943390733,36.2987489947077],[-86.7178694982428,36.2989287925051],[-86.7174009793682,36.298830486118]]]},"properties":{"id":"94860","parcel":"033040B02300CO","address":"216 NATHAN DR","owner":"GRISSOM, MARTHELL & ALEXANDER-GRISSOM, CATHY","point":[-86.71763593236919,36.298784587222045]}},{"type":"Feature","id":"94952","geometry":{"type":"Polygon","coordinates":[[[-86.7145560316821,36.2989264483166],[-86.7145902429606,36.2988646010947],[-86.7146206538208,36.2988014677392],[-86.7146471932635,36.298737199178],[-86.7146697948004,36.2986719526208],[-86.7157157321699,36.2988278380658],[-86.7155951510654,36.2992290574695],[-86.7145560316821,36.2989264483166]]]},"properties":{"id":"94952","parcel":"03304004400","address":"521 ALTA LOMA RD","owner":"RODGERS, NORMAN LEE & DONCELLA R.","point":[-86.7153579049052,36.299078426452446]}},{"type":"Feature","id":"94970","geometry":{"type":"Polygon","coordinates":[[[-86.7131006334453,36.2989685012245],[-86.713322406604,36.2987299045786],[-86.7134087368733,36.2987592547424],[-86.7134748557163,36.2987817305766],[-86.713474909317,36.2987817482849],[-86.7143204810335,36.2990349694258],[-86.7142213796303,36.299251465212],[-86.7141856975495,36.2993294124636],[-86.7130867579667,36.2989983488782],[-86.7130866005529,36.2989983011402],[-86.7130969066658,36.2989763774225],[-86.7131006334453,36.2989685012245]]]},"properties":{"id":"94970","parcel":"03304006000","address":"518 ALTA LOMA RD","owner":"ALMANZA, RAFAEL","point":[-86.71370344980548,36.29901666033672]}},{"type":"Feature","id":"95255","geometry":{"type":"Polygon","coordinates":[[[-86.7178602827634,36.2899317237274],[-86.7178871700299,36.2899219397993],[-86.7180618139202,36.2901740623753],[-86.7182513107097,36.2904685525974],[-86.717724362125,36.290660311107],[-86.7176308675806,36.2904926989027],[-86.7174094663217,36.2900957773313],[-86.7178602827634,36.2899317237274]]]},"properties":{"id":"95255","parcel":"03312014400","address":"367 JANETTE AVE","owner":"MAYES, PAMELA P.","point":[-86.71784550457599,36.29032057394344]}},{"type":"Feature","id":"95398","geometry":{"type":"Polygon","coordinates":[[[-86.7182994770313,36.29941622302],[-86.7184375413069,36.2991359348709],[-86.718460483117,36.2991427893828],[-86.7184843474575,36.2991468932614],[-86.7184843965165,36.2991469010809],[-86.7184844321995,36.2991469071775],[-86.7184844823391,36.2991469113857],[-86.7185097385027,36.2991479590282],[-86.7185349237576,36.2991460988175],[-86.718559530761,36.2991413698183],[-86.7185830604704,36.2991338669224],[-86.7187913079899,36.299454546575],[-86.7182994770313,36.29941622302]]]},"properties":{"id":"95398","parcel":"033040B00900CO","address":"214 DRY CREEK POINTE CT","owner":"VENSON, FRANCES M.","point":[-86.71852266492179,36.29928236906211]}},{"type":"Feature","id":"95399","geometry":{"type":"Polygon","coordinates":[[[-86.7183788388886,36.2985654869015],[-86.7185585438761,36.2984972746328],[-86.7185982016229,36.2984821794427],[-86.7188406845692,36.2987472930088],[-86.7187301070962,36.2988164105598],[-86.7187028962656,36.2988314714546],[-86.7186741553965,36.2988445389049],[-86.7186441051052,36.2988555088578],[-86.7183788388886,36.2985654869015]]]},"properties":{"id":"95399","parcel":"033040B01400CO","address":"205 DRY CREEK POINTE CT","owner":"BIGGS, LISA LEE","point":[-86.71860976176909,36.2986563901784]}},{"type":"Feature","id":"95400","geometry":{"type":"Polygon","coordinates":[[[-86.7173917883874,36.2986398998556],[-86.7174086383811,36.2985963038038],[-86.7174293304594,36.2985538042779],[-86.7174537553034,36.2985126245285],[-86.7174817878641,36.2984789954993],[-86.7175132514071,36.2984474171282],[-86.717547917544,36.2984181187792],[-86.7178943390733,36.2987489947077],[-86.7173917883874,36.2986398998556]]]},"properties":{"id":"95400","parcel":"033040B02200CO","address":"214 NATHAN DR","owner":"FARRELL, DENNIS & NORA","point":[-86.71756596854152,36.298575401337025]}},{"type":"Feature","id":"95401","geometry":{"type":"Polygon","coordinates":[[[-86.717380371594,36.2989531225069],[-86.7173922595262,36.2989342514094],[-86.7174009119022,36.2989142603548],[-86.7174061738917,36.2988935098534],[-86.7174079498245,36.2988723771875],[-86.7174062075055,36.2988512410648],[-86.7174009793682,36.298830486118],[-86.7178694982428,36.2989287925051],[-86.7178251644678,36.299204301288],[-86.717380371594,36.2989531225069]]]},"properties":{"id":"95401","parcel":"033040B02400CO","address":"218 NATHAN DR","owner":"DAVIDSON, RUFUS G. & KARESA","point":[-86.71772402467921,36.299078998439626]}},{"type":"Feature","id":"95412","geometry":{"type":"Polygon","coordinates":[[[-86.716927840947,36.2981707858207],[-86.717124893194,36.2980857036174],[-86.7172161949484,36.2980478700184],[-86.7174578238292,36.2982961735683],[-86.7174316035944,36.2983180938721],[-86.7174074107834,36.298341491873],[-86.7173786529167,36.2983676855352],[-86.7173508810052,36.2983945663862],[-86.7173353244046,36.2984148867989],[-86.716927840947,36.2981707858207]]]},"properties":{"id":"95412","parcel":"033040B03200CO","address":"217 NATHAN DR","owner":"CALHOUN, MAULICE R.","point":[-86.71721457365318,36.29823353141088]}},{"type":"Feature","id":"95478","geometry":{"type":"Polygon","coordinates":[[[-86.717724362125,36.290660311107],[-86.7182513107097,36.2904685525974],[-86.7183562601281,36.2906562352017],[-86.7178290952846,36.2908480720407],[-86.717724362125,36.290660311107]]]},"properties":{"id":"95478","parcel":"03312014300","address":"365 JANETTE AVE","owner":"MOON, DEVIN","point":[-86.71804031112309,36.29065827357177]}},{"type":"Feature","id":"95741","geometry":{"type":"Polygon","coordinates":[[[-86.7195551684655,36.299579217606],[-86.719555204509,36.2995791407869],[-86.7199552319337,36.2996048552017],[-86.7199932301083,36.2996072965642],[-86.7193983091103,36.3003887768298],[-86.719342954866,36.3003573648721],[-86.7192854017878,36.3003286561412],[-86.7192258545263,36.3003027503543],[-86.719164518779,36.3002797400128],[-86.7195551684655,36.299579217606]]]},"properties":{"id":"95741","parcel":"03304002600","address":"109 DRAPER DR","owner":"PEGRAM, DAVID R.","point":[-86.71954465174267,36.2999434387489]}},{"type":"Feature","id":"95742","geometry":{"type":"Polygon","coordinates":[[[-86.7179526588414,36.3002413428399],[-86.7176059215855,36.299427007036],[-86.7182389549122,36.2994792856466],[-86.7182933693172,36.3000909839484],[-86.7182973396528,36.3001030206168],[-86.7182986802436,36.300115431598],[-86.7182973487312,36.3001278431334],[-86.7182933884825,36.300139880955],[-86.7182869153531,36.3001511838822],[-86.7182781266591,36.3001614109789],[-86.7182779070533,36.3001616267763],[-86.7182680237133,36.3001697451892],[-86.7182566794578,36.3001764952012],[-86.7182441566635,36.3001817075056],[-86.7182307736691,36.3001852495328],[-86.7182168659133,36.3001870327716],[-86.718162333287,36.3001915312007],[-86.718108356582,36.3001992617179],[-86.7180552282356,36.300210182933],[-86.7180032349472,36.3002242345644],[-86.7179526588414,36.3002413428399]]]},"properties":{"id":"95742","parcel":"03304002900","address":"115 DRAPER DR","owner":"CHICA, LAURA V. & JORGE A.","point":[-86.71801202999873,36.29978453570863]}},{"type":"Feature","id":"95745","geometry":{"type":"Polygon","coordinates":[[[-86.7141429274476,36.2998551594668],[-86.7141687964718,36.2997773287876],[-86.7141965040361,36.2996999144229],[-86.7142824181342,36.2995181083251],[-86.7153944026721,36.299847759067],[-86.7153828425082,36.2998736504008],[-86.7153072593871,36.3000427609137],[-86.7141429274476,36.2998551594668]]]},"properties":{"id":"95745","parcel":"03304004100","address":"509 ALTA LOMA RD","owner":"ELKINS, DAVID R. & STEPHANIA L.","point":[-86.71471860404897,36.299812395203865]}},{"type":"Feature","id":"95746","geometry":{"type":"Polygon","coordinates":[[[-86.7145519603364,36.2989264723791],[-86.7145560316821,36.2989264483166],[-86.7155951510654,36.2992290574695],[-86.7155859578018,36.2992560280112],[-86.7155812798349,36.2992697534901],[-86.7156586824916,36.2992737320991],[-86.7155261334106,36.2995536040446],[-86.7144202044462,36.2992178759775],[-86.7145519900464,36.2989297661985],[-86.7145519603364,36.2989264723791]]]},"properties":{"id":"95746","parcel":"03304004300","address":"519 ALTA LOMA RD","owner":"RALPH, LEILA JEAN & SCOTT, ERIC WILLIAM","point":[-86.71504169735724,36.299241235894904]}},{"type":"Feature","id":"95757","geometry":{"type":"Polygon","coordinates":[[[-86.7127384629528,36.2997588179602],[-86.7127624241881,36.2997045317384],[-86.712762572429,36.2997045497903],[-86.7139739956354,36.2998627496764],[-86.7139639516664,36.2999251109845],[-86.7139567881077,36.2999877328599],[-86.7139525164165,36.3000505269149],[-86.7139511425001,36.300113406597],[-86.7127709472327,36.3001236667265],[-86.7127271719392,36.2997844010311],[-86.7127384629528,36.2997588179602]]]},"properties":{"id":"95757","parcel":"03304005700","address":"512 ALTA LOMA RD","owner":"SMITH, LARRY C. ET UX","point":[-86.7133549490672,36.299892459813684]}},{"type":"Feature","id":"95758","geometry":{"type":"Polygon","coordinates":[[[-86.7129507331334,36.2992931754525],[-86.7129507974804,36.2992930263702],[-86.7129508590123,36.2992930593529],[-86.7140509626217,36.2996293534334],[-86.7140276842036,36.2996867865832],[-86.7140070782703,36.299744884373],[-86.7139891730505,36.299803566428],[-86.7139739956354,36.2998627496764],[-86.712762572429,36.2997045497903],[-86.7127624241881,36.2997045317384],[-86.7129328558459,36.2993359847351],[-86.7129507331334,36.2992931754525]]]},"properties":{"id":"95758","parcel":"03304005800","address":"514 ALTA LOMA RD","owner":"TICE, KAREN","point":[-86.71321873130893,36.299482015464086]}},{"type":"Feature","id":"95759","geometry":{"type":"Polygon","coordinates":[[[-86.7144256902478,36.2981037161484],[-86.7144324149743,36.2981003932294],[-86.7144332059886,36.2981014402906],[-86.7144332602474,36.2981015309942],[-86.7144578047299,36.2981517277602],[-86.7144784993925,36.2982030485747],[-86.714495265672,36.2982553010408],[-86.7145080427603,36.2983082863475],[-86.7145167798768,36.2983618065254],[-86.7145214473602,36.2984156598753],[-86.7145220233343,36.29846964375],[-86.7145185092935,36.2985235544627],[-86.7145109167603,36.2985771891683],[-86.7144992750782,36.298630345817],[-86.7144836280882,36.2986828249767],[-86.7144640329995,36.2987344280372],[-86.7137258210758,36.2985193432619],[-86.7137257027173,36.2985193052077],[-86.7139516272745,36.298284482434],[-86.7144021176038,36.2981153560379],[-86.7144256902478,36.2981037161484]]]},"properties":{"id":"95759","parcel":"03304006200","address":"524 ALTA LOMA RD","owner":"HALL, DANA","point":[-86.71416142224302,36.29844179096667]}},{"type":"Feature","id":"95786","geometry":{"type":"Polygon","coordinates":[[[-86.7150844580346,36.2903231465642],[-86.7150298416716,36.2901366757171],[-86.7155910989669,36.2899212875052],[-86.7156185728827,36.2899738352491],[-86.7156493976889,36.2900251518928],[-86.7156834863898,36.2900750955543],[-86.7151236942151,36.2903844460968],[-86.7150844580346,36.2903231465642]]]},"properties":{"id":"95786","parcel":"03312003000","address":"306 CONNIE AVE","owner":"SMITH, DIANA S.","point":[-86.71522950092393,36.29023032172663]}},{"type":"Feature","id":"95919","geometry":{"type":"Polygon","coordinates":[[[-86.7185608078428,36.3001685074416],[-86.7185522078133,36.3001697031151],[-86.7185435010864,36.3001701829445],[-86.718543384196,36.3001701845404],[-86.7185314061498,36.3001696591124],[-86.7185196351996,36.3001677842128],[-86.7185083043812,36.3001645972097],[-86.7184976335991,36.3001601607836],[-86.7184878340559,36.3001545601976],[-86.7184863452516,36.3001535542603],[-86.7184848851403,36.3001525202144],[-86.7184834548515,36.3001514598556],[-86.7184820477546,36.3001503786307],[-86.7184731435077,36.3001420924659],[-86.718465966755,36.3001327722379],[-86.7184606977523,36.3001226511956],[-86.7184574690785,36.3001119845006],[-86.7184563299435,36.3000971137691],[-86.7184101235485,36.2994936851143],[-86.7184101210195,36.2994936517838],[-86.718726751652,36.2995208300939],[-86.718762617892,36.2995239126737],[-86.7190295735559,36.2995469244092],[-86.7190846076084,36.2995517241971],[-86.719084578457,36.299551824407],[-86.7188807604005,36.3001990190919],[-86.7188016261524,36.3001862937833],[-86.7187217755366,36.3001769504906],[-86.7186414292421,36.30017101674],[-86.7185608078428,36.3001685074416]]]},"properties":{"id":"95919","parcel":"03304002800","address":"113 DRAPER DR","owner":"LOTEMPIO, VINCENT & SAVANNAH","point":[-86.71871696968786,36.29982434369337]}},{"type":"Feature","id":"95920","geometry":{"type":"Polygon","coordinates":[[[-86.7170218350419,36.2993832200309],[-86.7170553556689,36.2993857303267],[-86.7176059215855,36.299427007036],[-86.7179526588414,36.3002413428399],[-86.7178734480713,36.3002652514638],[-86.717795802314,36.3002923158627],[-86.7177199146999,36.3003224709054],[-86.7176144224865,36.3003653160932],[-86.7170218350419,36.2993832200309]]]},"properties":{"id":"95920","parcel":"03304003000","address":"117 DRAPER DR","owner":"KIMBROUGH, SHERRY L. & JAMIE","point":[-86.71753626571265,36.29983360118291]}},{"type":"Feature","id":"95921","geometry":{"type":"Polygon","coordinates":[[[-86.7172498638972,36.3005059253304],[-86.7165429622135,36.2993410138039],[-86.7170218350419,36.2993832200309],[-86.7176144224865,36.3003653160932],[-86.7172498638972,36.3005059253304]]]},"properties":{"id":"95921","parcel":"03304003100","address":"119 DRAPER DR","owner":"MARTIN, JASON","point":[-86.71709201552726,36.2998737336317]}},{"type":"Feature","id":"95922","geometry":{"type":"Polygon","coordinates":[[[-86.7144052856451,36.299250378662],[-86.7144202044462,36.2992178759775],[-86.7155261334106,36.2995536040446],[-86.7153944026721,36.299847759067],[-86.7142824181342,36.2995181083251],[-86.7144052856451,36.299250378662]]]},"properties":{"id":"95922","parcel":"03304004200","address":"517 ALTA LOMA RD","owner":"HARRIS, BRET R & JENNIFER G.","point":[-86.71490492925832,36.29953585936002]}},{"type":"Feature","id":"95962","geometry":{"type":"Polygon","coordinates":[[[-86.7151939769645,36.2905021494127],[-86.7151236942151,36.2903844460968],[-86.7156834863898,36.2900750955543],[-86.7157109049517,36.2901112745203],[-86.7157525853105,36.2901608938332],[-86.7157975657683,36.2902085865834],[-86.7154900781112,36.290450950269],[-86.7152764997114,36.2906225281205],[-86.7151939769645,36.2905021494127]]]},"properties":{"id":"95962","parcel":"03312003100","address":"304 CONNIE AVE","owner":"LOWE, ALPHEUS LERONE & SHEMIKA","point":[-86.71548445140401,36.29029657349909]}},{"type":"Feature","id":"95966","geometry":{"type":"Polygon","coordinates":[[[-86.715943893361,36.2901364073551],[-86.7162470574701,36.2898838922775],[-86.7165658784149,36.2900940682748],[-86.7163244689852,36.2903230277155],[-86.7163145807122,36.2903309793006],[-86.7163032168113,36.2903375120766],[-86.7162906851746,36.2903424502807],[-86.7162773241334,36.2903456603281],[-86.7162634936016,36.2903470562714],[-86.7162495672833,36.290346599847],[-86.7162359215649,36.2903443032446],[-86.7162229243839,36.2903402291732],[-86.7162109274032,36.2903344873022],[-86.7161579832918,36.2903026458936],[-86.7161068854511,36.2902688865174],[-86.7160577380437,36.2902332788551],[-86.7160106441506,36.2901958961994],[-86.7159657024403,36.2901568163756],[-86.715943893361,36.2901364073551]]]},"properties":{"id":"95966","parcel":"03312005100","address":"444 GATES RD","owner":"DAVIS, LINDA R.","point":[-86.71625647883661,36.29011524199955]}},{"type":"Feature","id":"96840","geometry":{"type":"Polygon","coordinates":[[[-86.7166479390018,36.2987974798858],[-86.7170805230922,36.2988564383265],[-86.7170790596975,36.2988772996657],[-86.7170814012974,36.2988981086965],[-86.7170874959278,36.2989184133094],[-86.7170972115481,36.2989377708817],[-86.7165324043927,36.2991796661087],[-86.7166479390018,36.2987974798858]]]},"properties":{"id":"96840","parcel":"033040B02800CO","address":"225 NATHAN DR","owner":"MACKALL, WILLIAM B., JR.","point":[-86.71669197558315,36.299058427840315]}},{"type":"Feature","id":"96841","geometry":{"type":"Polygon","coordinates":[[[-86.7167047045301,36.2986107672227],[-86.7167687075261,36.298399054749],[-86.71725478202,36.2985514945576],[-86.7172412543698,36.2985919111658],[-86.7172291712086,36.2986326265221],[-86.7172219423468,36.2986557643278],[-86.7172105772679,36.2986777857126],[-86.7171937052377,36.2987045730239],[-86.7167047045301,36.2986107672227]]]},"properties":{"id":"96841","parcel":"033040B03000CO","address":"221 NATHAN DR","owner":"BOYD, TIMOTHY W. & JANICE F.","point":[-86.71698245619932,36.2985710745513]}},{"type":"Feature","id":"97501","geometry":{"type":"Polygon","coordinates":[[[-86.7166479390018,36.2987974798858],[-86.7167047045301,36.2986107672227],[-86.7171937052377,36.2987045730239],[-86.7171768337807,36.2987272435103],[-86.7171574494187,36.2987485563268],[-86.7171357175139,36.2987683302452],[-86.7171196058092,36.298783550254],[-86.7171058530449,36.2988002171629],[-86.7170946541389,36.2988180936942],[-86.7170861704307,36.2988369229424],[-86.7170805230922,36.2988564383265],[-86.7166479390018,36.2987974798858]]]},"properties":{"id":"97501","parcel":"033040B02900CO","address":"223 NATHAN DR","owner":"BLACKWELL, CAROLINE","point":[-86.71691677746415,36.29873730741143]}},{"type":"Feature","id":"97504","geometry":{"type":"Polygon","coordinates":[[[-86.7167687075261,36.298399054749],[-86.716927840947,36.2981707858207],[-86.7173353244046,36.2984148867989],[-86.7173005919179,36.2984624416989],[-86.7172638771172,36.2985302310508],[-86.71725478202,36.2985514945576],[-86.7167687075261,36.298399054749]]]},"properties":{"id":"97504","parcel":"033040B03100CO","address":"219 NATHAN DR","owner":"CAIN, RANDALL & CLETA","point":[-86.71698385676969,36.29828524132117]}},{"type":"Feature","id":"104349","geometry":{"type":"Polygon","coordinates":[[[-86.7109686127431,36.2988756253037],[-86.7115703745848,36.2979158082441],[-86.7116538540462,36.2977898431537],[-86.7120080998939,36.2979371912768],[-86.7124127577394,36.2981040251172],[-86.712493113242,36.2981354109701],[-86.7125654550701,36.2980286782458],[-86.7126090654871,36.2980479238219],[-86.712629465753,36.2980571240973],[-86.7126295093497,36.2980571436674],[-86.7126295540434,36.2980571614285],[-86.7126295987453,36.2980571800909],[-86.7126519894167,36.2980663506058],[-86.7126519233408,36.2980664312047],[-86.7126096980204,36.2981182421628],[-86.7126096510763,36.2981130234171],[-86.7125861301521,36.2981389831893],[-86.7125134829075,36.2982058247815],[-86.7124433282429,36.298274389211],[-86.7123757279536,36.2983446148341],[-86.7123107427224,36.298416440014],[-86.7122484298686,36.2984898004297],[-86.7121888444694,36.2985646299712],[-86.7120359786487,36.2987358411429],[-86.7118388311338,36.2986243771862],[-86.7117437849443,36.2987345407085],[-86.7119348510713,36.2988490624509],[-86.711858924874,36.2989341151576],[-86.71184620004,36.2989534187149],[-86.7109686127431,36.2988756253037]]]},"properties":{"id":"104349","parcel":"03401000400","address":"0 HARDAWAY DR","owner":"TOWE HOMES, LLC","point":[-86.711811929946,36.298379247994674]}},{"type":"Feature","id":"106364","geometry":{"type":"Polygon","coordinates":[[[-86.7143736221104,36.2899590985384],[-86.7149815368346,36.2899726938093],[-86.7150298416716,36.2901366757171],[-86.7143978287502,36.2901815012773],[-86.7143875211564,36.2901075340732],[-86.7143794506616,36.2900333851162],[-86.7143736221104,36.2899590985384]]]},"properties":{"id":"106364","parcel":"03312002500","address":"213 CINDY PL","owner":"GUERRA, WALTER R GARCIA & LOPEZ, ODAIMYS MARQUEZ","point":[-86.71469713143541,36.2900712083553]}},{"type":"Feature","id":"107292","geometry":{"type":"Polygon","coordinates":[[[-86.7162666699481,36.2906271034903],[-86.7163902781094,36.2905136025607],[-86.7168817252933,36.2908513640368],[-86.7167509782814,36.2909758442369],[-86.7167051734724,36.2910182853579],[-86.7162119224768,36.2906792838573],[-86.7162666699481,36.2906271034903]]]},"properties":{"id":"107292","parcel":"03312001500","address":"441 GATES RD","owner":"WEATHERLY, MARIE IRREVOCABLE INCOME ONLY TRUST","point":[-86.7165468235581,36.29076532441515]}},{"type":"Feature","id":"109268","geometry":{"type":"Polygon","coordinates":[[[-86.7165886267607,36.2903257610383],[-86.7166313927319,36.2902848682575],[-86.7170210604253,36.2899243538231],[-86.7170291078791,36.2899178208221],[-86.7170383928083,36.2899124692062],[-86.7170486527527,36.2899084510378],[-86.7170595981853,36.2899058797867],[-86.7170709213851,36.289904826673],[-86.7170823020356,36.2899053242385],[-86.7170934204768,36.2899073545524],[-86.717103961175,36.28991086361],[-86.7171136282095,36.2899157504263],[-86.7171221498228,36.2899218778241],[-86.7171292839948,36.2899290733011],[-86.7171348296235,36.2899371343722],[-86.7174794571711,36.2905549769543],[-86.7171091440015,36.2906858052912],[-86.7165886267607,36.2903257610383]]]},"properties":{"id":"109268","parcel":"03312001300","address":"445 GATES RD","owner":"DUNLAP, KENDRICK & CUNNINGHAM, CLAYANTAS","point":[-86.71697558594869,36.29030618049903]}},{"type":"Feature","id":"109283","geometry":{"type":"Polygon","coordinates":[[[-86.7143978287502,36.2901815012773],[-86.7150298416716,36.2901366757171],[-86.7150844580346,36.2903231465642],[-86.7144475154157,36.2904232876209],[-86.7144282810049,36.2903430618531],[-86.7144117149018,36.2902624472016],[-86.7143978287502,36.2901815012773]]]},"properties":{"id":"109283","parcel":"03312002400","address":"211 CINDY PL","owner":"ESCUE, TERRY D.","point":[-86.71474679374188,36.29029279427196]}},{"type":"Feature","id":"109704","geometry":{"type":"Polygon","coordinates":[[[-86.7164382976859,36.2904695099858],[-86.7165886267607,36.2903257610383],[-86.7171091440015,36.2906858052912],[-86.7168817252933,36.2908513640368],[-86.7163902781094,36.2905136025607],[-86.7164382976859,36.2904695099858]]]},"properties":{"id":"109704","parcel":"03312001400","address":"443 GATES RD","owner":"PEREZ, MAURICIO GODINEZ & DIAZ, ERIKA","point":[-86.71675011033172,36.2905997054118]}},{"type":"Feature","id":"109707","geometry":{"type":"Polygon","coordinates":[[[-86.7154900781112,36.290450950269],[-86.7157975657683,36.2902085865834],[-86.7158389333121,36.2902480913852],[-86.7158884386506,36.2902911655283],[-86.7159402841245,36.2903323971914],[-86.7159943654424,36.2903717022737],[-86.7160505716736,36.2904090012195],[-86.7161087897095,36.2904442198936],[-86.716119007429,36.2904511592375],[-86.7161277565883,36.2904593086226],[-86.7161351977465,36.2904690654429],[-86.7161405304592,36.2904796882201],[-86.7161436051056,36.2904908813352],[-86.7161443364825,36.2905023325658],[-86.7161427038863,36.290513722097],[-86.7161387523319,36.2905247342307],[-86.7161325936905,36.2905350600826],[-86.7161243979146,36.2905444120537],[-86.715914175183,36.2907462120009],[-86.7154900781112,36.290450950269]]]},"properties":{"id":"109707","parcel":"03312001800","address":"302 CONNIE AVE","owner":"STROUD, BAXTER & TONYA","point":[-86.71582974353277,36.290473644977176]}},{"type":"Feature","id":"150165","geometry":{"type":"Polygon","coordinates":[[[-86.7163375801397,36.2987581013946],[-86.7163469979404,36.298731002386],[-86.7163627889397,36.2987345984582],[-86.716370726613,36.2987117575169],[-86.7165185466081,36.2987454166913],[-86.7165011912249,36.2987953566632],[-86.7163375801397,36.2987581013946]]]},"properties":{"id":"150165","parcel":"033040C00700CO","address":"112 OLD RYMAN WAY","owner":"MERIDIAN CAPITAL GROUP, LLC","point":[-86.71642806340049,36.29875175907726]}},{"type":"Feature","id":"150166","geometry":{"type":"Polygon","coordinates":[[[-86.7163141099763,36.2988256389354],[-86.7163242168359,36.2987965558445],[-86.7163400089605,36.298800151913],[-86.7163474919659,36.2987786177475],[-86.7164953120759,36.2988122769496],[-86.7164777223032,36.2988628942284],[-86.7163141099763,36.2988256389354]]]},"properties":{"id":"150166","parcel":"033040C00800CO","address":"114 OLD RYMAN WAY","owner":"MERIDIAN CAPITAL GROUP, LLC","point":[-86.7164047110653,36.298818957976934]}},{"type":"Feature","id":"150167","geometry":{"type":"Polygon","coordinates":[[[-86.7162909663942,36.2988922363549],[-86.7163005838999,36.2988645638869],[-86.7163163749156,36.2988681590639],[-86.7163240825689,36.2988459800911],[-86.7164719027946,36.2988796393212],[-86.7164545788478,36.2989294916783],[-86.7162909663942,36.2988922363549]]]},"properties":{"id":"150167","parcel":"033040C00900CO","address":"116 OLD RYMAN WAY","owner":"MERIDIAN CAPITAL GROUP, LLC","point":[-86.7163814347333,36.298885937872626]}},{"type":"Feature","id":"150168","geometry":{"type":"Polygon","coordinates":[[[-86.7162441810539,36.2990268661811],[-86.7162545983031,36.2989968890417],[-86.716268498302,36.299000053825],[-86.7162755115241,36.298979876096],[-86.7164252241347,36.2990139657744],[-86.7164077937636,36.2990641215663],[-86.7162441810539,36.2990268661811]]]},"properties":{"id":"150168","parcel":"033040C01100CO","address":"120 OLD RYMAN WAY","owner":"MERIDIAN CAPITAL GROUP, LLC","point":[-86.7163347025339,36.29902041601189]}},{"type":"Feature","id":"151446","geometry":{"type":"Polygon","coordinates":[[[-86.7163605543612,36.2986919907296],[-86.7163708109265,36.2986624759583],[-86.7163866019133,36.2986660720275],[-86.7163926906083,36.2986456059664],[-86.7165414599115,36.2986794811904],[-86.716524166434,36.2987292459612],[-86.7163605543612,36.2986919907296]]]},"properties":{"id":"151446","parcel":"033040C00600CO","address":"110 OLD RYMAN WAY","owner":"MERIDIAN CAPITAL GROUP, LLC","point":[-86.716451007142,36.29868573599424]}},{"type":"Feature","id":"151601","geometry":{"type":"Polygon","coordinates":[[[-86.7155951510654,36.2992290574695],[-86.7157157321699,36.2988278380658],[-86.7158454063624,36.2983820637086],[-86.7158455176511,36.2983820585435],[-86.715914957474,36.298378725588],[-86.715984134541,36.298372805816],[-86.7160269367253,36.2983681705504],[-86.7160695270777,36.2983623946657],[-86.7161485053255,36.2983490014277],[-86.7162266089625,36.2983325860873],[-86.7162980812655,36.2983143047845],[-86.7163431290599,36.2983012998965],[-86.7163876771868,36.2982872137725],[-86.7164430598157,36.2982678876639],[-86.716497516739,36.2982469078511],[-86.7165389709096,36.2982295099612],[-86.7165819349771,36.2982100428954],[-86.7166241706091,36.2981895599395],[-86.7166434234733,36.2981795557192],[-86.7166822737224,36.2981600958786],[-86.7167216846745,36.2981410833165],[-86.7167662828412,36.2981201167635],[-86.7168208228728,36.2980955458092],[-86.7163926537026,36.2993276542852],[-86.7163575243192,36.299324529687],[-86.716357406227,36.2993245213744],[-86.7156586824916,36.2992737320991],[-86.7155812798349,36.2992697534901],[-86.7155859578018,36.2992560280112],[-86.7155951510654,36.2992290574695]],[[-86.7164252241347,36.2990139657744],[-86.7162755115241,36.298979876096],[-86.716268498302,36.299000053825],[-86.7162545983031,36.2989968890417],[-86.7162441810539,36.2990268661811],[-86.7164077937636,36.2990641215663],[-86.7164252241347,36.2990139657744]],[[-86.7162675634487,36.2989595824244],[-86.7164311760304,36.2989968377787],[-86.7164494560087,36.2989442355157],[-86.7163016345668,36.2989105771666],[-86.7162933344303,36.298934462071],[-86.716277542281,36.2989308659966],[-86.7162675634487,36.2989595824244]],[[-86.7162909663942,36.2988922363549],[-86.7164545788478,36.2989294916783],[-86.7164719027946,36.2988796393212],[-86.7163240825689,36.2988459800911],[-86.7163163749156,36.2988681590639],[-86.7163005838999,36.2988645638869],[-86.7162909663942,36.2988922363549]],[[-86.7163141099763,36.2988256389354],[-86.7164777223032,36.2988628942284],[-86.7164953120759,36.2988122769496],[-86.7163474919659,36.2987786177475],[-86.7163400089605,36.298800151913],[-86.7163242168359,36.2987965558445],[-86.7163141099763,36.2988256389354]],[[-86.7163375801397,36.2987581013946],[-86.7165011912249,36.2987953566632],[-86.7165185466081,36.2987454166913],[-86.716370726613,36.2987117575169],[-86.7163627889397,36.2987345984582],[-86.7163469979404,36.298731002386],[-86.7163375801397,36.2987581013946]],[[-86.7163605543612,36.2986919907296],[-86.716524166434,36.2987292459612],[-86.7165414599115,36.2986794811904],[-86.7163926906083,36.2986456059664],[-86.7163866019133,36.2986660720275],[-86.7163708109265,36.2986624759583],[-86.7163605543612,36.2986919907296]],[[-86.7161530838221,36.2986533674568],[-86.7161638645935,36.2986223463464],[-86.7161796867923,36.2986259485663],[-86.7161977183922,36.2985740651862],[-86.716089049329,36.2985493203224],[-86.7160698338391,36.2986046164464],[-86.7160928430767,36.298609856003],[-86.7160832483465,36.2986374661365],[-86.7161530838221,36.2986533674568]],[[-86.71605546015,36.2985225544615],[-86.7162002718551,36.2985555288817],[-86.7162080543726,36.2985331331755],[-86.7162223559305,36.2985363902145],[-86.7162313581067,36.298510483299],[-86.7160722449293,36.2984742518604],[-86.71605546015,36.2985225544615]],[[-86.7160789809818,36.2984572823576],[-86.7162350740485,36.2984928251145],[-86.7162532617898,36.2984404865786],[-86.7161662499155,36.2984206738855],[-86.7161763925714,36.2983914860486],[-86.7161073126107,36.2983757560068],[-86.7160789809818,36.2984572823576]],[[-86.7164724865036,36.2983580859337],[-86.7166291418502,36.2983937573315],[-86.7166584125937,36.2983095269969],[-86.7166074128352,36.2982979132301],[-86.7165969111756,36.2983281342402],[-86.7164977577183,36.2983055575783],[-86.7164891148203,36.2983304304784],[-86.7164826116905,36.2983289495434],[-86.7164724865036,36.2983580859337]],[[-86.7166341228666,36.2984134350054],[-86.716490363294,36.2983807000033],[-86.7164825851859,36.2984030803823],[-86.7164680549352,36.2983997715567],[-86.7164587305706,36.2984266059639],[-86.7166170204726,36.2984626489114],[-86.7166341228666,36.2984134350054]],[[-86.7166108907954,36.2984796842453],[-86.7164649801475,36.2984464608791],[-86.7164576664784,36.2984675073868],[-86.716445125428,36.2984646518051],[-86.7164353680818,36.2984927315719],[-86.7165938187623,36.2985288114488],[-86.7166108907954,36.2984796842453]],[[-86.7165877399583,36.2985463025021],[-86.7164399203135,36.2985126443114],[-86.716432883334,36.2985328942925],[-86.7164170923716,36.2985292982292],[-86.7164069324059,36.2985585339533],[-86.7165705431035,36.2985957882291],[-86.7165877399583,36.2985463025021]],[[-86.7165646281827,36.2986128123736],[-86.7164166120023,36.2985797176868],[-86.7164091170816,36.298601284373],[-86.7163933261068,36.2985976883067],[-86.7163837640179,36.298625202741],[-86.7165473748422,36.2986624570474],[-86.7165646281827,36.2986128123736]]]},"properties":{"id":"151601","parcel":"033040C90000CO","address":"0 OLD RYMAN WAY","owner":"O.I.C. DRY CREEK COTTAGES","point":[-86.7160785801075,36.29870119280299]}},{"type":"Feature","id":"151608","geometry":{"type":"Polygon","coordinates":[[[-86.7164069324059,36.2985585339533],[-86.7164170923716,36.2985292982292],[-86.716432883334,36.2985328942925],[-86.7164399203135,36.2985126443114],[-86.7165877399583,36.2985463025021],[-86.7165705431035,36.2985957882291],[-86.7164069324059,36.2985585339533]]]},"properties":{"id":"151608","parcel":"033040C00400CO","address":"106 OLD RYMAN WAY","owner":"MERIDIAN CAPITAL GROUP, LLC","point":[-86.7164973362056,36.298552418261956]}},{"type":"Feature","id":"151615","geometry":{"type":"Polygon","coordinates":[[[-86.7160832483465,36.2986374661365],[-86.7160928430767,36.298609856003],[-86.7160698338391,36.2986046164464],[-86.716089049329,36.2985493203224],[-86.7161977183922,36.2985740651862],[-86.7161796867923,36.2986259485663],[-86.7161638645935,36.2986223463464],[-86.7161530838221,36.2986533674568],[-86.7160832483465,36.2986374661365]]]},"properties":{"id":"151615","parcel":"033040C01400CO","address":"109 OLD RYMAN WAY","owner":"MERIDIAN CAPITAL GROUP, LLC","point":[-86.71613377581386,36.29858934083273]}},{"type":"Feature","id":"151769","geometry":{"type":"Polygon","coordinates":[[[-86.7164587305706,36.2984266059639],[-86.7164680549352,36.2983997715567],[-86.7164825851859,36.2984030803823],[-86.716490363294,36.2983807000033],[-86.7166341228666,36.2984134350054],[-86.7166170204726,36.2984626489114],[-86.7164587305706,36.2984266059639]]]},"properties":{"id":"151769","parcel":"033040C00200CO","address":"102 OLD RYMAN WAY","owner":"MERIDIAN CAPITAL GROUP, LLC","point":[-86.71654642660508,36.298420020516566]}},{"type":"Feature","id":"151771","geometry":{"type":"Polygon","coordinates":[[[-86.7164353680818,36.2984927315719],[-86.716445125428,36.2984646518051],[-86.7164576664784,36.2984675073868],[-86.7164649801475,36.2984464608791],[-86.7166108907954,36.2984796842453],[-86.7165938187623,36.2985288114488],[-86.7164353680818,36.2984927315719]]]},"properties":{"id":"151771","parcel":"033040C00300CO","address":"104 OLD RYMAN WAY","owner":"MERIDIAN CAPITAL GROUP, LLC","point":[-86.71652312937141,36.29848620794068]}},{"type":"Feature","id":"151773","geometry":{"type":"Polygon","coordinates":[[[-86.7162675634487,36.2989595824244],[-86.716277542281,36.2989308659966],[-86.7162933344303,36.298934462071],[-86.7163016345668,36.2989105771666],[-86.7164494560087,36.2989442355157],[-86.7164311760304,36.2989968377787],[-86.7162675634487,36.2989595824244]]]},"properties":{"id":"151773","parcel":"033040C01000CO","address":"118 OLD RYMAN WAY","owner":"MERIDIAN CAPITAL GROUP, LLC","point":[-86.7163585096596,36.29895190900451]}},{"type":"Feature","id":"151824","geometry":{"type":"Polygon","coordinates":[[[-86.7164724865036,36.2983580859337],[-86.7164826116905,36.2983289495434],[-86.7164891148203,36.2983304304784],[-86.7164977577183,36.2983055575783],[-86.7165969111756,36.2983281342402],[-86.7166074128352,36.2982979132301],[-86.7166584125937,36.2983095269969],[-86.7166291418502,36.2983937573315],[-86.7164724865036,36.2983580859337]]]},"properties":{"id":"151824","parcel":"033040C00100CO","address":"100 OLD RYMAN WAY","owner":"MERIDIAN CAPITAL GROUP, LLC","point":[-86.71656175081124,36.29834445013332]}},{"type":"Feature","id":"151826","geometry":{"type":"Polygon","coordinates":[[[-86.7163837640179,36.298625202741],[-86.7163933261068,36.2985976883067],[-86.7164091170816,36.298601284373],[-86.7164166120023,36.2985797176868],[-86.7165646281827,36.2986128123736],[-86.7165473748422,36.2986624570474],[-86.7163837640179,36.298625202741]]]},"properties":{"id":"151826","parcel":"033040C00500CO","address":"108 OLD RYMAN WAY","owner":"MERIDIAN CAPITAL GROUP, LLC","point":[-86.71647419607886,36.29861900759147]}},{"type":"Feature","id":"151828","geometry":{"type":"Polygon","coordinates":[[[-86.7162002718551,36.2985555288817],[-86.71605546015,36.2985225544615],[-86.7160722449293,36.2984742518604],[-86.7162313581067,36.298510483299],[-86.7162223559305,36.2985363902145],[-86.7162080543726,36.2985331331755],[-86.7162002718551,36.2985555288817]]]},"properties":{"id":"151828","parcel":"033040C01500CO","address":"107 OLD RYMAN WAY","owner":"MERIDIAN CAPITAL GROUP, LLC","point":[-86.71614340916148,36.29851651891269]}},{"type":"Feature","id":"151830","geometry":{"type":"Polygon","coordinates":[[[-86.7160789809818,36.2984572823576],[-86.7161073126107,36.2983757560068],[-86.7161763925714,36.2983914860486],[-86.7161662499155,36.2984206738855],[-86.7162532617898,36.2984404865786],[-86.7162350740485,36.2984928251145],[-86.7160789809818,36.2984572823576]]]},"properties":{"id":"151830","parcel":"033040C01600CO","address":"105 OLD RYMAN WAY","owner":"MERIDIAN CAPITAL GROUP, LLC","point":[-86.71614905818727,36.29843043615649]}},{"type":"Feature","id":"179925","geometry":{"type":"Polygon","coordinates":[[[-86.715480440627,36.2981683704795],[-86.71548035262,36.2981683646917],[-86.7153966427515,36.298163640126],[-86.7153126814826,36.2981561024483],[-86.7153125533077,36.2981560869846],[-86.7152291727964,36.2981457889501],[-86.7152290345449,36.2981457672373],[-86.7151462549043,36.2981327159381],[-86.7150640683088,36.2981169069158],[-86.7150639556306,36.2981168814465],[-86.7149827501805,36.2980983863078],[-86.7149826486271,36.2980983598715],[-86.7149024355442,36.2980771875643],[-86.7148418328895,36.2980592067705],[-86.7148416854879,36.2980591580744],[-86.7147819557531,36.2980396994795],[-86.7147818295367,36.298039654263],[-86.7147228611027,36.2980186860838],[-86.7146723336883,36.2979992757737],[-86.714672157122,36.2979992029165],[-86.7146224755115,36.2979787646897],[-86.7145802702267,36.2979608138093],[-86.7149298582334,36.2978205560457],[-86.7150861289939,36.2973869323016],[-86.7156952837187,36.2969932833954],[-86.7160093412199,36.2965987676177],[-86.7161741440859,36.2964581403876],[-86.7167099707657,36.2969788450024],[-86.716898437059,36.2974777266392],[-86.7168664634936,36.2978476243382],[-86.7165040188673,36.2979943284017],[-86.716421768516,36.298025776684],[-86.7164217230178,36.2980257931758],[-86.7164216875149,36.2980258069047],[-86.7164216420167,36.2980258233964],[-86.7163378203398,36.2980542807368],[-86.7163377215585,36.2980543146676],[-86.7162523907371,36.2980797617689],[-86.716252281928,36.2980797948578],[-86.7161656707133,36.2981021645721],[-86.7161655374199,36.2981021987071],[-86.7160777779848,36.2981214551008],[-86.7160776546457,36.298121481967],[-86.7159888625378,36.2981375973164],[-86.7159888080761,36.2981376075525],[-86.7158991677776,36.2981505438129],[-86.7158159934236,36.2981596196069],[-86.7158159200115,36.2981596272515],[-86.7157323979022,36.2981659508877],[-86.7157322844197,36.2981659596706],[-86.7156485559029,36.2981695249041],[-86.715648400091,36.2981695312338],[-86.7155645252524,36.2981703332025],[-86.7155644050251,36.2981703348153],[-86.715480440627,36.2981683704795]],[[-86.7152419615995,36.2979669543022],[-86.715249733797,36.2979687945966],[-86.7152689628773,36.2979155740472],[-86.7152611895713,36.2979137337606],[-86.7152806727849,36.297859807844],[-86.7152884460861,36.2978616481294],[-86.7153081834223,36.2978070168432],[-86.7152016177792,36.2977817882966],[-86.7151818792625,36.2978364195725],[-86.7151749148727,36.2978347709634],[-86.7151554315852,36.2978886959621],[-86.7151623959875,36.2978903454735],[-86.7151431679469,36.2979435650986],[-86.7151362035484,36.2979419164873],[-86.7151143240352,36.2980024742852],[-86.7152200821521,36.2980275112175],[-86.7152419615995,36.2979669543022]],[[-86.7158345884827,36.2979485423483],[-86.7158893304417,36.2979159902251],[-86.7158950465096,36.2979222893227],[-86.7159485846837,36.2978904526671],[-86.7159428686138,36.2978841535719],[-86.7159992007012,36.2978506556031],[-86.7160049167731,36.2978569546957],[-86.7160580717145,36.29782534737],[-86.7160523545192,36.2978190473853],[-86.7161082834285,36.2977857896771],[-86.7160403372439,36.2977109177581],[-86.7159844083671,36.2977441763368],[-86.7159903684565,36.2977507443542],[-86.7159372146597,36.2977823525454],[-86.7159312545723,36.2977757845254],[-86.7158749225012,36.2978092815621],[-86.7158808836998,36.2978158495782],[-86.7158273444437,36.2978476871124],[-86.7158213832473,36.2978411190937],[-86.7157666424172,36.2978736702792],[-86.7157726024983,36.2978802383071],[-86.7157158339791,36.2979139956035],[-86.7157835360048,36.297988598776],[-86.7158403056619,36.2979548414419],[-86.7158345884827,36.2979485423483]],[[-86.7162241956804,36.2977215888551],[-86.7162817239631,36.2976923545955],[-86.7162868573264,36.2976989743605],[-86.7163431210572,36.2976703829306],[-86.716337987691,36.2976637631679],[-86.7163971871263,36.297633679004],[-86.7164023205036,36.2976402996654],[-86.7164581807415,36.2976119124475],[-86.7164530473695,36.2976052926896],[-86.7165118222619,36.2975754245759],[-86.7164508020231,36.2974967419882],[-86.7163920260528,36.2975266100795],[-86.7163973790718,36.2975335124262],[-86.7163415199726,36.2975618987089],[-86.7163361658433,36.2975549963665],[-86.7162769675487,36.2975850795934],[-86.7162823194483,36.2975919819516],[-86.7162260568646,36.2976205733474],[-86.7162207038628,36.2976136718945],[-86.7161631756066,36.2976429052246],[-86.7161685286135,36.2976498075811],[-86.7161088702567,36.2976801241643],[-86.7161696706401,36.2977585243337],[-86.7162293301459,36.2977282077147],[-86.7162241956804,36.2977215888551]],[[-86.7157343459149,36.2975423682725],[-86.7157383234564,36.297547126653],[-86.7157963830487,36.2975153263787],[-86.7157924055053,36.2975105680001],[-86.7158482327229,36.2974799912694],[-86.7158522102681,36.2974847496462],[-86.7159083288041,36.2974540125459],[-86.7159043523703,36.2974492541643],[-86.7159618202318,36.2974177781507],[-86.7158965351202,36.2973396738951],[-86.7158390672894,36.2973711498784],[-86.7158449694494,36.2973782112196],[-86.7157888509424,36.2974089482912],[-86.7157829487853,36.2974018869474],[-86.7157271215975,36.2974324636486],[-86.715733023752,36.2974395249951],[-86.7156749630765,36.2974713252463],[-86.7156690609248,36.2974642638971],[-86.7156125190827,36.2974952323037],[-86.7156778040425,36.2975733367089],[-86.7157343459149,36.2975423682725]],[[-86.7160812082913,36.2973523879765],[-86.7160851858442,36.2973571463459],[-86.716142446402,36.2973257841264],[-86.7161384688473,36.2973210257589],[-86.7161935302697,36.2972908679675],[-86.7161975078262,36.2972956263333],[-86.7162558850046,36.2972636518173],[-86.7161925254695,36.2971878506687],[-86.7161341472081,36.2972198251613],[-86.7161282450342,36.297212763834],[-86.7160731836413,36.2972429215964],[-86.7160790869258,36.2972499829198],[-86.7160218252844,36.2972813451166],[-86.7160159231159,36.2972742837838],[-86.7159602235243,36.2973047922471],[-86.7160255075566,36.2973828964757],[-86.7160812082913,36.2973523879765]],[[-86.7165117884545,36.297398613296],[-86.7165215581273,36.2974013338888],[-86.7164988657055,36.2974547229786],[-86.7166033543568,36.297483824467],[-86.7166260467166,36.2974304353581],[-86.716620391171,36.2974288601848],[-86.7166434094531,36.2973747039951],[-86.7166490649952,36.2973762791673],[-86.7166728441775,36.2973203349257],[-86.7165683568295,36.2972912334892],[-86.7165445775822,36.2973471777109],[-86.7165348067939,36.2973444562253],[-86.7165117884545,36.297398613296]],[[-86.7166435310179,36.2971504870602],[-86.7166228252233,36.2970957221561],[-86.7166285449772,36.2970943057648],[-86.7166071559625,36.2970377325325],[-86.7165014945029,36.2970639086597],[-86.7165228834411,36.2971204810091],[-86.7165130024537,36.2971229287314],[-86.7165337093009,36.2971776945485],[-86.7165435880679,36.2971752468377],[-86.7165639995683,36.2972292357363],[-86.7166696623409,36.2972030595493],[-86.7166492496621,36.2971490706747],[-86.7166435310179,36.2971504870602]],[[-86.7161022914761,36.2970711846609],[-86.7160587746369,36.2970236510607],[-86.7160670762966,36.2970186712597],[-86.7160249482156,36.2969726579083],[-86.7160166476714,36.2969776376998],[-86.7159751189376,36.2969322759758],[-86.7158863409203,36.2969855344919],[-86.7159278707445,36.2970308962391],[-86.7159326754538,36.2970280135902],[-86.7159748023974,36.2970740269796],[-86.7159699976868,36.2970769096302],[-86.7160135144937,36.2971244423603],[-86.7161022914761,36.2970711846609]],[[-86.716411265126,36.2969681018284],[-86.7164511334678,36.2970160967253],[-86.716540198204,36.2969676189237],[-86.7165003298245,36.2969196231544],[-86.7164947062327,36.2969226846167],[-86.7164534545562,36.2968730234444],[-86.7164590781461,36.296869961984],[-86.7164185210121,36.2968211375314],[-86.716412897424,36.29682419899],[-86.7163734501617,36.2967767098774],[-86.7163790737479,36.2967736484206],[-86.7163380540896,36.2967242661155],[-86.7162489895114,36.2967727446729],[-86.7162900091475,36.2968221279086],[-86.7162830594124,36.2968259100915],[-86.7163225077583,36.2968733992263],[-86.7163294574875,36.2968696161401],[-86.7163700134782,36.2969184406284],[-86.7163630637467,36.2969222237169],[-86.716404315384,36.2969718840181],[-86.716411265126,36.2969681018284]]]},"properties":{"id":"179925","parcel":"033040D90100CO","address":"249 DRY CREEK COMMONS DR","owner":"O.I.C. DRY CREEK COMMONS","point":[-86.71558566172976,36.297310827806136]}}]}