{"type":"FeatureCollection","features":[{"type":"Feature","id":"167026","geometry":{"type":"Polygon","coordinates":[[[-86.7786293410798,36.226151952502],[-86.7783609918242,36.2263319698812],[-86.7783542752269,36.2263364779742],[-86.7780753735169,36.2260636808757],[-86.7767259362289,36.2247437455744],[-86.7766969312977,36.2246973057104],[-86.7765925581066,36.2245301912494],[-86.7766513770861,36.2244020242324],[-86.7795910607164,36.2246830011451],[-86.7795383762552,36.2251621442057],[-86.7795007557509,36.225504280454],[-86.7794978510979,36.225513410878],[-86.7792268802623,36.2260707508225],[-86.7789774395349,36.2261060990988],[-86.7789878725712,36.2261473497986],[-86.7790005251699,36.226188190532],[-86.7790153721027,36.2262285439531],[-86.7790278884524,36.2262583443006],[-86.7790416016201,36.2262877971549],[-86.7790664890853,36.2263349885137],[-86.7790944487904,36.2263810379898],[-86.7791171065181,36.2264143517929],[-86.7791413731004,36.2264469116793],[-86.779603264875,36.2270398439772],[-86.7796181344272,36.2270576739405],[-86.7796343466652,36.227074718355],[-86.7798132042536,36.2272510918352],[-86.7798405888725,36.2272762537846],[-86.7798700689836,36.2272998105843],[-86.7799015021826,36.2273216468907],[-86.7799347361425,36.2273416564366],[-86.7799759608689,36.2273627499545],[-86.7799821770566,36.2273656082463],[-86.7800226258197,36.2273823365799],[-86.780064533396,36.2273965139439],[-86.7801076553479,36.227408056296],[-86.7801517385251,36.2274168985774],[-86.7801649617636,36.2274189924024],[-86.7801785467539,36.2274208838111],[-86.780195890727,36.227422919473],[-86.7802065908265,36.2274239652102],[-86.780210156798,36.2274242774431],[-86.7802342635579,36.2274259350519],[-86.7816880347769,36.2274968275603],[-86.7816886238699,36.22748854393],[-86.781690537876,36.2274886189651],[-86.7816817567808,36.2276305574595],[-86.7816802088319,36.2276304917716],[-86.7816796272263,36.22763953511],[-86.7803904053854,36.2275755168328],[-86.7802828423767,36.2275709321749],[-86.7802353805912,36.2275678293179],[-86.7801794880684,36.2275635831304],[-86.7801241313672,36.2275560231519],[-86.7800696090061,36.2275451898144],[-86.7800162152223,36.2275311407017],[-86.7799642399891,36.2275139523518],[-86.7799139634283,36.2274937175896],[-86.7798656569306,36.2274705464203],[-86.7798262948558,36.2274486071804],[-86.7797887022967,36.2274247170064],[-86.7797530269987,36.2273989686764],[-86.7797194078968,36.2273714640383],[-86.779687977314,36.2273423112912],[-86.7795093574078,36.2271657801799],[-86.7794867267505,36.2271419348513],[-86.7794659763395,36.2271169931769],[-86.7790048831385,36.2265236523602],[-86.7789663871241,36.2264709087074],[-86.7789315801104,36.2264165072794],[-86.7789005694404,36.2263606186252],[-86.7788734524807,36.2263034169632],[-86.7788503143889,36.2262450792937],[-86.7788312258974,36.2261857863149],[-86.7788162466685,36.2261257242034],[-86.7786293410798,36.226151952502]]]},"properties":{"id":"167026","parcel":"06000011000","address":"2947 BRICK CHURCH PIKE","owner":"GFP CL NASHVILLE 2947, LLC","point":[-86.77857788413345,36.225788161944344]}},{"type":"Feature","id":"167567","geometry":{"type":"Polygon","coordinates":[[[-86.7756633530997,36.2295982085445],[-86.7756634115782,36.2295980459435],[-86.7758037756937,36.2296314822562],[-86.7758700408187,36.2296472665776],[-86.7760494613374,36.2296878690456],[-86.7760494147159,36.2296879928167],[-86.7758632109189,36.2301967131748],[-86.775669096714,36.2307319375139],[-86.7756690804785,36.230731983582],[-86.7755813304873,36.2307114180623],[-86.7752857390592,36.2306421418788],[-86.7756633530997,36.2295982085445]]]},"properties":{"id":"167567","parcel":"06002027300","address":"332 EWING DR","owner":"HUDSON HARRIS, LLC","point":[-86.77574773271618,36.22994196230391]}},{"type":"Feature","id":"168911","geometry":{"type":"Polygon","coordinates":[[[-86.7749148028647,36.2274557786847],[-86.7752848310714,36.2272204564012],[-86.7751908060869,36.2273133599167],[-86.7756919616703,36.2274317460248],[-86.7769129990704,36.2277881085614],[-86.7765822871678,36.2294662757057],[-86.7765718981237,36.2295142765302],[-86.7765106511626,36.2297972472645],[-86.7762798447193,36.2308636003605],[-86.776278722948,36.2308687798573],[-86.7762302780926,36.2308598695584],[-86.7762200814978,36.2308575728986],[-86.776063613075,36.2308223370863],[-86.7758553781957,36.2307754442124],[-86.7758348306842,36.2307706499394],[-86.7756690804785,36.230731983582],[-86.775669096714,36.2307319375139],[-86.7758632109189,36.2301967131748],[-86.7760494147159,36.2296879928167],[-86.7760494613374,36.2296878690456],[-86.7758700408187,36.2296472665776],[-86.7758037756937,36.2296314822562],[-86.7756634115782,36.2295980459435],[-86.7754667904344,36.2295516320986],[-86.775282788654,36.2295081921877],[-86.7752707294837,36.2295053756635],[-86.7751196647989,36.2294696821661],[-86.7750739301351,36.2293340550021],[-86.7750191007028,36.2291714512894],[-86.7749743167739,36.2290367769111],[-86.7749354371572,36.2289198202162],[-86.7748514250798,36.2286670737524],[-86.7747637093249,36.2285731391254],[-86.774648576747,36.2284490044336],[-86.7744840959821,36.2282716606331],[-86.7742182187068,36.2279876750841],[-86.77416818321,36.2279337899149],[-86.7741167931103,36.2278784434623],[-86.7745866620077,36.2276644596342],[-86.7749148028647,36.2274557786847]]]},"properties":{"id":"168911","parcel":"06002027200","address":"1005 EWING HTS","owner":"MDHA","point":[-86.77582487786715,36.22910566855506]}},{"type":"Feature","id":"170874","geometry":{"type":"Polygon","coordinates":[[[-86.7710903454461,36.2248716785942],[-86.7712484351293,36.2243937852776],[-86.7713647135124,36.2244239521502],[-86.7714798170573,36.2244569446356],[-86.7715936420197,36.2244927309548],[-86.7717060846633,36.2245312802303],[-86.7718170434232,36.2245725561634],[-86.771828773382,36.2245778661998],[-86.7718393259436,36.2245846041349],[-86.7718484403042,36.2245926021996],[-86.771855889841,36.2246016617643],[-86.7718614888301,36.2246115578014],[-86.7718650980514,36.2246220433559],[-86.7718666282131,36.2246328585365],[-86.7718660399959,36.2246437350206],[-86.7718633496579,36.2246544005259],[-86.7718586235879,36.2246645905605],[-86.7718205952489,36.2247285639227],[-86.7716050765142,36.225088153174],[-86.7710903454461,36.2248716785942]]]},"properties":{"id":"170874","parcel":"06011000100","address":"237 KENNITH DR","owner":"LITTRELL, JAMES AUSTIN & ELIZABETH","point":[-86.7714457859622,36.22480010331951]}},{"type":"Feature","id":"171177","geometry":{"type":"Polygon","coordinates":[[[-86.7700766445295,36.2191872250993],[-86.7703634076639,36.2175390021827],[-86.77078885318,36.2175730976974],[-86.7708335891145,36.2174409431806],[-86.7708343308004,36.2174387520009],[-86.7719424757242,36.2175334755843],[-86.7721799484881,36.2175537724119],[-86.772907370967,36.2176144991875],[-86.7742889434181,36.2177309144303],[-86.7738181136608,36.2192217245452],[-86.7736789276684,36.2196624161567],[-86.7734549739779,36.2213098710173],[-86.7732113865636,36.2219726406163],[-86.7730437966758,36.2224286215566],[-86.7729588512079,36.2228961600531],[-86.7728790549168,36.2233356454804],[-86.7728464830139,36.2233331068769],[-86.7726673388081,36.2233188704113],[-86.7711038521567,36.2231926069153],[-86.770001789148,36.2231007466688],[-86.7698335126878,36.22308863398],[-86.7696647867548,36.2230749007628],[-86.7697932690393,36.2219506912069],[-86.7699183103463,36.2208565671156],[-86.7700277571118,36.2196851764352],[-86.7700766445295,36.2191872250993]]]},"properties":{"id":"171177","parcel":"06000005600","address":"237 LEMUEL RD","owner":"IRECO INCORPORATED","point":[-86.77178415530241,36.22027433951269]}},{"type":"Feature","id":"171349","geometry":{"type":"Polygon","coordinates":[[[-86.770756602318,36.2243002319593],[-86.7708806955753,36.2243195343828],[-86.7710040935932,36.2243415719158],[-86.7711267039006,36.2243663280272],[-86.7712484351293,36.2243937852776],[-86.7710903454461,36.2248716785942],[-86.7706545890409,36.2249667597338],[-86.770756602318,36.2243002319593]]]},"properties":{"id":"171349","parcel":"06011000200","address":"233 KENNITH DR","owner":"ZUNIGA, EMILLIANO M.& HERNANDEZ, S. L.","point":[-86.77093761957505,36.224632288520986]}},{"type":"Feature","id":"171529","geometry":{"type":"Polygon","coordinates":[[[-86.7725130824837,36.2239110193886],[-86.7726997813761,36.2235867724483],[-86.7728223177527,36.2236365335084],[-86.7727554016553,36.2240061621579],[-86.7725130824837,36.2239110193886]]]},"properties":{"id":"171529","parcel":"06011001600","address":"2905 LYNDALE DR","owner":"MOSS INVESTMENTS","point":[-86.7726948079845,36.223773828046575]}},{"type":"Feature","id":"171531","geometry":{"type":"Polygon","coordinates":[[[-86.7726997813761,36.2235867724483],[-86.7728464830139,36.2233331068769],[-86.7728790549168,36.2233356454804],[-86.7728223177527,36.2236365335084],[-86.7726997813761,36.2235867724483]]]},"properties":{"id":"171531","parcel":"06011001700","address":"2901 LYNDALE DR","owner":"METRO GOV'T  BT  BACK TAX SALE","point":[-86.77281388564943,36.223461255455014]}},{"type":"Feature","id":"171533","geometry":{"type":"Polygon","coordinates":[[[-86.7704891492263,36.2241305216785],[-86.7705897110899,36.2235936602421],[-86.7710495273225,36.2234632632385],[-86.7710242980341,36.223590934606],[-86.7709073476814,36.2241827936893],[-86.7708100733849,36.2241678074895],[-86.7707122798406,36.2241552416873],[-86.7706140561332,36.2241451074296],[-86.7704891492263,36.2241305216785]]]},"properties":{"id":"171533","parcel":"06011002000","address":"230 KENNITH DR","owner":"SCHREIBER, KURT G. & NELDA B.","point":[-86.7707549926722,36.223862504140705]}},{"type":"Feature","id":"171566","geometry":{"type":"Polygon","coordinates":[[[-86.7710857649287,36.2232850243201],[-86.7711038521567,36.2231926069153],[-86.7726673388081,36.2233188704113],[-86.7723926367563,36.2237975106691],[-86.7716493468416,36.223505584989],[-86.7710857649287,36.2232850243201]]]},"properties":{"id":"171566","parcel":"06011003200","address":"2900 LYNDALE DR","owner":"SOLOMON, SARAH","point":[-86.77201020041855,36.22341194662391]}},{"type":"Feature","id":"171568","geometry":{"type":"Polygon","coordinates":[[[-86.7699244809874,36.2235187877406],[-86.770001789148,36.2231007466688],[-86.7711038521567,36.2231926069153],[-86.7710857649287,36.2232850243201],[-86.7710495273225,36.2234632632385],[-86.7705897110899,36.2235936602421],[-86.7699244809874,36.2235187877406]]]},"properties":{"id":"171568","parcel":"06011003300","address":"2901 STANWYCK DR","owner":"HILL, CHARLIE B. ET UX","point":[-86.77050963597841,36.22337307492183]}},{"type":"Feature","id":"171611","geometry":{"type":"Polygon","coordinates":[[[-86.7734702066087,36.2288847003537],[-86.7744840959821,36.2282716606331],[-86.774648576747,36.2284490044336],[-86.7747637093249,36.2285731391254],[-86.7747636805634,36.2285731555324],[-86.7747636385157,36.2285731783335],[-86.7737114599854,36.2291468699587],[-86.7736621021131,36.2290922448328],[-86.7734702066087,36.2288847003537]]]},"properties":{"id":"171611","parcel":"06006000800","address":"3025 RICHMOND HILL DR","owner":"JOHNSON, HOMER JINNING ETUX","point":[-86.77410287398189,36.22872891457399]}},{"type":"Feature","id":"171614","geometry":{"type":"Polygon","coordinates":[[[-86.7732501394575,36.2285696524187],[-86.7742182187068,36.2279876750841],[-86.7744840959821,36.2282716606331],[-86.7734702066087,36.2288847003537],[-86.7732070403258,36.2285963431298],[-86.7732070927324,36.2285962418541],[-86.7732501394575,36.2285696524187]]]},"properties":{"id":"171614","parcel":"06006000900","address":"3017 RICHMOND HILL DR","owner":"GOLDEN, ALYSSA DANIELLE & GRANT, RYAN","point":[-86.77386783193374,36.22842065947012]}},{"type":"Feature","id":"171615","geometry":{"type":"Polygon","coordinates":[[[-86.7732899476228,36.2296616140038],[-86.7737532910701,36.2295421726228],[-86.7737709657133,36.2296002911385],[-86.7737846359718,36.2296591148469],[-86.7737942611291,36.229718461957],[-86.7737998115829,36.2297781497049],[-86.7738012677326,36.2298379943614],[-86.7737986277925,36.2298978138848],[-86.7737918977189,36.2299574216774],[-86.7737811002063,36.2300166364414],[-86.7737662679427,36.230075275012],[-86.7737474447661,36.2301331568563],[-86.7737246912265,36.2301901040381],[-86.7737095738578,36.2302105268149],[-86.7737052820584,36.2302163250239],[-86.7736950523743,36.2302232752135],[-86.773683576251,36.2302288012955],[-86.7736711526469,36.2302327607593],[-86.7736644296747,36.230234168315],[-86.7736625476961,36.2302344173981],[-86.7736606576234,36.2302346349892],[-86.7736587638884,36.2302348192573],[-86.773643524986,36.2302351502822],[-86.7736416206683,36.2302350480197],[-86.7736397204835,36.2302349132855],[-86.7736378244314,36.2302347460797],[-86.7736361755898,36.2302346052294],[-86.7736271219906,36.2302330337491],[-86.773508921371,36.2302118118641],[-86.7733801142174,36.2301887804633],[-86.7732864489739,36.23017201974],[-86.7732899476228,36.2296616140038]]]},"properties":{"id":"171615","parcel":"06006001100","address":"3024 RICHMOND HILL DR","owner":"BRADLEY, MILDRED ANN LIVING TRUST, THE","point":[-86.77354424398845,36.22986742045403]}},{"type":"Feature","id":"172059","geometry":{"type":"Polygon","coordinates":[[[-86.7712177896034,36.229626536521],[-86.7712179595436,36.2296265102009],[-86.7709394035689,36.2299906233351],[-86.7708198282021,36.2296883899117],[-86.7712177896034,36.229626536521]]]},"properties":{"id":"172059","parcel":"06007000300","address":"3029 HILLHURST DR","owner":"DUONG, SON K. & LE, CAM H.","point":[-86.77096718571676,36.2298396742919]}},{"type":"Feature","id":"172060","geometry":{"type":"Polygon","coordinates":[[[-86.7705786662846,36.2288768096214],[-86.771330264772,36.2286236814018],[-86.7716971376531,36.2286675922265],[-86.7717464301148,36.2286734914415],[-86.771632985371,36.2289316148527],[-86.7716233116696,36.2289337441224],[-86.7716075629079,36.2289372109032],[-86.7714796046997,36.2289653758269],[-86.7706870103954,36.2291398330079],[-86.770664532436,36.2290728835792],[-86.7706389569702,36.2290066667977],[-86.7706103216398,36.2289412779542],[-86.7705786662846,36.2288768096214]]]},"properties":{"id":"172060","parcel":"06007001100","address":"3017 HILLHURST DR","owner":"ROBINSON, W DANIEL & DANIEL L","point":[-86.77111810723237,36.228904236891125]}},{"type":"Feature","id":"172080","geometry":{"type":"Polygon","coordinates":[[[-86.7704849399093,36.2256513021963],[-86.7705582118347,36.2253761318365],[-86.7706184340034,36.2251537878248],[-86.7706394261228,36.2250811327248],[-86.7713568668665,36.2255028911761],[-86.7713130849508,36.2255706620314],[-86.7712722377911,36.2256396263155],[-86.7712343746213,36.225709698999],[-86.7711995424602,36.225780795968],[-86.7704849399093,36.2256513021963]]]},"properties":{"id":"172080","parcel":"06007004100","address":"2920 LYNDALE DR","owner":"CHESTER PARTNERSHIP, GP","point":[-86.77089577636289,36.22543939393498]}},{"type":"Feature","id":"172081","geometry":{"type":"Polygon","coordinates":[[[-86.7701334315728,36.227195171689],[-86.7702335792852,36.2268593985851],[-86.7709775132908,36.22693596442],[-86.7709321227141,36.2272877941898],[-86.770932117547,36.2272878347792],[-86.7709321123622,36.2272878735662],[-86.7701286209342,36.2272116961911],[-86.7701285062807,36.2272116879096],[-86.7701334315728,36.227195171689]]]},"properties":{"id":"172081","parcel":"06007004500","address":"2936 LYNDALE DR","owner":"WARDEN, KENDALL MCKENZIE","point":[-86.7705664994506,36.22706558994527]}},{"type":"Feature","id":"172082","geometry":{"type":"Polygon","coordinates":[[[-86.7699196579351,36.2280503120237],[-86.7702317166247,36.2277846078877],[-86.7702351309317,36.2277870591538],[-86.7706469239998,36.2280852293346],[-86.7706046535788,36.2281244574656],[-86.7705594831135,36.228161505926],[-86.7705115847395,36.2281962312165],[-86.7704611418563,36.2282285041863],[-86.7704083423667,36.2282582010634],[-86.770353388748,36.2282852096994],[-86.7702964880331,36.2283094287321],[-86.7702841327408,36.2283142228763],[-86.7702710007051,36.2283173825937],[-86.7702574182268,36.2283188319007],[-86.7702437230889,36.2283185316919],[-86.7702302568839,36.2283164915053],[-86.7702173549334,36.2283127623767],[-86.7702053362503,36.2283074342001],[-86.7701945002725,36.2283006429579],[-86.770185117815,36.2282925554581],[-86.7701222582695,36.2282295251791],[-86.7700570194989,36.2281681025483],[-86.7699894643539,36.2281083448414],[-86.7699196579351,36.2280503120237]]]},"properties":{"id":"172082","parcel":"06007004800","address":"3007 HILLHURST DR","owner":"WEDGEWOOD, ZECHARIAH L.","point":[-86.77028179026189,36.228067768350506]}},{"type":"Feature","id":"172103","geometry":{"type":"Polygon","coordinates":[[[-86.7695940540513,36.2252438291763],[-86.7696562877505,36.2249489507694],[-86.7706394261228,36.2250811327248],[-86.7706184340034,36.2251537878248],[-86.7705582118347,36.2253761318365],[-86.7695940540513,36.2252438291763]]]},"properties":{"id":"172103","parcel":"06007007200","address":"2917 STANWYCK DR","owner":"MCHANEY, HOWARD A. ET UX","point":[-86.77010486970556,36.22519880695702]}},{"type":"Feature","id":"172324","geometry":{"type":"Polygon","coordinates":[[[-86.7707538125197,36.2281988252873],[-86.771330264772,36.2286236814018],[-86.7705786662846,36.2288768096214],[-86.770540980063,36.2288023109572],[-86.7704997541409,36.2287290533523],[-86.7704550474523,36.2286571481829],[-86.7704069300182,36.2285867031488],[-86.7703554740661,36.2285178241334],[-86.7703498312007,36.2285068558262],[-86.7703465028687,36.2284952815362],[-86.7703455822829,36.2284834215149],[-86.7703470926245,36.2284716009668],[-86.7703509947944,36.2284601463946],[-86.7703571794778,36.2284493703286],[-86.7703654782767,36.2284395721572],[-86.7703756612926,36.2284310183143],[-86.7703874494057,36.2284239467079],[-86.7704459903123,36.2283990917024],[-86.7705027429116,36.2283716479614],[-86.7705575333821,36.2283417004127],[-86.7706101924315,36.2283093420666],[-86.7706605608315,36.228274671277],[-86.7707084838832,36.2282377944803],[-86.7707538125197,36.2281988252873]]]},"properties":{"id":"172324","parcel":"06007001000","address":"3013 HILLHURST DR","owner":"SIMIYU, GLADYS","point":[-86.77080839283379,36.22855308265946]}},{"type":"Feature","id":"172325","geometry":{"type":"Polygon","coordinates":[[[-86.7714058415774,36.2292944616227],[-86.7714614861272,36.2292865249172],[-86.7714177646335,36.229347562982],[-86.7712179595436,36.2296265102009],[-86.7712177896034,36.229626536521],[-86.7708198282021,36.2296883899117],[-86.7707518073693,36.2293877497747],[-86.7714058415774,36.2292944616227]]]},"properties":{"id":"172325","parcel":"06007001300","address":"3025 HILLHURST DR","owner":"DUONG, SON K. & LE, CAM H.","point":[-86.77104088096047,36.229507237379984]}},{"type":"Feature","id":"172326","geometry":{"type":"Polygon","coordinates":[[[-86.7698215579135,36.2289025146388],[-86.7697261408136,36.2287921424706],[-86.7701011407126,36.228583176166],[-86.7701130792867,36.2285778475516],[-86.7701259133726,36.2285741273699],[-86.7701393123779,36.2285721078537],[-86.7701529397729,36.2285718425199],[-86.7701664440947,36.2285733363131],[-86.7701794834888,36.2285765526593],[-86.7701917256562,36.2285814080582],[-86.7702028579427,36.228587780131],[-86.7702125962289,36.2285955066616],[-86.7702206938719,36.2286043900461],[-86.770273661222,36.2286766770287],[-86.7703230970641,36.2287505880345],[-86.7703689257629,36.2288260099921],[-86.7704110761054,36.2289028270982],[-86.7704494835343,36.2289809217042],[-86.7700114401004,36.2291221652846],[-86.7698215579135,36.2289025146388]]]},"properties":{"id":"172326","parcel":"06007001600","address":"3016 HILLHURST DR","owner":"RAHIMI, ZOBAIR","point":[-86.7700888119931,36.22886384020738]}},{"type":"Feature","id":"172347","geometry":{"type":"Polygon","coordinates":[[[-86.7712312806725,36.2262552798553],[-86.7712389253894,36.2262046860552],[-86.7722382700902,36.2263279598603],[-86.7721076838574,36.2265661379234],[-86.7712009998226,36.2264884210241],[-86.7712312806725,36.2262552798553]]]},"properties":{"id":"172347","parcel":"06007003400","address":"2933 LYNDALE DR","owner":"RAYBON, ANGELIA F.","point":[-86.77170266611125,36.22640815919379]}},{"type":"Feature","id":"172348","geometry":{"type":"Polygon","coordinates":[[[-86.7713573391703,36.2258303342659],[-86.77138947594,36.2257631172375],[-86.771424658041,36.2256969090797],[-86.7714628374128,36.2256318011235],[-86.7715039637358,36.2255678811089],[-86.7724754584624,36.2258957098657],[-86.7723528387132,36.2261162565342],[-86.7713573391703,36.2258303342659]]]},"properties":{"id":"172348","parcel":"06007003600","address":"2925 LYNDALE DR","owner":"FURLOW, ANITA R.","point":[-86.77192469501185,36.2258630391847]}},{"type":"Feature","id":"172349","geometry":{"type":"Polygon","coordinates":[[[-86.7706545890409,36.2249667597338],[-86.7710903454461,36.2248716785942],[-86.7716050765142,36.225088153174],[-86.7713808693889,36.2254609837182],[-86.7713568668665,36.2255028911761],[-86.7706394261228,36.2250811327248],[-86.770668235125,36.2249754625927],[-86.7706545890409,36.2249667597338]]]},"properties":{"id":"172349","parcel":"06007004000","address":"2916 LYNDALE DR","owner":"WRIGHT, TIMOTHY L. ET UX","point":[-86.77122986699013,36.22527406577566]}},{"type":"Feature","id":"172350","geometry":{"type":"Polygon","coordinates":[[[-86.7703723524698,36.2260673701285],[-86.770422112024,36.2258846508056],[-86.7704849399093,36.2256513021963],[-86.7711995424602,36.225780795968],[-86.7711683340131,36.2258550719428],[-86.7711403182253,36.2259301792093],[-86.7711155298128,36.2260060265215],[-86.7710939968355,36.2260825244781],[-86.7710757462066,36.2261595800801],[-86.7703723524698,36.2260673701285]]]},"properties":{"id":"172350","parcel":"06007004200","address":"2924 LYNDALE DR","owner":"LOWE, RONALD E. ETUX","point":[-86.77078232511138,36.225907417672445]}},{"type":"Feature","id":"172351","geometry":{"type":"Polygon","coordinates":[[[-86.770270376411,36.2267382950836],[-86.7703058060538,36.2264765525239],[-86.7710253083806,36.2265510756995],[-86.7709775132908,36.22693596442],[-86.7702335792852,36.2268593985851],[-86.770270376411,36.2267382950836]]]},"properties":{"id":"172351","parcel":"06007004400","address":"2932 LYNDALE DR","owner":"GUTOWSKI, AMANDA & SOISTER, SHAWN","point":[-86.7706483695597,36.22664468699883]}},{"type":"Feature","id":"172352","geometry":{"type":"Polygon","coordinates":[[[-86.7701856960153,36.2275145948753],[-86.7701571437827,36.2273675365374],[-86.7701285062807,36.2272116879096],[-86.7701286209342,36.2272116961911],[-86.7709321123622,36.2272878735662],[-86.7709321071951,36.2272879141555],[-86.770908866897,36.2274814118875],[-86.7708969824167,36.2275803813192],[-86.7701856960153,36.2275145948753]]]},"properties":{"id":"172352","parcel":"06007004600","address":"2940 LYNDALE DR","owner":"PHILLIPS, D. R. ETUX","point":[-86.77054184001165,36.227424491744564]}},{"type":"Feature","id":"172498","geometry":{"type":"Polygon","coordinates":[[[-86.7702773940528,36.2247384151131],[-86.7702125968989,36.2246992713992],[-86.770286851486,36.2242460882425],[-86.7705936610748,36.2242792927385],[-86.7706754575293,36.2242880961323],[-86.770756602318,36.2243002319593],[-86.7706545890409,36.2249667597338],[-86.7702773940528,36.2247384151131]]]},"properties":{"id":"172498","parcel":"06011000300","address":"229 KENNITH DR","owner":"HAMILTON, ELLA L.","point":[-86.77048567924608,36.22449975406367]}},{"type":"Feature","id":"172511","geometry":{"type":"Polygon","coordinates":[[[-86.7725971118714,36.2247235994881],[-86.7722239253506,36.2245765481823],[-86.7722112800925,36.2245706843572],[-86.7722000700907,36.2245631440354],[-86.7721906323365,36.2245541512776],[-86.7721832453187,36.2245439764827],[-86.772178131117,36.2245329228547],[-86.7721754442264,36.2245213210679],[-86.7721752625368,36.2245095167059],[-86.7721775939448,36.2244978639109],[-86.7721823662038,36.2244867110286],[-86.7723264056446,36.2242374586101],[-86.7726857721554,36.2243758080855],[-86.7726207105916,36.2247234485383],[-86.772619064459,36.2247322498973],[-86.7725971118714,36.2247235994881]]]},"properties":{"id":"172511","parcel":"06011001400","address":"242 KENNITH DR","owner":"SHELTON, JERRY W. ET UX","point":[-86.77244498024633,36.224431280572]}},{"type":"Feature","id":"172643","geometry":{"type":"Polygon","coordinates":[[[-86.7730165617841,36.2288161818532],[-86.773129774038,36.2287440366144],[-86.7734231403666,36.2290652063086],[-86.77268996574,36.2295379911081],[-86.7724965738848,36.2294469650168],[-86.7724965303023,36.2294469445668],[-86.7724964934376,36.22944692858],[-86.7728224661996,36.2289393912558],[-86.7728956033923,36.2288929639237],[-86.7730165617841,36.2288161818532]]]},"properties":{"id":"172643","parcel":"06006001300","address":"3018 RICHMOND HILL DR","owner":"COVINGTON, LASHAWN & ANTWAND D.","point":[-86.77287308118773,36.229255903737126]}},{"type":"Feature","id":"172922","geometry":{"type":"Polygon","coordinates":[[[-86.7717335095351,36.2251862254083],[-86.7720084362778,36.2247273634731],[-86.7720161557013,36.2247167271061],[-86.7720259713163,36.2247072922304],[-86.7720376032069,36.2246993274058],[-86.772050719864,36.2246930573604],[-86.7720649504202,36.2246886629125],[-86.7720798900702,36.2246862665162],[-86.772095113471,36.2246859375828],[-86.7721101891216,36.2246876842781],[-86.7721246894256,36.2246914588654],[-86.7722131735721,36.2247260547106],[-86.7724622999577,36.2248233544995],[-86.7723475611621,36.2250174792555],[-86.7721500726142,36.2253483853305],[-86.7717335095351,36.2251862254083]]]},"properties":{"id":"172922","parcel":"06007014300","address":"2917 LYNDALE DR","owner":"PULIDO, RAFAEL","point":[-86.77204063457549,36.22510185291598]}},{"type":"Feature","id":"173009","geometry":{"type":"Polygon","coordinates":[[[-86.7697209520343,36.224625488877],[-86.7697879288027,36.2242602570953],[-86.7697906480362,36.2242495617112],[-86.7697954743971,36.2242393657111],[-86.769802281506,36.2242299420788],[-86.7698108871175,36.2242215380178],[-86.7698210642869,36.2242143793863],[-86.7698325412209,36.2242086553769],[-86.7698450135126,36.224204518439],[-86.7698581507541,36.2242020779272],[-86.7698716020879,36.2242013991655],[-86.7698850106321,36.2242024997498],[-86.770286851486,36.2242460882425],[-86.7702125968989,36.2246992713992],[-86.7702773940528,36.2247384151131],[-86.7697209520343,36.224625488877]]]},"properties":{"id":"173009","parcel":"06011000400","address":"225 KENNITH DR","owner":"CUNNINGHAM, LEE R. & DORIS J.","point":[-86.77000444560348,36.22444335377988]}},{"type":"Feature","id":"173029","geometry":{"type":"Polygon","coordinates":[[[-86.7713394717235,36.2242723350003],[-86.7715191910818,36.2237877104267],[-86.7722352765694,36.2240710227052],[-86.7720325794039,36.2244239372627],[-86.7720247706367,36.2244340767108],[-86.7720150071564,36.2244430362934],[-86.7720035546287,36.2244505691709],[-86.7719907269592,36.2244564705545],[-86.7719768751792,36.2244605786783],[-86.7719623775057,36.224462782073],[-86.7719476293399,36.224463020531],[-86.7719330343776,36.2244612860649],[-86.7719189913059,36.2244576274981],[-86.7718059063333,36.2244150250799],[-86.7716913097876,36.2243751603086],[-86.7715753032335,36.2243380694828],[-86.7714579892945,36.2243037834867],[-86.7713394717235,36.2242723350003]]]},"properties":{"id":"173029","parcel":"06011001800","address":"238 KENNITH DR","owner":"POOLE, JEFFREY L & MARTINEZ, DANIEL GOMEZ","point":[-86.77177706368751,36.22417166002875]}},{"type":"Feature","id":"173040","geometry":{"type":"Polygon","coordinates":[[[-86.7715193348464,36.2237873958721],[-86.7716493468416,36.223505584989],[-86.7723926367563,36.2237975106691],[-86.7722352765694,36.2240710227052],[-86.7715191910818,36.2237877104267],[-86.7715193348464,36.2237873958721]]]},"properties":{"id":"173040","parcel":"06011003100","address":"2904 LYNDALE DR","owner":"DAVIS, JOHNNY B.","point":[-86.77194534056457,36.22378836593783]}},{"type":"Feature","id":"173237","geometry":{"type":"Polygon","coordinates":[[[-86.7741167111609,36.2278784809389],[-86.7741167931103,36.2278784434623],[-86.77416818321,36.2279337899149],[-86.7742182187068,36.2279876750841],[-86.7732501394575,36.2285696524187],[-86.7732465602586,36.2285642218501],[-86.7732325668953,36.2285406463306],[-86.7732269893231,36.2285295704883],[-86.7732173200526,36.2285071632494],[-86.7732099493671,36.2284836570888],[-86.7732046519546,36.2284597879702],[-86.7732028428245,36.2284469702162],[-86.7735550976719,36.2281325686244],[-86.7741167111609,36.2278784809389]]]},"properties":{"id":"173237","parcel":"06006001000","address":"0 RICHMOND HILL DR","owner":"CURRY, PETER, TRUSTEE","point":[-86.77354681130981,36.22829008731551]}},{"type":"Feature","id":"173340","geometry":{"type":"Polygon","coordinates":[[[-86.7723163760577,36.230030723827],[-86.7723333979162,36.2296897099527],[-86.7724264233592,36.2295512370138],[-86.7724964934376,36.22944692858],[-86.7724965303023,36.2294469445668],[-86.7724965738848,36.2294469650168],[-86.77268996574,36.2295379911081],[-86.7730714643333,36.2297179528367],[-86.7732899476228,36.2296616140038],[-86.7732864489739,36.23017201974],[-86.7732813987331,36.2301711134156],[-86.7730293464623,36.2301275288926],[-86.7730007875,36.2301227051968],[-86.7729885910855,36.2301206454742],[-86.772896201943,36.2301036577293],[-86.7728698467768,36.2300999870236],[-86.7728515360063,36.2300975220908],[-86.7727943511853,36.230090022721],[-86.7727434944431,36.2300841970246],[-86.7727239345569,36.2300819707839],[-86.7727077935923,36.2300801399495],[-86.7725226697975,36.2300456128012],[-86.7724161750224,36.2300379266006],[-86.7723163760577,36.230030723827]]]},"properties":{"id":"173340","parcel":"06007000100","address":"244 EWING DR","owner":"WALKING IN FAITH INTERNATIONAL WORSHIP CENTER","point":[-86.7728063494536,36.22987455245945]}},{"type":"Feature","id":"173345","geometry":{"type":"Polygon","coordinates":[[[-86.7701450642777,36.2297542269007],[-86.7706460487467,36.2296697198417],[-86.7706856739576,36.2298395081132],[-86.7706685517325,36.230136021204],[-86.7702308438876,36.230207763292],[-86.7702269578008,36.2301872169898],[-86.770223665047,36.2301698059655],[-86.7702221406388,36.2301617467747],[-86.7701450642777,36.2297542269007]]]},"properties":{"id":"173345","parcel":"06007000400","address":"232 EWING DR","owner":"BROWN, ALLAN I. ADMINISTRATIVE TRUST","point":[-86.77043308507443,36.229987296719386]}},{"type":"Feature","id":"173350","geometry":{"type":"Polygon","coordinates":[[[-86.7717480785013,36.2286737035192],[-86.7717464301148,36.2286734914415],[-86.7716971376531,36.2286675922265],[-86.771330264772,36.2286236814018],[-86.7707538125197,36.2281988252873],[-86.770794950723,36.2281601910451],[-86.770833361645,36.2281197563656],[-86.7708689241343,36.2280776454963],[-86.7709015282421,36.2280339907241],[-86.7709310729717,36.2279889296865],[-86.7709574640181,36.2279426017806],[-86.7717608261906,36.2282715101332],[-86.771748466024,36.228673746106],[-86.7717480785013,36.2286737035192]]]},"properties":{"id":"173350","parcel":"06007000900","address":"2949 LYNDALE DR","owner":"MOORE, SABRINA J.","point":[-86.77142278495093,36.22844736151927]}},{"type":"Feature","id":"173354","geometry":{"type":"Polygon","coordinates":[[[-86.7698628591713,36.2294637424924],[-86.7705639973591,36.2293208223284],[-86.7706460487467,36.2296697198417],[-86.7701450642777,36.2297542269007],[-86.7698628591713,36.2294637424924]]]},"properties":{"id":"173354","parcel":"06007001400","address":"3024 HILLHURST DR","owner":"JORDAN, CORLIS FRANCES","point":[-86.77029218103239,36.229566804240854]}},{"type":"Feature","id":"173370","geometry":{"type":"Polygon","coordinates":[[[-86.7752265667649,36.221370218717],[-86.7753141742207,36.2199157589774],[-86.7753702730207,36.219604967783],[-86.7777176970561,36.2196969855592],[-86.7776554237476,36.2203006823707],[-86.777684441531,36.2207273498379],[-86.7776681428917,36.2211472819503],[-86.7774987317484,36.2211426875035],[-86.777487392148,36.2214172287042],[-86.7776568027561,36.2214218222726],[-86.7776558149756,36.2214457461376],[-86.7775486891973,36.2221969242927],[-86.7775099894177,36.2224993713492],[-86.7774843601766,36.2226685423121],[-86.7770962339224,36.2234706096704],[-86.7770321479932,36.2236030431216],[-86.7770144768422,36.2236771786278],[-86.7767562336259,36.2241397519131],[-86.7759047428836,36.2239544553947],[-86.7757477217361,36.223585024144],[-86.775176522342,36.2222463792511],[-86.7751928836045,36.2219599393344],[-86.7752265667649,36.221370218717]]]},"properties":{"id":"173370","parcel":"06000002400","address":"2815 BRICK CHURCH PIKE","owner":"GRAYMAR-SKYLINE LLC.","point":[-86.77641326512244,36.22170282837504]}},{"type":"Feature","id":"173522","geometry":{"type":"Polygon","coordinates":[[[-86.7796126529957,36.2298552041534],[-86.7796220890279,36.2297085382316],[-86.7801995659032,36.2297453075204],[-86.7801996816648,36.229745314884],[-86.7803699470739,36.2299149556112],[-86.7803698869639,36.2299149514933],[-86.7796126529957,36.2298552041534]]]},"properties":{"id":"173522","parcel":"06006000300","address":"3029 BRICK CHURCH PIKE","owner":"BROADRICK, DALE & CHERYL","point":[-86.77993584776283,36.22980031447035]}},{"type":"Feature","id":"173524","geometry":{"type":"Polygon","coordinates":[[[-86.7757631732877,36.2270415759268],[-86.7760311010333,36.2269805190551],[-86.7775071411134,36.227439120006],[-86.7775764388966,36.2274606500903],[-86.7780931951583,36.2278798453299],[-86.7790255554893,36.2286358310513],[-86.7794526521207,36.2287627355119],[-86.7803342385457,36.229667701311],[-86.7801996816648,36.229745314884],[-86.7801995659032,36.2297453075204],[-86.7796220890279,36.2297085382316],[-86.779217569236,36.2296827787541],[-86.7788398618487,36.2296587268641],[-86.7785027245877,36.2296372566846],[-86.7780357200324,36.2296075140545],[-86.7780356276476,36.2296075083408],[-86.7769107462652,36.2295358609553],[-86.7767413177089,36.2295250675383],[-86.7765718981237,36.2295142765302],[-86.7765822871678,36.2294662757057],[-86.7769129990704,36.2277881085614],[-86.7756919616703,36.2274317460248],[-86.7757631732877,36.2270415759268]]]},"properties":{"id":"173524","parcel":"06006000400","address":"3003 BRICK CHURCH PIKE","owner":"BROADRICK, DALE &  CHERYL","point":[-86.77769022072896,36.22825622745524]}},{"type":"Feature","id":"173528","geometry":{"type":"Polygon","coordinates":[[[-86.7750190219221,36.2291714716224],[-86.7750191007028,36.2291714512894],[-86.7750739301351,36.2293340550021],[-86.7751196647989,36.2294696821661],[-86.7747783167577,36.22979052619],[-86.7739701148208,36.2298023009101],[-86.773965076082,36.2297337388617],[-86.773955685258,36.229665476875],[-86.7739419697381,36.2295976986293],[-86.7739239635321,36.2295305823533],[-86.7739017173254,36.2294643052672],[-86.7750190219221,36.2291714716224]]]},"properties":{"id":"173528","parcel":"06006000600","address":"3033 RICHMOND HILL DR","owner":"MANLOVE, RONALD A. ET UX","point":[-86.77449974763779,36.22950009216928]}},{"type":"Feature","id":"173531","geometry":{"type":"Polygon","coordinates":[[[-86.7747636805634,36.2285731555324],[-86.7747637093249,36.2285731391254],[-86.7748514250798,36.2286670737524],[-86.7749354371572,36.2289198202162],[-86.7749743167739,36.2290367769111],[-86.7750191007028,36.2291714512894],[-86.7750190219221,36.2291714716224],[-86.7739017173254,36.2294643052672],[-86.7738771933394,36.2294087784906],[-86.7738497204448,36.2293541637417],[-86.7738193508424,36.2293005661308],[-86.7737861422502,36.2292480862263],[-86.7737501556963,36.2291968218715],[-86.7737114599854,36.2291468699587],[-86.7747636385157,36.2285731783335],[-86.7747636805634,36.2285731555324]]]},"properties":{"id":"173531","parcel":"06006000700","address":"3021 RICHMOND HILL DR","owner":"CMB TRUST","point":[-86.77448936333546,36.22897742213018]}},{"type":"Feature","id":"173533","geometry":{"type":"Polygon","coordinates":[[[-86.7753791577899,36.2271583178588],[-86.7757631732877,36.2270415759268],[-86.7756919616703,36.2274317460248],[-86.7751908060869,36.2273133599167],[-86.7752848310714,36.2272204564012],[-86.7753791577899,36.2271583178588]]]},"properties":{"id":"173533","parcel":"06006002100","address":"0 RICHMOND HILL DR","owner":"ANDERSON, TINY T. ET UX","point":[-86.77547984992572,36.22726736255106]}},{"type":"Feature","id":"173537","geometry":{"type":"Polygon","coordinates":[[[-86.7768450528562,36.2298379913558],[-86.7769107462652,36.2295358609553],[-86.7780356276476,36.2296075083408],[-86.7780357200324,36.2296075140545],[-86.7780236126604,36.2297984152133],[-86.7780085618564,36.2300356876511],[-86.7773702738067,36.2299010239437],[-86.7768450528562,36.2298379913558]]]},"properties":{"id":"173537","parcel":"06006002200","address":"0 EWING DR","owner":"HATCHETT, ALONZO D. JR.","point":[-86.77745227282371,36.22970189211924]}},{"type":"Feature","id":"173580","geometry":{"type":"Polygon","coordinates":[[[-86.7711490061738,36.22755679646],[-86.7712407090318,36.2275594951414],[-86.7713322019979,36.2275652016732],[-86.7714233336963,36.2275739053067],[-86.7715139560616,36.2275855925682],[-86.7716039187422,36.2276002436907],[-86.7716930769214,36.2276178361682],[-86.7717812812536,36.227638339413],[-86.7718653722103,36.2276621674644],[-86.7719483817112,36.2276883654542],[-86.7720302093398,36.2277169015811],[-86.7721107535233,36.2277477395455],[-86.772189916034,36.2277808439277],[-86.7721252149627,36.2279936368828],[-86.772110197339,36.2280429223599],[-86.771748466024,36.228673746106],[-86.7717608261906,36.2282715101332],[-86.7709574640181,36.2279426017806],[-86.7709821574827,36.2278968380726],[-86.771003721858,36.2278500479772],[-86.7710220917689,36.2278023716075],[-86.7710372141112,36.2277539526031],[-86.7710490424554,36.2277049345609],[-86.7710575415384,36.2276554655124],[-86.771062685005,36.2276056943332],[-86.7710680067261,36.2275950733439],[-86.7710754001319,36.2275853007273],[-86.7710846675593,36.2275766400095],[-86.7710955576392,36.2275693226142],[-86.7711077786453,36.2275635477778],[-86.7711210005952,36.2275594699182],[-86.7711348674945,36.2275571994582],[-86.7711490061738,36.22755679646]]]},"properties":{"id":"173580","parcel":"06007000800","address":"2945 LYNDALE DR","owner":"TRUCARE TRANSFORMATION","point":[-86.77176203736494,36.22815688560773]}},{"type":"Feature","id":"173583","geometry":{"type":"Polygon","coordinates":[[[-86.7706870103954,36.2291398330079],[-86.7714796046997,36.2289653758269],[-86.7716075629079,36.2289372109032],[-86.7716233116696,36.2289337441224],[-86.771632985371,36.2289316148527],[-86.7716331855876,36.2289316135737],[-86.7714854143856,36.2292371015192],[-86.7714614861272,36.2292865249172],[-86.7714058415774,36.2292944616227],[-86.7707518073693,36.2293877497747],[-86.7707094650754,36.2292174299768],[-86.7706870103954,36.2291398330079]]]},"properties":{"id":"173583","parcel":"06007001200","address":"3021 HILLHURST DR","owner":"WESTMORELAND, KENNETH & CHERYL ETAL","point":[-86.77110559077312,36.22917941143509]}},{"type":"Feature","id":"173587","geometry":{"type":"Polygon","coordinates":[[[-86.7699174633355,36.2293382087086],[-86.7700114401004,36.2291221652846],[-86.7704494835343,36.2289809217042],[-86.7704784092693,36.2290474749527],[-86.770504356083,36.2291148294823],[-86.7705272886371,36.2291828980988],[-86.7705471771373,36.2292515917697],[-86.7705639973591,36.2293208223284],[-86.7698628591713,36.2294637424924],[-86.7699174633355,36.2293382087086]]]},"properties":{"id":"173587","parcel":"06007001500","address":"3020 HILLHURST DR","owner":"ALLEN, MARY & KENNETH","point":[-86.77025389381436,36.229216701237824]}},{"type":"Feature","id":"173628","geometry":{"type":"Polygon","coordinates":[[[-86.7723528387132,36.2261162565342],[-86.7724754584624,36.2258957098657],[-86.7724337184017,36.2263442917885],[-86.7722382700902,36.2263279598603],[-86.7723528387132,36.2261162565342]]]},"properties":{"id":"173628","parcel":"06007002900","address":"2930 WARRICK DR","owner":"METRO GOV'T  BT  BACK TAX SALE","point":[-86.7723703077572,36.22622225044057]}},{"type":"Feature","id":"173631","geometry":{"type":"Polygon","coordinates":[[[-86.7721076838574,36.2265661379234],[-86.7722382700902,36.2263279598603],[-86.7724337184017,36.2263442917885],[-86.7723911595438,36.2269861264854],[-86.7723911464711,36.226986268967],[-86.771987786103,36.2267866739761],[-86.7719878200311,36.2267866169803],[-86.7721076838574,36.2265661379234]]]},"properties":{"id":"173631","parcel":"06007003000","address":"2932 WARRICK DR","owner":"CALLAHAN, LISA & CURTIS, DIANE & BARR, DEBORAH","point":[-86.7722297023037,36.22667672395067]}},{"type":"Feature","id":"173634","geometry":{"type":"Polygon","coordinates":[[[-86.771905133968,36.2269344372229],[-86.771987786103,36.2267866739761],[-86.7723911464711,36.226986268967],[-86.7723851304637,36.22709871083],[-86.7723819701771,36.2271577414891],[-86.7723358464484,36.2273057698262],[-86.7723188696986,36.2273602554801],[-86.7723188578408,36.2273602943098],[-86.7723188414461,36.2273603241559],[-86.7723188161969,36.227360358565],[-86.7722369437023,36.227472928506],[-86.7721823424701,36.2275479968549],[-86.7721763777107,36.2275540238123],[-86.7721708655242,36.2275587780108],[-86.7721600813885,36.2275661128515],[-86.7721480555513,36.227572046069],[-86.7721350636846,36.2275764434166],[-86.7721214017889,36.2275792020616],[-86.7721073829707,36.227580262322],[-86.7720933273262,36.2275795969168],[-86.7720795553817,36.2275772227234],[-86.7719876093121,36.2275476067071],[-86.7718943200221,36.2275208931281],[-86.7717998236148,36.2274971234726],[-86.7717042639177,36.2274763328688],[-86.7716825225217,36.2274720772588],[-86.7718491791255,36.2270380811039],[-86.771905133968,36.2269344372229]]]},"properties":{"id":"173634","parcel":"06007003100","address":"905 LYNDALE CT","owner":"HOLMES, DORA ANITA","point":[-86.7720670713417,36.22723120010168]}},{"type":"Feature","id":"173638","geometry":{"type":"Polygon","coordinates":[[[-86.7711013148157,36.2272972732949],[-86.7711558565913,36.2268666993285],[-86.771905133968,36.2269344372229],[-86.7718491791255,36.2270380811039],[-86.7716825225217,36.2274720772588],[-86.771582097143,36.2274554886425],[-86.7714809656573,36.2274420074669],[-86.7713792750685,36.2274316526189],[-86.7712771712505,36.2274244411906],[-86.7711748033263,36.2274203812415],[-86.7711598501306,36.2274182379957],[-86.7711455798696,36.2274140301239],[-86.7711324242636,36.2274078846504],[-86.7711207811125,36.2273999864968],[-86.7711110009044,36.2273905740604],[-86.7711033789591,36.2273799320551],[-86.7710981453301,36.2273683825622],[-86.77109545912,36.2273562724502],[-86.7710954006518,36.2273439689176],[-86.7711013148157,36.2272972732949]]]},"properties":{"id":"173638","parcel":"06007003200","address":"2941 LYNDALE DR","owner":"LEWIS, GREGORY A. & LAURECE","point":[-86.77145849687568,36.22716764579518]}},{"type":"Feature","id":"173641","geometry":{"type":"Polygon","coordinates":[[[-86.7711558565913,36.2268666993285],[-86.7712009998226,36.2264884210241],[-86.7721076838574,36.2265661379234],[-86.7719878200311,36.2267866169803],[-86.771987786103,36.2267866739761],[-86.771905133968,36.2269344372229],[-86.7711558565913,36.2268666993285]]]},"properties":{"id":"173641","parcel":"06007003300","address":"2937 LYNDALE DR","owner":"CALLAHAN, LISA & CURTIS, DIANE & BARR, DEBORAH","point":[-86.77161325967589,36.226675548958156]}},{"type":"Feature","id":"173644","geometry":{"type":"Polygon","coordinates":[[[-86.7712389253894,36.2262046860552],[-86.7712556758647,36.2261284871856],[-86.7712759222864,36.2260528481986],[-86.7712996378463,36.2259778729076],[-86.7713267890889,36.2259036678722],[-86.7713573391703,36.2258303342659],[-86.7723528387132,36.2261162565342],[-86.7722382700902,36.2263279598603],[-86.7712389253894,36.2262046860552]]]},"properties":{"id":"173644","parcel":"06007003500","address":"2929 LYNDALE DR","owner":"WYATT, LEVON","point":[-86.77175651492686,36.226084443215825]}},{"type":"Feature","id":"173647","geometry":{"type":"Polygon","coordinates":[[[-86.7715039637358,36.2255678811089],[-86.7717335095351,36.2251862254083],[-86.7721500726142,36.2253483853305],[-86.772510132263,36.2255570547983],[-86.7724778918821,36.2258671254694],[-86.7724754584624,36.2258957098657],[-86.7715039637358,36.2255678811089]]]},"properties":{"id":"173647","parcel":"06007003700","address":"2921 LYNDALE DR","owner":"BAILEY, ELFRIEDA D.","point":[-86.77195209798865,36.22545200039486]}},{"type":"Feature","id":"173650","geometry":{"type":"Polygon","coordinates":[[[-86.7723475611621,36.2250174792555],[-86.7724622999577,36.2248233544995],[-86.7725984415702,36.2248774250858],[-86.7725731187363,36.2250621872521],[-86.772510132263,36.2255570547983],[-86.7721500726142,36.2253483853305],[-86.7723475611621,36.2250174792555]]]},"properties":{"id":"173650","parcel":"06007003800","address":"245 KENNITH DR","owner":"GIRGIS, SALAH","point":[-86.77239523870091,36.2252053504776]}},{"type":"Feature","id":"173652","geometry":{"type":"Polygon","coordinates":[[[-86.7702351309317,36.2277870591538],[-86.7701856960153,36.2275145948753],[-86.7708969824167,36.2275803813192],[-86.770890551161,36.2276354600767],[-86.770879795135,36.2276900932759],[-86.7708647600032,36.2277440589158],[-86.770845504805,36.2277971376136],[-86.7708221097486,36.227849113456],[-86.7707946684174,36.2278997731478],[-86.7707632933833,36.2279489113835],[-86.7707281128441,36.2279963281652],[-86.7706892706237,36.2280418288026],[-86.7706469239998,36.2280852293346],[-86.7702351309317,36.2277870591538]]]},"properties":{"id":"173652","parcel":"06007004700","address":"2944 LYNDALE DR","owner":"GLADNEY. ASIA","point":[-86.77055864533718,36.22782259822898]}},{"type":"Feature","id":"173872","geometry":{"type":"Polygon","coordinates":[[[-86.7723264056446,36.2242374586101],[-86.7725130824837,36.2239110193886],[-86.7727554016553,36.2240061621579],[-86.7726857721554,36.2243758080855],[-86.7723264056446,36.2242374586101]]]},"properties":{"id":"173872","parcel":"06011001500","address":"2909 LYNDALE DR","owner":"DIXON, TRACY & ALEXIS RENEE","point":[-86.77256312476807,36.224121852814974]}},{"type":"Feature","id":"173874","geometry":{"type":"Polygon","coordinates":[[[-86.7710495273225,36.2234632632385],[-86.7710857649287,36.2232850243201],[-86.7716493468416,36.223505584989],[-86.7715193348464,36.2237873958721],[-86.7715191910818,36.2237877104267],[-86.7713394717235,36.2242723350003],[-86.7712325107669,36.2242466716587],[-86.771124792409,36.2242231832772],[-86.7710163813185,36.2242018865648],[-86.7709073476814,36.2241827936893],[-86.7710242980341,36.223590934606],[-86.7710495273225,36.2234632632385]]]},"properties":{"id":"173874","parcel":"06011001900","address":"234 KENNITH DR","owner":"CAMPBELL, WILL T., SR. & BARBARA J.","point":[-86.77128469196491,36.2236891901056]}},{"type":"Feature","id":"173876","geometry":{"type":"Polygon","coordinates":[[[-86.7703090581569,36.2241105548745],[-86.7699080960816,36.2240661001595],[-86.7698954977251,36.2240636659655],[-86.7698835270494,36.2240596622916],[-86.7698724786418,36.2240541854969],[-86.7698626285924,36.2240473744176],[-86.7698542165408,36.2240393942584],[-86.7698474557732,36.2240304455411],[-86.7698425085878,36.2240207471373],[-86.7698395007966,36.2240105406827],[-86.7698385049204,36.2240000780664],[-86.7698395468264,36.2239896177832],[-86.7699244809874,36.2235187877406],[-86.7705897110899,36.2235936602421],[-86.7704891492263,36.2241305216785],[-86.7703090581569,36.2241105548745]]]},"properties":{"id":"173876","parcel":"06011002100","address":"2903 STANWYCK DR","owner":"BERNAT, BRANDT","point":[-86.77021394186912,36.22379163828595]}},{"type":"Feature","id":"175772","geometry":{"type":"Polygon","coordinates":[[[-86.7703058060538,36.2264765525239],[-86.7703513598534,36.2261400260627],[-86.7703723524698,36.2260673701285],[-86.7710757462066,36.2261595800801],[-86.7710706955039,36.2261993197398],[-86.7710629545912,36.226238773751],[-86.7710253083806,36.2265510756995],[-86.7703058060538,36.2264765525239]]]},"properties":{"id":"175772","parcel":"06007004300","address":"2928 LYNDALE DR","owner":"MCREYNOLDS, JULIE A.","point":[-86.77068526628808,36.22635766543633]}},{"type":"Feature","id":"175812","geometry":{"type":"Polygon","coordinates":[[[-86.7695525358453,36.2254374837565],[-86.7695940540513,36.2252438291763],[-86.7705582118347,36.2253761318365],[-86.7704849399093,36.2256513021963],[-86.769529129496,36.2255409210212],[-86.7695525358453,36.2254374837565]]]},"properties":{"id":"175812","parcel":"06007007100","address":"2921 STANWYCK DR","owner":"PRIDE, LOLITA D.","point":[-86.77003421566893,36.225490151606635]}},{"type":"Feature","id":"177044","geometry":{"type":"Polygon","coordinates":[[[-86.7697055138757,36.2247112946709],[-86.7697209520343,36.224625488877],[-86.7702773940528,36.2247384151131],[-86.7706545890409,36.2249667597338],[-86.770668235125,36.2249754625927],[-86.7706394261228,36.2250811327248],[-86.7696562877505,36.2249489507694],[-86.7696990321874,36.2247421020683],[-86.7697055138757,36.2247112946709]]]},"properties":{"id":"177044","parcel":"06007007300","address":"2913 STANWYCK DR","owner":"SOLOMAN, PEDRO ALVAREZ & ROSALES, ANTONIA E RUIZ ETAL","point":[-86.77006723013524,36.22484627563197]}},{"type":"Feature","id":"196972","geometry":{"type":"Polygon","coordinates":[[[-86.7733737556011,36.2293530221082],[-86.773450535111,36.2293150636299],[-86.7735390114904,36.2294325377373],[-86.7734622330214,36.2294704962635],[-86.7733737556011,36.2293530221082]]]},"properties":{"id":"196972","parcel":"060060A00200CO","address":"3020 B RICHMOND HILL DR","owner":"HAWKWOOD LANE LLC","point":[-86.77345638369307,36.22939277995163]}},{"type":"Feature","id":"199819","geometry":{"type":"Polygon","coordinates":[[[-86.77268996574,36.2295379911081],[-86.7734231403666,36.2290652063086],[-86.7735273031272,36.2291766182051],[-86.7735695356164,36.2292243511732],[-86.7736086169605,36.2292738148851],[-86.7736444368121,36.2293248730601],[-86.773676900343,36.2293773839104],[-86.7737059149307,36.2294312038316],[-86.7737314023597,36.229486183719],[-86.7737532910701,36.2295421726228],[-86.7732899476228,36.2296616140038],[-86.7730714643333,36.2297179528367],[-86.77268996574,36.2295379911081]],[[-86.7735390114904,36.2294325377373],[-86.773450535111,36.2293150636299],[-86.7733737556011,36.2293530221082],[-86.7734622330214,36.2294704962635],[-86.7735390114904,36.2294325377373]],[[-86.7734144242355,36.2292618685889],[-86.7733882956789,36.2292338474028],[-86.7733782418647,36.229240000636],[-86.7733573439687,36.2292175877953],[-86.7733542809452,36.2292194630851],[-86.7733342048234,36.229197932713],[-86.7732731930381,36.2292352764666],[-86.7733402955952,36.229307241803],[-86.7734144242355,36.2292618685889]]]},"properties":{"id":"199819","parcel":"060060A90000CO","address":"3020 C RICHMOND HILL DR","owner":"O.I.C. THIRTY TWENTY RICHMOND HILL DRIVE","point":[-86.77315579955123,36.22940327965058]}},{"type":"Feature","id":"199997","geometry":{"type":"Polygon","coordinates":[[[-86.7733402955952,36.229307241803],[-86.7732731930381,36.2292352764666],[-86.7733342048234,36.229197932713],[-86.7733542809452,36.2292194630851],[-86.7733573439687,36.2292175877953],[-86.7733782418647,36.229240000636],[-86.7733882956789,36.2292338474028],[-86.7734144242355,36.2292618685889],[-86.7733402955952,36.229307241803]]]},"properties":{"id":"199997","parcel":"060060A00100CO","address":"3020 A RICHMOND HILL DR","owner":"SIMIYU, PAUL","point":[-86.77334592190964,36.22925083913391]}}]}