{"type":"FeatureCollection","features":[{"type":"Feature","id":"9957","geometry":{"type":"Polygon","coordinates":[[[-86.8337490388489,36.1090083509897],[-86.833749163641,36.1087622079003],[-86.8346319988583,36.1087539033525],[-86.8346338840644,36.108933276065],[-86.8346345856354,36.1090000285986],[-86.8337490388489,36.1090083509897]],[[-86.8340868015753,36.1088049259294],[-86.8340068964891,36.1088041049531],[-86.834003766838,36.1088607174711],[-86.8338784830574,36.1088585617482],[-86.8338767920856,36.1088909900094],[-86.8338751104174,36.1089245159728],[-86.8340017688,36.1089283106473],[-86.8340030463537,36.1089854442744],[-86.8340822914231,36.1089879155681],[-86.8340843800229,36.1088966972441],[-86.8340868015753,36.1088049259294]]]},"properties":{"id":"9957","parcel":"116120K00600CO","address":"3906 B WALLACE LN","owner":"O.I.C. WALLACE CLOSE CONDOMINIUMS","point":[-86.8343591076766,36.10887643351433]}},{"type":"Feature","id":"10112","geometry":{"type":"Polygon","coordinates":[[[-86.8339436647387,36.109133647837],[-86.8339426266746,36.1090993160031],[-86.8341274848176,36.1091005098666],[-86.8341257235262,36.1091584864808],[-86.8340414148865,36.1091574219894],[-86.8340408424591,36.109135174088],[-86.8339436647387,36.109133647837]]]},"properties":{"id":"10112","parcel":"116120K00100CO","address":"3900 WALLACE LN","owner":"STAR 37027, LLC","point":[-86.83403506875047,36.10911707818615]}},{"type":"Feature","id":"10113","geometry":{"type":"Polygon","coordinates":[[[-86.8338751104174,36.1089245159728],[-86.8338767920856,36.1088909900094],[-86.8340843800229,36.1088966972441],[-86.8340822914231,36.1089879155681],[-86.8340030463537,36.1089854442744],[-86.8340017688,36.1089283106473],[-86.8338751104174,36.1089245159728]]]},"properties":{"id":"10113","parcel":"116120K00300CO","address":"3904 WALLACE LN","owner":"CHANDLER FAMILY TRUST","point":[-86.83404270355744,36.10895693328289]}},{"type":"Feature","id":"10387","geometry":{"type":"Polygon","coordinates":[[[-86.8340428184941,36.1090653828291],[-86.8340435883861,36.1090420269764],[-86.8341295866248,36.1090428057888],[-86.8341274848176,36.1091005098666],[-86.8339426266746,36.1090993160031],[-86.8339419533132,36.1090674538756],[-86.8340428184941,36.1090653828291]]]},"properties":{"id":"10387","parcel":"116120K00200CO","address":"3902 WALLACE LN","owner":"TRENT FAMILY LIVING TRUST","point":[-86.83403519459642,36.1090835136664]}},{"type":"Feature","id":"10388","geometry":{"type":"Polygon","coordinates":[[[-86.833743370404,36.1092745869096],[-86.8337490388489,36.1090083509897],[-86.8346345856354,36.1090000285986],[-86.8346373802899,36.1092659311215],[-86.8346362632699,36.1092774843306],[-86.834632773775,36.1092887213834],[-86.8346270073162,36.1092993243658],[-86.8346191284254,36.1093089902079],[-86.8346093608108,36.1093174451727],[-86.8345979829716,36.1093244502943],[-86.8345853182396,36.1093298050517],[-86.8345717237874,36.1093333582607],[-86.834557587305,36.1093350089981],[-86.8345433103787,36.109334710322],[-86.833743370404,36.1092745869096]],[[-86.8341274848176,36.1091005098666],[-86.8341295866248,36.1090428057888],[-86.8340435883861,36.1090420269764],[-86.8340428184941,36.1090653828291],[-86.8339419533132,36.1090674538756],[-86.8339426266746,36.1090993160031],[-86.8339436647387,36.109133647837],[-86.8340408424591,36.109135174088],[-86.8340414148865,36.1091574219894],[-86.8341257235262,36.1091584864808],[-86.8341274848176,36.1091005098666]]]},"properties":{"id":"10388","parcel":"116120K00500CO","address":"3902 B WALLACE LN","owner":"O.I.C. WALLACE CLOSE CONDOMINIUMS","point":[-86.83419076831743,36.10921194520106]}},{"type":"Feature","id":"11458","geometry":{"type":"Polygon","coordinates":[[[-86.8338767920856,36.1088909900094],[-86.8338784830574,36.1088585617482],[-86.834003766838,36.1088607174711],[-86.8340068964891,36.1088041049531],[-86.8340868015753,36.1088049259294],[-86.8340843800229,36.1088966972441],[-86.8338767920856,36.1088909900094]]]},"properties":{"id":"11458","parcel":"116120K00400CO","address":"3906 WALLACE LN","owner":"MARTIN, MARISSA D.","point":[-86.83404572848457,36.10883183128164]}},{"type":"Feature","id":"12830","geometry":{"type":"Polygon","coordinates":[[[-86.8301145318915,36.1073024580156],[-86.830127383077,36.1071716055032],[-86.8301416096437,36.1071723322559],[-86.8301795452674,36.1071742666628],[-86.830275092263,36.1071818520858],[-86.8302716555956,36.107209346959],[-86.830287933563,36.1072119820161],[-86.8302812125949,36.1073139466684],[-86.8301145318915,36.1073024580156]]]},"properties":{"id":"12830","parcel":"117130E00100CO","address":"3920 VAILWOOD DR","owner":"JONES, RYAN THOMAS & SHANNA CLAIRE","point":[-86.83020196505953,36.10725722108529]}},{"type":"Feature","id":"15202","geometry":{"type":"Polygon","coordinates":[[[-86.830479806584,36.1073664230598],[-86.8297911652716,36.1072964482711],[-86.8298283419185,36.1070681111093],[-86.8298446145156,36.1069686223852],[-86.8298502124022,36.1069308947666],[-86.8298547343449,36.1069004245001],[-86.8298331378956,36.1066478361143],[-86.8304990936059,36.1066212696123],[-86.8305166421749,36.1068098790969],[-86.8305194936206,36.1068516494186],[-86.8305207118013,36.106893471545],[-86.830520674613,36.1069387695658],[-86.8305184634508,36.1069840320848],[-86.8305062647843,36.1071448226989],[-86.8304945583463,36.107255612847],[-86.8304873532702,36.1073111537734],[-86.830479806584,36.1073664230598]],[[-86.8301795452674,36.1071742666628],[-86.8301772308222,36.1071470880755],[-86.8302714113445,36.1071535824366],[-86.8302783209636,36.1071067382675],[-86.8302821594722,36.1070807097241],[-86.830308928163,36.107083272555],[-86.830312079833,36.1070283084269],[-86.8301474109014,36.1070148817255],[-86.8301444937358,36.1070272638519],[-86.8301377206355,36.1070270355807],[-86.8301327033802,36.1070652576275],[-86.8301421909605,36.1070660142955],[-86.8301387528336,36.1070947547534],[-86.8301328510859,36.1071440966521],[-86.8301443774971,36.107145665766],[-86.8301416096437,36.1071723322559],[-86.830127383077,36.1071716055032],[-86.8301145318915,36.1073024580156],[-86.8302812125949,36.1073139466684],[-86.830287933563,36.1072119820161],[-86.8302716555956,36.107209346959],[-86.830275092263,36.1071818520858],[-86.8301795452674,36.1071742666628]],[[-86.8302891800841,36.1068455067044],[-86.8302892517323,36.1068199583404],[-86.8301910974033,36.1068217327149],[-86.8301863894924,36.1067926454531],[-86.8302808106853,36.1067897981145],[-86.8302756260119,36.1067151117375],[-86.8303020125731,36.1067130067327],[-86.8302983717186,36.1066561669192],[-86.8301359415844,36.10666250443],[-86.8301430634852,36.1067932185799],[-86.8301579864332,36.1067958629813],[-86.8301572545081,36.1068230643433],[-86.8301450604089,36.106822324504],[-86.8301504798734,36.1069396707674],[-86.8301511862435,36.1069549688502],[-86.8303146378019,36.1069491731749],[-86.8303141186623,36.1069444558098],[-86.8303034169692,36.1068473320351],[-86.8302891800841,36.1068455067044]]]},"properties":{"id":"15202","parcel":"117130E00500CO","address":"3926 B VAILWOOD DR","owner":"O.I.C. VAILWOOD COMMONS HOMEOWNERS ASSOC","point":[-86.83017847947694,36.10699923822748]}},{"type":"Feature","id":"54403","geometry":{"type":"Polygon","coordinates":[[[-86.8303844677824,36.108868107046],[-86.8304753946623,36.1083401311771],[-86.830791933075,36.1083801628436],[-86.8311134688061,36.1084208261955],[-86.8310003860904,36.1090041860425],[-86.8306861768784,36.108971521304],[-86.8305901447128,36.1089611924159],[-86.8304557077629,36.1089467359347],[-86.8304424787622,36.1089443547972],[-86.8304300929609,36.1089402905589],[-86.8304186530101,36.1089346939292],[-86.8304084435716,36.1089277017466],[-86.8303997208453,36.108919490702],[-86.8303927024605,36.1089102665931],[-86.8303875652074,36.1089002598335],[-86.8303844360952,36.1088897201066],[-86.8303833956474,36.1088789127374],[-86.8303844677824,36.108868107046]],[[-86.8308977534646,36.1087437013176],[-86.8308706456435,36.1087416898341],[-86.830847654669,36.1088737100007],[-86.8309479485536,36.1088818101827],[-86.8309719836746,36.1087522550301],[-86.8308977534646,36.1087437013176]],[[-86.8305820030123,36.1088513654773],[-86.8306101373432,36.1086929374049],[-86.8305775933815,36.1086887659586],[-86.8304989658438,36.1086805162754],[-86.8304735379025,36.1088389265863],[-86.8305820030123,36.1088513654773]],[[-86.8310275786677,36.1084680938687],[-86.8309082854715,36.1084557317836],[-86.8308954082029,36.1085195513567],[-86.830900824708,36.1085195140401],[-86.830885517883,36.1086097255909],[-86.8309207706395,36.1086138782917],[-86.8309993981458,36.1086221267988],[-86.8310275786677,36.1084680938687]],[[-86.8306629670853,36.1085651064419],[-86.8306860075847,36.1084374815339],[-86.8305450232636,36.1084230684497],[-86.8305219825511,36.1085506942324],[-86.8305979055865,36.1085589616245],[-86.8306629670853,36.1085651064419]]]},"properties":{"id":"54403","parcel":"117130A90200CO","address":"0 ABBOTT MARTIN RD","owner":"O.I.C. POINTSET LOTS 5 & 6 CONDOMINIUM","point":[-86.83074529128912,36.108651316302435]}},{"type":"Feature","id":"54404","geometry":{"type":"Polygon","coordinates":[[[-86.8314412470251,36.1083956102937],[-86.8314698430709,36.1082471948024],[-86.8315118579161,36.1080291417176],[-86.8320283630977,36.1080853871059],[-86.8321990910918,36.1080951976457],[-86.8321848518215,36.1083875100936],[-86.8319685023431,36.1083707075209],[-86.8317290882869,36.1083521141414],[-86.8317172127165,36.1084151121376],[-86.8314412470251,36.1083956102937]],[[-86.8321404101347,36.1081813130861],[-86.83207805318,36.108175149506],[-86.83207034125,36.1082147619775],[-86.8319591724128,36.1082023421771],[-86.8319567168338,36.1082265316188],[-86.8319350290072,36.1082244856906],[-86.831921465334,36.1082223819164],[-86.8319241269771,36.1082179679825],[-86.8318454997655,36.1082097191762],[-86.8318579585181,36.10810634131],[-86.8317549337142,36.1080960633868],[-86.8317372194587,36.1082148615441],[-86.8318212642591,36.1082230730554],[-86.8318137385497,36.1082802647176],[-86.8319113460288,36.1082905826636],[-86.8319138015763,36.1082663887172],[-86.8319273652568,36.1082684924922],[-86.8319951376504,36.1082746187921],[-86.8319926798777,36.1082988100518],[-86.8321201027593,36.1083111167758],[-86.8321404101347,36.1081813130861]]]},"properties":{"id":"54404","parcel":"117130A90300CO","address":"0 SKYLINE DR","owner":"O.I.C. POINTSET LOT 9 CONDOMINIUM","point":[-86.83164580530764,36.10822241076954]}},{"type":"Feature","id":"55042","geometry":{"type":"Polygon","coordinates":[[[-86.8311134688061,36.1084208261955],[-86.830791933075,36.1083801628436],[-86.8304753946623,36.1083401311771],[-86.8305122224341,36.1081353955382],[-86.8305479533054,36.1079263682941],[-86.8312230820914,36.1079986364708],[-86.8315118579161,36.1080291417176],[-86.8314698430709,36.1082471948024],[-86.8314412470251,36.1083956102937],[-86.8314287055033,36.1084606912165],[-86.8311134688061,36.1084208261955]],[[-86.8311881809917,36.1082867758267],[-86.8311501987921,36.1082804446786],[-86.8311476049899,36.1082914510372],[-86.8310879568257,36.1082852682776],[-86.8310854561202,36.1083050651404],[-86.8310095355169,36.1082967998419],[-86.8310043500647,36.108318809834],[-86.8309880775992,36.1083167246194],[-86.8309718062451,36.1083146393948],[-86.8309742839882,36.1082926453567],[-86.8309010721799,36.1082843586223],[-86.8309113533233,36.1082315427103],[-86.8308435810595,36.1082254167026],[-86.8308461737911,36.1082144103579],[-86.8308190464973,36.1082102016618],[-86.8308164537621,36.1082212080058],[-86.8307540968883,36.1082150446424],[-86.8307336274212,36.1083294642408],[-86.8309640959615,36.1083542508777],[-86.8309666886805,36.1083432445308],[-86.8309829578191,36.1083453297713],[-86.830999232521,36.1083474158725],[-86.8309993474981,36.1083584035634],[-86.8312325238789,36.1083831692279],[-86.8312452134785,36.108301766811],[-86.8311855653273,36.1082955868033],[-86.8311881809917,36.1082867758267]],[[-86.8313213792461,36.1080748783402],[-86.8310855190555,36.1080523286822],[-86.8310829263624,36.1080633350324],[-86.8310666539471,36.1080612498282],[-86.8310503826434,36.1080591646141],[-86.8310554081682,36.1080217689587],[-86.8309767801588,36.108013522297],[-86.8309741874236,36.1080245259413],[-86.8308711628685,36.1080142499668],[-86.8308584039307,36.1080890572117],[-86.8309614516,36.1081015330785],[-86.8309588807774,36.1081147375126],[-86.8310402165877,36.1081229673306],[-86.8310452421308,36.1080855725775],[-86.8310615145504,36.1080876577845],[-86.8310777628667,36.1080875458193],[-86.831075354149,36.1081161322953],[-86.8311865249485,36.1081285528953],[-86.8311841162687,36.1081571393732],[-86.8313061200954,36.1081694843022],[-86.8313213792461,36.1080748783402]]]},"properties":{"id":"55042","parcel":"117130A90400CO","address":"0 VAILWOOD DR","owner":"O.I.C. POINTSET LOTS 7 & 8 CONDOMINIUM","point":[-86.83099167544776,36.10818974322916]}},{"type":"Feature","id":"55144","geometry":{"type":"Polygon","coordinates":[[[-86.8310003860904,36.1090041860425],[-86.8311134688061,36.1084208261955],[-86.8314287055033,36.1084606912165],[-86.8314412470251,36.1083956102937],[-86.8317172127165,36.1084151121376],[-86.831593713315,36.1090703426711],[-86.831317937459,36.1090396930173],[-86.8313171557052,36.109039604672],[-86.8310003860904,36.1090041860425]],[[-86.8315800932847,36.1087280099915],[-86.8315826629132,36.1087148055539],[-86.8315935189672,36.1087169289373],[-86.8316321390432,36.1085254619545],[-86.8315236752964,36.1085130212956],[-86.8315003370298,36.1086120812522],[-86.8315328810084,36.1086162524496],[-86.8315148901853,36.1087086799242],[-86.8315365792629,36.1087107277224],[-86.8315339855002,36.1087217340882],[-86.8315314125503,36.1087349403502],[-86.8315124355849,36.1087328711485],[-86.8314968543916,36.1087967103279],[-86.8314616015427,36.1087925595981],[-86.8314307830658,36.1089532046178],[-86.8315447099295,36.1089700005654],[-86.8315883785832,36.1087433360182],[-86.8315775236459,36.1087412135279],[-86.8315800932847,36.1087280099915]],[[-86.8311963179967,36.1088053766724],[-86.8312064598967,36.1087393758827],[-86.8311847719494,36.1087373298199],[-86.8311873186281,36.1087219264108],[-86.8311899124389,36.1087109200525],[-86.8312170169162,36.108712930586],[-86.8312247501064,36.108675516268],[-86.8312328743246,36.1086754602747],[-86.8312431322994,36.1086204471619],[-86.8312838004809,36.1086245624321],[-86.8312913726042,36.1085717651628],[-86.8312696846815,36.1085697173128],[-86.8312773028172,36.1085213152999],[-86.8311363182399,36.1085069029073],[-86.831110869732,36.1086631152731],[-86.831137997196,36.1086673239031],[-86.8311329716409,36.1087047168522],[-86.8311465354039,36.1087068234185],[-86.8311439449191,36.108717829753],[-86.8311413959919,36.108733231374],[-86.8311196839139,36.1087289854261],[-86.8311095649473,36.1087971842873],[-86.8311231286782,36.1087992863501],[-86.831102842505,36.1089312897293],[-86.831246536652,36.1089456834896],[-86.8312667984991,36.1088114847194],[-86.8311963179967,36.1088053766724]]]},"properties":{"id":"55144","parcel":"117130A90100CO","address":"0 ABBOTT MARTIN RD","owner":"O.I.C. POINTSET LOTS 3 & 4 CONDOMINIUM","point":[-86.83134892007529,36.10873308238036]}},{"type":"Feature","id":"56067","geometry":{"type":"Polygon","coordinates":[[[-86.831593713315,36.1090703426711],[-86.8317172127165,36.1084151121376],[-86.8317290882869,36.1083521141414],[-86.8319685023431,36.1083707075209],[-86.8321848518215,36.1083875100936],[-86.8321579737304,36.109017417116],[-86.8321510342766,36.1091306458224],[-86.8318710710195,36.1090996117311],[-86.831593713315,36.1090703426711]],[[-86.8321113398939,36.1085089681443],[-86.832002925522,36.1085009276554],[-86.8319952354504,36.1085427391063],[-86.8319735727574,36.1085428885448],[-86.8319711643295,36.1085714732331],[-86.8319874357908,36.1085735610263],[-86.8319875278575,36.1085823488346],[-86.8320065081123,36.1085844161361],[-86.832003938549,36.108597619682],[-86.8319931055291,36.1085976944141],[-86.8319856489838,36.1086614794161],[-86.8320127534644,36.1086634897708],[-86.8320079816131,36.1087250589164],[-86.8320459421742,36.1087291917075],[-86.8320433715116,36.1087423961626],[-86.8320434866337,36.1087533838514],[-86.8320299458876,36.1087534772669],[-86.8320224893573,36.1088172622687],[-86.8319601757374,36.1088154938996],[-86.8319478584751,36.1089320575018],[-86.8320887979011,36.1089420736888],[-86.8321111673316,36.1087507186726],[-86.8320840628188,36.10874870834],[-86.8320840167658,36.1087443130843],[-86.8320914052752,36.1086739356367],[-86.8321103614121,36.1086738048511],[-86.8321126984758,36.1086386259406],[-86.8320964292664,36.1086365426551],[-86.8321113398939,36.1085089681443]],[[-86.8317923885768,36.1088276423994],[-86.8317999603531,36.1087748423972],[-86.8317728328267,36.1087706348175],[-86.83178302027,36.1087090283334],[-86.8317748960488,36.1087090843638],[-86.8317801284314,36.1086914668853],[-86.8317827210484,36.1086804605219],[-86.8318233673752,36.1086823775237],[-86.8318311463157,36.1086493584225],[-86.8318609584992,36.1086513510371],[-86.8318736935576,36.108574345618],[-86.8318357341618,36.1085702100612],[-86.8318484001484,36.108486609506],[-86.8317399353385,36.1084741717527],[-86.8317272462184,36.1085555742182],[-86.8317652066933,36.108559707999],[-86.8317421678928,36.1086873331093],[-86.8317395982633,36.1087005348468],[-86.8317070772789,36.1086985635861],[-86.831686724152,36.1088239728238],[-86.8316731833935,36.1088240661992],[-86.8316706817063,36.1088438630792],[-86.8316815377707,36.1088459855534],[-86.8316790602062,36.108867979603],[-86.8318336093156,36.1088844960464],[-86.8318439095998,36.108833877263],[-86.8317923885768,36.1088276423994]]]},"properties":{"id":"56067","parcel":"117130A90000CO","address":"0 ABBOTT MARTIN RD","owner":"POINTSET ONE TOWNHOMES COPORATION","point":[-86.83191165638938,36.10873560742073]}},{"type":"Feature","id":"74197","geometry":{"type":"Polygon","coordinates":[[[-86.835846003526,36.1087529134757],[-86.8358505290536,36.1087322786993],[-86.8363438992446,36.1087750105889],[-86.8364432183837,36.1081765460875],[-86.8374082440758,36.1082577581715],[-86.8374215586765,36.1082599261493],[-86.8374342758336,36.1082637899894],[-86.837446070164,36.1082692492048],[-86.8374566425494,36.1082761661734],[-86.8374657189781,36.1082843616394],[-86.8374730695496,36.1082936262986],[-86.8374785051705,36.1083037235244],[-86.8374818865063,36.1083143956155],[-86.8374831284813,36.1083253691715],[-86.8374821970226,36.1083363623264],[-86.837424918141,36.1087474548241],[-86.8366348200694,36.1086892047129],[-86.836615405764,36.1088387835363],[-86.835846003526,36.1087529134757]]]},"properties":{"id":"74197","parcel":"11616007700","address":"0 ESTES RD","owner":"MCCLURE, GUY & JEANAH, ET AL","point":[-86.83692255473429,36.10851259930461]}},{"type":"Feature","id":"74233","geometry":{"type":"Polygon","coordinates":[[[-86.8328979617066,36.1079131830035],[-86.8346147980567,36.1078903257182],[-86.8346231465722,36.108169378408],[-86.833756567265,36.1081775678547],[-86.8337571901832,36.108236899751],[-86.8329330869488,36.1081634791587],[-86.8328979617066,36.1079131830035]]]},"properties":{"id":"74233","parcel":"11616013600","address":"3914 WALLACE LN","owner":"ROSING, RICHARD","point":[-86.83376741047385,36.108039516031006]}},{"type":"Feature","id":"74236","geometry":{"type":"Polygon","coordinates":[[[-86.8358505290536,36.1087322786993],[-86.8359444838779,36.1081382482819],[-86.8364432183837,36.1081765460875],[-86.8363438992446,36.1087750105889],[-86.8358505290536,36.1087322786993]]]},"properties":{"id":"74236","parcel":"11616015800","address":"3716 SNEED TER","owner":"MCCLURE, GUY W.","point":[-86.83614579027486,36.108454411285926]}},{"type":"Feature","id":"74278","geometry":{"type":"Polygon","coordinates":[[[-86.8337557758487,36.1096500329054],[-86.8337449207296,36.1096479106106],[-86.8337448745842,36.1096435153565],[-86.8337567081416,36.1094808036519],[-86.8338461699499,36.1094889763121],[-86.8338289199935,36.1096517254735],[-86.8338180879422,36.1096518003618],[-86.8338154691643,36.1096606087117],[-86.8337910753651,36.1096585800202],[-86.8337855664882,36.1096498269584],[-86.8337747333265,36.1096499018505],[-86.8337718224016,36.1096628338011],[-86.8337558681408,36.1096588234135],[-86.8337557758487,36.1096500329054]]]},"properties":{"id":"74278","parcel":"116120D53900CO","address":"539 ARMISTEAD PL","owner":"CHAFFIN, LUCINDA J.","point":[-86.83379423628115,36.10956624406163]}},{"type":"Feature","id":"74279","geometry":{"type":"Polygon","coordinates":[[[-86.8335823168534,36.1096380460882],[-86.8335687495633,36.109635942523],[-86.8335886627241,36.1094687767177],[-86.8336726848854,36.1094747915697],[-86.8336527268418,36.1096375594231],[-86.8336527960476,36.1096441518538],[-86.8336446255922,36.109639812756],[-86.833636593556,36.1096486594201],[-86.8336176130138,36.1096465932768],[-86.8336148118916,36.1096378214917],[-86.833603979842,36.1096378963607],[-86.8336040951813,36.1096488840455],[-86.833579744186,36.1096512496872],[-86.8335823168534,36.1096380460882]]]},"properties":{"id":"74279","parcel":"116120D54300CO","address":"543 ARMISTEAD PL","owner":"ANDERSON, ALAN G. & HILL, MARYANNE","point":[-86.83362057637405,36.10955536686264]}},{"type":"Feature","id":"74280","geometry":{"type":"Polygon","coordinates":[[[-86.8369038148946,36.110028533042],[-86.8370175335097,36.1099305734893],[-86.8370493622222,36.109659847676],[-86.8372182708261,36.1096723234585],[-86.8372315726983,36.1096751584984],[-86.8372441514204,36.1096796722461],[-86.8372556858845,36.1096857488622],[-86.837265886792,36.1096932344329],[-86.8372744933405,36.1097019387952],[-86.8372812877189,36.1097116408435],[-86.8372860985158,36.1097220957169],[-86.8372888018678,36.1097330383962],[-86.837289331522,36.1097441899424],[-86.8372876711756,36.1097552683662],[-86.8372474706099,36.1100647644139],[-86.8370322352705,36.1100446148793],[-86.8369477429083,36.1100836501182],[-86.8369365008616,36.110063587985],[-86.8369217519977,36.110045081471],[-86.8369038148946,36.110028533042]]]},"properties":{"id":"74280","parcel":"116120E14700CO","address":"713 VAIL CT","owner":"SHERRILL, R. PARKER","point":[-86.83715206137846,36.109842920269436]}},{"type":"Feature","id":"74294","geometry":{"type":"Polygon","coordinates":[[[-86.8393530570137,36.1095606620289],[-86.8393552780921,36.1095144952832],[-86.8395341564797,36.1095264360784],[-86.8395273331825,36.1096495569817],[-86.8394297230534,36.1096392461041],[-86.8394346971615,36.1095974548703],[-86.8393940512933,36.1095955404263],[-86.8393937260967,36.1095647745634],[-86.8393530570137,36.1095606620289]]]},"properties":{"id":"74294","parcel":"116120G20100CO","address":"201 ABBOTT GLENN CT","owner":"LYNN, GEORGE H.","point":[-86.8394625288849,36.109580249485795]}},{"type":"Feature","id":"74295","geometry":{"type":"Polygon","coordinates":[[[-86.8393906744138,36.1090197678538],[-86.8394217323066,36.1088832915394],[-86.8395274424647,36.1088913441915],[-86.8395196899662,36.1089265645676],[-86.8395413781989,36.108928610934],[-86.8395205262918,36.1090056755102],[-86.8394609234104,36.1090038930465],[-86.8394583783273,36.1090192966291],[-86.8394339812205,36.1090172663981],[-86.8394313664278,36.1090260757494],[-86.8393906744138,36.1090197678538]]]},"properties":{"id":"74295","parcel":"116120G20300CO","address":"203 ABBOTT GLENN CT","owner":"GRANT, LARRY & PEGGY","point":[-86.83946703274941,36.10896620628867]}},{"type":"Feature","id":"74811","geometry":{"type":"Polygon","coordinates":[[[-86.8382895632683,36.1081065869579],[-86.8380537716953,36.1080906442512],[-86.8380638393166,36.1080180477311],[-86.8381451757925,36.1080262754614],[-86.8381476504294,36.1080042812821],[-86.838247946172,36.1080123744788],[-86.8382455146244,36.1080387639374],[-86.8382997478019,36.108044980799],[-86.838297294178,36.1080691721731],[-86.8383162523816,36.1080690403966],[-86.8383138683629,36.1080998251026],[-86.8382921560746,36.1080955804452],[-86.8382895632683,36.1081065869579]]]},"properties":{"id":"74811","parcel":"116160C00100CO","address":"3915 ESTES RD","owner":"HARRIS, CHARLES & MYRA REVOCABLE TRUST","point":[-86.83817850584224,36.10805683577337]}},{"type":"Feature","id":"74812","geometry":{"type":"Polygon","coordinates":[[[-86.8383138683629,36.1080998251026],[-86.8383162523816,36.1080690403966],[-86.8383352315679,36.1080711067102],[-86.8383403928595,36.1080468965137],[-86.8383892095707,36.1080531500846],[-86.8383970553083,36.1080267220841],[-86.8384946401129,36.108034835724],[-86.8384820507907,36.1081250285156],[-86.8383302569768,36.1081128979146],[-86.8383328486671,36.1081018914088],[-86.8383138683629,36.1080998251026]]]},"properties":{"id":"74812","parcel":"116160C00200CO","address":"3917 ESTES RD","owner":"ANDERSON, WILLIAM F & ROBIN F","point":[-86.83840126185743,36.108085569395804]}},{"type":"Feature","id":"74815","geometry":{"type":"Polygon","coordinates":[[[-86.8342014280411,36.1104327674038],[-86.8343262721612,36.1094473856128],[-86.8352019788916,36.1095193686904],[-86.8350767990664,36.1104988449367],[-86.8342014280411,36.1104327674038]]]},"properties":{"id":"74815","parcel":"11612011300","address":"3504 ABBOTT MARTIN RD","owner":"HOSTETTLER, WILLIAM R. & MONICE M.","point":[-86.83470145083487,36.10997606876399]}},{"type":"Feature","id":"74884","geometry":{"type":"Polygon","coordinates":[[[-86.8384196170869,36.1096506669534],[-86.8378727203439,36.1096052032455],[-86.8374925369226,36.1095735958531],[-86.837545840033,36.1092347799614],[-86.8385108067808,36.1093093916973],[-86.8384712697112,36.1096462250408],[-86.8384222320219,36.1096418585267],[-86.8384196170869,36.1096506669534]]]},"properties":{"id":"74884","parcel":"11612012900","address":"3801 ABBOTT MARTIN RD","owner":"ADELIEN, HELDI","point":[-86.83800432292335,36.10944149844393]}},{"type":"Feature","id":"74902","geometry":{"type":"Polygon","coordinates":[[[-86.8380012128992,36.1092453532829],[-86.8380052620133,36.1092110933786],[-86.8380131212143,36.1092117057225],[-86.8380169214675,36.1091795457422],[-86.8379824766565,36.1091768658058],[-86.8380005294816,36.1090240732163],[-86.8381980571063,36.109039441079],[-86.8381721554194,36.1092586526914],[-86.8380012128992,36.1092453532829]]]},"properties":{"id":"74902","parcel":"116120T00100CO","address":"3903 ESTES RD","owner":"KALSTEIN, DAVID","point":[-86.83809026669024,36.109108153491135]}},{"type":"Feature","id":"75194","geometry":{"type":"Polygon","coordinates":[[[-86.8384139259795,36.109279946922],[-86.8384339977108,36.1091179380935],[-86.8383894853689,36.1091143062018],[-86.8383967287051,36.1090558479614],[-86.8386688562269,36.1090780473407],[-86.838653198192,36.1092044346098],[-86.8385939450521,36.1091996011331],[-86.8385944035864,36.1091959017678],[-86.8385018070167,36.1091883474688],[-86.8384896919445,36.1092861284748],[-86.8384139259795,36.109279946922]]]},"properties":{"id":"75194","parcel":"116120T00200CO","address":"3803 ABBOTT MARTIN RD","owner":"DILULLO, JEFFREY J. & LINDA K.","point":[-86.83854458161069,36.10915324614039]}},{"type":"Feature","id":"75198","geometry":{"type":"Polygon","coordinates":[[[-86.8385108067808,36.1093093916973],[-86.837545840033,36.1092347799614],[-86.8375862961494,36.108961984162],[-86.8375998369245,36.1089618901227],[-86.8385458430647,36.1090366314371],[-86.8387031259783,36.1090553192215],[-86.8387021066533,36.1090635514531],[-86.8386282630786,36.1096602057184],[-86.8384712697112,36.1096462250408],[-86.8385108067808,36.1093093916973]],[[-86.8384896919445,36.1092861284748],[-86.8385018070167,36.1091883474688],[-86.8385944035864,36.1091959017678],[-86.8385939450521,36.1091996011331],[-86.838653198192,36.1092044346098],[-86.8386688562269,36.1090780473407],[-86.8383967287051,36.1090558479614],[-86.8383894853689,36.1091143062018],[-86.8384339977108,36.1091179380935],[-86.8384139259795,36.109279946922],[-86.8384896919445,36.1092861284748]],[[-86.8381721554194,36.1092586526914],[-86.8381980571063,36.109039441079],[-86.8380005294816,36.1090240732163],[-86.8379824766565,36.1091768658058],[-86.8380169214675,36.1091795457422],[-86.8380131212143,36.1092117057225],[-86.8380052620133,36.1092110933786],[-86.8380012128992,36.1092453532829],[-86.8381721554194,36.1092586526914]]]},"properties":{"id":"75198","parcel":"116120T90000CO","address":"3801 B ABBOTT MARTIN RD","owner":"O.I.C. ARTISAN ESTATES","point":[-86.83857092442213,36.1094779160339]}},{"type":"Feature","id":"76231","geometry":{"type":"Polygon","coordinates":[[[-86.8340549230262,36.1097666404928],[-86.834059808765,36.1097160598677],[-86.8340516844425,36.1097161160515],[-86.8340541613764,36.1096941219578],[-86.8342519737795,36.1097037423084],[-86.8342445915316,36.1097741198393],[-86.8342283164615,36.109772035078],[-86.8340549230262,36.1097666404928]]]},"properties":{"id":"76231","parcel":"116120D52900CO","address":"529 ARMISTEAD PL","owner":"MILLER, ROBERT W. & DUGAN, ALEXANDRA E.","point":[-86.8341526801641,36.109741515872734]}},{"type":"Feature","id":"76232","geometry":{"type":"Polygon","coordinates":[[[-86.8340697637574,36.1096324787377],[-86.8340696714591,36.1096236909333],[-86.834248504216,36.1096312425032],[-86.8342620681914,36.109633346015],[-86.8342519737795,36.1097037423084],[-86.8340541613764,36.1096941219578],[-86.8340539305731,36.1096721465893],[-86.8340647637376,36.1096720716722],[-86.8340674022332,36.1096654605163],[-86.8340646252482,36.1096588859103],[-86.8340670790999,36.1096346946396],[-86.8340697637574,36.1096324787377]]]},"properties":{"id":"76232","parcel":"116120D53100CO","address":"531 ARMISTEAD PL","owner":"CAUDLE, PATRICIA GAIL LIVING TRUST","point":[-86.83416195509973,36.10966230604856]}},{"type":"Feature","id":"76585","geometry":{"type":"Polygon","coordinates":[[[-86.8342236385675,36.1098423911965],[-86.8340312413239,36.1098327351528],[-86.8340258247307,36.10983277261],[-86.8340309874506,36.1098085626088],[-86.8340391117826,36.1098085064264],[-86.8340417513956,36.1098018952636],[-86.8340335578268,36.109795359016],[-86.8340387655835,36.1097755433745],[-86.8340441590965,36.1097733087404],[-86.8340440898487,36.109766715409],[-86.8340549230262,36.1097666404928],[-86.8342283164615,36.109772035078],[-86.8342236385675,36.1098423911965]]]},"properties":{"id":"76585","parcel":"116120D52700CO","address":"527 ARMISTEAD PL","owner":"BRITTAIN, EMILY B.","point":[-86.83413326290476,36.109805329395506]}},{"type":"Feature","id":"76588","geometry":{"type":"Polygon","coordinates":[[[-86.8335336818506,36.1096493707051],[-86.8335226883381,36.1096340626278],[-86.8335118551783,36.1096341374962],[-86.8335092166375,36.10964074864],[-86.83347940294,36.1096387573422],[-86.8334793106786,36.1096299668338],[-86.8334711633324,36.1096278285056],[-86.8334761877882,36.1095904300605],[-86.8334680623674,36.1095904862126],[-86.8334705866998,36.1095728873768],[-86.8334787110082,36.1095728312322],[-86.8334910525251,36.1094584655472],[-86.8335886627241,36.1094687767177],[-86.8335687495633,36.109635942523],[-86.8335660879546,36.1096403555903],[-86.8335606713743,36.1096403930266],[-86.8335526623913,36.1096514368616],[-86.8335336818506,36.1096493707051]]]},"properties":{"id":"76588","parcel":"116120D54500CO","address":"545 ARMISTEAD PL","owner":"BAINBRIDGE, WILLIAM B. & PAIGE F. & HULL, ROBERT E. ET UX","point":[-86.83353339493814,36.109520803582235]}},{"type":"Feature","id":"76604","geometry":{"type":"Polygon","coordinates":[[[-86.8390426761019,36.1094067846412],[-86.8390449437951,36.1093650131518],[-86.8390612410412,36.1093692971504],[-86.8390685736346,36.1092945222549],[-86.8391688921259,36.1093048145778],[-86.8391614412777,36.109368600012],[-86.8391831528212,36.1093728418157],[-86.8391836404928,36.1094189906129],[-86.8390426761019,36.1094067846412]]]},"properties":{"id":"76604","parcel":"116120H00300CO","address":"3805 C ABBOTT MARTIN RD","owner":"REPASS, THOMAS H. II","point":[-86.83911499267064,36.109334924723925]}},{"type":"Feature","id":"76605","geometry":{"type":"Polygon","coordinates":[[[-86.8390465922968,36.1095210378491],[-86.8390512415451,36.1094484816664],[-86.8390376542506,36.1094441806163],[-86.8390426761019,36.1094067846412],[-86.8391836404928,36.1094189906129],[-86.8391760038621,36.1094651950374],[-86.8391570232388,36.1094631315682],[-86.8391496187821,36.1095313095476],[-86.8390465922968,36.1095210378491]]]},"properties":{"id":"76605","parcel":"116120H00400CO","address":"3805 D ABBOTT MARTIN RD","owner":"JAMES W. FELCH SR. LIVING TRUST & ET AL","point":[-86.83910107370052,36.10949310273073]}},{"type":"Feature","id":"76720","geometry":{"type":"Polygon","coordinates":[[[-86.8368628135048,36.1077975309705],[-86.8368718212063,36.1077274393727],[-86.8375874367329,36.1077862060825],[-86.8375796133953,36.1078594322994],[-86.8375470959818,36.1080699887545],[-86.8375432805558,36.1080813453289],[-86.8375372880947,36.1080920635885],[-86.8375292701314,36.1081018729961],[-86.8375194317179,36.1081105224706],[-86.8375080237555,36.1081177903555],[-86.8374953342144,36.1081234943931],[-86.8374816891965,36.1081274872114],[-86.8374674352897,36.1081296681632],[-86.837452935096,36.1081299806531],[-86.8368267341245,36.108074989226],[-86.8368628135048,36.1077975309705]]]},"properties":{"id":"76720","parcel":"11616007900","address":"3910 ESTES RD","owner":"HARRIS, IRMA REVOCABLE TRUST","point":[-86.8372022782898,36.10796422046244]}},{"type":"Feature","id":"76746","geometry":{"type":"Polygon","coordinates":[[[-86.8338398685274,36.1096626382611],[-86.8338397531555,36.1096516505765],[-86.8338289199935,36.1096517254735],[-86.8338461699499,36.1094889763121],[-86.8339409791079,36.1094905181209],[-86.8339312052887,36.1095916802828],[-86.8339393329305,36.1095916240841],[-86.8339394713706,36.1096048071427],[-86.8339286382151,36.1096048820486],[-86.8339264843468,36.1096576438197],[-86.8339129456701,36.1096577374312],[-86.8338994487047,36.109662226326],[-86.8338777604076,36.1096601780442],[-86.8338722976547,36.1096558184381],[-86.8338614644922,36.1096558933379],[-86.8338588865817,36.1096682759076],[-86.8338398685274,36.1096626382611]]]},"properties":{"id":"76746","parcel":"116120D53700CO","address":"537 ARMISTEAD PL","owner":"BETTS, VIRGINIA TROTTER 2024 REVOCABLE TRUST","point":[-86.83388837922791,36.10954099932914]}},{"type":"Feature","id":"76747","geometry":{"type":"Polygon","coordinates":[[[-86.8336718227314,36.1096506132457],[-86.8336716843168,36.1096374283844],[-86.8336527268418,36.1096375594231],[-86.8336726848854,36.1094747915697],[-86.8336726156497,36.1094681964352],[-86.8337566619957,36.1094764083976],[-86.8337567081416,36.1094808036519],[-86.8337448745842,36.1096435153565],[-86.8337340414232,36.1096435902449],[-86.8337286709873,36.1096480229428],[-86.8337042980397,36.1096481914255],[-86.833701496908,36.1096394196424],[-86.8336906417917,36.1096372973428],[-86.8336907802095,36.109650482204],[-86.8336718227314,36.1096506132457]]]},"properties":{"id":"76747","parcel":"116120D54100CO","address":"541 ARMISTEAD PL","owner":"HEADRICK, JANE W LIVING TRUST","point":[-86.83370668925224,36.10955902692843]}},{"type":"Feature","id":"76748","geometry":{"type":"Polygon","coordinates":[[[-86.836795707932,36.1100037443054],[-86.8368439262887,36.1096428122424],[-86.8370493622222,36.109659847676],[-86.8370175335097,36.1099305734893],[-86.8369038148946,36.110028533042],[-86.836880732182,36.110019080993],[-86.8368564426067,36.1100118887273],[-86.836831282645,36.1100070548533],[-86.8368055984263,36.1100046454669],[-86.836795707932,36.1100037443054]]]},"properties":{"id":"76748","parcel":"116120E14600CO","address":"709 VAIL CT","owner":"HAMILTON, MADISON HAYNE JR & LAURA F","point":[-86.8369285264444,36.10979506782718]}},{"type":"Feature","id":"76763","geometry":{"type":"Polygon","coordinates":[[[-86.8359589862738,36.1095771365625],[-86.8359600306191,36.1095687212225],[-86.8361400789818,36.1095855934825],[-86.836321552776,36.1096025997957],[-86.8362774452344,36.1098957272974],[-86.8359238656726,36.1098601631086],[-86.8359589862738,36.1095771365625]]]},"properties":{"id":"76763","parcel":"116120E15800CO","address":"600 CHELMSFORD PL","owner":"FLEMING, MATTHEW O.","point":[-86.83612100749816,36.10973137929133]}},{"type":"Feature","id":"76769","geometry":{"type":"Polygon","coordinates":[[[-86.8393953432349,36.1094614731445],[-86.8393949947664,36.1094285055991],[-86.8394383947643,36.1094347991525],[-86.8394379301796,36.1093908484332],[-86.8395408879628,36.1093945273623],[-86.8395341564797,36.1095264360784],[-86.8393552780921,36.1095144952832],[-86.8393520118224,36.1094617747146],[-86.8393953432349,36.1094614731445]]]},"properties":{"id":"76769","parcel":"116120G20200CO","address":"202 ABBOTT GLENN CT","owner":"BRANNON, JERRY D. & MIZE, JEFFERY","point":[-86.83946667294937,36.109448202891485]}},{"type":"Feature","id":"76770","geometry":{"type":"Polygon","coordinates":[[[-86.8396048050711,36.1090358569575],[-86.839602006641,36.1090270852869],[-86.8395749217415,36.1090272738367],[-86.8395747126416,36.1090074956509],[-86.8395205262918,36.1090056755102],[-86.8395413781989,36.108928610934],[-86.8395549654325,36.1089329119278],[-86.8395600080153,36.1088977131176],[-86.8396629906177,36.1089035891033],[-86.8396427650748,36.1090399882663],[-86.8396048050711,36.1090358569575]]]},"properties":{"id":"76770","parcel":"116120G20400CO","address":"204 ABBOTT GLENN CT","owner":"LAWSON, LARAMEY & OVERTON, JAMES HEATH","point":[-86.83959179896779,36.10896936609971]}},{"type":"Feature","id":"76771","geometry":{"type":"Polygon","coordinates":[[[-86.8388007664981,36.109324955008],[-86.8388006968652,36.1093183625798],[-86.8387898637535,36.1093184379223],[-86.8387924101055,36.1093030361496],[-86.8387598422575,36.1092966697361],[-86.8387599583287,36.1093076592193],[-86.8387491981598,36.1093143251608],[-86.8387328766634,36.1093078475569],[-86.8387246595252,36.1092991117479],[-86.8387273208263,36.1092946976651],[-86.8387218810664,36.1092925381575],[-86.8387451177097,36.109184689019],[-86.838869902767,36.1092036007847],[-86.8388468519884,36.1093290300555],[-86.8388007664981,36.109324955008]]]},"properties":{"id":"76771","parcel":"116120H00100CO","address":"3805 A ABBOTT MARTIN RD","owner":"SMITH, MARK HAMITLON","point":[-86.83879659750497,36.109248070443506]}},{"type":"Feature","id":"76772","geometry":{"type":"Polygon","coordinates":[[[-86.8389307594062,36.1093240508527],[-86.8389008992611,36.1093176656425],[-86.838901084974,36.1093352457511],[-86.8388874977069,36.1093309446841],[-86.8388875673279,36.1093375353097],[-86.8388468519884,36.1093290300555],[-86.838869902767,36.1092036007847],[-86.8389865857174,36.1092247661208],[-86.8389714283462,36.1093281635299],[-86.8389633029562,36.1093282200522],[-86.8389634190365,36.1093392077327],[-86.8389553179681,36.1093414614224],[-86.8389336296377,36.1093394149509],[-86.8389308290498,36.1093306432808],[-86.8389307594062,36.1093240508527]]]},"properties":{"id":"76772","parcel":"116120H00200CO","address":"3805 B ABBOTT MARTIN RD","owner":"BENNETT, DEBORAH L. & MYLES H.","point":[-86.83891863375551,36.109271182135004]}},{"type":"Feature","id":"77066","geometry":{"type":"Polygon","coordinates":[[[-86.8368798295336,36.107716395312],[-86.8369250794056,36.1073842283432],[-86.8376352975054,36.1074452286447],[-86.8375874367329,36.1077862060825],[-86.8368718212063,36.1077274393727],[-86.8368798295336,36.107716395312]]]},"properties":{"id":"77066","parcel":"11616008000","address":"3912 ESTES RD","owner":"KSMH REALTY LLC","point":[-86.83725728213447,36.107580812193895]}},{"type":"Feature","id":"77196","geometry":{"type":"Polygon","coordinates":[[[-86.836615405764,36.1088387835363],[-86.8366348200694,36.1086892047129],[-86.837424918141,36.1087474548241],[-86.8374017188245,36.1089140898758],[-86.8373780273387,36.1090843037368],[-86.8365912793135,36.1090230080485],[-86.836615405764,36.1088387835363]]]},"properties":{"id":"77196","parcel":"11616016200","address":"3906 ESTES RD","owner":"MCCLURE, CHRISSIE","point":[-86.83700871554427,36.10887643755948]}},{"type":"Feature","id":"77252","geometry":{"type":"Polygon","coordinates":[[[-86.8378161857261,36.1073610483508],[-86.8378290332955,36.1072790609423],[-86.8386700797012,36.107350856639],[-86.8387012461761,36.1070911476023],[-86.8391749071327,36.1071315200809],[-86.8391388974634,36.1074011185219],[-86.8390757252328,36.1078740929799],[-86.8390712211753,36.1079078189334],[-86.8386117091364,36.1078698577252],[-86.838661132184,36.1074317516996],[-86.8378161857261,36.1073610483508]]]},"properties":{"id":"77252","parcel":"11616016300","address":"3929 ESTES RD","owner":"MASLANKA HOLDINGS TRUST","point":[-86.83887094250962,36.10765112033658]}},{"type":"Feature","id":"77713","geometry":{"type":"Polygon","coordinates":[[[-86.8341296621986,36.1099199632601],[-86.8341242202901,36.1099178026596],[-86.834091702061,36.1099158302171],[-86.8340917482258,36.1099202254708],[-86.8340727873521,36.1099203565986],[-86.8340754038793,36.1099115473578],[-86.8340293413811,36.1099096685651],[-86.8340292952198,36.1099052733114],[-86.8340184158628,36.1099009529716],[-86.8340262863511,36.1098767260488],[-86.8340317029473,36.1098766885917],[-86.834031656767,36.1098722915355],[-86.8340262170858,36.1098701309152],[-86.8340312413239,36.1098327351528],[-86.8342236385675,36.1098423911965],[-86.8342345179467,36.1098467133203],[-86.8342244696554,36.1099215048613],[-86.8341648662056,36.1099197197807],[-86.8341540571974,36.1099219918753],[-86.8341296621986,36.1099199632601]]]},"properties":{"id":"77713","parcel":"116120D52500CO","address":"525 ARMISTEAD PL","owner":"DILLON, JOHN H. & NANCY K.","point":[-86.83412558548589,36.10988898247791]}},{"type":"Feature","id":"77721","geometry":{"type":"Polygon","coordinates":[[[-86.834248504216,36.1096312425032],[-86.8340696714591,36.1096236909333],[-86.8340642559908,36.1096237283845],[-86.8340669175333,36.1096193117012],[-86.8340559920602,36.1096105970118],[-86.8340584931769,36.1095908000862],[-86.8340665713234,36.1095863486479],[-86.8340665020834,36.1095797562174],[-86.8340556458455,36.1095776330571],[-86.8340580315687,36.1095468493479],[-86.8340661327876,36.109544595086],[-86.8342531358737,36.1095564884223],[-86.834248504216,36.1096312425032]]]},"properties":{"id":"77721","parcel":"116120D53300CO","address":"533 ARMISTEAD PL","owner":"GRAY, EVELYN M.","point":[-86.83415683197488,36.10958870493275]}},{"type":"Feature","id":"77724","geometry":{"type":"Polygon","coordinates":[[[-86.8340790504778,36.1094851677643],[-86.8340789119958,36.1094719829031],[-86.8341195576725,36.1094738991384],[-86.8341194422621,36.1094629114536],[-86.8341383996947,36.1094627803416],[-86.8341385151077,36.1094737680263],[-86.8341656199295,36.1094757787981],[-86.8341709441605,36.1094669508263],[-86.834203490851,36.1094711212869],[-86.8342062425295,36.1094754978277],[-86.8342740194514,36.1094816219209],[-86.8342639690222,36.1095564134873],[-86.8342531358737,36.1095564884223],[-86.8340661327876,36.109544595086],[-86.8340659019814,36.1095226197167],[-86.8340713185535,36.1095225822577],[-86.834076619721,36.1095115571138],[-86.8340657635016,36.1095094348556],[-86.8340655096094,36.1094852614084],[-86.8340790504778,36.1094851677643]]]},"properties":{"id":"77724","parcel":"116120D53500CO","address":"535 ARMISTEAD PL","owner":"MOCHOW, MALI","point":[-86.83417064699792,36.109510633679434]}},{"type":"Feature","id":"77727","geometry":{"type":"Polygon","coordinates":[[[-86.836361108216,36.1098991074096],[-86.8364057055143,36.1096099042854],[-86.836624757919,36.1096268685424],[-86.8365759049853,36.1099862790361],[-86.8364409792989,36.1099769464996],[-86.8364260422923,36.1099744156305],[-86.8364118340777,36.109969895974],[-86.8363987547721,36.1099635172447],[-86.8363871694542,36.1099554571685],[-86.8363774059345,36.1099459405967],[-86.8363697347248,36.1099352360397],[-86.8363643733486,36.1099236430192],[-86.836361469615,36.1099114858748],[-86.836361108216,36.1098991074096]]]},"properties":{"id":"77727","parcel":"116120E14400CO","address":"701 VAIL CT","owner":"WOLKEN, GERALD L. & JACQUELINE L., TRS.","point":[-86.83649417855477,36.10976298975005]}},{"type":"Feature","id":"77729","geometry":{"type":"Polygon","coordinates":[[[-86.8365759049853,36.1099862790361],[-86.836624757919,36.1096268685424],[-86.8368439262887,36.1096428122424],[-86.836795707932,36.1100037443054],[-86.8365759049853,36.1099862790361]]]},"properties":{"id":"77729","parcel":"116120E14500CO","address":"705 VAIL CT","owner":"NEAL, JAMES F., JR. & LAUREN T.","point":[-86.83671011599958,36.109814545990076]}},{"type":"Feature","id":"77787","geometry":{"type":"Polygon","coordinates":[[[-86.8359001241507,36.1100514868905],[-86.8359238656726,36.1098601631086],[-86.8362774452344,36.1098957272974],[-86.836252557278,36.1100869554541],[-86.8359001241507,36.1100514868905]]]},"properties":{"id":"77787","parcel":"116120E15700CO","address":"604 CHELMSFORD PL","owner":"GARRARD, CLIFFORD L. IV & TAYLOR B.","point":[-86.83608854813926,36.10997360691959]}},{"type":"Feature","id":"79751","geometry":{"type":"Polygon","coordinates":[[[-86.8321848518215,36.1083875100936],[-86.8321990910918,36.1080951976457],[-86.8327788852888,36.1081477864073],[-86.8328192300743,36.1081532760515],[-86.8329330869488,36.1081634791587],[-86.8337571901832,36.108236899751],[-86.8337518115483,36.1084984650557],[-86.833749163641,36.1087622079003],[-86.8337490388489,36.1090083509897],[-86.833743370404,36.1092745869096],[-86.8327902884862,36.1092028788145],[-86.8321506112106,36.1091548239426],[-86.8321504499973,36.1091394391973],[-86.8321510342766,36.1091306458224],[-86.8321579737304,36.109017417116],[-86.8321848518215,36.1083875100936]]]},"properties":{"id":"79751","parcel":"11616013500","address":"2805 ABBOTT MARTIN RD","owner":"CENTENNIAL CLUB","point":[-86.83296253589543,36.108629240554706]}},{"type":"Feature","id":"79764","geometry":{"type":"Polygon","coordinates":[[[-86.8340115156017,36.1084702968732],[-86.8346262182917,36.1084616498134],[-86.8346319988583,36.1087539033525],[-86.833749163641,36.1087622079003],[-86.8337518115483,36.1084984650557],[-86.8340117925492,36.1084966675037],[-86.8340115156017,36.1084702968732]]]},"properties":{"id":"79764","parcel":"11616015000","address":"3908 WALLACE LN","owner":"TINSEY, MARK H. & LYNN M.","point":[-86.83419001002086,36.10862618239013]}},{"type":"Feature","id":"79767","geometry":{"type":"Polygon","coordinates":[[[-86.8378290332955,36.1072790609423],[-86.8378628483009,36.1070196834365],[-86.8387012461761,36.1070911476023],[-86.8386700797012,36.107350856639],[-86.8378290332955,36.1072790609423]]]},"properties":{"id":"79767","parcel":"11616015200","address":"4003 ESTES RD","owner":"LEACH, PHILIP JR. & KEATS","point":[-86.83826562954145,36.1071851057285]}},{"type":"Feature","id":"81907","geometry":{"type":"Polygon","coordinates":[[[-86.8389753942924,36.1081655515772],[-86.8387476801443,36.1081451584582],[-86.8387551079943,36.1080791749524],[-86.838836421377,36.1080852032377],[-86.8388388980455,36.1080632090291],[-86.8389364829211,36.1080713205089],[-86.8389340306106,36.1080955127894],[-86.8389855318575,36.1080995492063],[-86.8389803707685,36.1081237603312],[-86.8390020819907,36.1081280048724],[-86.8389996296984,36.1081521971538],[-86.8389779173496,36.1081479517187],[-86.8389753942924,36.1081655515772]]]},"properties":{"id":"81907","parcel":"116160C00300CO","address":"3919 ESTES RD","owner":"ESKRIDGE, HONORA & TOYE","point":[-86.83886721902729,36.108111499182016]}},{"type":"Feature","id":"81909","geometry":{"type":"Polygon","coordinates":[[[-86.8389996296984,36.1081521971538],[-86.8390020819907,36.1081280048724],[-86.8390210611994,36.1081300701768],[-86.8390288846407,36.108101445853],[-86.8390722838653,36.1081077377378],[-86.8390773984951,36.1080791322563],[-86.8391831307849,36.1080893841906],[-86.8391705433465,36.108179577045],[-86.8390160405292,36.1081674661553],[-86.8390186089128,36.1081542624586],[-86.8389996296984,36.1081521971538]]]},"properties":{"id":"81909","parcel":"116160C00400CO","address":"3921 ESTES RD","owner":"BENDER, CAROL & ANDREW","point":[-86.83909945272705,36.1081291555739]}},{"type":"Feature","id":"81962","geometry":{"type":"Polygon","coordinates":[[[-86.8395059630254,36.1079432658834],[-86.8390712211753,36.1079078189334],[-86.8390757252328,36.1078740929799],[-86.8399332066181,36.1073083734504],[-86.8399673515669,36.1073373779104],[-86.8400036601486,36.1073645962616],[-86.8400419912922,36.1073899222313],[-86.8400821962281,36.107413256811],[-86.8401241185071,36.1074345100588],[-86.8397218002129,36.1079608300085],[-86.8395059630254,36.1079432658834]]]},"properties":{"id":"81962","parcel":"11616004700","address":"4004 COPELAND DR","owner":"ROBB, CHARLES L., SR. & MARGARET P.","point":[-86.83968250268029,36.10765441319666]}},{"type":"Feature","id":"81964","geometry":{"type":"Polygon","coordinates":[[[-86.8389651270365,36.1064726649533],[-86.8389707811363,36.1064469794876],[-86.8397269844876,36.1065032519526],[-86.839699566199,36.1067276092614],[-86.8396938432712,36.1067470799623],[-86.8396913293106,36.1067669915822],[-86.8396920684354,36.1067869995223],[-86.8392451876015,36.106785714523],[-86.8392213808717,36.1067835710885],[-86.8389280169578,36.1067571530841],[-86.8389487657081,36.1065942056127],[-86.8389630285914,36.1064821962447],[-86.8389651270365,36.1064726649533]]]},"properties":{"id":"81964","parcel":"11616005000","address":"4010 COPELAND DR","owner":"MICHAEL EDWARD RYAN JR. REVOCABLE TRUST & ET AL","point":[-86.83932399636096,36.10666090779771]}},{"type":"Feature","id":"82011","geometry":{"type":"Polygon","coordinates":[[[-86.8378628483009,36.1070196834365],[-86.8379087569992,36.1066675398079],[-86.8389280169578,36.1067571530841],[-86.8392213808717,36.1067835710885],[-86.8391749071327,36.1071315200809],[-86.8387012461761,36.1070911476023],[-86.8378628483009,36.1070196834365]]]},"properties":{"id":"82011","parcel":"11616006200","address":"4005 ESTES RD","owner":"KENDRICK, GREGG RICHARD & JENNIFER ASHWORTH","point":[-86.83854192458419,36.10690162893432]}},{"type":"Feature","id":"83013","geometry":{"type":"Polygon","coordinates":[[[-86.8397182557041,36.1092636280455],[-86.8397704568996,36.1088215258611],[-86.8401933939136,36.1088625350867],[-86.8401810621413,36.1089769014743],[-86.8400839753078,36.1097841339462],[-86.8396637876617,36.1097475016481],[-86.8397182557041,36.1092636280455]]]},"properties":{"id":"83013","parcel":"11612012600","address":"3809 ABBOTT MARTIN RD","owner":"NORD, RICHARD W., II","point":[-86.83990421631151,36.109505849918726]}},{"type":"Feature","id":"83033","geometry":{"type":"Polygon","coordinates":[[[-86.8391749071327,36.1071315200809],[-86.8392213808717,36.1067835710885],[-86.8392451876015,36.106785714523],[-86.8396920684354,36.1067869995223],[-86.8396928239446,36.1068333474716],[-86.8396973021006,36.1068795568405],[-86.8397054830437,36.1069254294836],[-86.8397173325431,36.1069707736643],[-86.8397328007717,36.107015393248],[-86.8397518202084,36.1070590994332],[-86.8397668436833,36.1070839235302],[-86.8397797716167,36.107109512088],[-86.8397905461371,36.1071357492441],[-86.8391388974634,36.1074011185219],[-86.8391749071327,36.1071315200809]]]},"properties":{"id":"83033","parcel":"11616004900","address":"4008 COPELAND DR","owner":"BURK, JUSTIN R. & CHRISTINE B.","point":[-86.83947648469143,36.1070963205082]}},{"type":"Feature","id":"83061","geometry":{"type":"Polygon","coordinates":[[[-86.8357375415977,36.1094159953617],[-86.8358376065841,36.1087917477242],[-86.8358376117578,36.1087917116369],[-86.8358376212886,36.1087916674078],[-86.835846003526,36.1087529134757],[-86.836615405764,36.1088387835363],[-86.8365912793135,36.1090230080485],[-86.8373780273387,36.1090843037368],[-86.8373235871269,36.1094758743536],[-86.8373207844768,36.1094876429832],[-86.8373156203337,36.1094988746175],[-86.837308235782,36.1095092555303],[-86.8372988344347,36.1095185031063],[-86.8372876779242,36.1095263595632],[-86.8372750716448,36.1095326091756],[-86.837261364762,36.1095370791759],[-86.8372469358504,36.1095396470645],[-86.8372321806763,36.1095402406949],[-86.8357359473062,36.1094253491448],[-86.8357375415977,36.1094159953617]]]},"properties":{"id":"83061","parcel":"11612015100","address":"0 ESTES RD","owner":"AVERETT, JOHN A.& JOHN A.,JR. ET AL","point":[-86.83655955919271,36.10925015478233]}},{"type":"Feature","id":"83099","geometry":{"type":"Polygon","coordinates":[[[-86.8376078234681,36.1089126586498],[-86.8376608693063,36.108585658499],[-86.8394004289932,36.1086614726735],[-86.8393855034336,36.1087868455203],[-86.8392372614089,36.1091109389266],[-86.8387031259783,36.1090553192215],[-86.8385458430647,36.1090366314371],[-86.8375998369245,36.1089618901227],[-86.8376078234681,36.1089126586498]]]},"properties":{"id":"83099","parcel":"11616006600","address":"3905 ESTES RD","owner":"BEASLEY, DANIEL T. & KATIE E.","point":[-86.83848720994695,36.10884974263993]}},{"type":"Feature","id":"83127","geometry":{"type":"Polygon","coordinates":[[[-86.8325066792284,36.1100512256474],[-86.8325127762631,36.1098577864924],[-86.8327987662869,36.1098821845853],[-86.8327988440603,36.1098896007318],[-86.8327722893579,36.110069171572],[-86.8325066792284,36.1100512256474]]]},"properties":{"id":"83127","parcel":"117090C05200CO","address":"204 BURLINGTON PL","owner":"BRADSHAW, JAMES & SARAH","point":[-86.83264804931075,36.10997040669736]}},{"type":"Feature","id":"83130","geometry":{"type":"Polygon","coordinates":[[[-86.8332253178592,36.1096866642498],[-86.8332265639246,36.1096683351963],[-86.8332242042586,36.1096500797228],[-86.8332183003572,36.1096323597641],[-86.833208999131,36.1096156267505],[-86.8331959772143,36.1096006075492],[-86.833179870017,36.1095877330908],[-86.8331613516684,36.1095772078155],[-86.8331409361809,36.1095693255959],[-86.8331191900822,36.109564304234],[-86.8330967190693,36.1095622837511],[-86.8331031834884,36.1094040047772],[-86.8333933050561,36.1094349658229],[-86.8333554486837,36.1096989518741],[-86.8332253178592,36.1096866642498]]]},"properties":{"id":"83130","parcel":"117090C05600CO","address":"105 BURLINGTON CT","owner":"MUSIC CITY MANAGEMENT INVESTMENTS, LLC ETAL","point":[-86.83324173786703,36.109498620322206]}},{"type":"Feature","id":"83399","geometry":{"type":"Polygon","coordinates":[[[-86.8380366904165,36.1102909461905],[-86.8374545135017,36.1100771337651],[-86.8374921467439,36.1097933691759],[-86.8374944040489,36.1097825515822],[-86.8374987562524,36.1097721628743],[-86.8375050906511,36.1097624697142],[-86.8375132476765,36.1097537183595],[-86.8375230186639,36.109746133778],[-86.8375341523933,36.1097399078854],[-86.8375463662047,36.1097352003692],[-86.8375593492544,36.1097321314564],[-86.8375727680489,36.1097307800722],[-86.8375862808353,36.1097311792335],[-86.8377136848146,36.1097412828599],[-86.8380418029215,36.1102928240976],[-86.8380366904165,36.1102909461905]]]},"properties":{"id":"83399","parcel":"11612009500","address":"3819 ESTES RD","owner":"RAPPUHN, ALEX","point":[-86.83765134775416,36.109935492824505]}},{"type":"Feature","id":"83498","geometry":{"type":"Polygon","coordinates":[[[-86.8307759097375,36.1100411831267],[-86.8307934649337,36.109907004927],[-86.8310673145919,36.1099358818155],[-86.831034199973,36.1101361026451],[-86.8307657662122,36.1101071847675],[-86.8307759097375,36.1100411831267]]]},"properties":{"id":"83498","parcel":"117090B02100CO","address":"202 LONGWOOD CT","owner":"HUTCHISON, WILLIAM B. & LAURA P.","point":[-86.83092069931774,36.10998853127184]}},{"type":"Feature","id":"83501","geometry":{"type":"Polygon","coordinates":[[[-86.8307934649337,36.109907004927],[-86.8308214382597,36.1097331921025],[-86.8310952643718,36.1097598753568],[-86.8310673145919,36.1099358818155],[-86.8307934649337,36.109907004927]]]},"properties":{"id":"83501","parcel":"117090B02200CO","address":"204 LONGWOOD CT","owner":"PAGANO, BARBARA & MCGUIRE, ELIZABETH","point":[-86.83094444355802,36.10983344034889]}},{"type":"Feature","id":"83504","geometry":{"type":"Polygon","coordinates":[[[-86.8307726222225,36.1097269354636],[-86.8307979797722,36.1095619327002],[-86.8311206442664,36.1095970706051],[-86.8310952643718,36.1097598753568],[-86.8308214382597,36.1097331921025],[-86.8307726222225,36.1097269354636]]]},"properties":{"id":"83504","parcel":"117090B02300CO","address":"206 LONGWOOD CT","owner":"HEMMINGER, ROBERT L. & MARY J.","point":[-86.83094656119682,36.109662003059576]}},{"type":"Feature","id":"83522","geometry":{"type":"Polygon","coordinates":[[[-86.8391388974634,36.1074011185219],[-86.8397905461371,36.1071357492441],[-86.8398138074932,36.1071729582432],[-86.8398398049954,36.1072089548796],[-86.8398684417235,36.107243606436],[-86.8398996141602,36.10727678655],[-86.8399332066181,36.1073083734504],[-86.8390757252328,36.1078740929799],[-86.8391388974634,36.1074011185219]]]},"properties":{"id":"83522","parcel":"11616004800","address":"4006 COPELAND DR","owner":"MOORE, KEVIN A. & HELEN G.,  TRUSTEES","point":[-86.83927041409824,36.107637824669716]}},{"type":"Feature","id":"83558","geometry":{"type":"Polygon","coordinates":[[[-86.8308233602129,36.1093991280029],[-86.8308513333134,36.1092253169518],[-86.8311739975743,36.1092604547093],[-86.8311460240569,36.1094342658415],[-86.8308233602129,36.1093991280029]]]},"properties":{"id":"83558","parcel":"117090B02500CO","address":"210 LONGWOOD CT","owner":"PRICE, LAWRENCE & MICHELLE DIANE","point":[-86.83099867882441,36.10932979148486]}},{"type":"Feature","id":"83561","geometry":{"type":"Polygon","coordinates":[[[-86.8302839040564,36.1093522961367],[-86.8303070859563,36.1092057145096],[-86.830315135553,36.1091985163998],[-86.8303218856037,36.1091919545315],[-86.8303298049151,36.1091863183453],[-86.8303387038625,36.109181743438],[-86.8303483658931,36.1091783394547],[-86.8303585608441,36.1091761890957],[-86.8303690426645,36.1091753427243],[-86.8303795605595,36.1091758218954],[-86.8305801949773,36.1091964173079],[-86.8305523350996,36.1093812159935],[-86.8302839040564,36.1093522961367]]]},"properties":{"id":"83561","parcel":"117090B02600CO","address":"101 LONGWOOD PL","owner":"SINKS, KAROLE LEIGH & ROBERT WAYNE REV TRUST","point":[-86.83043159056552,36.10927919801414]}},{"type":"Feature","id":"83567","geometry":{"type":"Polygon","coordinates":[[[-86.8315695493206,36.1100489004218],[-86.8316078490409,36.1098266685226],[-86.8318247571117,36.1098493469993],[-86.8317812956862,36.1100957897632],[-86.8315695493206,36.1100489004218]]]},"properties":{"id":"83567","parcel":"117090C00500CO","address":"304 CHARLESGATE PL","owner":"VALENTI, ANGELO C & RACHEL R","point":[-86.83169695273912,36.109949123497906]}},{"type":"Feature","id":"83570","geometry":{"type":"Polygon","coordinates":[[[-86.8316078490409,36.1098266685226],[-86.8316253327667,36.1097299264961],[-86.8316488091409,36.1096000226802],[-86.8317545436164,36.1096102820165],[-86.8317646340392,36.1096120420389],[-86.831774219803,36.1096151430497],[-86.8317830345405,36.1096194985596],[-86.8317908292868,36.1096249868099],[-86.8317973880557,36.1096314533679],[-86.8318025223532,36.1096387174739],[-86.8318060923076,36.1096465745995],[-86.8318079978791,36.1096548055211],[-86.8318081822199,36.1096631790003],[-86.8318066428562,36.1096714589171],[-86.831855460023,36.1096777124263],[-86.8318247571117,36.1098493469993],[-86.8316078490409,36.1098266685226]]]},"properties":{"id":"83570","parcel":"117090C00600CO","address":"402 CHARLESGATE CT","owner":"GEROMES, ARIANA BECK & MARCUS","point":[-86.83174042050175,36.10970381955041]}},{"type":"Feature","id":"83573","geometry":{"type":"Polygon","coordinates":[[[-86.8318913250892,36.1094818724401],[-86.8319246675061,36.1093036285195],[-86.8321713417367,36.1093239037042],[-86.8321201477024,36.1096077600996],[-86.8319032402071,36.1095850821527],[-86.831921184704,36.1094882566819],[-86.8318913250892,36.1094818724401]]]},"properties":{"id":"83573","parcel":"117090C00800CO","address":"406 CHARLESGATE CT","owner":"REED, JAMES L. & SUE F.","point":[-86.83203159890209,36.10940288852685]}},{"type":"Feature","id":"83576","geometry":{"type":"Polygon","coordinates":[[[-86.8311443283208,36.1095309765127],[-86.8311927928436,36.1092449411242],[-86.8314313194228,36.1092630766362],[-86.8313930666062,36.1094897037583],[-86.8313802389248,36.1095579204012],[-86.8311443283208,36.1095309765127]]]},"properties":{"id":"83576","parcel":"117090C01100CO","address":"412 CHARLESGATE CT","owner":"O'BRIEN, SHERRYE J.","point":[-86.83129138572343,36.10937622015198]}},{"type":"Feature","id":"83578","geometry":{"type":"Polygon","coordinates":[[[-86.8377706376254,36.1078041995318],[-86.8378161857261,36.1073610483508],[-86.838661132184,36.1074317516996],[-86.8386117091364,36.1078698577252],[-86.8377706376254,36.1078041995318]]]},"properties":{"id":"83578","parcel":"11616006301","address":"3925 ESTES RD","owner":"THOMAS, RANDALL S.& FERRARI, CHERI D.","point":[-86.83821494845165,36.10761797518268]}},{"type":"Feature","id":"84448","geometry":{"type":"Polygon","coordinates":[[[-86.8376608693063,36.108585658499],[-86.8377186359686,36.1081567052775],[-86.8394535131731,36.1083028776793],[-86.8394259540845,36.1085140463617],[-86.8394004289932,36.1086614726735],[-86.8376608693063,36.108585658499]]]},"properties":{"id":"84448","parcel":"11616006500","address":"3907 ESTES RD","owner":"LOWE, ROBERT W JR & JULIA FORT","point":[-86.83856239211478,36.108407283104995]}},{"type":"Feature","id":"86147","geometry":{"type":"Polygon","coordinates":[[[-86.829975346097,36.1080753641609],[-86.830005865266,36.1078861516791],[-86.8303474589196,36.1079189640084],[-86.8303142065546,36.1081059971602],[-86.829975346097,36.1080753641609]]]},"properties":{"id":"86147","parcel":"117130B10800CO","address":"218 KENSINGTON PARK","owner":"CHOMA, DAVID & NEESHA","point":[-86.83016075578708,36.1079971633131]}},{"type":"Feature","id":"86357","geometry":{"type":"Polygon","coordinates":[[[-86.8309640959615,36.1083542508777],[-86.8307336274212,36.1083294642408],[-86.8307540968883,36.1082150446424],[-86.8308164537621,36.1082212080058],[-86.8308190464973,36.1082102016618],[-86.8308461737911,36.1082144103579],[-86.8308435810595,36.1082254167026],[-86.8309113533233,36.1082315427103],[-86.8309010721799,36.1082843586223],[-86.8309742839882,36.1082926453567],[-86.8309718062451,36.1083146393948],[-86.8309880775992,36.1083167246194],[-86.8309829578191,36.1083453297713],[-86.8309666886805,36.1083432445308],[-86.8309640959615,36.1083542508777]]]},"properties":{"id":"86357","parcel":"117130A13500CO","address":"3909 VAILWOOD DR","owner":"CHUNG, SUNG JANG & KWANG JUN","point":[-86.83082633709407,36.108257837911495]}},{"type":"Feature","id":"86358","geometry":{"type":"Polygon","coordinates":[[[-86.8319273652568,36.1082684924922],[-86.8319350290072,36.1082244856906],[-86.8319567168338,36.1082265316188],[-86.8319591724128,36.1082023421771],[-86.83207034125,36.1082147619775],[-86.83207805318,36.108175149506],[-86.8321404101347,36.1081813130861],[-86.8321201027593,36.1083111167758],[-86.8319926798777,36.1082988100518],[-86.8319951376504,36.1082746187921],[-86.8319273652568,36.1082684924922]]]},"properties":{"id":"86358","parcel":"117130A13700CO","address":"3914 SKYLINE DR","owner":"CLAYTON, HANSEL CREASON JR.","point":[-86.83203051698732,36.10824763612477]}},{"type":"Feature","id":"86359","geometry":{"type":"Polygon","coordinates":[[[-86.8317421678928,36.1086873331093],[-86.8317652066933,36.108559707999],[-86.8317272462184,36.1085555742182],[-86.8317399353385,36.1084741717527],[-86.8318484001484,36.108486609506],[-86.8318357341618,36.1085702100612],[-86.8318736935576,36.108574345618],[-86.8318609584992,36.1086513510371],[-86.8318311463157,36.1086493584225],[-86.8318233673752,36.1086823775237],[-86.8317827210484,36.1086804605219],[-86.8317801284314,36.1086914668853],[-86.8317421678928,36.1086873331093]]]},"properties":{"id":"86359","parcel":"117130A14200CO","address":"2719 ABBOTT MARTIN RD","owner":"PILKINGTON, SARAH FRANCES LIVING TRUST","point":[-86.83181165274024,36.1086117948024]}},{"type":"Feature","id":"86360","geometry":{"type":"Polygon","coordinates":[[[-86.8311439449191,36.108717829753],[-86.8311465354039,36.1087068234185],[-86.8311329716409,36.1087047168522],[-86.831137997196,36.1086673239031],[-86.831110869732,36.1086631152731],[-86.8311363182399,36.1085069029073],[-86.8312773028172,36.1085213152999],[-86.8312696846815,36.1085697173128],[-86.8312913726042,36.1085717651628],[-86.8312838004809,36.1086245624321],[-86.8312431322994,36.1086204471619],[-86.8312328743246,36.1086754602747],[-86.8312247501064,36.108675516268],[-86.8312170169162,36.108712930586],[-86.8311899124389,36.1087109200525],[-86.8311873186281,36.1087219264108],[-86.8311439449191,36.108717829753]]]},"properties":{"id":"86360","parcel":"117130A14600CO","address":"2711 ABBOTT MARTIN RD","owner":"FARRAR, DONALD CHAPMAN & STREET, MARGARE","point":[-86.83120484851952,36.108596018265764]}},{"type":"Feature","id":"86693","geometry":{"type":"Polygon","coordinates":[[[-86.8304735379025,36.1088389265863],[-86.8304989658438,36.1086805162754],[-86.8305775933815,36.1086887659586],[-86.8306101373432,36.1086929374049],[-86.8305820030123,36.1088513654773],[-86.8304735379025,36.1088389265863]]]},"properties":{"id":"86693","parcel":"117130A13400CO","address":"2701 ABBOTT MARTIN RD","owner":"O'BRYAN, CATHERINE","point":[-86.83054121429127,36.10876593113398]}},{"type":"Feature","id":"86700","geometry":{"type":"Polygon","coordinates":[[[-86.8319952354504,36.1085427391063],[-86.832002925522,36.1085009276554],[-86.8321113398939,36.1085089681443],[-86.8320964292664,36.1086365426551],[-86.8321126984758,36.1086386259406],[-86.8321103614121,36.1086738048511],[-86.8320914052752,36.1086739356367],[-86.8320840167658,36.1087443130843],[-86.8320433715116,36.1087423961626],[-86.8320459421742,36.1087291917075],[-86.8320079816131,36.1087250589164],[-86.8320127534644,36.1086634897708],[-86.8319856489838,36.1086614794161],[-86.8319931055291,36.1085976944141],[-86.832003938549,36.108597619682],[-86.8320065081123,36.1085844161361],[-86.8319875278575,36.1085823488346],[-86.8319874357908,36.1085735610263],[-86.8319711643295,36.1085714732331],[-86.8319735727574,36.1085428885448],[-86.8319952354504,36.1085427391063]]]},"properties":{"id":"86700","parcel":"117130A14100CO","address":"2723 ABBOTT MARTIN RD","owner":"REID, ANGELA & MICHAEL LIVING TRUST","point":[-86.83204476717331,36.108617118545446]}},{"type":"Feature","id":"86705","geometry":{"type":"Polygon","coordinates":[[[-86.8315339855002,36.1087217340882],[-86.8315365792629,36.1087107277224],[-86.8315148901853,36.1087086799242],[-86.8315328810084,36.1086162524496],[-86.8315003370298,36.1086120812522],[-86.8315236752964,36.1085130212956],[-86.8316321390432,36.1085254619545],[-86.8315935189672,36.1087169289373],[-86.8315826629132,36.1087148055539],[-86.8315800932847,36.1087280099915],[-86.8315339855002,36.1087217340882]]]},"properties":{"id":"86705","parcel":"117130A14500CO","address":"2715 ABBOTT MARTIN RD","owner":"MIAHKY, STEPHEN A. & MCGANN, CHRISTINA F.","point":[-86.83156418360444,36.108662522845634]}},{"type":"Feature","id":"86738","geometry":{"type":"Polygon","coordinates":[[[-86.8328345096992,36.1096102468564],[-86.8328646111276,36.109381478211],[-86.8331031834884,36.1094040047772],[-86.8330967190693,36.1095622837511],[-86.8330816680243,36.109560828491],[-86.8330665259071,36.109561385529],[-86.8330516979572,36.1095639385466],[-86.8330375833316,36.1095684207957],[-86.8330245584075,36.1095747116083],[-86.8330129723965,36.1095826418349],[-86.8329893764972,36.1095949424277],[-86.8329639167782,36.1096044871371],[-86.8329370789207,36.1096110923503],[-86.8329093747752,36.1096146337593],[-86.8328813334289,36.1096150419158],[-86.8328534901935,36.1096123113204],[-86.8328345096992,36.1096102468564]]]},"properties":{"id":"86738","parcel":"117090C05700CO","address":"103 BURLINGTON CT","owner":"HARRIS, JAMES H., III ET UX","point":[-86.83297567721789,36.10948225393933]}},{"type":"Feature","id":"86930","geometry":{"type":"Polygon","coordinates":[[[-86.8307979797722,36.1095619327002],[-86.8308233602129,36.1093991280029],[-86.8311460240569,36.1094342658415],[-86.8311206442664,36.1095970706051],[-86.8307979797722,36.1095619327002]]]},"properties":{"id":"86930","parcel":"117090B02400CO","address":"208 LONGWOOD CT","owner":"MATRAVERS, ERIC LEE & LAURA SCENIAK","point":[-86.83097200205412,36.109498099397946]}},{"type":"Feature","id":"86958","geometry":{"type":"Polygon","coordinates":[[[-86.8327988440603,36.1098896007318],[-86.8327987662869,36.1098821845853],[-86.8325127762631,36.1098577864924],[-86.8325185060744,36.1097261591656],[-86.8325186353501,36.109723763556],[-86.8325202193758,36.1097149831076],[-86.8325235306177,36.1097065251137],[-86.8325284825579,36.1096986127891],[-86.8325349451936,36.1096914534254],[-86.8325427472208,36.1096852347713],[-86.8325516848816,36.1096801213657],[-86.8325615241,36.1096762464121],[-86.8325720049349,36.1096737126487],[-86.8325828515085,36.1096725859712],[-86.8325937820027,36.1096728953635],[-86.8327947166582,36.1096896383402],[-86.8328598045274,36.1096979800332],[-86.8328347508227,36.1098915510249],[-86.8327988440603,36.1098896007318]]]},"properties":{"id":"86958","parcel":"117090C05300CO","address":"100 BURLINGTON CT","owner":"BOEHM, JULIE G., LIVING TRUST","point":[-86.83268161015971,36.10979220472065]}},{"type":"Feature","id":"86969","geometry":{"type":"Polygon","coordinates":[[[-86.8320742098392,36.1098761970371],[-86.8321201477024,36.1096077600996],[-86.8323696008815,36.1096346095203],[-86.8323550604326,36.1097248925626],[-86.8323263715807,36.1099030269634],[-86.8320742098392,36.1098761970371]]]},"properties":{"id":"86969","parcel":"117090C00200CO","address":"203 BURLINGTON PL","owner":"ZIBART, KITTLER BAIN TRUST","point":[-86.83221501722801,36.10980054541786]}},{"type":"Feature","id":"86972","geometry":{"type":"Polygon","coordinates":[[[-86.8318247571117,36.1098493469993],[-86.831855460023,36.1096777124263],[-86.8318880044854,36.1096818862305],[-86.8319032402071,36.1095850821527],[-86.8321201477024,36.1096077600996],[-86.8320742098392,36.1098761970371],[-86.8318247571117,36.1098493469993]]]},"properties":{"id":"86972","parcel":"117090C00700CO","address":"404 CHARLESGATE CT","owner":"CHRISTENBERRY, ELIZABETH B. LIVING TRUST, THE","point":[-86.83196640812324,36.10976577098053]}},{"type":"Feature","id":"87004","geometry":{"type":"Polygon","coordinates":[[[-86.8302406908401,36.1096229109294],[-86.8302636667233,36.109488692779],[-86.8305320948883,36.1095176127028],[-86.8305118546075,36.1096540094041],[-86.8302406908401,36.1096229109294]]]},"properties":{"id":"87004","parcel":"117090B02800CO","address":"105 LONGWOOD PL","owner":"KENDRICK, KATHERINE SARA","point":[-86.83038699489579,36.109570262757316]}},{"type":"Feature","id":"87008","geometry":{"type":"Polygon","coordinates":[[[-86.8302153321037,36.1097879126719],[-86.8302406908401,36.1096229109294],[-86.8305118546075,36.1096540094041],[-86.8305016879244,36.1097178129509],[-86.8304982903957,36.1097324849475],[-86.8304921063376,36.1097465452318],[-86.8304832876191,36.1097596466636],[-86.8304720508001,36.1097714677947],[-86.8304586738373,36.1097817164965],[-86.8304434850815,36.1097901399498],[-86.8304268589102,36.1097965318856],[-86.8304092046311,36.1098007335628],[-86.8303909576904,36.1098026428412],[-86.8303725685384,36.109802211555],[-86.8302153321037,36.1097879126719]]]},"properties":{"id":"87008","parcel":"117090B02900CO","address":"107 LONGWOOD PL","owner":"SCANNELLA, MEREDITH J.","point":[-86.83036891987388,36.10968571608633]}},{"type":"Feature","id":"87016","geometry":{"type":"Polygon","coordinates":[[[-86.8321201477024,36.1096077600996],[-86.8321713417367,36.1093239037042],[-86.8323231369337,36.1093360429542],[-86.8324024804872,36.1094124147359],[-86.8323696008815,36.1096346095203],[-86.8321201477024,36.1096077600996]]]},"properties":{"id":"87016","parcel":"117090C00100CO","address":"201 BURLINGTON PL","owner":"SAFF, EDWARD B. & LORETTA S.","point":[-86.83226289769074,36.10951008971895]}},{"type":"Feature","id":"87020","geometry":{"type":"Polygon","coordinates":[[[-86.8313930666062,36.1094897037583],[-86.8314313194228,36.1092630766362],[-86.8316698691215,36.1092834088535],[-86.8316289541531,36.1095144490826],[-86.8313930666062,36.1094897037583]]]},"properties":{"id":"87020","parcel":"117090C01000CO","address":"410 CHARLESGATE CT","owner":"WELCH, LUCILE C","point":[-86.83153103931267,36.10938655578436]}},{"type":"Feature","id":"87024","geometry":{"type":"Polygon","coordinates":[[[-86.8310757609147,36.1099665917151],[-86.8311113520357,36.1097443804451],[-86.8313906869045,36.1097798162123],[-86.8313550724555,36.1099998321961],[-86.8310757609147,36.1099665917151]]]},"properties":{"id":"87024","parcel":"117090C01300CO","address":"416 CHARLESGATE CT","owner":"DENEKE, WILLIAM & BARBARA LIVING TRUST","point":[-86.83123314420408,36.10987320395587]}},{"type":"Feature","id":"87255","geometry":{"type":"Polygon","coordinates":[[[-86.8328347508227,36.1098915510249],[-86.8328598045274,36.1096979800332],[-86.8328887957018,36.1097021384486],[-86.8329166753055,36.1097098159447],[-86.8329427972619,36.1097208349243],[-86.8329590385628,36.1097299762616],[-86.8329740472388,36.1097404140479],[-86.8329876655366,36.1097520394161],[-86.8330040191737,36.1097638414696],[-86.8330224640852,36.1097733992946],[-86.8330425379225,36.1097804736376],[-86.8330637378853,36.1097848868124],[-86.8330855296542,36.1097865271444],[-86.8330772323392,36.1100283310341],[-86.8328096311823,36.1100785286474],[-86.8328347508227,36.1098915510249]]]},"properties":{"id":"87255","parcel":"117090C05400CO","address":"102 BURLINGTON CT","owner":"POWELL, DIXIE FARRELL","point":[-86.832962645319,36.109839042643095]}},{"type":"Feature","id":"87260","geometry":{"type":"Polygon","coordinates":[[[-86.8330855296542,36.1097865271444],[-86.8331088613402,36.1097854583846],[-86.8331316261646,36.1097811759443],[-86.8331531567676,36.1097738034037],[-86.8331728200832,36.1097635569392],[-86.8331900417073,36.1097507388455],[-86.8332043135307,36.1097357239638],[-86.8332152192172,36.1097189531964],[-86.8332217668277,36.109703172406],[-86.8332253178592,36.1096866642498],[-86.8333554486837,36.1096989518741],[-86.8333149776785,36.1099827563152],[-86.8330772323392,36.1100283310341],[-86.8330855296542,36.1097865271444]]]},"properties":{"id":"87260","parcel":"117090C05500CO","address":"104 BURLINGTON CT","owner":"ELLIS, CATHERINE C.","point":[-86.83320555602496,36.10988464916704]}},{"type":"Feature","id":"87264","geometry":{"type":"Polygon","coordinates":[[[-86.8325380042571,36.1094224677808],[-86.8326267263373,36.109360319086],[-86.8327913981182,36.1093731926264],[-86.8328646111276,36.109381478211],[-86.8328345096992,36.1096102468564],[-86.8325939273654,36.1095899309675],[-86.8325835195889,36.1095889438048],[-86.8325734399145,36.1095866213739],[-86.8325639455234,36.1095830213845],[-86.8325552828778,36.109578238573],[-86.8325476720583,36.1095723939953],[-86.8325413090138,36.1095656377149],[-86.8325363566288,36.1095581443587],[-86.8325329435281,36.1095501050128],[-86.8325311551914,36.1095417272844],[-86.8325310405044,36.1095332244408],[-86.8325380042571,36.1094224677808]]]},"properties":{"id":"87264","parcel":"117090C05800CO","address":"101 BURLINGTON CT","owner":"JOYNER, W. OWEN & AMY M.","point":[-86.83269319755604,36.10947806779052]}},{"type":"Feature","id":"87924","geometry":{"type":"Polygon","coordinates":[[[-86.8302636667233,36.109488692779],[-86.8302839040564,36.1093522961367],[-86.8305523350996,36.1093812159935],[-86.8305320948883,36.1095176127028],[-86.8302636667233,36.109488692779]]]},"properties":{"id":"87924","parcel":"117090B02700CO","address":"103 LONGWOOD PL","owner":"MOHAN, CHANDRA & SHANTHI","point":[-86.83040800035101,36.10943495447276]}},{"type":"Feature","id":"87932","geometry":{"type":"Polygon","coordinates":[[[-86.8317812956862,36.1100957897632],[-86.8318247571117,36.1098493469993],[-86.8320742098392,36.1098761970371],[-86.8320283177067,36.110149028292],[-86.8317812956862,36.1100957897632]]]},"properties":{"id":"87932","parcel":"117090C00400CO","address":"302 CHARLESGATE PL","owner":"SHIEH, CHRISTINE LIVING TRUST","point":[-86.83192820072743,36.109985994119334]}},{"type":"Feature","id":"87934","geometry":{"type":"Polygon","coordinates":[[[-86.8316289541531,36.1095144490826],[-86.8316698691215,36.1092834088535],[-86.8319246675061,36.1093036285195],[-86.8318913250892,36.1094818724401],[-86.831839847423,36.1094800292633],[-86.8318396771614,36.109487739138],[-86.8318379138575,36.1094953166957],[-86.8318346085653,36.1095025461768],[-86.8318298535549,36.1095092232539],[-86.8318237856733,36.1095151577131],[-86.831816576433,36.1095201816333],[-86.8318084298294,36.1095241530068],[-86.8317995779161,36.1095269575721],[-86.8317902708951,36.1095285169942],[-86.8317807737556,36.1095287861837],[-86.8316289541531,36.1095144490826]]]},"properties":{"id":"87934","parcel":"117090C00900CO","address":"408 CHARLESGATE CT","owner":"TORABI, SOMAYEH","point":[-86.83177944425069,36.10939168459117]}},{"type":"Feature","id":"87939","geometry":{"type":"Polygon","coordinates":[[[-86.8311113520357,36.1097443804451],[-86.8311443283208,36.1095309765127],[-86.8313802389248,36.1095579204012],[-86.8313887357063,36.1095599167621],[-86.8313966923995,36.1095630533672],[-86.8314038770392,36.1095672407859],[-86.8314100828557,36.1095723560661],[-86.8314151272582,36.1095782517545],[-86.8314188662924,36.1095847575994],[-86.831421190226,36.1095916832845],[-86.8314220325469,36.1095988291829],[-86.8314213677423,36.1096059863723],[-86.8313906869045,36.1097798162123],[-86.8311113520357,36.1097443804451]]]},"properties":{"id":"87939","parcel":"117090C01200CO","address":"414 CHARLESGATE CT","owner":"BARRY, DAVID BRIAN","point":[-86.83126559759128,36.109675182435986]}},{"type":"Feature","id":"87997","geometry":{"type":"Polygon","coordinates":[[[-86.831686724152,36.1088239728238],[-86.8317070772789,36.1086985635861],[-86.8317395982633,36.1087005348468],[-86.8317421678928,36.1086873331093],[-86.8317801284314,36.1086914668853],[-86.8317748960488,36.1087090843638],[-86.83178302027,36.1087090283334],[-86.8317728328267,36.1087706348175],[-86.8317999603531,36.1087748423972],[-86.8317923885768,36.1088276423994],[-86.8318439095998,36.108833877263],[-86.8318336093156,36.1088844960464],[-86.8316790602062,36.108867979603],[-86.8316815377707,36.1088459855534],[-86.8316706817063,36.1088438630792],[-86.8316731833935,36.1088240661992],[-86.831686724152,36.1088239728238]]]},"properties":{"id":"87997","parcel":"117130A13000CO","address":"2717 F ABBOTT MARTIN RD","owner":"LEE, TED L. & SONDRA G.","point":[-86.83174357491059,36.108799407950684]}},{"type":"Feature","id":"87998","geometry":{"type":"Polygon","coordinates":[[[-86.8308584039307,36.1080890572117],[-86.8308711628685,36.1080142499668],[-86.8309741874236,36.1080245259413],[-86.8309767801588,36.108013522297],[-86.8310554081682,36.1080217689587],[-86.8310503826434,36.1080591646141],[-86.8310666539471,36.1080612498282],[-86.8310615145504,36.1080876577845],[-86.8310452421308,36.1080855725775],[-86.8310402165877,36.1081229673306],[-86.8309588807774,36.1081147375126],[-86.8309614516,36.1081015330785],[-86.8308584039307,36.1080890572117]]]},"properties":{"id":"87998","parcel":"117130A13600CO","address":"3913 VAILWOOD DR","owner":"CLAYTON, HANSEL C","point":[-86.83096270211331,36.10807327968609]}},{"type":"Feature","id":"87999","geometry":{"type":"Polygon","coordinates":[[[-86.830885517883,36.1086097255909],[-86.830900824708,36.1085195140401],[-86.8308954082029,36.1085195513567],[-86.8309082854715,36.1084557317836],[-86.8310275786677,36.1084680938687],[-86.8309993981458,36.1086221267988],[-86.8309207706395,36.1086138782917],[-86.830885517883,36.1086097255909]]]},"properties":{"id":"87999","parcel":"117130A13800CO","address":"2707 ABBOTT MARTIN RD","owner":"RED ACE TRUST","point":[-86.8309515261906,36.10856472464513]}},{"type":"Feature","id":"88000","geometry":{"type":"Polygon","coordinates":[[[-86.8305219825511,36.1085506942324],[-86.8305450232636,36.1084230684497],[-86.8306860075847,36.1084374815339],[-86.8306629670853,36.1085651064419],[-86.8305979055865,36.1085589616245],[-86.8305219825511,36.1085506942324]]]},"properties":{"id":"88000","parcel":"117130A13900CO","address":"2703 ABBOTT MARTIN RD","owner":"LUNA, CYNTHIA REVOCABLE TRUST","point":[-86.8306039950882,36.10849408791159]}},{"type":"Feature","id":"88035","geometry":{"type":"Polygon","coordinates":[[[-86.8313094997668,36.1074574059272],[-86.8313526621606,36.1071823962482],[-86.8314596848101,36.1071896573791],[-86.8315669326694,36.107194240041],[-86.8316743023755,36.107196138637],[-86.8317816939538,36.1071953529549],[-86.8318890041072,36.1071918837072],[-86.8319038490196,36.1071938515651],[-86.8319180740542,36.107197822751],[-86.8319312692634,36.1072036811231],[-86.8319430597197,36.1072112607273],[-86.831953106616,36.1072203448888],[-86.8319611239915,36.1072306724048],[-86.8319668821856,36.107241949238],[-86.831970215641,36.1072538511664],[-86.8319710297372,36.1072660399589],[-86.8319868034067,36.1074791079665],[-86.8312992879969,36.107516814319],[-86.8313094997668,36.1074574059272]]]},"properties":{"id":"88035","parcel":"11713002700","address":"3926 SKYLINE DR","owner":"VAUGHN COMMUNITY PROPERTY TRUST","point":[-86.83165136755794,36.10736173900156]}},{"type":"Feature","id":"88036","geometry":{"type":"Polygon","coordinates":[[[-86.8312992879969,36.107516814319],[-86.8319868034067,36.1074791079665],[-86.8320059755218,36.107758083431],[-86.831256102219,36.1077896249755],[-86.8312663140752,36.1077302183939],[-86.8312992879969,36.107516814319]]]},"properties":{"id":"88036","parcel":"11713002800","address":"3922 SKYLINE DR","owner":"QUINA, MARION A. III & MARJORIE H.","point":[-86.83163979880516,36.10762401853128]}},{"type":"Feature","id":"88037","geometry":{"type":"Polygon","coordinates":[[[-86.831256102219,36.1077896249755],[-86.8320059755218,36.107758083431],[-86.8320283630977,36.1080853871059],[-86.8315118579161,36.1080291417176],[-86.8312230820914,36.1079986364708],[-86.831256102219,36.1077896249755]]]},"properties":{"id":"88037","parcel":"11713002900","address":"3918 SKYLINE DR","owner":"CROUSE, JAMES R. ETUX","point":[-86.83162747393516,36.10789467643263]}},{"type":"Feature","id":"88391","geometry":{"type":"Polygon","coordinates":[[[-86.8305479533054,36.1079263682941],[-86.8305966039782,36.1076579131514],[-86.8312663140752,36.1077302183939],[-86.831256102219,36.1077896249755],[-86.8312230820914,36.1079986364708],[-86.8305479533054,36.1079263682941]]]},"properties":{"id":"88391","parcel":"11713003100","address":"3917 VAILWOOD DR","owner":"MEYER, EDGAR ALBERT, JR. & CONNIE HEARD","point":[-86.83090282775774,36.107857998287805]}},{"type":"Feature","id":"88392","geometry":{"type":"Polygon","coordinates":[[[-86.8305966039782,36.1076579131514],[-86.8306425225712,36.1073872794491],[-86.8313094997668,36.1074574059272],[-86.8312992879969,36.107516814319],[-86.8312663140752,36.1077302183939],[-86.8305966039782,36.1076579131514]]]},"properties":{"id":"88392","parcel":"11713003200","address":"3919 VAILWOOD DR","owner":"BEST, MARTHA JILL","point":[-86.83094848415966,36.10758736501046]}},{"type":"Feature","id":"88964","geometry":{"type":"Polygon","coordinates":[[[-86.8299143236207,36.1084559862981],[-86.8299448464132,36.1082667738269],[-86.8302782922961,36.1082974441916],[-86.8302423997528,36.1084910910922],[-86.8299143236207,36.1084559862981]]]},"properties":{"id":"88964","parcel":"117130B11000CO","address":"216 KENSINGTON PARK","owner":"BLANE, JAMES L. & JANET C.","point":[-86.83009535268023,36.10837671402916]}},{"type":"Feature","id":"88967","geometry":{"type":"Polygon","coordinates":[[[-86.8298838477245,36.1086495940017],[-86.8299143236207,36.1084559862981],[-86.8302423997528,36.1084910910922],[-86.8302065081074,36.1086847343602],[-86.8298838477245,36.1086495940017]]]},"properties":{"id":"88967","parcel":"117130B11100CO","address":"215 KENSINGTON PARK","owner":"MILES, NANCY B. & JOHN HENRY","point":[-86.83006201364883,36.10857034110734]}},{"type":"Feature","id":"89316","geometry":{"type":"Polygon","coordinates":[[[-86.8319478584751,36.1089320575018],[-86.8319601757374,36.1088154938996],[-86.8320224893573,36.1088172622687],[-86.8320299458876,36.1087534772669],[-86.8320434866337,36.1087533838514],[-86.8320433715116,36.1087423961626],[-86.8320840167658,36.1087443130843],[-86.8320840628188,36.10874870834],[-86.8321111673316,36.1087507186726],[-86.8320887979011,36.1089420736888],[-86.8319478584751,36.1089320575018]]]},"properties":{"id":"89316","parcel":"117130A12900CO","address":"2721 F ABBOTT MARTIN RD","owner":"BAINBRIDGE, REBECCA T.","point":[-86.83202529431793,36.10887471614557]}},{"type":"Feature","id":"89362","geometry":{"type":"Polygon","coordinates":[[[-86.8314307830658,36.1089532046178],[-86.8314616015427,36.1087925595981],[-86.8314968543916,36.1087967103279],[-86.8315124355849,36.1087328711485],[-86.8315314125503,36.1087349403502],[-86.8315339855002,36.1087217340882],[-86.8315800932847,36.1087280099915],[-86.8315775236459,36.1087412135279],[-86.8315883785832,36.1087433360182],[-86.8315447099295,36.1089700005654],[-86.8314307830658,36.1089532046178]]]},"properties":{"id":"89362","parcel":"117130A13100CO","address":"2713 ABBOTT MARTIN RD","owner":"NAIFEH, JANET R. LIVING TRUST","point":[-86.83150439645378,36.108875014549895]}},{"type":"Feature","id":"89365","geometry":{"type":"Polygon","coordinates":[[[-86.8311095649473,36.1087971842873],[-86.8311196839139,36.1087289854261],[-86.8311413959919,36.108733231374],[-86.8311439449191,36.108717829753],[-86.8311873186281,36.1087219264108],[-86.8311847719494,36.1087373298199],[-86.8312064598967,36.1087393758827],[-86.8311963179967,36.1088053766724],[-86.8312667984991,36.1088114847194],[-86.831246536652,36.1089456834896],[-86.831102842505,36.1089312897293],[-86.8311231286782,36.1087992863501],[-86.8311095649473,36.1087971842873]]]},"properties":{"id":"89365","parcel":"117130A13200CO","address":"2709 ABBOTT MARTIN RD","owner":"MAYES, PHILIP H & JEAN H","point":[-86.83118490135953,36.10887138736669]}},{"type":"Feature","id":"89367","geometry":{"type":"Polygon","coordinates":[[[-86.830847654669,36.1088737100007],[-86.8308706456435,36.1087416898341],[-86.8308977534646,36.1087437013176],[-86.8309719836746,36.1087522550301],[-86.8309479485536,36.1088818101827],[-86.830847654669,36.1088737100007]]]},"properties":{"id":"89367","parcel":"117130A13300CO","address":"2705 ABBOTT MARTIN RD","owner":"VARGAS, MATTHIAS JONATHAN & LESLIE K.","point":[-86.83090947353239,36.10881298204411]}},{"type":"Feature","id":"89370","geometry":{"type":"Polygon","coordinates":[[[-86.8318137385497,36.1082802647176],[-86.8318212642591,36.1082230730554],[-86.8317372194587,36.1082148615441],[-86.8317549337142,36.1080960633868],[-86.8318579585181,36.10810634131],[-86.8318454997655,36.1082097191762],[-86.8319241269771,36.1082179679825],[-86.831921465334,36.1082223819164],[-86.8319350290072,36.1082244856906],[-86.8319273652568,36.1082684924922],[-86.8319138015763,36.1082663887172],[-86.8319113460288,36.1082905826636],[-86.8318137385497,36.1082802647176]]]},"properties":{"id":"89370","parcel":"117130A14000CO","address":"3916 SKYLINE DR","owner":"CLAYTON, HANSEL CREASON, JR.","point":[-86.83179872252191,36.10815795584202]}},{"type":"Feature","id":"89373","geometry":{"type":"Polygon","coordinates":[[[-86.8309829578191,36.1083453297713],[-86.8309880775992,36.1083167246194],[-86.8310043500647,36.108318809834],[-86.8310095355169,36.1082967998419],[-86.8310854561202,36.1083050651404],[-86.8310879568257,36.1082852682776],[-86.8311476049899,36.1082914510372],[-86.8311501987921,36.1082804446786],[-86.8311881809917,36.1082867758267],[-86.8311855653273,36.1082955868033],[-86.8312452134785,36.108301766811],[-86.8312325238789,36.1083831692279],[-86.8309993474981,36.1083584035634],[-86.830999232521,36.1083474158725],[-86.8309829578191,36.1083453297713]]]},"properties":{"id":"89373","parcel":"117130A14300CO","address":"3911 VAILWOOD DR","owner":"ESKIND, ROSE","point":[-86.8311128843042,36.1083322379265]}},{"type":"Feature","id":"89376","geometry":{"type":"Polygon","coordinates":[[[-86.831075354149,36.1081161322953],[-86.8310777628667,36.1080875458193],[-86.8310615145504,36.1080876577845],[-86.8310666539471,36.1080612498282],[-86.8310829263624,36.1080633350324],[-86.8310855190555,36.1080523286822],[-86.8313213792461,36.1080748783402],[-86.8313061200954,36.1081694843022],[-86.8311841162687,36.1081571393732],[-86.8311865249485,36.1081285528953],[-86.831075354149,36.1081161322953]]]},"properties":{"id":"89376","parcel":"117130A14400CO","address":"3915 VAILWOOD DR","owner":"JENSEN, REGINA C & BOYD , SCOTT B","point":[-86.83119675901517,36.10810207590167]}},{"type":"Feature","id":"89473","geometry":{"type":"Polygon","coordinates":[[[-86.8328205674537,36.1077642742358],[-86.8328801220485,36.1077616647328],[-86.8328979617066,36.1079131830035],[-86.8329330869488,36.1081634791587],[-86.8328192300743,36.1081532760515],[-86.8327788852888,36.1081477864073],[-86.8321990910918,36.1080951976457],[-86.8321769100637,36.1077876722082],[-86.8328205674537,36.1077642742358]]]},"properties":{"id":"89473","parcel":"11713000100","address":"3917 SKYLINE DR","owner":"HARDISON, E. MARK & LACY H.","point":[-86.83255164763189,36.10800419519751]}},{"type":"Feature","id":"89476","geometry":{"type":"Polygon","coordinates":[[[-86.8328120629132,36.1074698411559],[-86.8328418516267,36.1074696354496],[-86.832845067389,36.1075179600627],[-86.8328652908513,36.1076386964653],[-86.8328801220485,36.1077616647328],[-86.8328205674537,36.1077642742358],[-86.8321769100637,36.1077876722082],[-86.832157552005,36.1074911157523],[-86.8328120629132,36.1074698411559]]]},"properties":{"id":"89476","parcel":"11713000200","address":"3923 SKYLINE DR","owner":"HARRIS, ALVIN L. & KATHY L.","point":[-86.83250918042268,36.107577845089786]}},{"type":"Feature","id":"89533","geometry":{"type":"Polygon","coordinates":[[[-86.8306425225712,36.1073872794491],[-86.8306553735457,36.1073212627296],[-86.8306618389041,36.1072596801558],[-86.8306700126572,36.1071673203965],[-86.8306711567809,36.1071572442438],[-86.830674296437,36.1071474517709],[-86.8306793488047,36.1071382013163],[-86.8306861820456,36.1071297371351],[-86.8306946141184,36.1071222821974],[-86.8307044216256,36.1071160345221],[-86.8307153463738,36.1071111572176],[-86.8307271020654,36.1071077811396],[-86.830739375296,36.1071059940689],[-86.8307518433524,36.1071058432928],[-86.8307641764147,36.1071073337869],[-86.8311547172575,36.1071595835681],[-86.8313526621606,36.1071823962482],[-86.8313094997668,36.1074574059272],[-86.8306425225712,36.1073872794491]]]},"properties":{"id":"89533","parcel":"11713003300","address":"3921 VAILWOOD DR","owner":"RABY, ALFRED N.","point":[-86.83099707814989,36.1072909493438]}},{"type":"Feature","id":"89593","geometry":{"type":"Polygon","coordinates":[[[-86.8297452438206,36.1075670807541],[-86.8297911652716,36.1072964482711],[-86.830479806584,36.1073664230598],[-86.8304311994346,36.1076392734479],[-86.8297452438206,36.1075670807541]]]},"properties":{"id":"89593","parcel":"11713005900","address":"3918 VAILWOOD DR","owner":"CLARK, DAVID GRANT JR. & CAROLINE W.","point":[-86.830112098651,36.1074667518665]}},{"type":"Feature","id":"89755","geometry":{"type":"Polygon","coordinates":[[[-86.8299448464132,36.1082667738269],[-86.829975346097,36.1080753641609],[-86.8303142065546,36.1081059971602],[-86.8302782922961,36.1082974441916],[-86.8299448464132,36.1082667738269]]]},"properties":{"id":"89755","parcel":"117130B10900CO","address":"217 KENSINGTON PARK","owner":"SAAL, MARY ROBINSON & BRIAN JOSEPH","point":[-86.83012838782484,36.10818638402229]}},{"type":"Feature","id":"91097","geometry":{"type":"Polygon","coordinates":[[[-86.8297020538158,36.1078398935468],[-86.8297452438206,36.1075670807541],[-86.8304311994346,36.1076392734479],[-86.8303825504636,36.1079077312135],[-86.8297020538158,36.1078398935468]]]},"properties":{"id":"91097","parcel":"11713006000","address":"3916 VAILWOOD DR","owner":"PARRISH, CRAIG, JR. & SHERRI W.","point":[-86.83006547259549,36.107739582416684]}},{"type":"Feature","id":"105156","geometry":{"type":"Polygon","coordinates":[[[-86.8392285372077,36.1097096433046],[-86.8393379949591,36.1091214283054],[-86.8392372614089,36.1091109389266],[-86.8393855034336,36.1087868455203],[-86.8397704568996,36.1088215258611],[-86.8397182557041,36.1092636280455],[-86.8396637876617,36.1097475016481],[-86.8392285372077,36.1097096433046]],[[-86.8395408879628,36.1093945273623],[-86.8394379301796,36.1093908484332],[-86.8394383947643,36.1094347991525],[-86.8393949947664,36.1094285055991],[-86.8393953432349,36.1094614731445],[-86.8393520118224,36.1094617747146],[-86.8393552780921,36.1095144952832],[-86.8393530570137,36.1095606620289],[-86.8393937260967,36.1095647745634],[-86.8393940512933,36.1095955404263],[-86.8394346971615,36.1095974548703],[-86.8394297230534,36.1096392461041],[-86.8395273331825,36.1096495569817],[-86.8395341564797,36.1095264360784],[-86.8395408879628,36.1093945273623]],[[-86.8396629906177,36.1089035891033],[-86.8395600080153,36.1088977131176],[-86.8395549654325,36.1089329119278],[-86.8395413781989,36.108928610934],[-86.8395196899662,36.1089265645676],[-86.8395274424647,36.1088913441915],[-86.8394217323066,36.1088832915394],[-86.8393906744138,36.1090197678538],[-86.8394313664278,36.1090260757494],[-86.8394339812205,36.1090172663981],[-86.8394583783273,36.1090192966291],[-86.8394609234104,36.1090038930465],[-86.8395205262918,36.1090056755102],[-86.8395747126416,36.1090074956509],[-86.8395749217415,36.1090272738367],[-86.839602006641,36.1090270852869],[-86.8396048050711,36.1090358569575],[-86.8396427650748,36.1090399882663],[-86.8396629906177,36.1089035891033]]]},"properties":{"id":"105156","parcel":"116120G90000CO","address":"201 B ABBOTT GLENN CT","owner":"O.I.C. ABBOTT GLENN CONDOMINIUM","point":[-86.83950542089555,36.109327140996555]}},{"type":"Feature","id":"105160","geometry":{"type":"Polygon","coordinates":[[[-86.8394535131731,36.1083028776793],[-86.8377186359686,36.1081567052775],[-86.837769228381,36.1078179079821],[-86.8377706376254,36.1078041995318],[-86.8386117091364,36.1078698577252],[-86.8390712211753,36.1079078189334],[-86.8395059630254,36.1079432658834],[-86.8394663337074,36.1082346592553],[-86.8394535131731,36.1083028776793]],[[-86.8391831307849,36.1080893841906],[-86.8390773984951,36.1080791322563],[-86.8390722838653,36.1081077377378],[-86.8390288846407,36.108101445853],[-86.8390210611994,36.1081300701768],[-86.8390020819907,36.1081280048724],[-86.8389803707685,36.1081237603312],[-86.8389855318575,36.1080995492063],[-86.8389340306106,36.1080955127894],[-86.8389364829211,36.1080713205089],[-86.8388388980455,36.1080632090291],[-86.838836421377,36.1080852032377],[-86.8387551079943,36.1080791749524],[-86.8387476801443,36.1081451584582],[-86.8389753942924,36.1081655515772],[-86.8389779173496,36.1081479517187],[-86.8389996296984,36.1081521971538],[-86.8390186089128,36.1081542624586],[-86.8390160405292,36.1081674661553],[-86.8391705433465,36.108179577045],[-86.8391831307849,36.1080893841906]],[[-86.8384820507907,36.1081250285156],[-86.8384946401129,36.108034835724],[-86.8383970553083,36.1080267220841],[-86.8383892095707,36.1080531500846],[-86.8383403928595,36.1080468965137],[-86.8383352315679,36.1080711067102],[-86.8383162523816,36.1080690403966],[-86.838297294178,36.1080691721731],[-86.8382997478019,36.108044980799],[-86.8382455146244,36.1080387639374],[-86.838247946172,36.1080123744788],[-86.8381476504294,36.1080042812821],[-86.8381451757925,36.1080262754614],[-86.8380638393166,36.1080180477311],[-86.8380537716953,36.1080906442512],[-86.8382895632683,36.1081065869579],[-86.8382921560746,36.1080955804452],[-86.8383138683629,36.1080998251026],[-86.8383328486671,36.1081018914088],[-86.8383302569768,36.1081128979146],[-86.8384820507907,36.1081250285156]]]},"properties":{"id":"105160","parcel":"116160C90000CO","address":"3921 N ESTES RD","owner":"O.I.C. ESTES CHASE","point":[-86.83899078976884,36.108058686624915]}},{"type":"Feature","id":"105488","geometry":{"type":"Polygon","coordinates":[[[-86.8386282630786,36.1096602057184],[-86.8387021066533,36.1090635514531],[-86.8387031259783,36.1090553192215],[-86.8392372614089,36.1091109389266],[-86.8393379949591,36.1091214283054],[-86.8392285372077,36.1097096433046],[-86.8386282630786,36.1096602057184]],[[-86.8391496187821,36.1095313095476],[-86.8391570232388,36.1094631315682],[-86.8391760038621,36.1094651950374],[-86.8391836404928,36.1094189906129],[-86.8391831528212,36.1093728418157],[-86.8391614412777,36.109368600012],[-86.8391688921259,36.1093048145778],[-86.8390685736346,36.1092945222549],[-86.8390612410412,36.1093692971504],[-86.8390449437951,36.1093650131518],[-86.8390426761019,36.1094067846412],[-86.8390376542506,36.1094441806163],[-86.8390512415451,36.1094484816664],[-86.8390465922968,36.1095210378491],[-86.8391496187821,36.1095313095476]],[[-86.8389714283462,36.1093281635299],[-86.8389865857174,36.1092247661208],[-86.838869902767,36.1092036007847],[-86.8387451177097,36.109184689019],[-86.8387218810664,36.1092925381575],[-86.8387273208263,36.1092946976651],[-86.8387246595252,36.1092991117479],[-86.8387328766634,36.1093078475569],[-86.8387491981598,36.1093143251608],[-86.8387599583287,36.1093076592193],[-86.8387598422575,36.1092966697361],[-86.8387924101055,36.1093030361496],[-86.8387898637535,36.1093184379223],[-86.8388006968652,36.1093183625798],[-86.8388007664981,36.109324955008],[-86.8388468519884,36.1093290300555],[-86.8388875673279,36.1093375353097],[-86.8388874977069,36.1093309446841],[-86.838901084974,36.1093352457511],[-86.8389008992611,36.1093176656425],[-86.8389307594062,36.1093240508527],[-86.8389308290498,36.1093306432808],[-86.8389336296377,36.1093394149509],[-86.8389553179681,36.1093414614224],[-86.8389634190365,36.1093392077327],[-86.8389633029562,36.1093282200522],[-86.8389714283462,36.1093281635299]]]},"properties":{"id":"105488","parcel":"116120H90000CO","address":"3805 E ABBOTT MARTIN RD","owner":"O.I.C. ABBOTT GLENN PLACE CONDOMINIUMS","point":[-86.83885270265539,36.1093894635491]}},{"type":"Feature","id":"129338","geometry":{"type":"Polygon","coordinates":[[[-86.8307525780407,36.1000439946147],[-86.8308150353996,36.1000139822506],[-86.8308791345317,36.0999863415479],[-86.8309447383611,36.0999611329334],[-86.8310117064148,36.0999384105488],[-86.8310798959148,36.0999182204405],[-86.831149160752,36.0999006086777],[-86.8314188568683,36.1004737236666],[-86.8306810140924,36.1007103916956],[-86.8307525780407,36.1000439946147]]]},"properties":{"id":"129338","parcel":"13101003900","address":"2324 CASTLEMAN DR","owner":"SARTORIS, ANDREW & STACY","point":[-86.83102372880987,36.10025877220662]}},{"type":"Feature","id":"130172","geometry":{"type":"Polygon","coordinates":[[[-86.8300028473953,36.1003414520934],[-86.8300963498329,36.100312319691],[-86.8301884173311,36.1002803192811],[-86.8302789181928,36.1002454959366],[-86.8303677174659,36.1002079019637],[-86.8305591150735,36.1001243521657],[-86.8307525780407,36.1000439946147],[-86.8306810140924,36.1007103916956],[-86.8306712831715,36.10081594908],[-86.8306441882292,36.1010732668642],[-86.8306191290008,36.1010723407989],[-86.8303058171317,36.1010865855842],[-86.8300028473953,36.1003414520934]]]},"properties":{"id":"130172","parcel":"13101003800","address":"2318 CASTLEMAN DR","owner":"JOHNSON, SEAN M. & ELIZABETH","point":[-86.83038923478983,36.10052598934393]}}]}