{"type":"FeatureCollection","features":[{"type":"Feature","id":"248324","geometry":{"type":"Polygon","coordinates":[[[-86.7994268861796,36.0466458509218],[-86.7985836493945,36.04580751921],[-86.7986627602852,36.0454349357237],[-86.7987208750425,36.0451359056075],[-86.7988801439461,36.0443163814355],[-86.7988801566196,36.0443163173593],[-86.7993264249683,36.0419852943622],[-86.7993317104624,36.0419861434755],[-86.7994080878328,36.0415757605778],[-86.7994754723467,36.0412129600165],[-86.7994790024703,36.0411939813874],[-86.8005443650951,36.041347892029],[-86.8003555121283,36.0420763203976],[-86.8011363506582,36.0421906339274],[-86.8012729487284,36.0416479849478],[-86.8009158189937,36.0413863561924],[-86.8011527893465,36.0412710487653],[-86.8010731419609,36.0409869725119],[-86.8008104533379,36.0406310372764],[-86.8011730176091,36.0403583061047],[-86.8010616911832,36.0402870712198],[-86.7996615875609,36.0402114828335],[-86.7997382784004,36.0397991740845],[-86.7998316349439,36.0392952736866],[-86.8000068391172,36.0383532049211],[-86.8016072628252,36.0384732714858],[-86.8046656393417,36.038702368231],[-86.8043103604282,36.0407426550818],[-86.8056631041325,36.0439379595457],[-86.8039019267316,36.0461206788071],[-86.8030707916408,36.0461218274445],[-86.7994268861796,36.0466458509218]]]},"properties":{"id":"248324","parcel":"15900024400","address":"1060 OLD HICKORY BLVD","owner":"KEY INVESTMENTS II, INC.","point":[-86.80220787566016,36.04306235794112]}}]}