{"type":"FeatureCollection","features":[{"type":"Feature","id":"50757","geometry":{"type":"Polygon","coordinates":[[[-86.8401027558888,36.3332625429124],[-86.8405234823181,36.3321993343461],[-86.8407533246094,36.3328428370168],[-86.8410043074667,36.3335455110659],[-86.8402469918845,36.3339927596229],[-86.840050629041,36.3341087247265],[-86.8399835187985,36.3341536907789],[-86.8399652666872,36.3341655308031],[-86.8396067256529,36.3336149520687],[-86.8401754613025,36.3333756712021],[-86.8401027558888,36.3332625429124]]]},"properties":{"id":"50757","parcel":"01500029600","address":"2725 UNION HILL RD","owner":"BELEW, VALERIE","point":[-86.84050719859985,36.33305279607032]}},{"type":"Feature","id":"52373","geometry":{"type":"Polygon","coordinates":[[[-86.8445056724548,36.3343542000873],[-86.844727055826,36.3333156491102],[-86.8447725557553,36.3333280729228],[-86.8448185826865,36.3333391520077],[-86.8449089302882,36.3333510921865],[-86.8449996903693,36.3333607664288],[-86.8450661911844,36.3333655848393],[-86.8451328933351,36.3333679765976],[-86.8451996608675,36.3333679363447],[-86.8452663578852,36.3333654641289],[-86.8453328496636,36.3333605653979],[-86.8454034865428,36.3333515352612],[-86.8454735328536,36.3333398776205],[-86.8455428384705,36.333325616057],[-86.8454837291145,36.3335975445061],[-86.8454835192764,36.333602719932],[-86.8453203747401,36.3343638039409],[-86.8445056724548,36.3343542000873]]]},"properties":{"id":"52373","parcel":"01500029700","address":"2796 UNION HILL RD","owner":"SANTOS, ELIENE DIAS DOS","point":[-86.84499437205965,36.33397846073387]}},{"type":"Feature","id":"74009","geometry":{"type":"Polygon","coordinates":[[[-86.8446863305168,36.3385123092256],[-86.8443487961534,36.3365295642621],[-86.8439922897899,36.3361333072642],[-86.8440454100864,36.3360960781523],[-86.844351646004,36.3358857317793],[-86.8444680870509,36.3361789285879],[-86.8444459392951,36.3362577721955],[-86.8446464818572,36.3367122891757],[-86.8449945253108,36.3375110523221],[-86.8452882144089,36.3381871539665],[-86.8456837828764,36.338057953958],[-86.8460271223716,36.3386537857028],[-86.8458429359842,36.3386179188439],[-86.8446863305168,36.3385123092256]]]},"properties":{"id":"74009","parcel":"01500021300","address":"2736 MORGAN RD","owner":"PERRY, KERRICA A. YEARGIN","point":[-86.8446341550161,36.337111428785974]}},{"type":"Feature","id":"74369","geometry":{"type":"Polygon","coordinates":[[[-86.8476248173496,36.3388778204158],[-86.8476345986083,36.3387918531064],[-86.8476418996377,36.3387276813555],[-86.8476651690567,36.3385231638713],[-86.8476715105973,36.3384484508596],[-86.8476736509539,36.3383735825346],[-86.8476715839815,36.3382987121487],[-86.8476653169304,36.3382239955633],[-86.8476548603633,36.3381495859127],[-86.8476453934974,36.3380993646051],[-86.8476340179468,36.3380494045088],[-86.847542661188,36.3376811736142],[-86.8475338381879,36.3376382270033],[-86.8475283953683,36.3375949151419],[-86.8475263568428,36.3375514099964],[-86.8475277289517,36.3375078881633],[-86.8475325079916,36.3374645245066],[-86.8475341943825,36.3374578571171],[-86.8475358807732,36.3374511897275],[-86.8475491026002,36.3374241007814],[-86.8475509240019,36.3374201604648],[-86.8475509697024,36.3374200592069],[-86.847551496411,36.3374188983388],[-86.8475533420222,36.3374148262731],[-86.8475538499885,36.3374136835608],[-86.8475556730045,36.3374095819128],[-86.8475561633424,36.3374084573486],[-86.8475579626397,36.337404325225],[-86.8475584353491,36.3374032188089],[-86.8475602109375,36.3373990571108],[-86.8475606660185,36.3373979688427],[-86.8475624178978,36.3373937775702],[-86.84756285536,36.3373927083515],[-86.8475645835207,36.3373884866033],[-86.8475650044683,36.3373874355248],[-86.8475667066923,36.3373831842178],[-86.8475671122585,36.3373821530741],[-86.8475687885362,36.337377871307],[-86.8475691775974,36.3373768592048],[-86.8475708290619,36.3373725487723],[-86.8475712027223,36.3373715548025],[-86.8475728271363,36.3373672148189],[-86.8475731843015,36.3373662407918],[-86.8475747838831,36.3373618703404],[-86.8475751256668,36.337360916248],[-86.8475766993214,36.337356517139],[-86.8475770257044,36.3373555811791],[-86.8475785723181,36.3373511534202],[-86.8475788844335,36.3373502373873],[-86.8475804017691,36.3373457800929],[-86.8475807007307,36.3373448839792],[-86.8475821910255,36.337340398035],[-86.8475824746056,36.3373395218561],[-86.8475838127262,36.3373353884573],[-86.8475842071625,36.337334150109],[-86.8475856400245,36.3373296059872],[-86.8475858972972,36.3373287696467],[-86.8475873020045,36.3373241968829],[-86.847587546133,36.3373233813628],[-86.8475889193443,36.3373187799804],[-86.8475889719829,36.3373185984646],[-86.8475903643503,36.3373138094923],[-86.8475904953757,36.3373133543549],[-86.847590715434,36.3373125795587],[-86.8475921255156,36.337307572365],[-86.8475922370128,36.3373071660307],[-86.8475948340831,36.3372975389323],[-86.8475949678806,36.337297030603],[-86.8475951529523,36.3372963173355],[-86.8475962384392,36.3372921009913],[-86.847596373148,36.3372915737298],[-86.8475965473032,36.337290881267],[-86.8475976003924,36.3372866561375],[-86.8475977349083,36.3372861108528],[-86.847597898147,36.3372854391948],[-86.8475989199428,36.337281204371],[-86.847599054256,36.3372806401619],[-86.8475992076922,36.3372799893008],[-86.8476001970903,36.3372757456918],[-86.8476003323244,36.3372751634516],[-86.8476014307307,36.3372702810088],[-86.8476015657623,36.3372696798443],[-86.8476016973752,36.3372690714939],[-86.847602621978,36.3372648103143],[-86.8476027556931,36.3372641902331],[-86.8476037708224,36.3372593327069],[-86.8476039032308,36.3372586946104],[-86.8476040174758,36.3372581287395],[-86.8476048761598,36.3372538490959],[-86.8476051128177,36.3372526479021],[-86.8476059391233,36.3372483612756],[-86.8476060677947,36.3372476862549],[-86.8476069585703,36.3372428665505],[-86.8476071752466,36.3372416718053],[-86.8476079356433,36.337237367616],[-86.8476080594734,36.3372366565801],[-86.8476081412102,36.3372361756524],[-86.8476088681148,36.337231864488],[-86.8476089906284,36.3372311345354],[-86.8476090659043,36.3372306743813],[-86.847609759307,36.3372263553405],[-86.8476098782862,36.3372256073882],[-86.8476106070212,36.3372208428928],[-86.8476107837153,36.3372196592426],[-86.8476114123519,36.3372153253348],[-86.8476115242526,36.3372145404817],[-86.8476121730907,36.3372098044842],[-86.8476123309173,36.3372086272748],[-86.8476128903516,36.3372042803334],[-86.8476129951642,36.3372034576784],[-86.8476135652291,36.3371987510722],[-86.8476136665071,36.3371979104173],[-86.847613704188,36.3371975803036],[-86.8476143256113,36.3371920523182],[-86.8476147845693,36.3371876844513],[-86.8476148754274,36.3371868069191],[-86.8476149046607,36.3371865201235],[-86.8476153290225,36.3371821461905],[-86.8476154152323,36.3371812506663],[-86.8476154402418,36.3371809855298],[-86.8476159312408,36.3371754485447],[-86.8476162886378,36.3371710624638],[-86.8476163633137,36.33717013007],[-86.8476167026861,36.3371655170056],[-86.8476167716,36.3371645666276],[-86.8476171375318,36.3371590007783],[-86.8476171478931,36.337158824065],[-86.8476174026248,36.3371544206788],[-86.8476176862876,36.3371488698257],[-86.8476177367918,36.3371478646017],[-86.8476177420567,36.3371477320842],[-86.8476179287291,36.3371433183601],[-86.8476179701201,36.3371422942743],[-86.8476179745027,36.3371421833924],[-86.8476181599898,36.3371367224489],[-86.8476184093921,36.337125577909],[-86.8476184100332,36.3371255337442],[-86.8476184838848,36.3371144309897],[-86.847618467532,36.337109989849],[-86.8491978096779,36.3381818199135],[-86.8493107104721,36.3379291554894],[-86.8495844004449,36.3379441441759],[-86.8495822339923,36.3379602472251],[-86.8494796979065,36.3387224883482],[-86.8494669982126,36.3388168928897],[-86.8497278872856,36.3387659300442],[-86.8501539233467,36.3386827055657],[-86.8501916464858,36.3388167198738],[-86.8497282766742,36.338927288653],[-86.84935998875,36.3391388646337],[-86.8485653901976,36.3390890608965],[-86.847693890355,36.338893333184],[-86.8476726176174,36.3388885552433],[-86.8476248173496,36.3388778204158]]]},"properties":{"id":"74369","parcel":"01500002900","address":"0 WILKINSON RD","owner":"GRZYMKOWSKI, AARON & AMY","point":[-86.84838308881592,36.338125407352564]}},{"type":"Feature","id":"74371","geometry":{"type":"Polygon","coordinates":[[[-86.8472856298474,36.3355651891782],[-86.8472980754135,36.3355343854051],[-86.8473110375765,36.3355115746181],[-86.8473199821444,36.3354875338572],[-86.8474107146048,36.335495513988],[-86.8475009383522,36.3355066456088],[-86.847590487199,36.3355209073546],[-86.847679194919,36.3355382742562],[-86.8477668963216,36.3355587141277],[-86.8478534294902,36.3355821884523],[-86.847938633563,36.3356086532985],[-86.848022352075,36.3356380592974],[-86.8481044274081,36.3356703534833],[-86.8481847107764,36.3357054756194],[-86.8482630511077,36.3357433600775],[-86.8483393050774,36.3357839366696],[-86.8483152801518,36.3358710161025],[-86.8482389978345,36.335828631829],[-86.8481604147182,36.3357890944015],[-86.8480796920839,36.3357524864989],[-86.8479969989306,36.3357188835369],[-86.8479125030657,36.3356883537298],[-86.8478263811768,36.3356609625262],[-86.8477388098253,36.3356367636604],[-86.8476499700075,36.3356158090333],[-86.8475600459546,36.3355981406102],[-86.8474692229722,36.3355837967444],[-86.8473776884771,36.3355728049604],[-86.8472856298474,36.3355651891782]]]},"properties":{"id":"74371","parcel":"01500002902","address":"0 WILKINSON RD","owner":"WINTERS, E. G. ET UX","point":[-86.8480045231531,36.33567934863182]}},{"type":"Feature","id":"74372","geometry":{"type":"Polygon","coordinates":[[[-86.8473737920392,36.3387468814103],[-86.8474062983781,36.3383295760375],[-86.847425046597,36.3382283836457],[-86.8474293495367,36.3382051594859],[-86.847194648344,36.337761523645],[-86.8473644183798,36.3371473935707],[-86.8472201447781,36.3365889916215],[-86.8472164994965,36.3365748822798],[-86.8471714788285,36.3364811777983],[-86.8472572080401,36.3364856548663],[-86.8472670442799,36.3365053751528],[-86.8474011573083,36.3367912175216],[-86.8474184788202,36.3368196570154],[-86.8474342759891,36.3368486713551],[-86.8474553165727,36.3368939440751],[-86.8474725443008,36.3369402600907],[-86.8474858811606,36.3369874081613],[-86.8474952669502,36.3370351760197],[-86.8475006603446,36.3370833458592],[-86.8475020345078,36.337131700672],[-86.8474993859651,36.3371800205827],[-86.8474927246174,36.3372280865231],[-86.8474820815575,36.3372756819799],[-86.8474675045761,36.3373225894208],[-86.8474490593534,36.3373685974969],[-86.8474268305247,36.3374134965283],[-86.8474086794979,36.337456189619],[-86.8473937864988,36.3374997007286],[-86.8473822088102,36.3375438654332],[-86.8473739881407,36.3375885212207],[-86.8473691561077,36.3376334993404],[-86.8473677298677,36.3376786329453],[-86.8473697165242,36.3377237525548],[-86.8474859044003,36.3381745378661],[-86.8475034472881,36.3382406958009],[-86.8475166862857,36.3383075057345],[-86.8475255860091,36.3383747849669],[-86.8475301210792,36.3384423489248],[-86.8475302805871,36.338510012032],[-86.8475260625343,36.3385775886495],[-86.8475174783081,36.3386448948463],[-86.847504551529,36.338711744803],[-86.8474985795065,36.3387541840276],[-86.8473737920392,36.3387468814103]]]},"properties":{"id":"74372","parcel":"01500003600","address":"0 WILKINSON RD","owner":"HAMBRICK, PATRICIA IRIS","point":[-86.84730393819724,36.33761092388816]}},{"type":"Feature","id":"74388","geometry":{"type":"Polygon","coordinates":[[[-86.8404711214048,36.3378361615116],[-86.841425009719,36.3375563613752],[-86.8417827993884,36.3389880113808],[-86.8414842778033,36.339153298948],[-86.841383185115,36.3392046132983],[-86.8411047901137,36.3388002299881],[-86.8406357616807,36.338099573809],[-86.8404711214048,36.3378361615116]]]},"properties":{"id":"74388","parcel":"01500004000","address":"2672 MORGAN RD","owner":"SINGER, CHARLES A. & VIRGINIA","point":[-86.84125942493564,36.338450419648616]}},{"type":"Feature","id":"74389","geometry":{"type":"Polygon","coordinates":[[[-86.842936789939,36.3369152688324],[-86.8429725312751,36.3368798475141],[-86.8430264691886,36.3368245327219],[-86.8430921847246,36.3367698811308],[-86.8431599372912,36.3367168834772],[-86.8432296639189,36.336665588863],[-86.8433012994112,36.3366160464059],[-86.843560082188,36.3364357644544],[-86.8435489308702,36.3365666645668],[-86.8434108450529,36.3374044289064],[-86.8433783776898,36.3375525017875],[-86.842936789939,36.3369152688324]]]},"properties":{"id":"74389","parcel":"01500004200","address":"2720 MORGAN RD","owner":"REEVES, DONALD RAY & PATSY JEAN","point":[-86.84327865732799,36.33715998663221]}},{"type":"Feature","id":"74863","geometry":{"type":"Polygon","coordinates":[[[-86.840288369543,36.3378919031947],[-86.8403211430428,36.3378819062113],[-86.8403211735755,36.3378819492581],[-86.8411717787127,36.3390937104059],[-86.8410768118455,36.3391098277147],[-86.8409113538926,36.3391379085345],[-86.840249818905,36.3392501788118],[-86.8401761562633,36.3392649776301],[-86.8401088728976,36.3392784947133],[-86.8401063388251,36.339269059337],[-86.8399345861803,36.3387851005102],[-86.8396824025413,36.3380744857787],[-86.8398186305449,36.3380351747803],[-86.8400118590295,36.337976239207],[-86.8401553401207,36.3379324776623],[-86.840288369543,36.3378919031947]]]},"properties":{"id":"74863","parcel":"01500025300","address":"2660 MORGAN RD","owner":"CLARK, ANGELA D. & GARY","point":[-86.84025753474437,36.33843039425519]}},{"type":"Feature","id":"75771","geometry":{"type":"Polygon","coordinates":[[[-86.8460271223716,36.3386537857028],[-86.8456837828764,36.338057953958],[-86.8453829045403,36.337535799949],[-86.8464567299655,36.3369824179926],[-86.8467579111426,36.3382705069893],[-86.847425046597,36.3382283836457],[-86.8474062983781,36.3383295760375],[-86.8473737920392,36.3387468814103],[-86.8474985795065,36.3387541840276],[-86.8474887550752,36.3388223938272],[-86.847319439056,36.338812485843],[-86.8473292647458,36.3387442760493],[-86.8460356369789,36.3386685621689],[-86.8460271223716,36.3386537857028]]]},"properties":{"id":"75771","parcel":"01500019500","address":"7536 WILKINSON RD","owner":"HAMBRICK, PATRICIA","point":[-86.84609042220912,36.337797595753536]}},{"type":"Feature","id":"75810","geometry":{"type":"Polygon","coordinates":[[[-86.8427730195947,36.338628202791],[-86.8428693962709,36.3375462522283],[-86.842600286744,36.3371942625241],[-86.8426515636756,36.3371653985703],[-86.8427004277918,36.3371339135083],[-86.8427812435428,36.3370624778613],[-86.842860044166,36.3369895844931],[-86.842936789939,36.3369152688324],[-86.8433783776898,36.3375525017875],[-86.84324128081,36.3384675570767],[-86.8432061941007,36.3387017397186],[-86.8429182996198,36.3386553025141],[-86.8427730195947,36.338628202791]]]},"properties":{"id":"75810","parcel":"01500023800","address":"2714 MORGAN RD","owner":"MARTINEZ, LUIS VALENCIA & ESPINOZA, JOSEFINA VALENCIA","point":[-86.84306898540727,36.338009713465844]}},{"type":"Feature","id":"75866","geometry":{"type":"Polygon","coordinates":[[[-86.847618467532,36.337109989849],[-86.8476159884068,36.3370565463309],[-86.8476090475136,36.3370033620878],[-86.8475976752922,36.336950678435],[-86.8475819244682,36.3368987374326],[-86.8475618688907,36.336847777387],[-86.8475389111564,36.3368003128105],[-86.8475121236175,36.3367541800423],[-86.8474358846431,36.3365943215864],[-86.8483387871402,36.3366753513809],[-86.8484259958665,36.336692091984],[-86.8490404102303,36.3372608552023],[-86.8492909155666,36.3370345410201],[-86.8493748722373,36.3367617713555],[-86.8494235833144,36.3367988384141],[-86.8494740178219,36.3368343639642],[-86.8495430875454,36.3368804327696],[-86.8496141561663,36.3369244687426],[-86.8496871283787,36.3369664139692],[-86.8497619145032,36.3370062159036],[-86.8493107104721,36.3379291554894],[-86.8491978096779,36.3381818199135],[-86.847618467532,36.337109989849]]]},"properties":{"id":"75866","parcel":"01500024800","address":"2828 MORGAN RD","owner":"AUGHENBAUGH, DAVID L. & JANICE D.","point":[-86.84890272072364,36.337594660802424]}},{"type":"Feature","id":"75869","geometry":{"type":"Polygon","coordinates":[[[-86.8425209198039,36.3385789602684],[-86.8423497283583,36.3385341114829],[-86.8420514604026,36.3373724188368],[-86.8422006873968,36.3373285814974],[-86.8423022321731,36.3372993064071],[-86.8423650454472,36.3372848332668],[-86.8424265275326,36.3372670059806],[-86.8424864041216,36.3372459030654],[-86.8425444100002,36.3372216200986],[-86.842600286744,36.3371942625241],[-86.8428693962709,36.3375462522283],[-86.8427730195947,36.338628202791],[-86.8426713117729,36.3386092276462],[-86.8425209198039,36.3385789602684]]]},"properties":{"id":"75869","parcel":"01500025000","address":"2708 MORGAN RD","owner":"OWENS, TIMOTHY H & LISA C","point":[-86.84252407607158,36.33804006955107]}},{"type":"Feature","id":"75923","geometry":{"type":"Polygon","coordinates":[[[-86.8453203747401,36.3343638039409],[-86.8454835192764,36.333602719932],[-86.8454837291145,36.3335975445061],[-86.8455428384705,36.333325616057],[-86.845614595943,36.3333072087791],[-86.8456850066446,36.3332856646816],[-86.8457538618523,36.3332610483123],[-86.8458209573955,36.3332334332],[-86.8458860925325,36.3332029009607],[-86.845949075529,36.3331695421601],[-86.8460097180798,36.3331334554516],[-86.8460678397925,36.3330947502477],[-86.8461232681014,36.3330535386106],[-86.8461758394773,36.333009944255],[-86.8462253960284,36.3329640971652],[-86.8462717910694,36.3329161335555],[-86.846314888007,36.3328661958783],[-86.8463545569901,36.3328144319461],[-86.8463906816008,36.3327609957861],[-86.8464226273207,36.3327110279509],[-86.8472496114714,36.333786764256],[-86.8466681914139,36.3342512709773],[-86.8457601810347,36.3343689874628],[-86.8453203747401,36.3343638039409]]]},"properties":{"id":"75923","parcel":"01500027800","address":"2800 UNION HILL RD","owner":"CAPISTRANT, MARK & SHELLY LARAE","point":[-86.84625718746467,36.33346253951319]}},{"type":"Feature","id":"76058","geometry":{"type":"Polygon","coordinates":[[[-86.844351646004,36.3358857317793],[-86.8444195350766,36.335839103228],[-86.8444791719586,36.3358001656593],[-86.8445411103686,36.3357636570249],[-86.8446051986308,36.3357296639973],[-86.8451124677968,36.3369377788158],[-86.8453731136227,36.3375408458607],[-86.8453829045403,36.337535799949],[-86.8456837828764,36.338057953958],[-86.8452882144089,36.3381871539665],[-86.8449945253108,36.3375110523221],[-86.8446464818572,36.3367122891757],[-86.8444459392951,36.3362577721955],[-86.8444680870509,36.3361789285879],[-86.844351646004,36.3358857317793]]]},"properties":{"id":"76058","parcel":"01500021400","address":"2738 MORGAN RD","owner":"PERRY, KERRICA A YEARGIN","point":[-86.8450529895294,36.337224414933274]}},{"type":"Feature","id":"76059","geometry":{"type":"Polygon","coordinates":[[[-86.8407533246094,36.3328428370168],[-86.8413699050254,36.3327153641332],[-86.8415766728094,36.3332135690777],[-86.8414992120952,36.3332539315318],[-86.8414230389333,36.3332958675372],[-86.8413482009167,36.333339348827],[-86.8411134105999,36.3334810769671],[-86.8410043074667,36.3335455110659],[-86.8407533246094,36.3328428370168]]]},"properties":{"id":"76059","parcel":"01500023700","address":"2737 UNION HILL RD","owner":"NICHOLS, DAVID E. & REED, MISTY N.","point":[-86.84115964766497,36.33302819664669]}},{"type":"Feature","id":"76099","geometry":{"type":"Polygon","coordinates":[[[-86.841317888486,36.3393232057861],[-86.8411718217189,36.339093774094],[-86.8411717787127,36.3390937104059],[-86.8403211735755,36.3378819492581],[-86.8403211430428,36.3378819062113],[-86.8404711214048,36.3378361615116],[-86.8406357616807,36.338099573809],[-86.8411047901137,36.3388002299881],[-86.841383185115,36.3392046132983],[-86.8414842778033,36.339153298948],[-86.8417827993884,36.3389880113808],[-86.8425209198039,36.3385789602684],[-86.8426713117729,36.3386092276462],[-86.8427730195947,36.338628202791],[-86.8429182996198,36.3386553025141],[-86.8432061941007,36.3387017397186],[-86.84324128081,36.3384675570767],[-86.8433951880181,36.3384756171257],[-86.8442928860219,36.3385011293359],[-86.8442013848341,36.3391358548482],[-86.8414120211715,36.3397581359572],[-86.8414001856902,36.3397607759658],[-86.841317888486,36.3393232057861]]]},"properties":{"id":"76099","parcel":"01500028400","address":"2664 MORGAN RD","owner":"MARTINEZ, LUIS V. & ESPINOZA, JOSEFINA V.","point":[-86.84323341937609,36.338752408264085]}},{"type":"Feature","id":"76278","geometry":{"type":"Polygon","coordinates":[[[-86.8425969064804,36.3343921442236],[-86.8425089082274,36.3330395802845],[-86.842605134299,36.3330222363354],[-86.8427020055446,36.3330074319854],[-86.84279617443,36.3329946047591],[-86.8428908574062,36.3329845577749],[-86.842985929875,36.3329773045172],[-86.8430812660768,36.3329728539727],[-86.8431767380055,36.3329712133421],[-86.8432722209291,36.3329723834945],[-86.8431163196768,36.3342099435469],[-86.8430111475562,36.3350447875654],[-86.8426461991273,36.335161299926],[-86.8425969064804,36.3343921442236]]]},"properties":{"id":"76278","parcel":"01500027200","address":"2736 UNION HILL RD","owner":"PILON, MICHEL R. & TERESA SUE","point":[-86.84286846656491,36.333624835769776]}},{"type":"Feature","id":"76392","geometry":{"type":"Polygon","coordinates":[[[-86.8476087728074,36.3327414546787],[-86.84798559688,36.3322804856389],[-86.8483318481135,36.3324152203544],[-86.8483353585381,36.3324193404909],[-86.8491487221852,36.3327385112007],[-86.8490719059761,36.3328059640921],[-86.848992905262,36.3328717442618],[-86.8489117763713,36.3329358071498],[-86.848828575604,36.3329981054931],[-86.8487683175869,36.3330486358427],[-86.8487098226006,36.3331005056351],[-86.8486531369894,36.3331536739923],[-86.8481645626164,36.3329607968779],[-86.847606654218,36.3327440515491],[-86.8476087728074,36.3327414546787]]]},"properties":{"id":"76392","parcel":"01500008701","address":"7470 WILKINSON RD","owner":"DAVIS, JASMINE","point":[-86.84824235530073,36.33257829312535]}},{"type":"Feature","id":"76402","geometry":{"type":"Polygon","coordinates":[[[-86.8462477257453,36.3352921772499],[-86.8461048441744,36.3352138695295],[-86.8455794260318,36.3350343229177],[-86.8457601810347,36.3343689874628],[-86.847185432601,36.334708307337],[-86.8475118261665,36.3348281824784],[-86.8474661241753,36.3348770338932],[-86.8474234282706,36.3349276342435],[-86.8473838396325,36.334979862059],[-86.8473474527301,36.3350335932123],[-86.8473143553023,36.3350886991172],[-86.8472846250262,36.3351450476527],[-86.8472583339815,36.3352025040333],[-86.8472355453193,36.3352609317332],[-86.8472163121281,36.3353201906921],[-86.8472006819089,36.3353801390858],[-86.8464244352477,36.3353053631941],[-86.846365748846,36.3352991903689],[-86.8463068185517,36.3352947928408],[-86.8462477257453,36.3352921772499]]]},"properties":{"id":"76402","parcel":"01500008901","address":"7494 WILKINSON RD","owner":"DAVIS, JESSICA & ADAMS, DAVID WAYNE","point":[-86.84655920869896,36.334851418142506]}},{"type":"Feature","id":"76403","geometry":{"type":"Polygon","coordinates":[[[-86.8433918035593,36.3342296642126],[-86.8431163196768,36.3342099435469],[-86.8432722209291,36.3329723834945],[-86.8433455639256,36.3329750273429],[-86.8434187823907,36.3329793645243],[-86.8434835036223,36.332983105724],[-86.8435480505431,36.3329884676142],[-86.843612360757,36.332995447927],[-86.8434559524028,36.3342336365334],[-86.8433918035593,36.3342296642126]]]},"properties":{"id":"76403","parcel":"01500009008","address":"0 UNION HILL RD","owner":"FERGUSON, OWEN M. ET UX","point":[-86.8433642358742,36.3336026958906]}},{"type":"Feature","id":"76470","geometry":{"type":"Polygon","coordinates":[[[-86.8466072318117,36.3323383498998],[-86.8466976360215,36.3321793069732],[-86.8467907418509,36.3320212877777],[-86.8468865295676,36.3318643230871],[-86.8469849827423,36.3317084400471],[-86.8470860816532,36.3315536703324],[-86.8479989160279,36.3319783233207],[-86.8480192904923,36.3319941448667],[-86.848165098338,36.3320611897151],[-86.84798559688,36.3322804856389],[-86.8476087728074,36.3327414546787],[-86.8474262233942,36.3326673882593],[-86.8474235243741,36.3326654992652],[-86.8466072318117,36.3323383498998]]]},"properties":{"id":"76470","parcel":"01500008501","address":"2830 UNION HILL RD","owner":"ANDERSON, BRENDA FAYE & BULLINGTON, WENDY E. & MARISSA E.","point":[-86.84742450007586,36.3321202418312]}},{"type":"Feature","id":"76880","geometry":{"type":"Polygon","coordinates":[[[-86.8491841608121,36.3355167942519],[-86.8478624527773,36.3346780732055],[-86.8478964426192,36.3346435296445],[-86.8479268901045,36.334606886708],[-86.8479535972817,36.3345683819084],[-86.8479763930764,36.334528266088],[-86.8479951298625,36.334486795332],[-86.8480096846924,36.3344442417743],[-86.8480199647009,36.3344008782389],[-86.8480451108062,36.3343239568318],[-86.8480727680229,36.3342476018077],[-86.8481029168658,36.334171866474],[-86.848135535622,36.3340968041537],[-86.8481471497409,36.3340717253083],[-86.8481910820856,36.3339780615653],[-86.8482371736142,36.3338850793116],[-86.8504424386235,36.3342633207449],[-86.8499000409345,36.3348949477321],[-86.8493053302877,36.3355874786034],[-86.8491841608121,36.3355167942519]]]},"properties":{"id":"76880","parcel":"01500013900","address":"7479 WILKINSON RD","owner":"FISHER, BRYANT","point":[-86.8490117980123,36.33478667980814]}},{"type":"Feature","id":"76946","geometry":{"type":"Polygon","coordinates":[[[-86.8474079299184,36.3365357041351],[-86.8473849705554,36.3364842191552],[-86.8473356571024,36.3363812819731],[-86.8473063343989,36.3363269080519],[-86.8472810700639,36.3362712178392],[-86.8472599541739,36.3362144062733],[-86.8472430635449,36.3361566782982],[-86.8472304571518,36.3360982371806],[-86.8472221784432,36.3360392926035],[-86.8479977354657,36.3361306779005],[-86.8480635159009,36.3365905005123],[-86.8474079299184,36.3365357041351]]]},"properties":{"id":"76946","parcel":"01500002904","address":"7515 WILKINSON RD","owner":"FERGUSON, CAROL J., TRUSTEE","point":[-86.84765782944987,36.33629952763852]}},{"type":"Feature","id":"76949","geometry":{"type":"Polygon","coordinates":[[[-86.8470083023063,36.3356138791328],[-86.8464220621617,36.3354009731781],[-86.846568862014,36.3354131317197],[-86.8470542233392,36.3354632992295],[-86.8470330810869,36.3355181113398],[-86.8470283852685,36.3355362607318],[-86.8470083023063,36.3356138791328]]]},"properties":{"id":"76949","parcel":"01500003200","address":"0 MORGAN RD","owner":"MORRIS, CHARLES D. JR. ETUX","point":[-86.84685573292379,36.33549046464108]}},{"type":"Feature","id":"76952","geometry":{"type":"Polygon","coordinates":[[[-86.8446051986308,36.3357296639973],[-86.8446733346642,36.3356972324367],[-86.8447652785717,36.3356537008573],[-86.8448593018516,36.335613181911],[-86.8449552548398,36.3355757415272],[-86.8450529833417,36.3355414384572],[-86.8451523297737,36.3355103269705],[-86.8452531365244,36.3354824586336],[-86.8453552403277,36.3354578769418],[-86.8453887702038,36.3354502281914],[-86.8454901607428,36.3354310434234],[-86.8455923788455,36.3354149872594],[-86.8456952766186,36.335402082361],[-86.8457987061307,36.3353923477854],[-86.8459025182795,36.3353857971915],[-86.8460065616866,36.3353824397482],[-86.8461106882772,36.3353822809968],[-86.8462147476811,36.3353853201868],[-86.8463185883857,36.3353915538725],[-86.8464220621617,36.3354009731781],[-86.8470083023063,36.3356138791328],[-86.8469564169342,36.3358416919449],[-86.8469518214655,36.3359834649211],[-86.8469485036493,36.3360070444766],[-86.8469398287395,36.3360687042205],[-86.846912972116,36.3362238198339],[-86.8469084860568,36.3362461737835],[-86.8469083194888,36.3362688210307],[-86.8469124732673,36.3362912163261],[-86.8469208503469,36.33631282592],[-86.846933250242,36.3363331303049],[-86.8469493736732,36.336351642208],[-86.8469688360689,36.3363679191134],[-86.8470820652776,36.3364087503797],[-86.8471296130065,36.3364453776922],[-86.8471714788285,36.3364811777983],[-86.8472164994965,36.3365748822798],[-86.8472201447781,36.3365889916215],[-86.8464567299655,36.3369824179926],[-86.8453829045403,36.337535799949],[-86.8453731136227,36.3375408458607],[-86.8451124677968,36.3369377788158],[-86.8446051986308,36.3357296639973]]]},"properties":{"id":"76952","parcel":"01500003400","address":"2756 MORGAN RD","owner":"JONES, KATHY M","point":[-86.84603128246972,36.33646184107516]}},{"type":"Feature","id":"76955","geometry":{"type":"Polygon","coordinates":[[[-86.8471714788285,36.3364811777983],[-86.8471296130065,36.3364453776922],[-86.8470820652776,36.3364087503797],[-86.8469688360689,36.3363679191134],[-86.8469493736732,36.336351642208],[-86.846933250242,36.3363331303049],[-86.8469208503469,36.33631282592],[-86.8469124732673,36.3362912163261],[-86.8469083194888,36.3362688210307],[-86.8469084860568,36.3362461737835],[-86.846912972116,36.3362238198339],[-86.8469398287395,36.3360687042205],[-86.8469485036493,36.3360070444766],[-86.8471004589278,36.3360249503689],[-86.8471097883983,36.3360881017421],[-86.8471228403455,36.336150819688],[-86.8471395831723,36.3362129611314],[-86.8471599786075,36.3362743839449],[-86.8471839817066,36.3363349469483],[-86.8472115353109,36.3363945126522],[-86.8472572080401,36.3364856548663],[-86.8471714788285,36.3364811777983]]]},"properties":{"id":"76955","parcel":"01500003401","address":"0 WILKINSON RD","owner":"FERGUSON, CAROL J., TRUSTEE","point":[-86.84702886480602,36.33623514807131]}},{"type":"Feature","id":"77251","geometry":{"type":"Polygon","coordinates":[[[-86.841425009719,36.3375563613752],[-86.8420514604026,36.3373724188368],[-86.8423497283583,36.3385341114829],[-86.8425209198039,36.3385789602684],[-86.8417827993884,36.3389880113808],[-86.841425009719,36.3375563613752]]]},"properties":{"id":"77251","parcel":"01500027600","address":"2700 MORGAN RD","owner":"DENNY, RUSSELL O.","point":[-86.84188569718076,36.338045235128355]}},{"type":"Feature","id":"78424","geometry":{"type":"Polygon","coordinates":[[[-86.8441490942904,36.3329555801293],[-86.8442872787726,36.3319786188921],[-86.8449880170213,36.3320353461972],[-86.844828033705,36.3331819214594],[-86.844761774507,36.3331652807031],[-86.8446966961094,36.3331458288401],[-86.8446329795355,36.3331236195832],[-86.8445399016007,36.3330834275901],[-86.8444448009071,36.3330464643336],[-86.8443478496777,36.3330127952978],[-86.8442492212191,36.3329824832561],[-86.8441490942904,36.3329555801293]]]},"properties":{"id":"78424","parcel":"01500010400","address":"2777 UNION HILL RD","owner":"WILLIAMS, KENNETH DALE ET UX","point":[-86.84456899629275,36.33249546449283]}},{"type":"Feature","id":"78573","geometry":{"type":"Polygon","coordinates":[[[-86.8470860816532,36.3315536703324],[-86.8471285054274,36.3314898599046],[-86.847219665563,36.331356268291],[-86.8473286688079,36.3311998712368],[-86.8474403402068,36.3310447098921],[-86.8475546578216,36.3308908168476],[-86.8487846010122,36.3314112872107],[-86.8486834242041,36.3315174132074],[-86.848165098338,36.3320611897151],[-86.8480192904923,36.3319941448667],[-86.8479989160279,36.3319783233207],[-86.8470860816532,36.3315536703324]]]},"properties":{"id":"78573","parcel":"01500008500","address":"2836 UNION HILL RD","owner":"WHITEHEAD, DAVID AUSTIN & LYLE, JAMES DYLAN","point":[-86.84795109866451,36.331450569487785]}},{"type":"Feature","id":"78575","geometry":{"type":"Polygon","coordinates":[[[-86.8457601810347,36.3343689874628],[-86.8466681914139,36.3342512709773],[-86.8472496114714,36.333786764256],[-86.8464226273207,36.3327110279509],[-86.8464109104418,36.33269578543],[-86.8464723871406,36.3325816974984],[-86.8465589745981,36.3324245154055],[-86.8466072318117,36.3323383498998],[-86.8474235243741,36.3326654992652],[-86.8474262233942,36.3326673882593],[-86.8476087728074,36.3327414546787],[-86.847606654218,36.3327440515491],[-86.8481645626164,36.3329607968779],[-86.8486531369894,36.3331536739923],[-86.8485796224435,36.3332271461378],[-86.8485095180565,36.3333027698823],[-86.8484429229617,36.333380440895],[-86.8483861813672,36.3334474442923],[-86.8483326301322,36.3335161448314],[-86.8482823472877,36.3335864437354],[-86.8482354063811,36.3336582395547],[-86.8481840410758,36.333744068786],[-86.8481355723008,36.3338309934046],[-86.8480900361427,36.3339189500747],[-86.8480474653281,36.3340078736815],[-86.8480078903567,36.3340976991259],[-86.8479781630301,36.3341669318141],[-86.8479510842172,36.334236872317],[-86.8479266788275,36.3343074537709],[-86.8479049717801,36.3343786102129],[-86.8478954581712,36.3344185518048],[-86.847881667344,36.3344576672099],[-86.8478637007952,36.3344956574081],[-86.8478417013188,36.334532231201],[-86.8478158330169,36.3345671107584],[-86.8477862957113,36.33460002521],[-86.8477533161971,36.3346307260266],[-86.8477171458998,36.3346589762224],[-86.8476780609809,36.3346845602678],[-86.8475548915742,36.3347865133926],[-86.8475118261665,36.3348281824784],[-86.847185432601,36.334708307337],[-86.8457601810347,36.3343689874628]]]},"properties":{"id":"78575","parcel":"01500008800","address":"2812 UNION HILL RD","owner":"CURTIS, JOHN E.","point":[-86.84768743138454,36.333550505710726]}},{"type":"Feature","id":"78584","geometry":{"type":"Polygon","coordinates":[[[-86.8433547391533,36.3347717767711],[-86.8433918035593,36.3342296642126],[-86.8434559524028,36.3342336365334],[-86.8436626146572,36.3342464346765],[-86.8437432027401,36.3361642691539],[-86.8433864989817,36.3364110140883],[-86.8433157336268,36.336247509098],[-86.8432793230732,36.3358747984516],[-86.8433111083901,36.3354090056396],[-86.8432045073878,36.3351613241502],[-86.8433547044813,36.3347718680369],[-86.8433547391533,36.3347717767711]]]},"properties":{"id":"78584","parcel":"01500009003","address":"2735 MORGAN RD","owner":"GOOSTREE, BRENDA W","point":[-86.84348204723884,36.33528545877828]}},{"type":"Feature","id":"78585","geometry":{"type":"Polygon","coordinates":[[[-86.8430111475562,36.3350447875654],[-86.8431163196768,36.3342099435469],[-86.8433918035593,36.3342296642126],[-86.8433547391533,36.3347717767711],[-86.8433547044813,36.3347718680369],[-86.8432045073878,36.3351613241502],[-86.8433111083901,36.3354090056396],[-86.8432793230732,36.3358747984516],[-86.8433157336268,36.336247509098],[-86.8433864989817,36.3364110140883],[-86.8432353921022,36.3365155394375],[-86.8432340677039,36.3365348926403],[-86.8431578594648,36.3365874490991],[-86.8430839897385,36.3366421476513],[-86.843012548014,36.3366989191842],[-86.8429436259901,36.336757692767],[-86.8428773075597,36.3368183966223],[-86.8428136754551,36.3368809544746],[-86.8427844306335,36.3369109600614],[-86.8430111475562,36.3350447875654]]]},"properties":{"id":"78585","parcel":"01500009004","address":"2775 MORGAN RD","owner":"HAND, ROSS L. ET UX","point":[-86.84311693968107,36.3356416681715]}},{"type":"Feature","id":"78586","geometry":{"type":"Polygon","coordinates":[[[-86.8441025084549,36.3342753682984],[-86.8437945035053,36.3342551091753],[-86.8439466838489,36.3330503491741],[-86.8440170792072,36.3330669506989],[-86.8440866540934,36.3330856803045],[-86.844170583134,36.3331082651868],[-86.844253570833,36.3331330267425],[-86.8443355278159,36.3331599394617],[-86.8441736548521,36.3342892797302],[-86.8441025084549,36.3342753682984]]]},"properties":{"id":"78586","parcel":"01500009006","address":"2746 UNION HILL RD","owner":"HERNANDEZ, JOSE ROSARIO ESTRADA","point":[-86.84406035541788,36.333707518571636]}},{"type":"Feature","id":"78587","geometry":{"type":"Polygon","coordinates":[[[-86.8409176238306,36.3357317480316],[-86.8417898843388,36.3354438972556],[-86.8415256598712,36.337424096305],[-86.840583101644,36.3377005011062],[-86.8405918778395,36.3376484239402],[-86.8408070342506,36.3363717023253],[-86.8408396754076,36.3361780159242],[-86.8409176238306,36.3357317480316]]]},"properties":{"id":"78587","parcel":"01500009300","address":"2679 MORGAN RD","owner":"PERDOMO, MARVN M. ALVARADO & ET AL","point":[-86.84115712833795,36.33689788762386]}},{"type":"Feature","id":"78588","geometry":{"type":"Polygon","coordinates":[[[-86.8413006822738,36.3335386058957],[-86.8414937296871,36.3334240415669],[-86.8415687986042,36.3333808010124],[-86.8416455266633,36.3333395117429],[-86.841723836344,36.3333002157513],[-86.8418036500881,36.3332629514259],[-86.841884885883,36.3332277571866],[-86.8419612315544,36.3344192168191],[-86.8425969064804,36.3343921442236],[-86.8426461991273,36.335161299926],[-86.8425859358512,36.335181188079],[-86.8417898843388,36.3354438972556],[-86.8409176238306,36.3357317480316],[-86.8413006822738,36.3335386058957]]]},"properties":{"id":"78588","parcel":"01500009500","address":"2726 UNION HILL RD","owner":"HENDRIX, JAMES & MEZZANOTTI, MARCI L.","point":[-86.84185239925479,36.33478966253873]}},{"type":"Feature","id":"78599","geometry":{"type":"Polygon","coordinates":[[[-86.8456981340093,36.3320928294],[-86.8457719625198,36.3315637921678],[-86.8465559336462,36.3321080877752],[-86.846471335649,36.3322539977953],[-86.8463899646765,36.3324011036286],[-86.8463118458684,36.3325493591431],[-86.8462370054689,36.3326987172973],[-86.8462008356555,36.332747930565],[-86.8461613271223,36.33279543231],[-86.8461186019341,36.332841075676],[-86.8460727955699,36.332884718219],[-86.8460240480229,36.3329262228706],[-86.8459725127583,36.3329654623818],[-86.8459183510581,36.3330023112514],[-86.8458617310231,36.3330366565479],[-86.8458028286089,36.3330683906926],[-86.8457418287788,36.333097415056],[-86.8456789221429,36.3331236381793],[-86.8456143038829,36.333146979387],[-86.845548175941,36.3331673651663],[-86.8456981340093,36.3320928294]]]},"properties":{"id":"78599","parcel":"01500010200","address":"2821 UNION HILL RD","owner":"TEEPLE, TERESA","point":[-86.84604808264895,36.332327058557354]}},{"type":"Feature","id":"78600","geometry":{"type":"Polygon","coordinates":[[[-86.844828033705,36.3331819214594],[-86.8449880170213,36.3320353461972],[-86.8456981340093,36.3320928294],[-86.845548175941,36.3331673651663],[-86.8454848049067,36.3331840095594],[-86.8454203342932,36.3331976118432],[-86.8453549875042,36.3332081262944],[-86.8453312475247,36.3332104903106],[-86.8452590978421,36.3332168831653],[-86.8451866056534,36.333219781599],[-86.8451140292575,36.333219173893],[-86.8450416260033,36.3332150636564],[-86.8449696555725,36.3332074643967],[-86.8448983733458,36.333196404071],[-86.844828033705,36.3331819214594]]]},"properties":{"id":"78600","parcel":"01500010300","address":"2795 UNION HILL RD","owner":"ZIPPERER, KARL C. & JODI C.","point":[-86.84526415815925,36.33262963310087]}},{"type":"Feature","id":"78625","geometry":{"type":"Polygon","coordinates":[[[-86.8478624527773,36.3346780732055],[-86.8491841608121,36.3355167942519],[-86.8487808033651,36.3359531598646],[-86.8487182185676,36.3358982292932],[-86.84865262477,36.335845645873],[-86.8485841568271,36.3357955204055],[-86.8485129539414,36.3357479537483],[-86.8484391619582,36.3357030431078],[-86.8483629344702,36.3356608811299],[-86.8482844250012,36.3356215541526],[-86.8482037959361,36.335585143946],[-86.8481212129035,36.3355517232452],[-86.8480368448434,36.3355213620592],[-86.8479508639496,36.335494122263],[-86.8478634467927,36.3354700584918],[-86.8477747732455,36.3354492217531],[-86.8476850253209,36.3354316549288],[-86.8475943860483,36.3354173918818],[-86.8475030417788,36.3354064646501],[-86.8474111798419,36.3353988926477],[-86.8473189886613,36.3353946934793],[-86.8473343100489,36.3353345183211],[-86.8473537053699,36.3352751167144],[-86.8473771152857,36.3352166693188],[-86.8474044670634,36.3351593541837],[-86.8474356801263,36.3351033449069],[-86.8474706582668,36.3350488115906],[-86.8475092963197,36.3349959198936],[-86.8475514756974,36.3349448301607],[-86.8475970688548,36.3348956982937],[-86.8476459370136,36.3348486712605],[-86.8476979324765,36.3348038951901],[-86.8477528973789,36.3347615027646],[-86.8477917858829,36.3347357785793],[-86.8478283636371,36.3347079229481],[-86.8478624527773,36.3346780732055]]]},"properties":{"id":"78625","parcel":"01500012800","address":"7495 WILKINSON RD","owner":"WINEGAR, RONNIE K. & URTZ-WINEGAR, REBECCA A.","point":[-86.8480985701401,36.33530577891606]}},{"type":"Feature","id":"78921","geometry":{"type":"Polygon","coordinates":[[[-86.8437432027401,36.3361642691539],[-86.8436626146572,36.3342464346765],[-86.8437945035053,36.3342551091753],[-86.8441025084549,36.3342753682984],[-86.844038028354,36.3348029364124],[-86.8442566099203,36.3358039453167],[-86.8438605742877,36.3360830815046],[-86.8437432027401,36.3361642691539]]]},"properties":{"id":"78921","parcel":"01500009002","address":"2743 MORGAN RD","owner":"BATES, MILDRED A.","point":[-86.84392716212139,36.335303153643586]}},{"type":"Feature","id":"78924","geometry":{"type":"Polygon","coordinates":[[[-86.8402675386829,36.3341517180623],[-86.8413006822738,36.3335386058957],[-86.8409176238306,36.3357317480316],[-86.8408396754076,36.3361780159242],[-86.8397571393393,36.3362305183552],[-86.8398972116524,36.3356227892428],[-86.8399139176612,36.3354504592698],[-86.8388013111835,36.3351025136491],[-86.8401509297366,36.334218454778],[-86.8402675386829,36.3341517180623]]]},"properties":{"id":"78924","parcel":"01500009403","address":"2700 UNION HILL RD","owner":"BURKE, ALBERT L. JR. ET UX","point":[-86.84029023973011,36.33466157680302]}},{"type":"Feature","id":"79034","geometry":{"type":"Polygon","coordinates":[[[-86.8395645093649,36.3363817595439],[-86.8408070342506,36.3363717023253],[-86.8405918778395,36.3376484239402],[-86.8403185741229,36.3377306394234],[-86.8402867644312,36.3377406558474],[-86.8401848072425,36.3377727574468],[-86.8395645093649,36.3363817595439]]]},"properties":{"id":"79034","parcel":"01500014600","address":"2665 MORGAN RD","owner":"BARKER, BRADLEY & BLOCK, HELEN","point":[-86.8402726324748,36.33701535289291]}},{"type":"Feature","id":"79187","geometry":{"type":"Polygon","coordinates":[[[-86.8469485036493,36.3360070444766],[-86.8469518214655,36.3359834649211],[-86.8469564169342,36.3358416919449],[-86.8470083023063,36.3356138791328],[-86.8470283852685,36.3355362607318],[-86.8471649075847,36.3355566403367],[-86.84714392395,36.3356134674038],[-86.8471265678261,36.3356710900807],[-86.8471128832572,36.3357293557528],[-86.8471029076145,36.3357881127532],[-86.8470966659892,36.335847206797],[-86.8470941745329,36.3359064809577],[-86.8470954394021,36.3359657810824],[-86.8471004589278,36.3360249503689],[-86.8469485036493,36.3360070444766]]]},"properties":{"id":"79187","parcel":"01500003300","address":"0 WILKINSON RD","owner":"ADAMS, WILL T. ET UX","point":[-86.8470416225112,36.33575864945506]}},{"type":"Feature","id":"79190","geometry":{"type":"Polygon","coordinates":[[[-86.8464567299655,36.3369824179926],[-86.8472201447781,36.3365889916215],[-86.8473644183798,36.3371473935707],[-86.847194648344,36.337761523645],[-86.8474293495367,36.3382051594859],[-86.847425046597,36.3382283836457],[-86.8467579111426,36.3382705069893],[-86.8464567299655,36.3369824179926]]]},"properties":{"id":"79190","parcel":"01500003500","address":"7530 WILKINSON RD","owner":"HAMBRICK, PATRICIA IRIS","point":[-86.84692321084152,36.33745400279233]}},{"type":"Feature","id":"79221","geometry":{"type":"Polygon","coordinates":[[[-86.843560082188,36.3364357644544],[-86.8439922897899,36.3361333072642],[-86.8443487961534,36.3365295642621],[-86.8446863305168,36.3385123092256],[-86.8442928860219,36.3385011293359],[-86.8433951880181,36.3384756171257],[-86.84324128081,36.3384675570767],[-86.8433783776898,36.3375525017875],[-86.8434108450529,36.3374044289064],[-86.8435489308702,36.3365666645668],[-86.843560082188,36.3364357644544]]]},"properties":{"id":"79221","parcel":"01500004300","address":"2732 MORGAN RD","owner":"PERRY, KERRICA A. YEARGIN","point":[-86.84395325898632,36.336986165772586]}},{"type":"Feature","id":"79595","geometry":{"type":"Polygon","coordinates":[[[-86.841884885883,36.3332277571866],[-86.8419847852751,36.3331881557381],[-86.8420865411216,36.3331517784974],[-86.842189994767,36.3331186833424],[-86.8422949830345,36.3330889218738],[-86.8424013426906,36.3330625402862],[-86.8425089082274,36.3330395802845],[-86.8425969064804,36.3343921442236],[-86.8419612315544,36.3344192168191],[-86.841884885883,36.3332277571866]]]},"properties":{"id":"79595","parcel":"01500018000","address":"2730 UNION HILL RD","owner":"PILON, MICHEL R. & THERESA S.","point":[-86.84224060992612,36.33380995088289]}},{"type":"Feature","id":"79981","geometry":{"type":"Polygon","coordinates":[[[-86.8455794260318,36.3350343229177],[-86.8461048441744,36.3352138695295],[-86.8462477257453,36.3352921772499],[-86.8462165045353,36.3352914349658],[-86.8461198768423,36.335287642636],[-86.8460231410335,36.3352867619555],[-86.8459264319068,36.3352887955861],[-86.8458298830789,36.3352937398897],[-86.8457336292513,36.3353015885175],[-86.8456378028404,36.3353123297296],[-86.8455425373478,36.3353259490751],[-86.8454479639997,36.3353424276136],[-86.845354213984,36.3353617428003],[-86.8452535436758,36.3353859927369],[-86.8451540126276,36.3354131474012],[-86.8450557496846,36.3354431734515],[-86.8449588813978,36.3354760312538],[-86.8448772626812,36.3355027793761],[-86.8447969592141,36.335532014661],[-86.8447180852799,36.3355636957577],[-86.8450827882862,36.3351361349714],[-86.8455794260318,36.3350343229177]]]},"properties":{"id":"79981","parcel":"01500009000","address":"0 MORGAN RD","owner":"KIMBLE, ERNEST LEON & DARLENE","point":[-86.84536384270905,36.33529712423175]}},{"type":"Feature","id":"79984","geometry":{"type":"Polygon","coordinates":[[[-86.8442566099203,36.3358039453167],[-86.844038028354,36.3348029364124],[-86.8441025084549,36.3342753682984],[-86.8441736548521,36.3342892797302],[-86.8445056724548,36.3343542000873],[-86.8453203747401,36.3343638039409],[-86.8457601810347,36.3343689874628],[-86.8455794260318,36.3350343229177],[-86.8450827882862,36.3351361349714],[-86.8447180852799,36.3355636957577],[-86.8446349613613,36.3356006615453],[-86.8445537687936,36.3356403373037],[-86.8444746405361,36.3356826572197],[-86.8443977095012,36.335727550975],[-86.8443231052129,36.3357749437686],[-86.8442593384708,36.3358164362301],[-86.8442566099203,36.3358039453167]]]},"properties":{"id":"79984","parcel":"01500009001","address":"2755 MORGAN RD","owner":"MENDENHALL, JEFFREY & DAVINA","point":[-86.84471521370938,36.335084430582945]}},{"type":"Feature","id":"79987","geometry":{"type":"Polygon","coordinates":[[[-86.8441736548521,36.3342892797302],[-86.8443355278159,36.3331599394617],[-86.844408481951,36.3331862615851],[-86.8444804902611,36.3332142350122],[-86.8445410297568,36.3332395406265],[-86.8446028357035,36.3332627537244],[-86.8446657996094,36.3332838327037],[-86.8447298074617,36.3333027405072],[-86.844727055826,36.3333156491102],[-86.8445056724548,36.3343542000873],[-86.8441736548521,36.3342892797302]]]},"properties":{"id":"79987","parcel":"01500009005","address":"2790 UNION HILL RD","owner":"HARLOW, KATHRYN DANIELLE KRANTZ 2024 JOINT REV TRUST","point":[-86.84443335375973,36.33380244263419]}},{"type":"Feature","id":"79990","geometry":{"type":"Polygon","coordinates":[[[-86.8436626146572,36.3342464346765],[-86.8434559524028,36.3342336365334],[-86.843612360757,36.332995447927],[-86.843688146899,36.3330056592762],[-86.8437634061253,36.3330181624759],[-86.8438249328262,36.3330272295141],[-86.8438860484591,36.3330379621577],[-86.8439466838489,36.3330503491741],[-86.8437945035053,36.3342551091753],[-86.8436626146572,36.3342464346765]]]},"properties":{"id":"79990","parcel":"01500009007","address":"2744 UNION HILL RD","owner":"FERGUSON, OWEN M. ETUX","point":[-86.8437013200235,36.333641993139494]}},{"type":"Feature","id":"79992","geometry":{"type":"Polygon","coordinates":[[[-86.8425859358512,36.335181188079],[-86.8426461991273,36.335161299926],[-86.8430111475562,36.3350447875654],[-86.8427844306335,36.3369109600614],[-86.842739981396,36.3369583805647],[-86.8427054460928,36.336994202568],[-86.8426678319388,36.3370279335302],[-86.8426273320403,36.3370594017711],[-86.8425841518431,36.3370884436358],[-86.8425385147973,36.3371149124671],[-86.8424906544845,36.3371386714513],[-86.8424570200498,36.3371549070191],[-86.8424220876568,36.3371692356054],[-86.8423860203304,36.3371815893829],[-86.8423489889794,36.3371919085807],[-86.8425859358512,36.335181188079]]]},"properties":{"id":"79992","parcel":"01500009100","address":"2715 MORGAN RD","owner":"REDDEN, MARK JR.","point":[-86.84268676060745,36.33604607624907]}},{"type":"Feature","id":"79994","geometry":{"type":"Polygon","coordinates":[[[-86.8417898843388,36.3354438972556],[-86.8425859358512,36.335181188079],[-86.8423489889794,36.3371919085807],[-86.8423101593162,36.3372004053888],[-86.8422706900101,36.3372066797032],[-86.8415256598712,36.337424096305],[-86.8417898843388,36.3354438972556]]]},"properties":{"id":"79994","parcel":"01500009200","address":"2701 MORGAN RD","owner":"JONES, JOHN T. & PAULA F.","point":[-86.84206262990539,36.3363178943108]}},{"type":"Feature","id":"80510","geometry":{"type":"Polygon","coordinates":[[[-86.8483387871402,36.3366753513809],[-86.8474358846431,36.3365943215864],[-86.8474079299184,36.3365357041351],[-86.8480635159009,36.3365905005123],[-86.8479977354657,36.3361306779005],[-86.8482359009294,36.3361587404306],[-86.8483387871402,36.3366753513809]]]},"properties":{"id":"80510","parcel":"01500002903","address":"0 WILKINSON RD","owner":"FERGUSON, CAROL J., TRUSTEE","point":[-86.84815115184819,36.33634764176236]}},{"type":"Feature","id":"80511","geometry":{"type":"Polygon","coordinates":[[[-86.8479977354657,36.3361306779005],[-86.8472221784432,36.3360392926035],[-86.8472175947269,36.3359794290265],[-86.8472166032531,36.3359194546709],[-86.8472192066605,36.3358595128136],[-86.8472253975251,36.3357997431968],[-86.8472351628731,36.3357402874039],[-86.8472484785545,36.335681283491],[-86.847265314879,36.3356228722567],[-86.8472856298474,36.3355651891782],[-86.8473776884771,36.3355728049604],[-86.8474692229722,36.3355837967444],[-86.8475600459546,36.3355981406102],[-86.8476499700075,36.3356158090333],[-86.8477388098253,36.3356367636604],[-86.8478263811768,36.3356609625262],[-86.8479125030657,36.3356883537298],[-86.8479969989306,36.3357188835369],[-86.8480796920839,36.3357524864989],[-86.8481604147182,36.3357890944015],[-86.8482389978345,36.335828631829],[-86.8483152801518,36.3358710161025],[-86.8482359009294,36.3361587404306],[-86.8479977354657,36.3361306779005]]]},"properties":{"id":"80511","parcel":"01500003000","address":"7505 WILKINSON RD","owner":"ADAMS FAMILY REV TRUST","point":[-86.8477625755701,36.33586525976882]}},{"type":"Feature","id":"80512","geometry":{"type":"Polygon","coordinates":[[[-86.8470283852685,36.3355362607318],[-86.8470330810869,36.3355181113398],[-86.8470542233392,36.3354632992295],[-86.8472017340306,36.3354784729467],[-86.8471904284712,36.3354967290228],[-86.8471811010655,36.3355157039422],[-86.8471738226982,36.335535255716],[-86.8471649075847,36.3355566403367],[-86.8470283852685,36.3355362607318]]]},"properties":{"id":"80512","parcel":"01500003100","address":"0 WILKINSON RD","owner":"WINTERS, E. G. ET UX","point":[-86.84711175350361,36.335506121829134]}},{"type":"Feature","id":"80513","geometry":{"type":"Polygon","coordinates":[[[-86.8472837735774,36.3402530143137],[-86.8472893344535,36.3402092955542],[-86.8467652350814,36.3401664160924],[-86.8453485460452,36.3400504961784],[-86.8440844427744,36.3399470477263],[-86.8442013848341,36.3391358548482],[-86.8442928860219,36.3385011293359],[-86.8446863305168,36.3385123092256],[-86.8458429359842,36.3386179188439],[-86.8460271223716,36.3386537857028],[-86.8460356369789,36.3386685621689],[-86.8473292647458,36.3387442760493],[-86.847319439056,36.338812485843],[-86.8474887550752,36.3388223938272],[-86.8474738169512,36.3389323744288],[-86.8474623059078,36.3390426239138],[-86.847454230137,36.3391530737324],[-86.847449595584,36.3392636535481],[-86.8474484037289,36.3393742921539],[-86.8474506549476,36.3394849192515],[-86.8474563496353,36.3395954663447],[-86.8474850494438,36.3398710590642],[-86.8474983245052,36.3399267484626],[-86.8475148906712,36.3399818578414],[-86.8475347098304,36.3400362603935],[-86.8475577338561,36.3400898302824],[-86.8475839112985,36.3401424434976],[-86.8476131807118,36.3401939788018],[-86.8476454773365,36.3402443176847],[-86.8474521580629,36.3402228530913],[-86.8474075423112,36.3402191380615],[-86.8474022157385,36.3402610121744],[-86.8473695275815,36.3402601542798],[-86.8472837735774,36.3402530143137]]]},"properties":{"id":"80513","parcel":"01500003700","address":"7550 WILKINSON RD","owner":"RICHARDSON, KEITH ET UX","point":[-86.84580458944548,36.339427494709625]}},{"type":"Feature","id":"112731","geometry":{"type":"Polygon","coordinates":[[[-86.8439837935023,36.3329164252643],[-86.8443434728899,36.3303734898131],[-86.8459202549474,36.3305011435969],[-86.8457719625198,36.3315637921678],[-86.8456981340093,36.3320928294],[-86.8449880170213,36.3320353461972],[-86.8442872787726,36.3319786188921],[-86.8441490942904,36.3329555801293],[-86.8440667468263,36.3329351651711],[-86.8439837935023,36.3329164252643]]]},"properties":{"id":"112731","parcel":"01500031000","address":"2771 UNION HILL RD","owner":"HUNTER, JERRY & DIANA L.","point":[-86.84494441498207,36.33177109733432]}},{"type":"Feature","id":"235465","geometry":{"type":"Polygon","coordinates":[[[-86.8476351867363,36.339097246392],[-86.8476310666045,36.3389875002611],[-86.8476248173496,36.3388778204158],[-86.8476726176174,36.3388885552433],[-86.847693890355,36.338893333184],[-86.8485653901976,36.3390890608965],[-86.84935998875,36.3391388646337],[-86.8497282766742,36.338927288653],[-86.8501916464858,36.3388167198738],[-86.8502363184414,36.3389754186362],[-86.8502691011414,36.3390935249047],[-86.8503585445514,36.3394157558144],[-86.850394414802,36.3395288213896],[-86.8480712507201,36.340627651924],[-86.8480024316707,36.3405324068676],[-86.8479434161105,36.3404507304298],[-86.8478377790634,36.3403045274796],[-86.847818725435,36.3402781577146],[-86.8477782325405,36.3402160936677],[-86.8477445281336,36.3401514279521],[-86.8477178680217,36.3400846445424],[-86.847698449168,36.3400162458491],[-86.8476850668648,36.3399353633976],[-86.8476797327875,36.3398904736625],[-86.8476757905943,36.339857289235],[-86.8476728939338,36.3398329051815],[-86.8476677054544,36.3397892319831],[-86.8476615057387,36.3397370474632],[-86.8476419726963,36.3395726471394],[-86.8476351257184,36.3394869486761],[-86.847634911482,36.3394010712521],[-86.8476371717326,36.3392491597233],[-86.8476351867363,36.339097246392]]]},"properties":{"id":"235465","parcel":"01500032400","address":"0 WILKINSON RD","owner":"ATHANASAKES, J. GEORGE & PEGGY A.","point":[-86.8488865572085,36.339656415013124]}}]}