{"type":"FeatureCollection","features":[{"type":"Feature","id":"238305","geometry":{"type":"Polygon","coordinates":[[[-86.8639392377834,36.1716884485849],[-86.8638819612166,36.1716863340645],[-86.8638249639296,36.1716812829696],[-86.8637684762648,36.1716733170856],[-86.8637127219837,36.1716624663567],[-86.8636579294504,36.1716487751148],[-86.8636007985904,36.171629404526],[-86.8635451620893,36.1716047552721],[-86.8634916481541,36.1715771905081],[-86.8634404881831,36.171546829352],[-86.8633919047995,36.1715138018006],[-86.8633461074635,36.1714782541674],[-86.8633032968011,36.1714403382373],[-86.8632977133892,36.1714340115713],[-86.8638281294761,36.1713555353343],[-86.8638401029289,36.1713839731685],[-86.8639683015209,36.1716884586636],[-86.8639392377834,36.1716884485849]]]},"properties":{"id":"238305","parcel":"08000000900","address":"6415 CENTENNIAL BLVD","owner":"GREER, WAYNE A. & MAXIE L.","point":[-86.86365907361413,36.171530592396266]}},{"type":"Feature","id":"241321","geometry":{"type":"Polygon","coordinates":[[[-86.8685065667795,36.1691306118848],[-86.8690791444599,36.1687902481104],[-86.8690566229053,36.1688752590262],[-86.8690315373223,36.1689597963005],[-86.8690039038325,36.1690438102452],[-86.8689737385376,36.1691272493702],[-86.8683824361342,36.1711621565604],[-86.8679352947744,36.1714181053664],[-86.8645469777178,36.1716490032915],[-86.8648354230517,36.1715040885647],[-86.8661998009065,36.1713470611533],[-86.8663469467368,36.1711701907917],[-86.8665344793181,36.1709984424549],[-86.8665976870819,36.1706995072658],[-86.866594924238,36.170633703415],[-86.8665964184341,36.170567872604],[-86.8666021671921,36.1705021960064],[-86.8666121524533,36.1704368531048],[-86.8666263495102,36.1703720252319],[-86.8666447169339,36.1703078893333],[-86.8666672066274,36.1702446224022],[-86.8666937537824,36.1701823979465],[-86.8667242880245,36.1701213886124],[-86.8667587244419,36.1700617590384],[-86.8667969670289,36.1700036757454],[-86.8668389119117,36.1699472971988],[-86.8668844451848,36.1698927792322],[-86.8669334384258,36.1698402714743],[-86.86698575982,36.1697899181704],[-86.8670412641474,36.1697418573533],[-86.8670997994513,36.1696962207951],[-86.8671612026124,36.1696531358419],[-86.8672253081717,36.1696127190416],[-86.8672919383958,36.1695750825237],[-86.8673609098968,36.1695403294462],[-86.8674320325304,36.1695085549042],[-86.867505111629,36.1694798468156],[-86.8675799457582,36.1694542841345],[-86.867656330062,36.1694319377285],[-86.8677340540095,36.1694128676913],[-86.8678129036571,36.1693971269313],[-86.8683987840326,36.1691885291467],[-86.8685065667795,36.1691306118848]]]},"properties":{"id":"241321","parcel":"08000004300","address":"0 CENTENNIAL BLVD","owner":"STATE OF TENN PRISON","point":[-86.86766897128153,36.1702146067573]}},{"type":"Feature","id":"241325","geometry":{"type":"Polygon","coordinates":[[[-86.8674677737295,36.1730366344727],[-86.8673615385421,36.173013871949],[-86.8672545316642,36.1729936249249],[-86.867146843336,36.172975912578],[-86.86703856484,36.17296074777],[-86.8669297874784,36.1729481451651],[-86.8668206047167,36.1729381140046],[-86.8656459262984,36.1728454508598],[-86.8650463919845,36.1727992028564],[-86.8649675546041,36.172793177716],[-86.8648892490562,36.172783626535],[-86.8648117146514,36.1727705773419],[-86.8647351897359,36.1727540716917],[-86.864659907186,36.172734159291],[-86.8645861000051,36.1727109015621],[-86.86451399129,36.1726843690119],[-86.8644438020415,36.1726546438791],[-86.864375750003,36.1726218156364],[-86.8643100408375,36.1725859873625],[-86.8642468757999,36.172547265773],[-86.8641864496219,36.1725057711497],[-86.8641289471089,36.1724616310556],[-86.86407454312,36.172414978533],[-86.8639459164464,36.1723018493475],[-86.8635044773827,36.1719135930034],[-86.8634177299223,36.1718372952303],[-86.8634212446542,36.1718386120855],[-86.8634813929851,36.1718603783896],[-86.8635426725181,36.1718799599941],[-86.8636049638862,36.1718973180952],[-86.8636681433449,36.1719124202298],[-86.8637357477635,36.1719258593611],[-86.8638040363643,36.1719367943254],[-86.8638728666132,36.1719452027086],[-86.8639420971364,36.1719510665948],[-86.8640105219895,36.1719540926888],[-86.8640790461398,36.1719545998736],[-86.8641475272982,36.1719525882662],[-86.8642158265394,36.171948060664],[-86.8648658713837,36.1719038459645],[-86.8655456987884,36.1718572177898],[-86.8656447803525,36.1718982605772],[-86.8658533777494,36.1719846737842],[-86.8665359664416,36.1719424148395],[-86.8668690956847,36.1721663823559],[-86.8674776593796,36.1730388815041],[-86.8674677737295,36.1730366344727]]]},"properties":{"id":"241325","parcel":"08000004400","address":"6420 CENTENNIAL BLVD","owner":"CGS STORES, LLC","point":[-86.86558141042035,36.17243997513767]}},{"type":"Feature","id":"241480","geometry":{"type":"Polygon","coordinates":[[[-86.8620888334222,36.1767583098387],[-86.8632268624556,36.1762180645028],[-86.8628192133825,36.1754048222335],[-86.8630508542456,36.1739299034406],[-86.8611043765174,36.1757461683521],[-86.8607901524498,36.1754844149837],[-86.8606066223745,36.175307714108],[-86.8603682426699,36.1750720631992],[-86.8602176456087,36.1749324856525],[-86.8599079876041,36.1746226235288],[-86.8619954876274,36.1729067374948],[-86.8623007397483,36.1726548439884],[-86.8628175388249,36.1722283777756],[-86.8631320873736,36.1719909775131],[-86.8638244936529,36.1726013726153],[-86.8638858232379,36.172653670831],[-86.8639502888666,36.1727034284098],[-86.8640145976885,36.172748476118],[-86.8640814856452,36.1727909844659],[-86.8641507993668,36.1728308545058],[-86.8642223811541,36.1728679981366],[-86.864296067759,36.1729023281984],[-86.8643716927056,36.1729337674687],[-86.8644490817955,36.1729622441883],[-86.8645280586847,36.1729876938238],[-86.864608444874,36.1730100581667],[-86.8646900541519,36.1730292853729],[-86.8647727048598,36.1730453334803],[-86.864856204263,36.1730581642116],[-86.8649403652819,36.1730677482623],[-86.8650249931444,36.1730740644948],[-86.8667910823259,36.173213037031],[-86.8669047028362,36.1732222378195],[-86.8670178384636,36.1732347730927],[-86.8671303389594,36.1732506250047],[-86.8672420562877,36.1732697747929],[-86.8673528434452,36.1732921964776],[-86.86746255449,36.1733178595657],[-86.8675710467946,36.1733467317381],[-86.8676781754388,36.1733787743838],[-86.8677838021214,36.1734139443383],[-86.8678877851962,36.1734521975603],[-86.8679899907078,36.1734934818421],[-86.8680902813556,36.1735377440992],[-86.8690458796759,36.1739201461166],[-86.8692609586869,36.1740062138728],[-86.8694927029941,36.1746176949205],[-86.8697410657165,36.1752730108267],[-86.8697934037114,36.1753986299634],[-86.8698418345627,36.1755252740384],[-86.8698863296053,36.1756528648521],[-86.8699268590219,36.1757813206073],[-86.8699633985625,36.1759105603684],[-86.869995925098,36.1760405040917],[-86.8700244165609,36.1761710672198],[-86.8700488576119,36.1763021705539],[-86.870069230639,36.1764337304046],[-86.8700855235774,36.1765656621412],[-86.8700977255135,36.1766978847291],[-86.8701058288385,36.1768303144059],[-86.8701098303698,36.1769628655741],[-86.870109724761,36.1770954580593],[-86.8701055132757,36.1772280062311],[-86.8700971994208,36.1773604262454],[-86.8700876782646,36.1774659825948],[-86.8701446955243,36.1774743626204],[-86.8699415054012,36.178473568863],[-86.869767898049,36.178709967378],[-86.8697224101423,36.1788201206245],[-86.8696730669759,36.1789291777374],[-86.8696199098089,36.1790370500901],[-86.8695629787995,36.1791436499647],[-86.8695023241212,36.1792488904724],[-86.8694379937448,36.1793526865424],[-86.8693700378654,36.1794549530878],[-86.8692985144995,36.1795556085703],[-86.8692234805336,36.1796545696567],[-86.8691449962196,36.1797517556937],[-86.8691569210689,36.1798505628663],[-86.8691114007486,36.1799019747336],[-86.8690564964196,36.1799628219667],[-86.8689747929403,36.1800518637254],[-86.8689143073091,36.1801160316987],[-86.8687876375586,36.1802473512151],[-86.8686581157161,36.1803768308882],[-86.8685257857978,36.1805044298347],[-86.8683906862626,36.1806301072119],[-86.8682528611581,36.1807538248403],[-86.8681123534017,36.1808755427462],[-86.8679692070427,36.1809952227501],[-86.8678234672631,36.1811128284674],[-86.8668881955952,36.1818535668207],[-86.8661309059709,36.1825268341258],[-86.8660980285625,36.1824789817588],[-86.8658996232185,36.1821837208391],[-86.8656625506689,36.1818228061327],[-86.8654774619868,36.1815054714822],[-86.8652909576881,36.1813068207515],[-86.8650105725393,36.180950610674],[-86.864828889965,36.180696983127],[-86.8647849016617,36.180391822924],[-86.8646247183575,36.1801204599118],[-86.8644269468807,36.1798823307751],[-86.8642937266823,36.1795975877056],[-86.8640103753846,36.1792172225267],[-86.8637136404689,36.1788523353403],[-86.8634587140241,36.1785926368862],[-86.8633698726987,36.1783998773014],[-86.8632132929118,36.1782098002624],[-86.8631924782411,36.1780407288896],[-86.8630170214679,36.1778595766812],[-86.8629152987587,36.1777284441154],[-86.8627801194415,36.1775118413753],[-86.8626808925696,36.1773609114379],[-86.8625502401028,36.177311296317],[-86.8623937588787,36.1771300102998],[-86.8620888334222,36.1767583098387]]]},"properties":{"id":"241480","parcel":"08000000400","address":"6410 CENTENNIAL BLVD","owner":"STATE OF TENN","point":[-86.86630662321605,36.1772696871429]}},{"type":"Feature","id":"241913","geometry":{"type":"Polygon","coordinates":[[[-86.8628318117356,36.1702693257952],[-86.8639790420469,36.1696884467823],[-86.8650142796037,36.1692554888348],[-86.8652927787312,36.1694562929351],[-86.8656524669943,36.1697291694948],[-86.8639734573275,36.1710620542249],[-86.8632044838505,36.171287920269],[-86.8631919422918,36.1712524015194],[-86.8631823599236,36.171216282988],[-86.863175778501,36.1711797248037],[-86.8631257611408,36.1710187201553],[-86.8630716739252,36.170858582767],[-86.8630135409436,36.1706993791559],[-86.8629513863144,36.170541178542],[-86.8628852352369,36.1703840474336],[-86.8628577928146,36.1703269099495],[-86.8628318117356,36.1702693257952]]]},"properties":{"id":"241913","parcel":"08000005100","address":"6405 CENTENNIAL BLVD","owner":"BELLSOUTH TELECOMMUNICATIONS, INC.","point":[-86.8638887981787,36.17029930923355]}},{"type":"Feature","id":"242460","geometry":{"type":"Polygon","coordinates":[[[-86.8624548329752,36.170309121913],[-86.8624559831325,36.1703115471353],[-86.8627405559416,36.1709114402452],[-86.8629262470523,36.1715364487897],[-86.8628681688738,36.171462854066],[-86.8628065578698,36.1713911727364],[-86.8627415086262,36.1713215158776],[-86.862673122387,36.1712539936171],[-86.8626015058838,36.1711887097346],[-86.8625267725061,36.1711257670606],[-86.8624490344522,36.1710652612242],[-86.8623684150341,36.1710072877749],[-86.8622850397269,36.1709519368394],[-86.8621990384011,36.1708992940068],[-86.86211054311,36.1708494412455],[-86.8620196925255,36.1708024559705],[-86.861926628614,36.1707584119687],[-86.8618314943831,36.1707173767107],[-86.8617344405909,36.1706794149083],[-86.8616356145911,36.1706445849892],[-86.8615351725896,36.170612941713],[-86.861433269611,36.1705845335394],[-86.8615513022548,36.1705666308727],[-86.8616685148363,36.1705454830484],[-86.8617847742177,36.1705211144525],[-86.8618999428747,36.1704935549103],[-86.8620138888506,36.1704628351093],[-86.8621264802583,36.1704289920457],[-86.8622375874339,36.1703920627004],[-86.8623470807833,36.1703520903632],[-86.8624548329752,36.170309121913]]]},"properties":{"id":"242460","parcel":"08000005800","address":"6400 CENTENNIAL BLVD","owner":"SA PROPERTIES A LLC","point":[-86.8624990608356,36.1709316729841]}},{"type":"Feature","id":"242488","geometry":{"type":"Polygon","coordinates":[[[-86.8597899385814,36.1700400014255],[-86.8599625923517,36.1698132014185],[-86.8605042257049,36.1700943403101],[-86.8604662528207,36.1701381542839],[-86.860431239471,36.1701835595271],[-86.8603992853868,36.1702304246463],[-86.8603704835822,36.17027861379],[-86.860344917049,36.1703279893751],[-86.8597899385814,36.1700400014255]]]},"properties":{"id":"242488","parcel":"08000007000","address":"1820 LINDER INDUSTRIAL DR","owner":"IFP REALTY, LLC","point":[-86.86014708903478,36.17006717140844]}},{"type":"Feature","id":"242893","geometry":{"type":"Polygon","coordinates":[[[-86.8582120863872,36.1725688514734],[-86.8581672823396,36.1718197971459],[-86.8602243522417,36.1718007588492],[-86.8602343912051,36.1718197447372],[-86.8602480306086,36.1718371917254],[-86.8602649232637,36.1718526552552],[-86.8602846380342,36.1718657400353],[-86.8603066710679,36.1718761107763],[-86.8603304615049,36.1718835055991],[-86.8603553992188,36.1718877323737],[-86.86038353113,36.1718886305025],[-86.8604111491419,36.1718853963426],[-86.860437980004,36.1718791764599],[-86.8604629375973,36.1718688348812],[-86.860485487471,36.1718552127011],[-86.8605049620325,36.1718388662597],[-86.8605201490567,36.1718197411116],[-86.8605319772506,36.1717991158537],[-86.8605388536763,36.1717770901686],[-86.8605409802351,36.1717545485698],[-86.8605341555373,36.1716867376158],[-86.8604468103187,36.170819012611],[-86.8607315783663,36.1708345633939],[-86.8608030693129,36.1708404913652],[-86.8608743610439,36.1708478303077],[-86.8609453032963,36.1708571761346],[-86.8610158663483,36.1708682478608],[-86.86110916055,36.1708857132469],[-86.8612016043031,36.1709059317123],[-86.8612929356099,36.1709295477371],[-86.8613830728733,36.1709560067213],[-86.8614497677843,36.1709777273144],[-86.8615156963455,36.1710009368379],[-86.8615806233366,36.17102598216],[-86.8616446647118,36.1710524857218],[-86.8617015004889,36.1710777266339],[-86.8617574343673,36.1711042573728],[-86.8618503857976,36.1711518353006],[-86.8619291344289,36.1711963231684],[-86.8619864793195,36.1712314725232],[-86.8620427350737,36.1712677625309],[-86.8620973271892,36.1713055172484],[-86.8621506328225,36.1713444599968],[-86.8622196606475,36.1713986337025],[-86.8622601074903,36.1714327608196],[-86.8622995610445,36.1714676439779],[-86.8623615709783,36.1715259514105],[-86.8624151483335,36.1715802552172],[-86.8624661874419,36.1716361435508],[-86.8625203333368,36.171700298679],[-86.8625712775225,36.1717661539334],[-86.8626125591241,36.1718245814237],[-86.8626513418082,36.1718841227081],[-86.8626729149157,36.1719195391046],[-86.8627082520069,36.1719821711295],[-86.8627301084127,36.1720237024365],[-86.8627505825682,36.1720656933548],[-86.8627706479586,36.1721097547134],[-86.8627896263216,36.1721541311728],[-86.8628175388249,36.1722283777756],[-86.8623007397483,36.1726548439884],[-86.8619954876274,36.1729067374948],[-86.8599079876041,36.1746226235288],[-86.8597107201797,36.1744284362043],[-86.8593001633173,36.1740621512833],[-86.858919186988,36.1736736778249],[-86.8588397536598,36.1735973247696],[-86.8586423249379,36.1733877529962],[-86.8582400766622,36.173036788269],[-86.8582120863872,36.1725688514734]]]},"properties":{"id":"242893","parcel":"08000006400","address":"1831 LINDER INDUSTRIAL DR","owner":"SA PROPERTIES A LLC","point":[-86.86018630171574,36.1727785160078]}}]}