{"type":"FeatureCollection","features":[{"type":"Feature","id":"23221","geometry":{"type":"Polygon","coordinates":[[[-86.8880173708112,36.0935188809238],[-86.8881628326978,36.093450448653],[-86.8882644760513,36.0933979755577],[-86.8883649198265,36.0933440033473],[-86.8887117067686,36.0937546183822],[-86.8889882626403,36.0938851791069],[-86.888771524732,36.0941875918681],[-86.8886483105915,36.0943595088248],[-86.8880173708112,36.0935188809238]]]},"properties":{"id":"23221","parcel":"12907005900","address":"6512 MELINDA DR","owner":"WISE, DANIEL K.","point":[-86.8885464305367,36.093819616883025]}},{"type":"Feature","id":"23223","geometry":{"type":"Polygon","coordinates":[[[-86.8885638594977,36.0932321181447],[-86.888893562911,36.0930400936046],[-86.8892839437212,36.0934726169915],[-86.8889882626403,36.0938851791069],[-86.8887117067686,36.0937546183822],[-86.8883649198265,36.0933440033473],[-86.8884723783529,36.0932844616411],[-86.8885638594977,36.0932321181447]]]},"properties":{"id":"23223","parcel":"12907006000","address":"6516 MELINDA DR","owner":"GEBEAU JOINT REVOCABLE TRUST","point":[-86.88882257573823,36.09340830932851]}},{"type":"Feature","id":"59271","geometry":{"type":"Polygon","coordinates":[[[-86.889008786266,36.0995030146293],[-86.8892534247519,36.0987342419666],[-86.8900711712597,36.0988397340695],[-86.8900451140816,36.0989903864858],[-86.8899267032793,36.0996749588327],[-86.8898930484726,36.0996711243338],[-86.8897618262041,36.0996555565865],[-86.8897614436293,36.0996555089369],[-86.8896308922617,36.0996384588782],[-86.8894721115513,36.0996156052757],[-86.8894718178666,36.099615561476],[-86.8893138476746,36.0995904989272],[-86.8893135695068,36.0995904523088],[-86.8891561506875,36.0995631457746],[-86.8891559080858,36.0995631015975],[-86.8889990673442,36.0995335544886],[-86.889008786266,36.0995030146293]]]},"properties":{"id":"59271","parcel":"12903003900","address":"6321 E VALLEY RD","owner":"CLIFFORD REVOCABLE TRUST","point":[-86.8895455914417,36.09924671886947]}},{"type":"Feature","id":"118065","geometry":{"type":"Polygon","coordinates":[[[-86.8866040266784,36.1005671431088],[-86.8867784632707,36.0988941714922],[-86.8871867714394,36.0991808311725],[-86.8872469793412,36.0992166355031],[-86.8873093754165,36.0992498802545],[-86.8873737954236,36.0992804774038],[-86.8873738825149,36.0992805191237],[-86.8874406909667,36.0993075962374],[-86.8875091270829,36.0993318465972],[-86.8875790102333,36.0993532066369],[-86.8871306288374,36.1006775515338],[-86.8866040266784,36.1005671431088]]]},"properties":{"id":"118065","parcel":"12903002200","address":"6316 E VALLEY RD","owner":"THOMASON, ALFRED L. ET UX","point":[-86.88702038899581,36.09996010885392]}},{"type":"Feature","id":"118067","geometry":{"type":"Polygon","coordinates":[[[-86.8862947506841,36.0985760876804],[-86.8868340084174,36.0969411419547],[-86.8869107526143,36.0969930481262],[-86.8872149941685,36.0971995928713],[-86.8876645378754,36.0975042402564],[-86.8871136995767,36.0989195025791],[-86.8871046871504,36.0989426591035],[-86.8868957201864,36.0987951475415],[-86.8868466459097,36.0987635900663],[-86.8868465799788,36.0987635535982],[-86.8868015061639,36.0987383748775],[-86.8867547851173,36.0987152595958],[-86.8867065575422,36.0986942770175],[-86.8866569752154,36.0986754936219],[-86.8865678701087,36.0986472731272],[-86.8864777404785,36.0986212835883],[-86.8863866720765,36.0985975469047],[-86.8862947506841,36.0985760876804]]]},"properties":{"id":"118067","parcel":"12903003000","address":"6311 E VALLEY RD","owner":"FOREVER TRUST","point":[-86.88696372630773,36.09804015093894]}},{"type":"Feature","id":"118288","geometry":{"type":"Polygon","coordinates":[[[-86.887998012041,36.0992953972281],[-86.8884633578753,36.0980458660388],[-86.8894766314807,36.098088941674],[-86.8893469295956,36.0984403977596],[-86.8892534247519,36.0987342419666],[-86.889008786266,36.0995030146293],[-86.8889990673442,36.0995335544886],[-86.8888476351804,36.0995031074774],[-86.8887559442499,36.0994832437112],[-86.8886969014261,36.0994704532709],[-86.8885469172865,36.0994356014087],[-86.8879935352991,36.0993074164891],[-86.887998012041,36.0992953972281]]]},"properties":{"id":"118288","parcel":"12903002800","address":"6319 E VALLEY RD","owner":"JOSEFSOHN, MARGUERITE","point":[-86.88863333331707,36.09901482832742]}},{"type":"Feature","id":"118289","geometry":{"type":"Polygon","coordinates":[[[-86.8843965399384,36.0972180992742],[-86.8851221175059,36.0969605874786],[-86.8852300826956,36.0984580036682],[-86.8851479804422,36.0984626648661],[-86.8850661345208,36.0984696999348],[-86.8849846503289,36.0984790999897],[-86.884572516261,36.0985378048498],[-86.8843965399384,36.0972180992742]]]},"properties":{"id":"118289","parcel":"12903003200","address":"6305 E VALLEY RD","owner":"GARFINKEL, SCOTT & LOUISE","point":[-86.88483228642808,36.09783807046389]}},{"type":"Feature","id":"118290","geometry":{"type":"Polygon","coordinates":[[[-86.8834723507258,36.0975440919888],[-86.8843965399384,36.0972180992742],[-86.884572516261,36.0985378048498],[-86.8845611149098,36.0985392773754],[-86.8845516882773,36.0985404623231],[-86.8844698638727,36.0985523331657],[-86.8843887001098,36.0985668858614],[-86.8843083299773,36.0985840960027],[-86.8842288841931,36.0986039346925],[-86.8841504945658,36.0986263712233],[-86.8840732905934,36.0986513667936],[-86.8839973984229,36.0986788808239],[-86.8839398478122,36.0987012545805],[-86.8839238113628,36.0987048637375],[-86.8839072520719,36.0987061991579],[-86.8838906548595,36.0987052248407],[-86.8838745053377,36.098701966969],[-86.8838592754643,36.0986965221274],[-86.8838454145691,36.0986890492555],[-86.8838333271234,36.0986797680089],[-86.883823365967,36.0986689488934],[-86.8837570170561,36.0985624426938],[-86.8836944177343,36.0984544515881],[-86.8836356167129,36.0983450626505],[-86.8836059031576,36.098276349502],[-86.8835794106852,36.0982067736402],[-86.883556178157,36.0981364348258],[-86.8835362366606,36.0980654328764],[-86.8835196173233,36.0979938712141],[-86.8835063412477,36.0979218506305],[-86.8834770927458,36.0975968027153],[-86.8834723507258,36.0975440919888]]]},"properties":{"id":"118290","parcel":"12903003300","address":"117 BROOK HOLLOW RD","owner":"MARTIN, PAT & MARTHA","point":[-86.88400414445118,36.097958337385705]}},{"type":"Feature","id":"118468","geometry":{"type":"Polygon","coordinates":[[[-86.8900711712597,36.0988397340695],[-86.8892534247519,36.0987342419666],[-86.8893469295956,36.0984403977596],[-86.8894766314807,36.098088941674],[-86.8884633578753,36.0980458660388],[-86.8881727516905,36.0978488363035],[-86.8884020563619,36.0969232808367],[-86.8897446763673,36.0971177699809],[-86.8900756363349,36.0971702704124],[-86.8911900266404,36.0972961008569],[-86.8911569186694,36.0974831512665],[-86.8911497354286,36.0975403454674],[-86.8911137494758,36.0977328104617],[-86.8910813351571,36.0979256933801],[-86.8910524997659,36.0981189491071],[-86.891027248415,36.098312536148],[-86.8910055895089,36.0985064093785],[-86.8909872324579,36.0986665453205],[-86.8909738957429,36.0988103028105],[-86.8909738669865,36.098810610364],[-86.8909634662763,36.098954835557],[-86.8900711712597,36.0988397340695]]]},"properties":{"id":"118468","parcel":"12903002600","address":"212 ROBIN HILL RD","owner":"BOURKE TENNESSEE COMMUNITY PROPERTY TRUST","point":[-86.88972251254886,36.09798574100855]}},{"type":"Feature","id":"118475","geometry":{"type":"Polygon","coordinates":[[[-86.8877183041566,36.0992436602329],[-86.8876529173064,36.0992277218021],[-86.8875887075732,36.0992088905344],[-86.8875258721439,36.0991872208607],[-86.8874646005818,36.0991627807875],[-86.8874050780483,36.0991356419594],[-86.887347884011,36.0991053837177],[-86.8872926828218,36.0990727782394],[-86.8872396220337,36.0990379109659],[-86.8871046871504,36.0989426591035],[-86.8871136995767,36.0989195025791],[-86.8876645378754,36.0975042402564],[-86.8881727516905,36.0978488363035],[-86.8884633578753,36.0980458660388],[-86.887998012041,36.0992953972281],[-86.8879935352991,36.0993074164891],[-86.8877183041566,36.0992436602329]]]},"properties":{"id":"118475","parcel":"12903002900","address":"6315 E VALLEY RD","owner":"LEWIS & CLARK, LTD","point":[-86.88779220160396,36.0984826896676]}},{"type":"Feature","id":"119310","geometry":{"type":"Polygon","coordinates":[[[-86.8854204427914,36.0984579048682],[-86.8853252614018,36.0984561900347],[-86.8852300826956,36.0984580036682],[-86.8851221175059,36.0969605874786],[-86.8862668004944,36.096556590521],[-86.8868340084174,36.0969411419547],[-86.8862947506841,36.0985760876804],[-86.8862314277555,36.0985622071883],[-86.8860470925375,36.0985349574257],[-86.885678208928,36.0984804279791],[-86.8855977443251,36.0984708072837],[-86.8855169112855,36.0984635001555],[-86.8854358109361,36.0984585130615],[-86.8854204427914,36.0984579048682]]]},"properties":{"id":"119310","parcel":"12903003100","address":"6307 E VALLEY RD","owner":"CLARK, L PROTECTION TRUST","point":[-86.88587827669234,36.09770901404585]}},{"type":"Feature","id":"120208","geometry":{"type":"Polygon","coordinates":[[[-86.8884508568728,36.0913604076751],[-86.8886474510197,36.0912645411133],[-86.8890434626894,36.0918088547443],[-86.8887800145127,36.0919800212865],[-86.8885299309794,36.0921357054595],[-86.8880845969427,36.0915390079105],[-86.8884508568728,36.0913604076751]]]},"properties":{"id":"120208","parcel":"12911001500","address":"6416 HARDING PIKE","owner":"BURNS, WILLIAM J. (LE) FERGUS, MARGARET ELLEN","point":[-86.88856529444817,36.09167393346326]}},{"type":"Feature","id":"120209","geometry":{"type":"Polygon","coordinates":[[[-86.8840500364948,36.0913285546003],[-86.8841069457084,36.0913023143544],[-86.8844233790806,36.0917549221253],[-86.8841809954275,36.0918731784979],[-86.8841648472449,36.0918820881331],[-86.8838133881265,36.0914451206358],[-86.8840500364948,36.0913285546003]]]},"properties":{"id":"120209","parcel":"12911002200","address":"6326 ST HENRY DR","owner":"GALLAGHER, DANIEL M.& KATHLEEN P.","point":[-86.88412652585525,36.0916000296434]}},{"type":"Feature","id":"120210","geometry":{"type":"Polygon","coordinates":[[[-86.8834794575836,36.091609924276],[-86.8838133881265,36.0914451206358],[-86.8841648472449,36.0918820881331],[-86.884138598786,36.0918957414323],[-86.8838283337911,36.0920581751275],[-86.8834794575836,36.091609924276]]]},"properties":{"id":"120210","parcel":"12911002300","address":"6324 ST HENRY DR","owner":"FLEANER, TRACY BASKETTE- & WILLIAM JEFF","point":[-86.88382038408773,36.09174600498123]}},{"type":"Feature","id":"120211","geometry":{"type":"Polygon","coordinates":[[[-86.8843252538985,36.0904809635444],[-86.8848363635011,36.0904222709879],[-86.8848391684912,36.0904310416323],[-86.88486637628,36.0906857776697],[-86.8843772196788,36.0907706821047],[-86.8843575740598,36.0906743903779],[-86.8843402494044,36.090577804926],[-86.8843252538985,36.0904809635444]]]},"properties":{"id":"120211","parcel":"12911002600","address":"937 NEUHOFF LN","owner":"VINETT, RYAN & ERIKA","point":[-86.8846044831343,36.09062634402212]}},{"type":"Feature","id":"120212","geometry":{"type":"Polygon","coordinates":[[[-86.8843056820205,36.090182217044],[-86.8848093517272,36.0901851150468],[-86.8848363635011,36.0904222709879],[-86.8843252538985,36.0904809635444],[-86.8843162939713,36.09040648498],[-86.8843100415399,36.0903318243238],[-86.8843065039914,36.0902570473166],[-86.8843056820205,36.090182217044]]]},"properties":{"id":"120212","parcel":"12911002700","address":"935 NEUHOFF LN","owner":"MCGOVERN, ELIZABETH C.","point":[-86.88456506615981,36.090294683452846]}},{"type":"Feature","id":"120213","geometry":{"type":"Polygon","coordinates":[[[-86.8843144818457,36.0899997394669],[-86.8843214787377,36.0898985953262],[-86.8848280751237,36.0899212515888],[-86.8848117416735,36.0901565273669],[-86.8848093517272,36.0901851150468],[-86.8843056820205,36.090182217044],[-86.8843144818457,36.0899997394669]]]},"properties":{"id":"120213","parcel":"12911002800","address":"933 NEUHOFF LN","owner":"SHARP, III JESSE LEE REVOCABLE TRUST","point":[-86.88456394004872,36.09007813447297]}},{"type":"Feature","id":"120221","geometry":{"type":"Polygon","coordinates":[[[-86.8852513892803,36.0985926473311],[-86.8853309285432,36.0985915794084],[-86.885410515998,36.0985933402379],[-86.8854105759839,36.0985933416],[-86.8854899417024,36.098597925052],[-86.8854900528306,36.0985979314463],[-86.8855690945769,36.0986053310618],[-86.8855692046348,36.0986053410691],[-86.8856478813194,36.0986155562492],[-86.885925760854,36.0986566338431],[-86.8859454623772,36.0987965175779],[-86.8860064324563,36.0992294481983],[-86.8859816550591,36.0994070208902],[-86.8859123466548,36.0995521488155],[-86.885168671598,36.0995551214222],[-86.8852634126014,36.0992335414112],[-86.8850289649656,36.0986107258467],[-86.8850924852787,36.0986032692134],[-86.8851717305486,36.0985965479406],[-86.8851718304514,36.0985965436021],[-86.8852512626958,36.0985926491617],[-86.8852513892803,36.0985926473311]]]},"properties":{"id":"120221","parcel":"12903003700","address":"6306 E VALLEY RD","owner":"SANDERS, THOMAS K. ET UX","point":[-86.88557802407836,36.09901260358185]}},{"type":"Feature","id":"120279","geometry":{"type":"Polygon","coordinates":[[[-86.8875324949007,36.0918068017245],[-86.8880845969427,36.0915390079105],[-86.8885299309794,36.0921357054595],[-86.8883121174881,36.0922713706586],[-86.8880240518574,36.092420739696],[-86.8875324949007,36.0918068017245]]]},"properties":{"id":"120279","parcel":"12911001400","address":"6412 HARDING PIKE","owner":"IRA INNOVATIONS, LLC FBO CHRISTOPHER MARCHETTI IRA","point":[-86.88803567364438,36.09197125879892]}},{"type":"Feature","id":"120280","geometry":{"type":"Polygon","coordinates":[[[-86.8848655338215,36.0915824538471],[-86.8848829353624,36.0911999222177],[-86.8852133988184,36.0912106834343],[-86.8852265273426,36.091211733498],[-86.8852392890579,36.0912144455366],[-86.885251367845,36.0912187524713],[-86.8852624615677,36.0912245465626],[-86.8852722943464,36.0912316847279],[-86.8852806243213,36.091239987583],[-86.8852872404517,36.0912492511825],[-86.8852919824623,36.0912592432681],[-86.88529472877,36.0912697159756],[-86.8852954120595,36.0912804084237],[-86.8852853277782,36.0915903610336],[-86.8848655338215,36.0915824538471]]]},"properties":{"id":"120280","parcel":"12911001900","address":"96 VAUGHNS GAP RD","owner":"NGUYEN, BICH THU THI & GIANG THI","point":[-86.88508145250762,36.09143143226977]}},{"type":"Feature","id":"120281","geometry":{"type":"Polygon","coordinates":[[[-86.8841069457084,36.0913023143544],[-86.8841710557097,36.0912775210335],[-86.8842368196891,36.0912557682333],[-86.8843040196814,36.0912371269493],[-86.8843724309798,36.0912216610167],[-86.8844418276171,36.0912094207608],[-86.8845119768541,36.091200446643],[-86.8845931473273,36.0916811523287],[-86.8844233790806,36.0917549221253],[-86.8841069457084,36.0913023143544]]]},"properties":{"id":"120281","parcel":"12911002100","address":"6328 ST HENRY DR","owner":"VAILLANCOURT, JASON & BRIDGET","point":[-86.88440024837114,36.091491782027994]}},{"type":"Feature","id":"120842","geometry":{"type":"Polygon","coordinates":[[[-86.8799059328222,36.0977877421035],[-86.8796611677792,36.0974488815902],[-86.8804341782196,36.0970718263993],[-86.8812017889128,36.0966970029765],[-86.8814468757165,36.09657653486],[-86.8819955224795,36.0972120590682],[-86.8832056814544,36.0966977267513],[-86.8832173521648,36.0967310846553],[-86.883226479948,36.0967649605],[-86.883233032295,36.0967992274416],[-86.8832369811086,36.0968337559002],[-86.8816038012998,36.0975401857326],[-86.8810270215772,36.0977861494862],[-86.8801672616349,36.098155051284],[-86.8799059328222,36.0977877421035]]]},"properties":{"id":"120842","parcel":"12908014100","address":"112 BROOK HOLLOW RD","owner":"REISELMAN REVOCABLE TRUST","point":[-86.8809957807123,36.097330642416296]}},{"type":"Feature","id":"120948","geometry":{"type":"Polygon","coordinates":[[[-86.8886474510197,36.0912645411133],[-86.8892641576915,36.0909633025981],[-86.8896463356597,36.0914813435435],[-86.8892155413871,36.0916999000632],[-86.8890434626894,36.0918088547443],[-86.8886474510197,36.0912645411133]]]},"properties":{"id":"120948","parcel":"12911001600","address":"6420 HARDING PIKE","owner":"LOCKHART, MELISSA A. & JAY P., JR","point":[-86.88914634215503,36.09137294285972]}},{"type":"Feature","id":"120950","geometry":{"type":"Polygon","coordinates":[[[-86.8836241476247,36.090255343257],[-86.8836428249593,36.0899870838386],[-86.8836426538321,36.0899717008936],[-86.8841465189814,36.0899921826807],[-86.8841433090753,36.0900808088966],[-86.8841424903501,36.0901694698519],[-86.8841440634725,36.0902581249835],[-86.8836242209608,36.0902619356898],[-86.8836241476247,36.090255343257]]]},"properties":{"id":"120950","parcel":"12911005500","address":"932 NEUHOFF LN","owner":"BELL, DEVIN & SARA","point":[-86.88388807353323,36.09012489274378]}},{"type":"Feature","id":"120951","geometry":{"type":"Polygon","coordinates":[[[-86.8848624423206,36.0910616166426],[-86.8848749882346,36.0907296688063],[-86.8853165846241,36.0907506044944],[-86.8853072631633,36.0909752521245],[-86.8853059126312,36.0910078131963],[-86.8853045635963,36.091018689109],[-86.8853010878326,36.0910292489599],[-86.8852955722662,36.0910392217225],[-86.8852881605828,36.0910483476699],[-86.8852790445159,36.0910563937614],[-86.885268459375,36.0910631509712],[-86.8852566775139,36.0910684460534],[-86.885244002779,36.0910721415826],[-86.8852307628068,36.09107414232],[-86.8852172990408,36.0910743961874],[-86.8848624423206,36.0910616166426]]]},"properties":{"id":"120951","parcel":"12911002400","address":"94 VAUGHNS GAP RD","owner":"JOHNSON, PATRICIA KOCH REV LIVING TR","point":[-86.88509094582082,36.090862716624585]}},{"type":"Feature","id":"120952","geometry":{"type":"Polygon","coordinates":[[[-86.8836078349815,36.0904928160297],[-86.8836242209608,36.0902619356898],[-86.8841440634725,36.0902581249835],[-86.884148013462,36.090340240015],[-86.8841543420768,36.0904222573878],[-86.8841630476925,36.0905041302461],[-86.8836357168631,36.0905651370741],[-86.8836078349815,36.0904928160297]]]},"properties":{"id":"120952","parcel":"12911005600","address":"934 NEUHOFF LN","owner":"SIMMONS, CORY","point":[-86.8838834838514,36.09038098962043]}},{"type":"Feature","id":"121034","geometry":{"type":"Polygon","coordinates":[[[-86.8848093517272,36.0901851150468],[-86.8848117416735,36.0901565273669],[-86.8853426332265,36.0901724102226],[-86.8853294992911,36.0904516169158],[-86.8848391684912,36.0904310416323],[-86.8848363635011,36.0904222709879],[-86.8848093517272,36.0901851150468]]]},"properties":{"id":"121034","parcel":"12911004200","address":"90 VAUGHNS GAP RD","owner":"ELISAR, DORA LOUISE","point":[-86.88507964604737,36.09030393954439]}},{"type":"Feature","id":"121037","geometry":{"type":"Polygon","coordinates":[[[-86.88486637628,36.0906857776697],[-86.8848391684912,36.0904310416323],[-86.8853294992911,36.0904516169158],[-86.8853165846241,36.0907506044944],[-86.8848749882346,36.0907296688063],[-86.88486637628,36.0906857776697]]]},"properties":{"id":"121037","parcel":"12911004300","address":"92 VAUGHNS GAP RD","owner":"WINKLER, TONY J. & EMILY M.","point":[-86.8850891394185,36.090568689081614]}},{"type":"Feature","id":"121040","geometry":{"type":"Polygon","coordinates":[[[-86.8838050082856,36.0909353107825],[-86.8837417084553,36.0908434704663],[-86.8842092551483,36.0907631227035],[-86.8842312066378,36.0908534931609],[-86.8842556785967,36.0909434350399],[-86.8842826594377,36.0910329042604],[-86.8842856568469,36.0910424044546],[-86.8842867006494,36.0910521767463],[-86.8842857623362,36.0910619545614],[-86.8842828667561,36.0910714763423],[-86.8842780921266,36.0910804864486],[-86.8842715678826,36.0910887414829],[-86.8842634670047,36.0910960193592],[-86.8842540094105,36.091102124686],[-86.8842434497804,36.091106892461],[-86.8842320720863,36.0911101953216],[-86.884150957785,36.0911380894389],[-86.8840709351257,36.0911679889889],[-86.883992079278,36.09119986368],[-86.8838050082856,36.0909353107825]]]},"properties":{"id":"121040","parcel":"12911004400","address":"938 NEUHOFF LN","owner":"THURMAN, KRISTIN A & WILLIAM P","point":[-86.88405563131296,36.09098796324082]}},{"type":"Feature","id":"121043","geometry":{"type":"Polygon","coordinates":[[[-86.8833706940672,36.0910822543981],[-86.8833294111085,36.0910223089096],[-86.8832919766844,36.0909630274081],[-86.8832578835161,36.0909024316667],[-86.8832272007334,36.0908406473629],[-86.8836886758954,36.0907010075683],[-86.8837417084553,36.0908434704663],[-86.8838050082856,36.0909353107825],[-86.8834092242227,36.0911382038726],[-86.8833706940672,36.0910822543981]]]},"properties":{"id":"121043","parcel":"12911004600","address":"6304 PERCY DR","owner":"STEFFENHAGEN, WILLIAM M.& MARY B.","point":[-86.88353042082399,36.09091887054055]}},{"type":"Feature","id":"121399","geometry":{"type":"Polygon","coordinates":[[[-86.8836886758954,36.0907010075683],[-86.8836357168631,36.0905651370741],[-86.8841630476925,36.0905041302461],[-86.8841761100634,36.0905907290889],[-86.8841915149208,36.0906770737109],[-86.8842092551483,36.0907631227035],[-86.8837417084553,36.0908434704663],[-86.8836886758954,36.0907010075683]]]},"properties":{"id":"121399","parcel":"12911005700","address":"936 NEUHOFF LN","owner":"BRODERICK, JASON LUTHER & AMANDA LYNNMARIE","point":[-86.88392306755507,36.09063364912242]}},{"type":"Feature","id":"121818","geometry":{"type":"Polygon","coordinates":[[[-86.8892641576915,36.0909633025981],[-86.8894123612073,36.0908964645368],[-86.8895591977739,36.0908276679467],[-86.8897046287331,36.0907569320453],[-86.889848615417,36.0906842751487],[-86.8902610742435,36.0912460450794],[-86.8897298293981,36.0914411678485],[-86.8896463356597,36.0914813435435],[-86.8892641576915,36.0909633025981]]]},"properties":{"id":"121818","parcel":"12911001700","address":"6422 HARDING PIKE","owner":"STILLMAN, JARED M","point":[-86.88976286424806,36.091104675104745]}},{"type":"Feature","id":"121824","geometry":{"type":"Polygon","coordinates":[[[-86.8845119768541,36.091200446643],[-86.8845712807499,36.0911944172626],[-86.8846309155324,36.0911911776358],[-86.8846906803405,36.09119073915],[-86.8847503775337,36.0911931032554],[-86.8848098071406,36.0911982615053],[-86.8848829353624,36.0911999222177],[-86.8848655338215,36.0915824538471],[-86.8845931473273,36.0916811523287],[-86.8845119768541,36.091200446643]]]},"properties":{"id":"121824","parcel":"12911002000","address":"6330 ST HENRY DR","owner":"ARONICA, STEPHANIE","point":[-86.88470921004982,36.091391470058596]}},{"type":"Feature","id":"121827","geometry":{"type":"Polygon","coordinates":[[[-86.8845375105158,36.0910618024724],[-86.8845262362439,36.0910631226555],[-86.8845148478907,36.0910629736631],[-86.8845036319831,36.0910613578998],[-86.8844928754797,36.0910583165227],[-86.8844828502052,36.0910539277532],[-86.8844738105792,36.0910483023872],[-86.8844659869344,36.091041582041],[-86.8844595777535,36.0910339401102],[-86.8844547450673,36.0910255673822],[-86.8844516112042,36.0910166792706],[-86.8844502574987,36.0910074996012],[-86.8844236742615,36.0909290223921],[-86.8843993233648,36.0908500700435],[-86.8843772196788,36.0907706821047],[-86.88486637628,36.0906857776697],[-86.8848749882346,36.0907296688063],[-86.8848624423206,36.0910616166426],[-86.8847541491215,36.0910587547559],[-86.8846457985505,36.0910588169925],[-86.8845375105158,36.0910618024724]]]},"properties":{"id":"121827","parcel":"12911002500","address":"939 NEUHOFF LN","owner":"LANDERS, SEPTENBER & JOHN","point":[-86.88464021393496,36.090889766605706]}},{"type":"Feature","id":"121875","geometry":{"type":"Polygon","coordinates":[[[-86.8834092242227,36.0911382038726],[-86.8838050082856,36.0909353107825],[-86.883992079278,36.09119986368],[-86.8839476348329,36.0912207930988],[-86.8836635196077,36.0913605077567],[-86.8836497088887,36.0913655138127],[-86.883635055723,36.0913685594165],[-86.8836199800122,36.0913695576704],[-86.8836049123033,36.0913684801827],[-86.8835902848949,36.0913653562323],[-86.8835765141219,36.0913602774044],[-86.8835639946927,36.0913533877179],[-86.8835530852543,36.0913448837314],[-86.8835440972383,36.0913350101176],[-86.8834092242227,36.0911382038726]]]},"properties":{"id":"121875","parcel":"12911004500","address":"6323 ST HENRY DR","owner":"MCNAMEE, DENNIS P & SIGLER, CYNTHIA A.","point":[-86.88370031811257,36.09116903380685]}},{"type":"Feature","id":"122129","geometry":{"type":"Polygon","coordinates":[[[-86.8881227993386,36.0951979309777],[-86.8883189479553,36.0944439299844],[-86.8883196105147,36.0944443892698],[-86.8885677796373,36.0944718708634],[-86.888906169929,36.0945093437947],[-86.888722278806,36.095290214035],[-86.8884944224229,36.0952551383899],[-86.8881227993386,36.0951979309777]]]},"properties":{"id":"122129","parcel":"12907003500","address":"139 VAUGHNS GAP RD","owner":"WEINBERGER, SHELIA","point":[-86.88851873074938,36.094853641987925]}},{"type":"Feature","id":"122130","geometry":{"type":"Polygon","coordinates":[[[-86.886716471085,36.0941445843974],[-86.8875784150832,36.0937308372202],[-86.8875847335584,36.0937395575995],[-86.8878603858083,36.0941199771035],[-86.8869378672061,36.0945715115106],[-86.8867701020846,36.0943443322516],[-86.886687667682,36.0942327048162],[-86.8866820023583,36.0942232982103],[-86.8866784650584,36.0942136190873],[-86.8866768430281,36.0942036095266],[-86.8866771745665,36.0941935171022],[-86.8866794502453,36.0941835915421],[-86.8866836161688,36.0941740783944],[-86.8866895683624,36.0941652136611],[-86.8866971593442,36.0941572156384],[-86.8867062014159,36.0941502812871],[-86.886716471085,36.0941445843974]]]},"properties":{"id":"122130","parcel":"12907003800","address":"117 VAUGHNS GAP RD","owner":"BERY, POONAM & POOJA","point":[-86.88724548941603,36.09415426138178]}},{"type":"Feature","id":"122131","geometry":{"type":"Polygon","coordinates":[[[-86.8875812394866,36.0937294816135],[-86.8880173708112,36.0935188809238],[-86.8886483105915,36.0943595088248],[-86.8885677796373,36.0944718708634],[-86.8883196105147,36.0944443892698],[-86.8883189479553,36.0944439299844],[-86.8880342103711,36.0942465438571],[-86.8878692184381,36.0941321660624],[-86.8878603858083,36.0941199771035],[-86.8875847335584,36.0937395575995],[-86.8875784150832,36.0937308372202],[-86.8875812394866,36.0937294816135]]]},"properties":{"id":"122131","parcel":"12907003900","address":"6508 MELINDA DR","owner":"PRICE, BRITTANY & BRIAN","point":[-86.88802437278014,36.09393004983551]}},{"type":"Feature","id":"122132","geometry":{"type":"Polygon","coordinates":[[[-86.8890434626894,36.0918088547443],[-86.8892155413871,36.0916999000632],[-86.8897644627357,36.0923573605345],[-86.8893448102378,36.0926044053573],[-86.8887800145127,36.0919800212865],[-86.8890434626894,36.0918088547443]]]},"properties":{"id":"122132","parcel":"12907004200","address":"6527 MELINDA DR","owner":"BENNETT, WILLIAM K. & SUSAN L.","point":[-86.8892788033499,36.092168697989]}},{"type":"Feature","id":"122147","geometry":{"type":"Polygon","coordinates":[[[-86.8821343790119,36.094859485527],[-86.8819448470575,36.0945993435757],[-86.8819381443291,36.094588371582],[-86.8819338107911,36.0945766413968],[-86.88193196786,36.0945644865118],[-86.8819326682557,36.0945522544411],[-86.8819358913804,36.0945402905305],[-86.8819415477503,36.0945289370249],[-86.8819494732531,36.0945185159844],[-86.8819594457652,36.094509325559],[-86.8819711794488,36.09450162651],[-86.8819837304084,36.0944960223973],[-86.8826064619648,36.0941923193487],[-86.8835827597547,36.095541161972],[-86.8828797891743,36.0958825618633],[-86.8821343790119,36.094859485527]]]},"properties":{"id":"122147","parcel":"12908000200","address":"101 BROOK HOLLOW RD","owner":"RICHARDS, ROBERT REVOCABLE LIVING TRUST","point":[-86.88285938340161,36.09520032674052]}},{"type":"Feature","id":"122148","geometry":{"type":"Polygon","coordinates":[[[-86.8814468757165,36.09657653486],[-86.8819693923612,36.0963221746327],[-86.8827288912155,36.0959495979972],[-86.8830258912792,36.0963583969848],[-86.8830607094292,36.0964032977049],[-86.8830926125162,36.0964496023465],[-86.88312151477,36.096497188063],[-86.8831473381226,36.0965459256419],[-86.8831700122583,36.0965956840113],[-86.8831894779456,36.0966463302154],[-86.8832056814544,36.0966977267513],[-86.8819955224795,36.0972120590682],[-86.8814468757165,36.09657653486]]]},"properties":{"id":"122148","parcel":"12908000400","address":"108 BROOK HOLLOW RD","owner":"ADAMS, DON PATTERSON, JR. & KARLA M.","point":[-86.8823102251694,36.09658611428226]}},{"type":"Feature","id":"122170","geometry":{"type":"Polygon","coordinates":[[[-86.8832277452912,36.0923504771627],[-86.8833758555432,36.0922768677482],[-86.8839829868407,36.0930592021222],[-86.8833958476374,36.0933439543754],[-86.8832100089759,36.0934340832511],[-86.882610957239,36.0926472903414],[-86.8829368649696,36.092491064268],[-86.8832277452912,36.0923504771627]]]},"properties":{"id":"122170","parcel":"12908001200","address":"6313 HARDING PIKE","owner":"STONEGATE ACQUISITIONS, LLC","point":[-86.8832954635622,36.092853246728325]}},{"type":"Feature","id":"122171","geometry":{"type":"Polygon","coordinates":[[[-86.8821757904077,36.0927186036654],[-86.882610957239,36.0926472903414],[-86.8832100089759,36.0934340832511],[-86.8825285941456,36.0937643349349],[-86.881778457475,36.0927830466825],[-86.8821757904077,36.0927186036654]]]},"properties":{"id":"122171","parcel":"12908001300","address":"6309 HARDING PIKE","owner":"HENSLEY, BERT C FAMILY TRUST, THE","point":[-86.8824947291908,36.093108567597085]}},{"type":"Feature","id":"122182","geometry":{"type":"Polygon","coordinates":[[[-86.8812595256243,36.0926264064931],[-86.8813877110277,36.0922210896234],[-86.8814459904493,36.0922342298868],[-86.881505029832,36.0922449022312],[-86.8815646711452,36.0922530762654],[-86.8816247542472,36.0922587315284],[-86.8816851179158,36.0922618502713],[-86.8817455999583,36.0922624273704],[-86.8817433077839,36.0927876993305],[-86.8814486907176,36.0928360050147],[-86.8812595256243,36.0926264064931]]]},"properties":{"id":"122182","parcel":"12908003900","address":"6310 ST HENRY DR","owner":"POLCA, ELIZABETH ANN","point":[-86.88153097223451,36.092444445270296]}},{"type":"Feature","id":"122183","geometry":{"type":"Polygon","coordinates":[[[-86.8820513127736,36.0922382142803],[-86.8821212452235,36.0922241138855],[-86.8821901331825,36.0922069584944],[-86.882257775103,36.0921867991546],[-86.8823239717389,36.0921636941076],[-86.882610957239,36.0926472903414],[-86.8821757904077,36.0927186036654],[-86.8820513127736,36.0922382142803]]]},"properties":{"id":"122183","parcel":"12908004100","address":"6314 ST HENRY DR","owner":"STEPHENS, MATTHEW P. & RACHEL M.","point":[-86.8822969612856,36.092442719079706]}},{"type":"Feature","id":"122293","geometry":{"type":"Polygon","coordinates":[[[-86.8898734130393,36.0954657831632],[-86.8898588401247,36.0954642431404],[-86.889645275633,36.0954313895336],[-86.8893271741367,36.0953824541775],[-86.8895256975826,36.0945759341764],[-86.8900234852126,36.0945293594229],[-86.8900282432025,36.0945289133139],[-86.8900397118763,36.0946224037308],[-86.8900467817065,36.0947161807785],[-86.890048094913,36.0947534945784],[-86.8900490839857,36.0948013252681],[-86.8900481156621,36.0948799171536],[-86.8900440027084,36.0949584421192],[-86.8900367497283,36.09503681631],[-86.890026364697,36.0951149594516],[-86.8900128577606,36.0951927867464],[-86.8899691909255,36.0954040902555],[-86.8899655632818,36.0954154282691],[-86.8899597944872,36.0954261665014],[-86.889952027049,36.095436039821],[-86.8899424514861,36.095444806176],[-86.8899313052388,36.0954522484045],[-86.889918861665,36.0954581833285],[-86.88990542676,36.095462466285],[-86.8898913313729,36.0954649902817],[-86.8898769235144,36.095465693265],[-86.8898734130393,36.0954657831632]]]},"properties":{"id":"122293","parcel":"12907003300","address":"149 VAUGHNS GAP RD","owner":"SADIE 85 TRUST","point":[-86.88973120745119,36.0949973451186]}},{"type":"Feature","id":"122294","geometry":{"type":"Polygon","coordinates":[[[-86.8892155413871,36.0916999000632],[-86.8896463356597,36.0914813435435],[-86.8897298293981,36.0914411678485],[-86.8902007013187,36.0921409637736],[-86.8900895460917,36.0921922343228],[-86.8899797534884,36.0922454063566],[-86.8898713776603,36.0923004569466],[-86.8897644627357,36.0923573605345],[-86.8892155413871,36.0916999000632]]]},"properties":{"id":"122294","parcel":"12907004100","address":"6531 MELINDA DR","owner":"LADD, MICHAEL D.& KATHRYN J.","point":[-86.88972597630053,36.091920449365254]}},{"type":"Feature","id":"122295","geometry":{"type":"Polygon","coordinates":[[[-86.8880240518574,36.092420739696],[-86.8883121174881,36.0922713706586],[-86.8888686414972,36.0928826319022],[-86.8884974261736,36.093102942057],[-86.8884705140279,36.0931177917979],[-86.8884247631331,36.0931430361646],[-86.8878733122086,36.0925009680787],[-86.8880240518574,36.092420739696]]]},"properties":{"id":"122295","parcel":"12907004400","address":"6519 MELINDA DR","owner":"FRIDENSTINE, JASON GEORGE & AMERY GISELLE","point":[-86.88836605799175,36.092691796443745]}},{"type":"Feature","id":"122296","geometry":{"type":"Polygon","coordinates":[[[-86.8862201110623,36.0935856177388],[-86.8870121278151,36.093219367506],[-86.887350318667,36.0936784004748],[-86.8866338437084,36.0940199220238],[-86.8866211038025,36.0940245807534],[-86.8866076268465,36.0940275775069],[-86.8865937407291,36.0940288386712],[-86.8865797827254,36.0940283356287],[-86.8865660883223,36.0940260785309],[-86.8865529935093,36.0940221225903],[-86.886540813641,36.0940165646311],[-86.8865298456069,36.0940095385661],[-86.8865203545066,36.094001215495],[-86.886514413056,36.0939944273677],[-86.8864238861433,36.0938686800851],[-86.8862201110623,36.0935856177388]]]},"properties":{"id":"122296","parcel":"12907004700","address":"111 VAUGHNS GAP RD","owner":"LCL TENNESSEE COMMUNITY PROPERTY TRUST, THE","point":[-86.88678482788751,36.093632010073534]}},{"type":"Feature","id":"122321","geometry":{"type":"Polygon","coordinates":[[[-86.8870934935654,36.0920188135222],[-86.8875324949007,36.0918068017245],[-86.8880240518574,36.092420739696],[-86.8878733122086,36.0925009680787],[-86.8874717224794,36.0926687531917],[-86.8870046338541,36.092063424261],[-86.8870934935654,36.0920188135222]]]},"properties":{"id":"122321","parcel":"12907005100","address":"6408 HARDING PIKE","owner":"KOHL, JOHN & HELEN LIVING TRUST","point":[-86.88751175184142,36.09224208063209]}},{"type":"Feature","id":"122322","geometry":{"type":"Polygon","coordinates":[[[-86.8845931473273,36.0916811523287],[-86.8848655338215,36.0915824538471],[-86.8852853277782,36.0915903610336],[-86.8852505594485,36.0920894989784],[-86.8852269666757,36.092428120821],[-86.8852247039191,36.0924362283516],[-86.8852213935108,36.0924440948161],[-86.8852151648694,36.0924539646504],[-86.8852071953823,36.092462973009],[-86.8851976615725,36.0924709167056],[-86.8851922859905,36.0924745279978],[-86.8849741465589,36.0925792354512],[-86.8847505664839,36.0926865529148],[-86.884138598786,36.0918957414323],[-86.8841648472449,36.0918820881331],[-86.8841809954275,36.0918731784979],[-86.8844233790806,36.0917549221253],[-86.8845931473273,36.0916811523287]]]},"properties":{"id":"122322","parcel":"12907005200","address":"6321 HARDING PIKE","owner":"MOORE, JASON ROBERT & MARY SEVIER","point":[-86.88482885502198,36.0922584166517]}},{"type":"Feature","id":"122323","geometry":{"type":"Polygon","coordinates":[[[-86.8884020563619,36.0969232808367],[-86.8885211551496,36.0964345105718],[-86.8885444299976,36.0964267826256],[-86.8885660555921,36.0964163656507],[-86.8885855624719,36.0964034848255],[-86.8886025295307,36.0963884190501],[-86.8886165873085,36.0963714973166],[-86.8886274333561,36.0963530823721],[-86.8886348311853,36.0963335761348],[-86.8886386211509,36.0963133997846],[-86.8886387215211,36.0962929901502],[-86.8886417596078,36.096269236698],[-86.8886485582176,36.0962460017167],[-86.8886590017651,36.0962236745149],[-86.8886729134398,36.0962026313329],[-86.8898585227439,36.0966444203961],[-86.8897446763673,36.0971177699809],[-86.8884020563619,36.0969232808367]]]},"properties":{"id":"122323","parcel":"12907005600","address":"309 TERRY TRCE","owner":"ROBIN, MARK L. & DEBORAH W.","point":[-86.88913051077054,36.096783853036584]}},{"type":"Feature","id":"122325","geometry":{"type":"Polygon","coordinates":[[[-86.8816038012998,36.0975401857326],[-86.8832369811086,36.0968337559002],[-86.8832436440877,36.0968708800309],[-86.8832476745195,36.096908253273],[-86.8832490588022,36.0969457513481],[-86.8832961259154,36.0975981284212],[-86.8832970798545,36.0976113073498],[-86.8816115831155,36.0977533071246],[-86.8816038012998,36.0975401857326]]]},"properties":{"id":"122325","parcel":"12908000300","address":"116 BROOK HOLLOW RD","owner":"PARKER, BRANDON L. & RACHELH.","point":[-86.8827809016143,36.09724331864891]}},{"type":"Feature","id":"122353","geometry":{"type":"Polygon","coordinates":[[[-86.880992470098,36.093206358604],[-86.8811803204271,36.0930533432977],[-86.8819333801603,36.0940543926803],[-86.8812789092624,36.0943734515343],[-86.8806192540526,36.0934925903695],[-86.8806756761023,36.0934526196187],[-86.880992470098,36.093206358604]]]},"properties":{"id":"122353","parcel":"12908001500","address":"6301 HARDING PIKE","owner":"GOODMAN, SEYMOUR ET UX","point":[-86.88127583930725,36.09377349285745]}},{"type":"Feature","id":"122537","geometry":{"type":"Polygon","coordinates":[[[-86.885715804058,36.0944991784743],[-86.8864052632847,36.0941622566887],[-86.8868906345755,36.0948245970534],[-86.8869194698427,36.0948639436563],[-86.8851880155042,36.0957359769685],[-86.8846493022532,36.0950212740027],[-86.8850048058898,36.0948472429041],[-86.885715804058,36.0944991784743]]]},"properties":{"id":"122537","parcel":"12907000800","address":"124 VAUGHNS GAP RD","owner":"TERRY, MONICA MCREDMOND TRUSTEE","point":[-86.8857866581644,36.0949426163725]}},{"type":"Feature","id":"122538","geometry":{"type":"Polygon","coordinates":[[[-86.8828797891743,36.0958825618633],[-86.8835827597547,36.095541161972],[-86.8842937736971,36.095193105962],[-86.8846493022532,36.0950212740027],[-86.8851880155042,36.0957359769685],[-86.8833563604627,36.096610911864],[-86.8833374053437,36.0965554562503],[-86.8833142951619,36.0965010486297],[-86.8832871177046,36.0964478929505],[-86.8832559751538,36.0963961894501],[-86.8832209862972,36.0963461337372],[-86.8831822798253,36.0962979132364],[-86.8828797891743,36.0958825618633]]]},"properties":{"id":"122538","parcel":"12907001200","address":"109 BROOK HOLLOW RD","owner":"DISKIN, YANIQUE, TRUSTEE","point":[-86.88403262753118,36.095809273741324]}},{"type":"Feature","id":"122586","geometry":{"type":"Polygon","coordinates":[[[-86.88766926659,36.0902344216954],[-86.887791459876,36.0897807916512],[-86.8879515460712,36.0898103803481],[-86.8881252873022,36.090092607615],[-86.8884917626386,36.0899338691985],[-86.8885515243815,36.0899510103782],[-86.8891547072278,36.0898938182736],[-86.8894964179187,36.0899418461689],[-86.8896949508429,36.0900194989071],[-86.8898754188374,36.0901764030386],[-86.8897432284545,36.0902500626035],[-86.8896089754724,36.0903212217236],[-86.8887093626469,36.090747620312],[-86.88766926659,36.0902344216954]]]},"properties":{"id":"122586","parcel":"12900001800","address":"0 ST LUKE DR","owner":"ST. HENRY CATHOLIC CHURCH","point":[-86.88872279364271,36.09028476077039]}},{"type":"Feature","id":"122592","geometry":{"type":"Polygon","coordinates":[[[-86.888893562911,36.0930400936046],[-86.8894193670681,36.0927335210808],[-86.8894310339423,36.0927282733094],[-86.889443588097,36.0927246124806],[-86.8894567030257,36.0927226356388],[-86.8894700394832,36.0927223930547],[-86.8894832499568,36.0927238908971],[-86.889495994202,36.0927270902162],[-86.8895079392625,36.0927319087467],[-86.8895187761363,36.092738221686],[-86.8895282253475,36.0927458634552],[-86.8895360403885,36.0927546375882],[-86.8895786036958,36.0928082282106],[-86.8896181489179,36.0928633210102],[-86.8896545948405,36.0929198039273],[-86.8896878680008,36.0929775630422],[-86.8897179015474,36.09303647988],[-86.8897446319494,36.0930964350396],[-86.8897680078692,36.093157307227],[-86.8897857516111,36.0932340594181],[-86.8897996045431,36.0933113369301],[-86.8898095441128,36.0933890110455],[-86.8898155543894,36.0934669493925],[-86.8892839437212,36.0934726169915],[-86.888893562911,36.0930400936046]]]},"properties":{"id":"122592","parcel":"12907003000","address":"6520 MELINDA DR","owner":"AKINS, JAMES K. & ELIZABETH HARR","point":[-86.88936377530035,36.09312650936389]}},{"type":"Feature","id":"122593","geometry":{"type":"Polygon","coordinates":[[[-86.8873981796279,36.0950538213251],[-86.8880342103711,36.0942465438571],[-86.8883189479553,36.0944439299844],[-86.8881227993386,36.0951979309777],[-86.8876182627464,36.0951203302951],[-86.8875720747401,36.0951123495317],[-86.8875267324895,36.095101643322],[-86.887482478737,36.0950882693659],[-86.8874395508335,36.0950722998238],[-86.8873981796279,36.0950538213251]]]},"properties":{"id":"122593","parcel":"12907003600","address":"123 VAUGHNS GAP RD","owner":"WHITEHEAD, CYNTHIA & CHRIS","point":[-86.8879390634793,36.0947489518544]}},{"type":"Feature","id":"122987","geometry":{"type":"Polygon","coordinates":[[[-86.8838283337911,36.0920581751275],[-86.884138598786,36.0918957414323],[-86.8847505664839,36.0926865529148],[-86.8839829868407,36.0930592021222],[-86.8833758555432,36.0922768677482],[-86.8835239910709,36.0922054553185],[-86.8838283337911,36.0920581751275]]]},"properties":{"id":"122987","parcel":"12907005300","address":"6317 HARDING PIKE","owner":"MARIUTTO, RUDY & RITA","point":[-86.88406343548029,36.092481712521916]}},{"type":"Feature","id":"122995","geometry":{"type":"Polygon","coordinates":[[[-86.8826064619648,36.0941923193487],[-86.8833201764059,36.0938442491399],[-86.8842937736971,36.095193105962],[-86.8835827597547,36.095541161972],[-86.8826064619648,36.0941923193487]]]},"properties":{"id":"122995","parcel":"12908000100","address":"6302 HARDING PIKE","owner":"HOLZAPFEL FAMIY TRUST","point":[-86.88345061740766,36.09469271612735]}},{"type":"Feature","id":"123231","geometry":{"type":"Polygon","coordinates":[[[-86.8826420008782,36.0920295036095],[-86.8828873578641,36.0919043607224],[-86.8832277452912,36.0923504771627],[-86.8829368649696,36.092491064268],[-86.882593509079,36.0920518357178],[-86.8826420008782,36.0920295036095]]]},"properties":{"id":"123231","parcel":"12908004300","address":"6318 ST HENRY DR","owner":"ABERNATHY, SAMUEL A., III","point":[-86.88291202398015,36.092201158225954]}},{"type":"Feature","id":"123375","geometry":{"type":"Polygon","coordinates":[[[-86.8889882626403,36.0938851791069],[-86.8892839437212,36.0934726169915],[-86.8898155543894,36.0934669493925],[-86.8898279179995,36.0935762257277],[-86.8898433326434,36.093685245207],[-86.8898617910653,36.0937939538052],[-86.8899090497505,36.094005681401],[-86.888771524732,36.0941875918681],[-86.8889882626403,36.0938851791069]]]},"properties":{"id":"123375","parcel":"12907003100","address":"104 GROOME DR","owner":"MCMATH COMMUNITY PROPERTY TRUST","point":[-86.88944664210204,36.09383958719561]}},{"type":"Feature","id":"123376","geometry":{"type":"Polygon","coordinates":[[[-86.888771524732,36.0941875918681],[-86.8899090497505,36.094005681401],[-86.8900210264866,36.0944718740982],[-86.8900282432025,36.0945289133139],[-86.8900234852126,36.0945293594229],[-86.8895256975826,36.0945759341764],[-86.8895158532094,36.0945768558159],[-86.888906169929,36.0945093437947],[-86.8885677796373,36.0944718708634],[-86.8886483105915,36.0943595088248],[-86.888771524732,36.0941875918681]]]},"properties":{"id":"123376","parcel":"12907003200","address":"108 GROOME DR","owner":"MICHAEL, JORDAN & CHAMBERS, NICK","point":[-86.88934179407322,36.094274135525986]}},{"type":"Feature","id":"123379","geometry":{"type":"Polygon","coordinates":[[[-86.888722278806,36.095290214035],[-86.888906169929,36.0945093437947],[-86.8895158532094,36.0945768558159],[-86.8895256975826,36.0945759341764],[-86.8893271741367,36.0953824541775],[-86.888722278806,36.095290214035]]]},"properties":{"id":"123379","parcel":"12907003400","address":"141 VAUGHNS GAP RD","owner":"LEFKOVITZ, JUDY & STEVE LIVING TRUST","point":[-86.88912197312153,36.09493353828441]}},{"type":"Feature","id":"123381","geometry":{"type":"Polygon","coordinates":[[[-86.8871221260373,36.09482289421],[-86.8869378672061,36.0945715115106],[-86.8878603858083,36.0941199771035],[-86.8878692184381,36.0941321660624],[-86.8880342103711,36.0942465438571],[-86.8873981796279,36.0950538213251],[-86.8873541592877,36.095031415541],[-86.8873122397542,36.0950064958955],[-86.8872726401329,36.0949791914661],[-86.8872355674448,36.0949496431363],[-86.8872012110936,36.0949180054388],[-86.8871697516896,36.0948844410824],[-86.8871413511055,36.0948491255321],[-86.8871221260373,36.09482289421]]]},"properties":{"id":"123381","parcel":"12907003700","address":"121 VAUGHNS GAP RD","owner":"BELMONT BUILDS LLC","point":[-86.88735433352315,36.0946975082207]}},{"type":"Feature","id":"123383","geometry":{"type":"Polygon","coordinates":[[[-86.8885299309794,36.0921357054595],[-86.8887800145127,36.0919800212865],[-86.8893448102378,36.0926044053573],[-86.8888686414972,36.0928826319022],[-86.8883121174881,36.0922713706586],[-86.8885299309794,36.0921357054595]]]},"properties":{"id":"123383","parcel":"12907004300","address":"6523 MELINDA DR","owner":"DONO, L. A. ETUX","point":[-86.88882895285334,36.09243788957543]}},{"type":"Feature","id":"123385","geometry":{"type":"Polygon","coordinates":[[[-86.8874717224794,36.0926687531917],[-86.8878733122086,36.0925009680787],[-86.8884247631331,36.0931430361646],[-86.8882844920954,36.0932212645458],[-86.8881428487682,36.0932978544005],[-86.8880856437911,36.0933279454401],[-86.8879348031033,36.0933993833891],[-86.8874151336634,36.0926933450937],[-86.8874717224794,36.0926687531917]]]},"properties":{"id":"123385","parcel":"12907004500","address":"6515 MELINDA DR","owner":"FLANIGEN, GEORGE J. IV.","point":[-86.88790614708273,36.09291817878648]}},{"type":"Feature","id":"123388","geometry":{"type":"Polygon","coordinates":[[[-86.8870539852202,36.0928454469641],[-86.8874151336634,36.0926933450937],[-86.8879348031033,36.0933993833891],[-86.8875332340859,36.0935910825244],[-86.887350318667,36.0936784004748],[-86.8870121278151,36.093219367506],[-86.8870539852202,36.0928454469641]]]},"properties":{"id":"123388","parcel":"12907004600","address":"6507 MELINDA DR","owner":"BOVINE, ROBERT M. ET UX","point":[-86.88734909403098,36.09303270474813]}},{"type":"Feature","id":"123420","geometry":{"type":"Polygon","coordinates":[[[-86.8866077217555,36.092892683417],[-86.8868853033688,36.092774163311],[-86.8870539852202,36.0928454469641],[-86.8870121278151,36.093219367506],[-86.8862201110623,36.0935856177388],[-86.8858240853681,36.0930390969969],[-86.8866077217555,36.092892683417]]]},"properties":{"id":"123420","parcel":"12907004800","address":"105 VAUGHNS GAP RD","owner":"CLF TN VENTURES, LLC","point":[-86.8864555951059,36.0931292692504]}},{"type":"Feature","id":"123423","geometry":{"type":"Polygon","coordinates":[[[-86.8856688091688,36.0927127775889],[-86.8864552081872,36.092328990603],[-86.8867656057522,36.0927244963558],[-86.8868853033688,36.092774163311],[-86.8866077217555,36.092892683417],[-86.8858240853681,36.0930390969969],[-86.8856453225245,36.0927920684103],[-86.8856399439091,36.0927840539502],[-86.885636240964,36.0927754368346],[-86.8856343150665,36.0927664452478],[-86.8856342133147,36.0927573194897],[-86.8856359417424,36.092748301964],[-86.8856394530438,36.092739631861],[-86.885644654287,36.0927315396933],[-86.8856514057423,36.0927242418962],[-86.8856595296659,36.0927179317507],[-86.8856688091688,36.0927127775889]]]},"properties":{"id":"123423","parcel":"12907004900","address":"6400 HARDING PIKE","owner":"CAHILL REVOCABLE LIVING TRUST","point":[-86.886334111618,36.09252114314782]}},{"type":"Feature","id":"123424","geometry":{"type":"Polygon","coordinates":[[[-86.8869769325685,36.0920768121704],[-86.8870046338541,36.092063424261],[-86.8874717224794,36.0926687531917],[-86.8874151336634,36.0926933450937],[-86.8870539852202,36.0928454469641],[-86.8868853033688,36.092774163311],[-86.8867656057522,36.0927244963558],[-86.8864552081872,36.092328990603],[-86.8869769325685,36.0920768121704]]]},"properties":{"id":"123424","parcel":"12907005000","address":"6404 HARDING PIKE","owner":"VAUGHN, WILLIAM & MELISSA","point":[-86.8869645833823,36.09249887403129]}},{"type":"Feature","id":"123427","geometry":{"type":"Polygon","coordinates":[[[-86.8876645378754,36.0975042402564],[-86.8872149941685,36.0971995928713],[-86.8883447112204,36.0963962509669],[-86.888363721644,36.0964098736714],[-86.8883849073066,36.0964211847524],[-86.8884078459078,36.0964299592928],[-86.8884320812668,36.0964360212952],[-86.8884571267246,36.0964392499658],[-86.8884824829214,36.0964395804852],[-86.8885076433794,36.0964370066707],[-86.8885211551496,36.0964345105718],[-86.8884020563619,36.0969232808367],[-86.8881727516905,36.0978488363035],[-86.8876645378754,36.0975042402564]]]},"properties":{"id":"123427","parcel":"12907005700","address":"312 TERRY TRCE","owner":"RAMACHANDRAN, RAJA & MISRA, RICHA","point":[-86.88788875234553,36.09706151341289]}},{"type":"Feature","id":"123428","geometry":{"type":"Polygon","coordinates":[[[-86.8869107526143,36.0969930481262],[-86.8873452996435,36.0961376854326],[-86.8884854911933,36.0961512669139],[-86.8884597546123,36.0961625911237],[-86.8884326718692,36.0961716152302],[-86.8884045549819,36.0961782359888],[-86.8883742131029,36.0961891732052],[-86.8883476498432,36.0962050279753],[-86.8883251904784,36.0962246983274],[-86.8883085253627,36.0962478969168],[-86.8882979797978,36.0962735235737],[-86.8882942168903,36.096300198041],[-86.8882972221292,36.0963268208477],[-86.8883069874899,36.0963525745793],[-86.888323159961,36.0963760810528],[-86.8883447112204,36.0963962509669],[-86.8872149941685,36.0971995928713],[-86.8869107526143,36.0969930481262]]]},"properties":{"id":"123428","parcel":"12907005800","address":"308 TERRY TRCE","owner":"SPRINTZ, BRUCE","point":[-86.8874936545294,36.096694525893206]}},{"type":"Feature","id":"123435","geometry":{"type":"Polygon","coordinates":[[[-86.880987795425,36.0949821492686],[-86.8812246555904,36.094866139031],[-86.8816664943871,36.0946497281168],[-86.8816796147184,36.0946424903346],[-86.8816928106369,36.094637760298],[-86.8817067761279,36.0946348299237],[-86.8817211422218,36.0946337740128],[-86.8817355294749,36.0946346241813],[-86.8817495578135,36.0946373552683],[-86.8817628533158,36.0946418961021],[-86.8817750670496,36.0946481257573],[-86.881785874041,36.0946558807728],[-86.8817949888213,36.0946649550376],[-86.8818021699675,36.094675108771],[-86.8819372839016,36.0948609272264],[-86.8827288912155,36.0959495979972],[-86.8819693923612,36.0963221746327],[-86.880987795425,36.0949821492686]]]},"properties":{"id":"123435","parcel":"12908000500","address":"6222 HARDING PIKE","owner":"SHM HOLDINGS LLC","point":[-86.88185964396325,36.09546587809224]}},{"type":"Feature","id":"123479","geometry":{"type":"Polygon","coordinates":[[[-86.8817433077839,36.0927876993305],[-86.881778457475,36.0927830466825],[-86.8825285941456,36.0937643349349],[-86.8819333801603,36.0940543926803],[-86.8811803204271,36.0930533432977],[-86.8812823069412,36.0929712823261],[-86.8814486907176,36.0928360050147],[-86.8817433077839,36.0927876993305]]]},"properties":{"id":"123479","parcel":"12908001400","address":"6305 HARDING PIKE","owner":"CRAGON, ALLEN W. & JULIE D.","point":[-86.88185229317,36.09340883888678]}},{"type":"Feature","id":"123484","geometry":{"type":"Polygon","coordinates":[[[-86.8817455999583,36.0922624273704],[-86.8818071796762,36.092262451129],[-86.8818686878629,36.0922600328724],[-86.8819299768909,36.0922551790882],[-86.8819909002832,36.0922478998611],[-86.8820513127736,36.0922382142803],[-86.8821757904077,36.0927186036654],[-86.881778457475,36.0927830466825],[-86.8817433077839,36.0927876993305],[-86.8817455999583,36.0922624273704]]]},"properties":{"id":"123484","parcel":"12908004000","address":"6312 ST HENRY DR","owner":"FISCHER, HALSEY R., JR. & SHEILA M.","point":[-86.88193066691792,36.09249048613281]}},{"type":"Feature","id":"123487","geometry":{"type":"Polygon","coordinates":[[[-86.8823239717389,36.0921636941076],[-86.8823932359004,36.0921374282698],[-86.8824617768511,36.0921099410232],[-86.8825279919115,36.0920814090361],[-86.882593509079,36.0920518357178],[-86.8829368649696,36.092491064268],[-86.882610957239,36.0926472903414],[-86.8823239717389,36.0921636941076]]]},"properties":{"id":"123487","parcel":"12908004200","address":"6316 ST HENRY DR","owner":"TEMPLETON, BARBARA","point":[-86.88261501585794,36.0923273644948]}},{"type":"Feature","id":"124103","geometry":{"type":"Polygon","coordinates":[[[-86.8855829000881,36.0893399069655],[-86.8856288696974,36.0886450890239],[-86.8861327759658,36.0886699568729],[-86.8870285274335,36.0893534551691],[-86.8879057997706,36.0893513937941],[-86.887791459876,36.0897807916512],[-86.88766926659,36.0902344216954],[-86.8887093626469,36.090747620312],[-86.8884454124219,36.0908736503367],[-86.8859090467803,36.0920846627888],[-86.8854368637769,36.0923101009221],[-86.8854473800184,36.0920880538277],[-86.8855639879625,36.0896257491595],[-86.8855829000881,36.0893399069655]]]},"properties":{"id":"124103","parcel":"12900000500","address":"6401 HARDING PIKE","owner":"ST. HENRY CATHOLIC CHURCH","point":[-86.88685622196842,36.090489770927796]}},{"type":"Feature","id":"124111","geometry":{"type":"Polygon","coordinates":[[[-86.8873452996435,36.0961376854326],[-86.8877666143244,36.0953104395698],[-86.8884962960626,36.0954226318598],[-86.8887214425553,36.0954572488886],[-86.8887232045179,36.0954575071922],[-86.8887345893112,36.0954600595688],[-86.8887453315812,36.0954640434281],[-86.8887551603634,36.0954693598226],[-86.8887638264884,36.095475872691],[-86.8887711115761,36.0954834187063],[-86.8887768302366,36.0954918054571],[-86.8887808390745,36.0955008221964],[-86.8887830366992,36.095510240743],[-86.8887833660363,36.0955198235762],[-86.8887818199105,36.0955293264981],[-86.8887121054167,36.0958331256976],[-86.8887001483567,36.0958766003022],[-86.8886840991506,36.0959191974605],[-86.8886640537981,36.095960664101],[-86.8886401328204,36.096000755083],[-86.8886124767981,36.0960392314268],[-86.8885812508433,36.0960758629843],[-86.8885466402186,36.0961104338799],[-86.888526237121,36.0961263848013],[-86.8885043316663,36.0961409642044],[-86.8884854911933,36.0961512669139],[-86.8873452996435,36.0961376854326]]]},"properties":{"id":"124111","parcel":"12907000600","address":"144 VAUGHNS GAP RD","owner":"KORN, STEPHEN L & STEPHANIE B","point":[-86.88816264643204,36.09568068219303]}},{"type":"Feature","id":"124112","geometry":{"type":"Polygon","coordinates":[[[-86.8847422912605,36.0931591233908],[-86.8853698337717,36.0928556273865],[-86.8853801736153,36.0928514505763],[-86.8853911985184,36.0928486585306],[-86.885402630515,36.0928473199862],[-86.8854141779428,36.0928474704324],[-86.8854255509182,36.0928491056887],[-86.8854364602362,36.0928521828143],[-86.8854466296547,36.0928566263263],[-86.8854558035967,36.0928623218349],[-86.8854637461512,36.0928691259641],[-86.885470259959,36.0928768671153],[-86.8864052632847,36.0941622566887],[-86.885715804058,36.0944991784743],[-86.8847422912605,36.0931591233908]]]},"properties":{"id":"124112","parcel":"12907000900","address":"6316 HARDING PIKE","owner":"MCREDMOND, PATRICK J. JR. ETUX","point":[-86.88557353953881,36.093660692713975]}},{"type":"Feature","id":"124113","geometry":{"type":"Polygon","coordinates":[[[-86.884025858711,36.0935050265417],[-86.8847422912605,36.0931591233908],[-86.885715804058,36.0944991784743],[-86.8850048058898,36.0948472429041],[-86.884025858711,36.0935050265417]]]},"properties":{"id":"124113","parcel":"12907001000","address":"6312 HARDING PIKE","owner":"COLLINS, B. TOM","point":[-86.88487154366717,36.09400210618749]}},{"type":"Feature","id":"124114","geometry":{"type":"Polygon","coordinates":[[[-86.8834386559786,36.0971927958062],[-86.8833988338838,36.0967776274675],[-86.8833934596994,36.0967351681612],[-86.8833845594744,36.0966931015115],[-86.8833721742147,36.0966516191928],[-86.8833563604627,36.096610911864],[-86.8851880155042,36.0957359769685],[-86.8854129616573,36.0959958520161],[-86.8862668004944,36.096556590521],[-86.8851221175059,36.0969605874786],[-86.8843965399384,36.0972180992742],[-86.8834723507258,36.0975440919888],[-86.8834386559786,36.0971927958062]]]},"properties":{"id":"124114","parcel":"12907001300","address":"115 BROOK HOLLOW RD","owner":"SEABURY TENNESSEE COMMUNITY PROPERTY TRUST","point":[-86.8847060856466,36.096632564065715]}},{"type":"Feature","id":"124543","geometry":{"type":"Polygon","coordinates":[[[-86.8886729134398,36.0962026313329],[-86.8886969636067,36.0961738839789],[-86.8887334300994,36.0961332769176],[-86.8887666671456,36.0960908856517],[-86.8887965444611,36.0960468769823],[-86.8888229418476,36.0960014257476],[-86.888845755855,36.0959547147737],[-86.8888648941687,36.0959069295082],[-86.8888802811717,36.0958582588809],[-86.8889473336638,36.095558874816],[-86.8889514808395,36.095547605108],[-86.8889579328463,36.0955370736928],[-86.8889665010076,36.0955275884009],[-86.8889769341201,36.0955194268795],[-86.8889889294467,36.095512826598],[-86.8890021337772,36.0955079803328],[-86.8890161622547,36.0955050315227],[-86.889030604927,36.0955040643066],[-86.8890450390224,36.0955051088399],[-86.8890469278995,36.0955053950445],[-86.8900939670942,36.095664697762],[-86.8899258463846,36.0963692083244],[-86.8898585227439,36.0966444203961],[-86.8886729134398,36.0962026313329]]]},"properties":{"id":"124543","parcel":"12907000500","address":"154 VAUGHNS GAP RD","owner":"CHANCEY, BLAKE & MELBA JACQUELINE TRUST","point":[-86.88938942662165,36.0960694439124]}},{"type":"Feature","id":"124546","geometry":{"type":"Polygon","coordinates":[[[-86.8868340084174,36.0969411419547],[-86.8862668004944,36.096556590521],[-86.8854129616573,36.0959958520161],[-86.8851880155042,36.0957359769685],[-86.8869194698427,36.0948639436563],[-86.8869497444731,36.0949076752752],[-86.8869819794902,36.0949515321667],[-86.8870177796122,36.0949935268888],[-86.8870569827969,36.0950334686548],[-86.8870994126958,36.0950711785],[-86.8871448741427,36.095106483006],[-86.8871931632472,36.0951392232392],[-86.8872440584518,36.0951692494091],[-86.8872973294654,36.0951964253091],[-86.8873527350419,36.0952206283327],[-86.8874100229712,36.0952417485727],[-86.88746893341,36.0952596887965],[-86.8875291989424,36.0952743698535],[-86.8875905455999,36.095285722556],[-86.8876526951832,36.0952936966754],[-86.8877666143244,36.0953104395698],[-86.8873452996435,36.0961376854326],[-86.8869107526143,36.0969930481262],[-86.8868340084174,36.0969411419547]]]},"properties":{"id":"124546","parcel":"12907000700","address":"134 VAUGHNS GAP RD","owner":"SEHRT, SHERRIE P. & DAVID G.","point":[-86.88639157387864,36.09586695394072]}},{"type":"Feature","id":"124551","geometry":{"type":"Polygon","coordinates":[[[-86.8834009798675,36.0938054062784],[-86.884025858711,36.0935050265417],[-86.8850048058898,36.0948472429041],[-86.8846493022532,36.0950212740027],[-86.8842937736971,36.095193105962],[-86.8833201764059,36.0938442491399],[-86.8834009798675,36.0938054062784]]]},"properties":{"id":"124551","parcel":"12907001100","address":"6308 HARDING PIKE","owner":"KAYSER, LINDA CHURNEY REVOCABLE TRUST & ET AL","point":[-86.88416059357714,36.09434574716445]}},{"type":"Feature","id":"125718","geometry":{"type":"Polygon","coordinates":[[[-86.8831176227455,36.0902392743711],[-86.8831198531377,36.0902072674851],[-86.8831250365018,36.0901754859253],[-86.8831389577615,36.0899666008642],[-86.8836428249593,36.0899870838386],[-86.8836241476247,36.090255343257],[-86.8831176227455,36.0902392743711]]]},"properties":{"id":"125718","parcel":"12912000500","address":"6312 PERCY DR","owner":"PASCHAL, CYNTHIA B LIVING TRUST","point":[-86.88338379008987,36.090081285025754]}},{"type":"Feature","id":"125764","geometry":{"type":"Polygon","coordinates":[[[-86.8828727933271,36.0913553114745],[-86.8832417965952,36.0911789891239],[-86.8833738829718,36.09136899407],[-86.8834014008902,36.0914085810069],[-86.883407253649,36.0914189183341],[-86.8834109381246,36.0914298961441],[-86.8834123532651,36.091441215046],[-86.8834114601296,36.0914525688854],[-86.8834082830587,36.0914636501424],[-86.8834029097648,36.0914741580432],[-86.8833954847703,36.0914838076209],[-86.8833862083875,36.091492337835],[-86.883375334558,36.0914995169944],[-86.8830737420286,36.0916505343275],[-86.8828727933271,36.0913553114745]]]},"properties":{"id":"125764","parcel":"12912002100","address":"6319 ST HENRY DR","owner":"VAUGHAN, DAVID MYRON JR. & JORDAN MOORE","point":[-86.88315828544168,36.09141351003096]}},{"type":"Feature","id":"125766","geometry":{"type":"Polygon","coordinates":[[[-86.8827882793068,36.0917910787348],[-86.8824142159382,36.091268562315],[-86.8828727933271,36.0913553114745],[-86.8830737420286,36.0916505343275],[-86.8827882793068,36.0917910787348]]]},"properties":{"id":"125766","parcel":"12912002200","address":"6317 ST HENRY DR","owner":"MASSEY, AARON & MARY & ANDERSON, MELANIE M.","point":[-86.88277749226988,36.091502731600286]}},{"type":"Feature","id":"125770","geometry":{"type":"Polygon","coordinates":[[[-86.881308023005,36.0916282871111],[-86.8815267756594,36.0913321937788],[-86.8820058172935,36.0915550560801],[-86.8819682039483,36.0915817039779],[-86.8816645913731,36.091794905609],[-86.881308023005,36.0916282871111]]]},"properties":{"id":"125770","parcel":"12912002700","address":"1015 EDWIN WARNER DR","owner":"SCHERER, PATRICIA A REVOCABLE TRUST, THE","point":[-86.88166987780666,36.091568067304415]}},{"type":"Feature","id":"125772","geometry":{"type":"Polygon","coordinates":[[[-86.8817028385932,36.0910935524407],[-86.8818015538606,36.0909609675994],[-86.8818251978745,36.0909288645305],[-86.8818465148396,36.0908957059352],[-86.8818654371457,36.0908616031686],[-86.8824200934376,36.0910663283406],[-86.8824186303031,36.0911784231107],[-86.8824142159382,36.091268562315],[-86.8822718148936,36.0913685015712],[-86.8817028385932,36.0910935524407]]]},"properties":{"id":"125772","parcel":"12912002900","address":"1011 EDWIN WARNER DR","owner":"PRIM, COLLEEN S. & SHAWN M.","point":[-86.88210464100712,36.09113603151321]}},{"type":"Feature","id":"126011","geometry":{"type":"Polygon","coordinates":[[[-86.8824029128933,36.0902510998613],[-86.8823800080672,36.0901391833941],[-86.8829570733289,36.0901679229764],[-86.8829490293548,36.09023366823],[-86.8829450267808,36.090299656079],[-86.8829450749275,36.0903657251237],[-86.8829491752927,36.0904317095151],[-86.8824430400461,36.0904507989404],[-86.8824029128933,36.0902510998613]]]},"properties":{"id":"126011","parcel":"12912001700","address":"6311 PERCY DR","owner":"COODE, BENJAMIN ANDREW","point":[-86.88267711106046,36.090275381351994]}},{"type":"Feature","id":"126407","geometry":{"type":"Polygon","coordinates":[[[-86.8824345043934,36.0906574471124],[-86.8824430400461,36.0904507989404],[-86.8829491752927,36.0904317095151],[-86.8829550065024,36.0904969619979],[-86.8829642106599,36.0905619581472],[-86.8829767720565,36.0906265827116],[-86.8829926672303,36.090690722299],[-86.8824306526867,36.0907981295062],[-86.8824345043934,36.0906574471124]]]},"properties":{"id":"126407","parcel":"12912001800","address":"6309 PERCY DR","owner":"HILL, MARK C. & JODI","point":[-86.88270381342092,36.0905940097049]}},{"type":"Feature","id":"126409","geometry":{"type":"Polygon","coordinates":[[[-86.8824200934376,36.0910663283406],[-86.8824306526867,36.0907981295062],[-86.8829926672303,36.090690722299],[-86.8830215475429,36.0907741869819],[-86.8830540714761,36.0908567651375],[-86.8830901945532,36.090938350736],[-86.8824186303031,36.0911784231107],[-86.8824200934376,36.0910663283406]]]},"properties":{"id":"126409","parcel":"12912001900","address":"6307 PERCY DR","owner":"MUSAYEV, MUSA & REBECCA LIVING TRUST","point":[-86.88274944798096,36.09089724265388]}},{"type":"Feature","id":"126410","geometry":{"type":"Polygon","coordinates":[[[-86.8803012356022,36.0898417523244],[-86.8803052568886,36.0898378771422],[-86.880749015707,36.0900544090475],[-86.8805647313486,36.0902843178653],[-86.8801210985928,36.0900722178352],[-86.8801210204483,36.0900721805513],[-86.8802705224197,36.0898798876999],[-86.8802846005861,36.0898601412083],[-86.8803012356022,36.0898417523244]]]},"properties":{"id":"126410","parcel":"12912007100","address":"1002 PERCY WARNER BLVD","owner":"LAWRENCE, CHRISTIAN & KAREN","point":[-86.88043490748325,36.090063295100464]}},{"type":"Feature","id":"126465","geometry":{"type":"Polygon","coordinates":[[[-86.8819682039483,36.0915817039779],[-86.8820058172935,36.0915550560801],[-86.8821562937239,36.0914506624557],[-86.8824947419692,36.0919360798665],[-86.8822899927815,36.0920298824513],[-86.8822298211615,36.0920507397345],[-86.8821686158262,36.0920695126465],[-86.8821064874581,36.0920861679295],[-86.8819682039483,36.0915817039779]]]},"properties":{"id":"126465","parcel":"12912002400","address":"6313 ST HENRY DR","owner":"SHERIDAN, KIRBY","point":[-86.88219400649486,36.09175885538772]}},{"type":"Feature","id":"126469","geometry":{"type":"Polygon","coordinates":[[[-86.8815267756594,36.0913321937788],[-86.8817028385932,36.0910935524407],[-86.8822718148936,36.0913685015712],[-86.8821562937239,36.0914506624557],[-86.8820058172935,36.0915550560801],[-86.8815267756594,36.0913321937788]]]},"properties":{"id":"126469","parcel":"12912002800","address":"1013 EDWIN WARNER DR","owner":"GIBSON, WILLIAM DON & DANIELLE C.","point":[-86.88178262531086,36.09121303881066]}},{"type":"Feature","id":"126472","geometry":{"type":"Polygon","coordinates":[[[-86.8818654371457,36.0908616031686],[-86.8818881725023,36.0908152752938],[-86.8819074607533,36.0907679280263],[-86.8819232305012,36.0907197313332],[-86.8819354270142,36.0906708559608],[-86.8819440067148,36.0906214770802],[-86.8824345043934,36.0906574471124],[-86.8824306526867,36.0907981295062],[-86.8824200934376,36.0910663283406],[-86.8818654371457,36.0908616031686]]]},"properties":{"id":"126472","parcel":"12912003000","address":"1009 EDWIN WARNER DR","owner":"CLARK, ZACHARY D","point":[-86.88215292455052,36.090838711082924]}},{"type":"Feature","id":"126476","geometry":{"type":"Polygon","coordinates":[[[-86.8819440067148,36.0906214770802],[-86.8819477229959,36.0905680328819],[-86.881947108676,36.0905145049928],[-86.8819421641247,36.0904611259444],[-86.8819329118889,36.0904081254013],[-86.8819193911707,36.0903557329059],[-86.8824029128933,36.0902510998613],[-86.8824430400461,36.0904507989404],[-86.8824345043934,36.0906574471124],[-86.8819440067148,36.0906214770802]]]},"properties":{"id":"126476","parcel":"12912003100","address":"1007 EDWIN WARNER DR","owner":"GOLDBERG, JOEL MICHAEL REVOCABLE TRUST, THE ETAL","point":[-86.88219201810101,36.09045596213]}},{"type":"Feature","id":"126482","geometry":{"type":"Polygon","coordinates":[[[-86.8810233212392,36.0908611662445],[-86.881191336551,36.0906291773989],[-86.8816865689343,36.0908475270316],[-86.8816735089511,36.0908692490859],[-86.8816572500328,36.0908894983806],[-86.8815158475164,36.0910795363458],[-86.8810233212392,36.0908611662445]]]},"properties":{"id":"126482","parcel":"12912005300","address":"1012 EDWIN WARNER DR","owner":"WOJCIK, BRANDON & DUNCAN, LILIAS","point":[-86.88135538413187,36.090854347531604]}},{"type":"Feature","id":"126497","geometry":{"type":"Polygon","coordinates":[[[-86.8808446704142,36.0911108131756],[-86.880855330422,36.0910953520119],[-86.881339808431,36.0913203745887],[-86.8811584249759,36.0915678445748],[-86.8808207873667,36.0913988889434],[-86.8807886643787,36.0911881432517],[-86.8808446704142,36.0911108131756]]]},"properties":{"id":"126497","parcel":"12912005100","address":"1016 EDWIN WARNER DR","owner":"MCCUTCHIN, SHANNON LEE REVOCABLE TRUST","point":[-86.88106281528499,36.09135961469722]}},{"type":"Feature","id":"126561","geometry":{"type":"Polygon","coordinates":[[[-86.8812338040329,36.0903080026281],[-86.8815372413313,36.0900794163527],[-86.8815755659011,36.0901112997489],[-86.881611040015,36.0901452877674],[-86.8816434852644,36.0901812140743],[-86.8816727430856,36.0902188995726],[-86.8816986692892,36.0902581596522],[-86.8817211351196,36.0902987996758],[-86.8817400306465,36.0903406203619],[-86.8817552636145,36.0903834141876],[-86.8817667561727,36.0904269708207],[-86.8817744537269,36.0904710743508],[-86.8812846368633,36.0904966343434],[-86.8812338040329,36.0903080026281]]]},"properties":{"id":"126561","parcel":"12912005500","address":"1004 EDWIN WARNER DR","owner":"HILL, GARY J. & CLARA","point":[-86.8814917347456,36.09027826411734]}},{"type":"Feature","id":"126565","geometry":{"type":"Polygon","coordinates":[[[-86.8809259514538,36.0901388268845],[-86.881099504845,36.0899177871392],[-86.8811072426065,36.0899089925456],[-86.8811166397919,36.0899013367782],[-86.8811274465993,36.0898950244534],[-86.8811393739451,36.0898902226201],[-86.8811521056672,36.0898870597699],[-86.8811653017966,36.0898856204046],[-86.8811786096404,36.0898859431536],[-86.8811916759663,36.0898880179801],[-86.8812041537138,36.0898917906391],[-86.8812157075263,36.089897160834],[-86.8814008665114,36.0899903045997],[-86.8814490243537,36.090017215817],[-86.8814945687475,36.0900469752848],[-86.8815372413313,36.0900794163527],[-86.8812338040329,36.0903080026281],[-86.8809259514538,36.0901388268845]]]},"properties":{"id":"126565","parcel":"12912005600","address":"1001 PERCY WARNER BLVD","owner":"JAKES, JOSEPH M","point":[-86.88122347695366,36.09010911396135]}},{"type":"Feature","id":"126568","geometry":{"type":"Polygon","coordinates":[[[-86.8807390356727,36.0903753490609],[-86.8809259514538,36.0901388268845],[-86.8812338040329,36.0903080026281],[-86.8812846368633,36.0904966343434],[-86.8811966288065,36.0906181501416],[-86.8807390356727,36.0903753490609]]]},"properties":{"id":"126568","parcel":"12912005700","address":"1003 PERCY WARNER BLVD","owner":"SWIFT, LARRY & PAMELA LIVING TRUST","point":[-86.88106069568846,36.090436040515634]}},{"type":"Feature","id":"126572","geometry":{"type":"Polygon","coordinates":[[[-86.8803652450237,36.0908527859896],[-86.8805548236225,36.0906118502795],[-86.8810179790827,36.0908677982456],[-86.880855330422,36.0910953520119],[-86.8808446704142,36.0911108131756],[-86.8803652450237,36.0908527859896]]]},"properties":{"id":"126572","parcel":"12912005900","address":"1007 PERCY WARNER BLVD","owner":"LYNCH, JORDAN R. & MARY W.","point":[-86.88069178671279,36.09086029273587]}},{"type":"Feature","id":"126575","geometry":{"type":"Polygon","coordinates":[[[-86.8801783469088,36.0910915044571],[-86.8803652450237,36.0908527859896],[-86.8808446704142,36.0911108131756],[-86.8807886643787,36.0911881432517],[-86.8805241540697,36.0912647969327],[-86.8801783469088,36.0910915044571]]]},"properties":{"id":"126575","parcel":"12912006000","address":"1009 PERCY WARNER BLVD","owner":"REEVES WHITE, JENNIE RENATA LIVING TRUST","point":[-86.88042970016556,36.0909723029172]}},{"type":"Feature","id":"127528","geometry":{"type":"Polygon","coordinates":[[[-86.8833771278367,36.0916607634353],[-86.8834794575836,36.091609924276],[-86.8838283337911,36.0920581751275],[-86.8835239910709,36.0922054553185],[-86.8831620359263,36.091768013091],[-86.8833771278367,36.0916607634353]]]},"properties":{"id":"127528","parcel":"12912000100","address":"6322 ST HENRY DR","owner":"WILLIAMS, REBECCA S. LIVING TRUST","point":[-86.8834987460247,36.09191309803568]}},{"type":"Feature","id":"127532","geometry":{"type":"Polygon","coordinates":[[[-86.8831318004545,36.0905402578919],[-86.8836078349815,36.0904928160297],[-86.8836357168631,36.0905651370741],[-86.8836886758954,36.0907010075683],[-86.8832272007334,36.0908406473629],[-86.8832011210731,36.0907821785443],[-86.8831784934189,36.0907227705223],[-86.8831593714341,36.0906625562974],[-86.8831437943869,36.0906016725802],[-86.8831318004545,36.0905402578919]]]},"properties":{"id":"127532","parcel":"12912000300","address":"6308 PERCY DR","owner":"DURR, ELLIOTT POPE & ASHLEY BROOKE","point":[-86.88342333834399,36.09068178155839]}},{"type":"Feature","id":"127547","geometry":{"type":"Polygon","coordinates":[[[-86.8824142159382,36.091268562315],[-86.8824186303031,36.0911784231107],[-86.8830901945532,36.090938350736],[-86.8831341344969,36.0910144649948],[-86.8831812287522,36.0910893267673],[-86.8832417965952,36.0911789891239],[-86.8828727933271,36.0913553114745],[-86.8824142159382,36.091268562315]]]},"properties":{"id":"127547","parcel":"12912002000","address":"6305 PERCY DR","owner":"PASCALE WADE REVOCBALE TRUST","point":[-86.88287789649812,36.09113383235674]}},{"type":"Feature","id":"127581","geometry":{"type":"Polygon","coordinates":[[[-86.8810179790827,36.0908677982456],[-86.8810233212392,36.0908611662445],[-86.8815158475164,36.0910795363458],[-86.881339808431,36.0913203745887],[-86.880855330422,36.0910953520119],[-86.8810179790827,36.0908677982456]]]},"properties":{"id":"127581","parcel":"12912005200","address":"1014 EDWIN WARNER DR","owner":"COHAN, TERENCE A.","point":[-86.88118552247582,36.09108744456803]}},{"type":"Feature","id":"127591","geometry":{"type":"Polygon","coordinates":[[[-86.8798666220553,36.0903977875427],[-86.8799394667559,36.0903042667238],[-86.8799396498737,36.0903043573195],[-86.8803805444633,36.0905230168936],[-86.8801989893784,36.0907551025382],[-86.8797555773733,36.0905409238836],[-86.87975525249,36.090540766725],[-86.8798666220553,36.0903977875427]]]},"properties":{"id":"127591","parcel":"12912006900","address":"1006 PERCY WARNER BLVD","owner":"GOODRUM, JACK & KAY LIVING TRUST","point":[-86.88006788309241,36.09053189220177]}},{"type":"Feature","id":"127595","geometry":{"type":"Polygon","coordinates":[[[-86.8799394667559,36.0903042667238],[-86.8801210204483,36.0900721805513],[-86.8801210985928,36.0900722178352],[-86.8805647313486,36.0902843178653],[-86.8803805444633,36.0905230168936],[-86.8799396498737,36.0903043573195],[-86.8799394667559,36.0903042667238]]]},"properties":{"id":"127595","parcel":"12912007000","address":"1004 PERCY WARNER BLVD","owner":"WILLIAMS, JOHN G. JR.","point":[-86.88025215370415,36.090294292757]}},{"type":"Feature","id":"127633","geometry":{"type":"Polygon","coordinates":[[[-86.8822718148936,36.0913685015712],[-86.8824142159382,36.091268562315],[-86.8827882793068,36.0917910787348],[-86.8825095612022,36.0919293775382],[-86.8824947419692,36.0919360798665],[-86.8821562937239,36.0914506624557],[-86.8822718148936,36.0913685015712]]]},"properties":{"id":"127633","parcel":"12912002300","address":"6315 ST HENRY DR","owner":"GORHAM, STEPHEN G.","point":[-86.88247069901739,36.09162086945676]}},{"type":"Feature","id":"127912","geometry":{"type":"Polygon","coordinates":[[[-86.8831176227455,36.0902392743711],[-86.8836241476247,36.090255343257],[-86.8836242209608,36.0902619356898],[-86.8836078349815,36.0904928160297],[-86.8831318004545,36.0905402578919],[-86.883122071474,36.0904804056807],[-86.88311577933,36.0904202506975],[-86.8831129376916,36.0903599244316],[-86.8831135524154,36.0902995548243],[-86.8831176227455,36.0902392743711]]]},"properties":{"id":"127912","parcel":"12912000400","address":"6310 PERCY DR","owner":"RASICO, PHILIP D. ET UX","point":[-86.88336472486537,36.09039033150071]}},{"type":"Feature","id":"127922","geometry":{"type":"Polygon","coordinates":[[[-86.8823800080672,36.0901391833941],[-86.8823198068,36.0898385365661],[-86.8829754608984,36.0898732957149],[-86.8829570733289,36.0901679229764],[-86.8823800080672,36.0901391833941]]]},"properties":{"id":"127922","parcel":"12912001600","address":"6313 PERCY DR","owner":"WHITE, ROSEMARY CLAIRE & JOSEPH","point":[-86.88266023504696,36.090006222793015]}},{"type":"Feature","id":"127954","geometry":{"type":"Polygon","coordinates":[[[-86.8815871209984,36.092116339046],[-86.8815679479623,36.0921142809677],[-86.8816645913731,36.091794905609],[-86.8819682039483,36.0915817039779],[-86.8821064874581,36.0920861679295],[-86.8820530597449,36.0920971309524],[-86.8819991259527,36.0921063221039],[-86.8819447769469,36.0921137235943],[-86.8818735266334,36.0921205411557],[-86.8818019249496,36.0921242175307],[-86.8817301827776,36.0921247421639],[-86.8816585122102,36.0921221135043],[-86.8815871209984,36.092116339046]]]},"properties":{"id":"127954","parcel":"12912002500","address":"6311 ST HENRY DR","owner":"BUONANNO, BERNARDINO & ANNETTE","point":[-86.88184360908814,36.09194049563913]}},{"type":"Feature","id":"127991","geometry":{"type":"Polygon","coordinates":[[[-86.8828873578641,36.0919043607224],[-86.8831620359263,36.091768013091],[-86.8835239910709,36.0922054553185],[-86.8833758555432,36.0922768677482],[-86.8832277452912,36.0923504771627],[-86.8828873578641,36.0919043607224]]]},"properties":{"id":"127991","parcel":"12912000200","address":"6320 ST HENRY DR","owner":"REUTHER, ARTHUR M & SHEILA L","point":[-86.88320082643865,36.092054903719514]}},{"type":"Feature","id":"127998","geometry":{"type":"Polygon","coordinates":[[[-86.881191336551,36.0906291773989],[-86.8811966288065,36.0906181501416],[-86.8812846368633,36.0904966343434],[-86.8817744537269,36.0904710743508],[-86.8817778208098,36.0905195060193],[-86.8817770289249,36.0905680095614],[-86.8817720821457,36.090616352413],[-86.8817630056025,36.0906642982507],[-86.8817498422422,36.0907116151269],[-86.8817326572691,36.0907580754373],[-86.8817115325539,36.0908034523564],[-86.8816865689343,36.0908475270316],[-86.881191336551,36.0906291773989]]]},"properties":{"id":"127998","parcel":"12912005400","address":"1008 EDWIN WARNER DR","owner":"PENDLETON, LINDA CRANE","point":[-86.88149844374693,36.09064675920297]}},{"type":"Feature","id":"127999","geometry":{"type":"Polygon","coordinates":[[[-86.8805548236225,36.0906118502795],[-86.8807390356727,36.0903753490609],[-86.8811966288065,36.0906181501416],[-86.881191336551,36.0906291773989],[-86.8810233212392,36.0908611662445],[-86.8810179790827,36.0908677982456],[-86.8805548236225,36.0906118502795]]]},"properties":{"id":"127999","parcel":"12912005800","address":"1005 PERCY WARNER BLVD","owner":"MOORE, ROYANNE A. & RICHARD THOMAS JR.","point":[-86.88088453515493,36.090623356588054]}}]}