{"type":"FeatureCollection","features":[{"type":"Feature","id":"36131","geometry":{"type":"Polygon","coordinates":[[[-86.8573217914183,36.377983022253],[-86.8571994470412,36.3779047799893],[-86.8570745023494,36.3778292731873],[-86.8569470504474,36.3777565579566],[-86.8568171855525,36.3776866903993],[-86.8566850051656,36.3776197211868],[-86.856592214621,36.3775519773709],[-86.8563051294471,36.3773282125226],[-86.8562541497249,36.3773258263082],[-86.8559944830539,36.3773128300542],[-86.8555165956635,36.3772870917438],[-86.8555865061129,36.3762754573926],[-86.8559838768918,36.3763322558139],[-86.8578056601033,36.3765858072295],[-86.8577766662747,36.3766686949728],[-86.8577500195957,36.3767488191588],[-86.8577270399541,36.3768463658263],[-86.8577076644308,36.3769444240687],[-86.8576919132452,36.3770429045242],[-86.8576797988652,36.3771417223913],[-86.857671332586,36.3772407874693],[-86.8576665223987,36.3773400131857],[-86.8576653717981,36.3774393093942],[-86.8576678809845,36.3775385904781],[-86.8576664654483,36.3775646970691],[-86.8576749705121,36.3776485491691],[-86.8576870967434,36.3777321106456],[-86.8577028263145,36.3778152779838],[-86.8577221425215,36.3778979485622],[-86.8577450208985,36.3779800234184],[-86.8577689912757,36.3780560091132],[-86.8577961126113,36.3781312983578],[-86.8578263561353,36.3782058066396],[-86.8578596863809,36.3782794485922],[-86.8573505317477,36.3780020488362],[-86.8573217914183,36.377983022253]]]},"properties":{"id":"36131","parcel":"00500003100","address":"2939 HUFFMAN RD","owner":"EVANS, MICHAEL E. ET UX","point":[-86.85659421621074,36.37726394476762]}},{"type":"Feature","id":"40839","geometry":{"type":"Polygon","coordinates":[[[-86.8578863236081,36.3779790218744],[-86.8578642565641,36.3779019971233],[-86.8578451073367,36.3778244632245],[-86.8578288934252,36.377746493054],[-86.8578156312039,36.3776681585942],[-86.8578053303805,36.3775895336769],[-86.8577989214294,36.3775310693489],[-86.8577985822177,36.3774185475162],[-86.857802597765,36.3773060714169],[-86.8585953753023,36.3773312145749],[-86.8584958581769,36.377676933734],[-86.8583652586054,36.3779756259883],[-86.8581547439966,36.3784545325288],[-86.8580477720868,36.3783948589513],[-86.8580141866388,36.3783049978482],[-86.857977389191,36.3782247890131],[-86.8579437905425,36.3781436679872],[-86.8579134250155,36.378061717442],[-86.8578863236081,36.3779790218744]]]},"properties":{"id":"40839","parcel":"00500000302","address":"8485 GREENBRIER RD","owner":"SUGGS REVOCABLE LIVING TRUST","point":[-86.8581343969531,36.37786356267173]}},{"type":"Feature","id":"40859","geometry":{"type":"Polygon","coordinates":[[[-86.8529005111281,36.3801453144732],[-86.8534004345894,36.3773303260979],[-86.8534708730202,36.3773583438979],[-86.8535430647011,36.3773832734369],[-86.8536168037799,36.3774050422642],[-86.853691877824,36.3774235878888],[-86.853742091673,36.3774419681811],[-86.8537928136566,36.3774594103055],[-86.8538711258633,36.3774843036803],[-86.8539504378449,36.3775070315346],[-86.8540306590185,36.3775275656666],[-86.8541116977643,36.377545885092],[-86.8543889810104,36.3775856812862],[-86.8546669172373,36.3776232741662],[-86.8547188530071,36.3776296557032],[-86.8547712157189,36.3776330529755],[-86.854823744374,36.3776334470978],[-86.8548761770543,36.3776308372166],[-86.8549282497489,36.3776252351102],[-86.854979701985,36.3776166705568],[-86.8550200305979,36.3776075924691],[-86.8551529439905,36.3775933937688],[-86.8552854785862,36.3775770454919],[-86.8554175820755,36.3775585552191],[-86.8555492010255,36.3775379296376],[-86.8556434848541,36.3775395711035],[-86.8557376061417,36.3775443201418],[-86.8558314110348,36.3775521706315],[-86.8559247422391,36.3775631074637],[-86.8560174435551,36.3775771137201],[-86.8561093609435,36.377594166159],[-86.8562003414007,36.3776142343219],[-86.8562902352662,36.3776372877273],[-86.8563788905522,36.3776632868983],[-86.8564661619084,36.3776921878053],[-86.8565519017156,36.3777239428303],[-86.8566513457399,36.3794494809668],[-86.8568864752224,36.3805611788396],[-86.8529005111281,36.3801453144732]]]},"properties":{"id":"40859","parcel":"00500001000","address":"2920 HUFFMAN RD","owner":"BEASLEY, SCOTT R & SARA","point":[-86.85488983741661,36.37858464493031]}},{"type":"Feature","id":"209849","geometry":{"type":"Polygon","coordinates":[[[-86.8566513457399,36.3794494809668],[-86.8565519017156,36.3777239428303],[-86.8566398666863,36.3777601791199],[-86.8567258348258,36.3777994233257],[-86.8568096504589,36.3778416044565],[-86.856891157841,36.3778866452137],[-86.8569702089785,36.3779344637377],[-86.8570466591413,36.3779849709363],[-86.8571007488913,36.3780235934764],[-86.857235991125,36.3781045950318],[-86.8573731530302,36.3781834586668],[-86.857512184102,36.3782601522893],[-86.8576530305303,36.3783346474351],[-86.8577956396285,36.3784069165338],[-86.8579399587094,36.378476932015],[-86.8582869226179,36.3793974355729],[-86.8583209898655,36.3794786243487],[-86.8566513457399,36.3794494809668]]]},"properties":{"id":"209849","parcel":"00500004800","address":"2990 HUFFMAN RD","owner":"HILL, JOSHUA L. & HANNAH HOPE","point":[-86.85736757910361,36.37893629573446]}}]}