{"type":"FeatureCollection","features":[{"type":"Feature","id":"17900","geometry":{"type":"Polygon","coordinates":[[[-86.8681602876527,36.2323156693958],[-86.8681470565434,36.2322239496064],[-86.8681369318979,36.2321319713581],[-86.8681299211198,36.2320398021927],[-86.8681583846789,36.2320343856476],[-86.8698146826053,36.231688429562],[-86.8698245577141,36.2316855951923],[-86.8706235262554,36.2314562458651],[-86.8713111491959,36.2324119296625],[-86.8696733441973,36.2323734616314],[-86.8682638170787,36.2327415272945],[-86.8682315967721,36.2326361322168],[-86.8682035829775,36.2325299498371],[-86.8681798047114,36.2324230917054],[-86.8681602876527,36.2323156693958]]]},"properties":{"id":"17900","parcel":"05800024200","address":"4657 EATONS CREEK RD","owner":"BRUMIT, ROBERT L., JR. & JENNIFER J.","point":[-86.86960614609511,36.232087500781084]}},{"type":"Feature","id":"32302","geometry":{"type":"Polygon","coordinates":[[[-86.869551146973,36.2313123594022],[-86.8695818021561,36.2310336332854],[-86.8691575969531,36.2307361279459],[-86.8686917141827,36.2301728302121],[-86.8684723006781,36.2300297782685],[-86.868564154676,36.2295657188391],[-86.8686534514742,36.2291145692837],[-86.868664755768,36.2290502065171],[-86.8686731234469,36.228985550327],[-86.868678544343,36.2289206873082],[-86.8687808061853,36.2289813610047],[-86.8693761230402,36.2293345743277],[-86.8695960737846,36.230684548375],[-86.8702623482688,36.2308737534158],[-86.8716039048745,36.2309855759853],[-86.8720713113928,36.2308499642188],[-86.8721817718121,36.2301706260841],[-86.8722741629031,36.2302158105516],[-86.8723677781125,36.2302593088631],[-86.8722349962767,36.2312600191512],[-86.8717075004259,36.2311451553489],[-86.8706235262554,36.2314562458651],[-86.8698245577141,36.2316855951923],[-86.869551146973,36.2313123594022]]]},"properties":{"id":"32302","parcel":"05800024500","address":"4316 SULPHUR CREEK RD","owner":"WALSH, WILLIAM & GANNON, KAREN TN CMTY PROPERTY TRUST","point":[-86.86924921837188,36.23047005579037]}},{"type":"Feature","id":"128725","geometry":{"type":"Polygon","coordinates":[[[-86.8654510178951,36.2326572004796],[-86.8655131092957,36.2314979311626],[-86.8662265890716,36.2315581446771],[-86.8679614809259,36.2320608799655],[-86.8679673985024,36.2321370407162],[-86.8679753605401,36.2322130804261],[-86.8679853610588,36.2322889603837],[-86.8659574110622,36.2327054262079],[-86.8654510178951,36.2326572004796]]]},"properties":{"id":"128725","parcel":"05800025000","address":"4650 EATONS CREEK RD","owner":"ALBRIGHT, ROBERT M & KELLY P","point":[-86.86672275285602,36.232097583694156]}},{"type":"Feature","id":"128730","geometry":{"type":"Polygon","coordinates":[[[-86.8651994263919,36.2308304724055],[-86.8665413925022,36.2302290526814],[-86.8661953878263,36.2297215069949],[-86.8666802294982,36.2295046848538],[-86.8672860287046,36.2299023527026],[-86.8676340283984,36.2304712387206],[-86.8678937742874,36.2311550348004],[-86.8679895486971,36.2314402973326],[-86.8679754460008,36.2315432972552],[-86.867965104256,36.2316465891948],[-86.8679585336338,36.231750084756],[-86.8679557375822,36.231853691085],[-86.8679567207109,36.2319573198255],[-86.8679614809259,36.2320608799655],[-86.8662265890716,36.2315581446771],[-86.8655131092957,36.2314979311626],[-86.8654510178951,36.2326572004796],[-86.8651994263919,36.2308304724055]]]},"properties":{"id":"128730","parcel":"05800025100","address":"0 EATONS CREEK RD","owner":"ALBRIGHT, ROBERT M. & KELLY P.","point":[-86.86652712401985,36.23099273946214]}},{"type":"Feature","id":"132459","geometry":{"type":"Polygon","coordinates":[[[-86.868677586965,36.2371820959998],[-86.8685708275528,36.2368074049584],[-86.8684569508071,36.2364628246187],[-86.869494030693,36.236309741985],[-86.8703618109238,36.2358562155088],[-86.8704116301218,36.2359302599501],[-86.8704596335099,36.2360050862273],[-86.8705058041012,36.2360806674273],[-86.870673347505,36.2363661115278],[-86.8696947326956,36.2364904550548],[-86.8699205263734,36.2369069482076],[-86.8700999709185,36.2372104262232],[-86.868677586965,36.2371820959998]]]},"properties":{"id":"132459","parcel":"04800004800","address":"4736 EATONS CREEK RD","owner":"RUTHERFORD FAMILY LLC","point":[-86.86914963155732,36.23664894976026]}},{"type":"Feature","id":"132465","geometry":{"type":"Polygon","coordinates":[[[-86.8703772370194,36.2404331540747],[-86.8699660362513,36.239302136746],[-86.8690059419632,36.2393244321656],[-86.8692466470705,36.2399995708785],[-86.8675810012924,36.2402510856027],[-86.8672929011898,36.2397059442484],[-86.8661917947559,36.2402302869643],[-86.8659030309702,36.2403686099523],[-86.8655289069094,36.2396460737632],[-86.8658450621155,36.2395317288306],[-86.8665696357612,36.239058438577],[-86.8679542456506,36.2384133833725],[-86.8680309966804,36.2377425539659],[-86.8682797580997,36.2376682447569],[-86.8688328124205,36.2377268833387],[-86.868851056278,36.2377909126721],[-86.8690685256305,36.2378134498409],[-86.8691878404363,36.2383473752668],[-86.8699075879651,36.2384257051634],[-86.8699537868362,36.2386802977333],[-86.8702191761229,36.2393794304516],[-86.8703400164432,36.2397609472623],[-86.8705367763823,36.240385854782],[-86.8703772370194,36.2404331540747]]]},"properties":{"id":"132465","parcel":"04800005100","address":"0 MCCOOL RD","owner":"SOLOMON, BRENDA JOYCE","point":[-86.86850239855627,36.23886964490578]}},{"type":"Feature","id":"132762","geometry":{"type":"Polygon","coordinates":[[[-86.8691878404363,36.2383473752668],[-86.8690685256305,36.2378134498409],[-86.8698105762591,36.2378903463653],[-86.8699075879651,36.2384257051634],[-86.8691878404363,36.2383473752668]]]},"properties":{"id":"132762","parcel":"04800013200","address":"0 EATONS CREEK RD","owner":"BOLIN, WARREN L., SR. ET UX","point":[-86.86949437049647,36.238118855949466]}},{"type":"Feature","id":"132946","geometry":{"type":"Polygon","coordinates":[[[-86.8641697141328,36.2396404204675],[-86.8635740021669,36.2394930437841],[-86.8625487284264,36.2390102973379],[-86.8625082893132,36.2387842299548],[-86.8608927009629,36.2386485126803],[-86.8605776561085,36.2386155948003],[-86.8603794734132,36.2386016228548],[-86.8601377913014,36.2385791703476],[-86.8601664132758,36.2384668871479],[-86.8607036642224,36.2382279145562],[-86.861010455462,36.2377510407586],[-86.861189698034,36.2377695412086],[-86.8612348964169,36.2374351797106],[-86.8620899453893,36.2369851593721],[-86.8632944437831,36.2364908808307],[-86.8643223229635,36.2362198129998],[-86.864640529045,36.2360461229325],[-86.8652230231684,36.2357298890586],[-86.8650505084857,36.2353333524744],[-86.8654248321743,36.2350823396069],[-86.8661353527105,36.2345673982499],[-86.8663428886979,36.2341967058941],[-86.8670092811892,36.2343298264522],[-86.8669709200642,36.2343839609841],[-86.8669355424691,36.23443941246],[-86.8666400143662,36.2350736278828],[-86.8665551560105,36.2353448196136],[-86.8670390848096,36.2350707642528],[-86.8678755722596,36.2347035926262],[-86.868289299496,36.235955525461],[-86.8684569508071,36.2364628246187],[-86.8685708275528,36.2368074049584],[-86.868677586965,36.2371820959998],[-86.8687204920874,36.237332676978],[-86.8688328124205,36.2377268833387],[-86.8682797580997,36.2376682447569],[-86.8680309966804,36.2377425539659],[-86.8679542456506,36.2384133833725],[-86.8665696357612,36.239058438577],[-86.8658450621155,36.2395317288306],[-86.8655289069094,36.2396460737632],[-86.8651722076537,36.2397738936116],[-86.8650668238951,36.2398120080786],[-86.8647355235977,36.2397814128673],[-86.8641697141328,36.2396404204675]]]},"properties":{"id":"132946","parcel":"04800004500","address":"4670 EATONS CREEK RD","owner":"TAMBELLINI, CHARLES","point":[-86.8652804338882,36.237083556715326]}},{"type":"Feature","id":"133633","geometry":{"type":"Polygon","coordinates":[[[-86.8630974491135,36.2311036933649],[-86.8650933153021,36.2302141752203],[-86.8651994263919,36.2308304724055],[-86.8654510178951,36.2326572004796],[-86.8655110921343,36.2331440122134],[-86.8662707552928,36.2333049861301],[-86.8675598623302,36.2331133290088],[-86.8676031492837,36.2335986948095],[-86.8681983935721,36.2330367038249],[-86.8682338660193,36.233115817345],[-86.8673101433264,36.2339977447747],[-86.8672756250573,36.2340263561139],[-86.8672438005768,36.234056948898],[-86.8672148438472,36.2340893578509],[-86.8671591781511,36.2341550491413],[-86.867100983393,36.2342192859011],[-86.8670536214886,36.2342737329151],[-86.8670092811892,36.2343298264522],[-86.8663428886979,36.2341967058941],[-86.8661353527105,36.2345673982499],[-86.8654248321743,36.2350823396069],[-86.8650505084857,36.2353333524744],[-86.8652230231684,36.2357298890586],[-86.864640529045,36.2360461229325],[-86.8643223229635,36.2362198129998],[-86.8632944437831,36.2364908808307],[-86.8620899453893,36.2369851593721],[-86.8612348964169,36.2374351797106],[-86.861189698034,36.2377695412086],[-86.861010455462,36.2377510407586],[-86.8607036642224,36.2382279145562],[-86.8601664132758,36.2384668871479],[-86.8601377913014,36.2385791703476],[-86.8597277387277,36.2385403339736],[-86.8594842251856,36.2385992054894],[-86.8595731450855,36.2367921210631],[-86.8600945875087,36.236597213298],[-86.860522752459,36.2363062772242],[-86.8609384445636,36.2358659891435],[-86.86127351626,36.2354965941041],[-86.8617792828864,36.2351084014453],[-86.861935434624,36.2349996032755],[-86.8623844358404,36.2348799237624],[-86.8629828366246,36.2347789570854],[-86.8635971104185,36.2343921768965],[-86.8639780148215,36.2339982746478],[-86.8640004862569,36.2338201054713],[-86.8639118890575,36.2329087213225],[-86.8639352068356,36.2325591311383],[-86.8635948420664,36.2316934994238],[-86.8633632961367,36.2313545210256],[-86.8630974491135,36.2311036933649]]]},"properties":{"id":"133633","parcel":"04800004400","address":"4678 EATONS CREEK RD","owner":"ALBRIGHT, ROBERT M. & KELLY P.","point":[-86.86482203213838,36.23447974437523]}},{"type":"Feature","id":"133636","geometry":{"type":"Polygon","coordinates":[[[-86.868289299496,36.235955525461],[-86.869814268445,36.2351935046267],[-86.8703618109238,36.2358562155088],[-86.869494030693,36.236309741985],[-86.8684569508071,36.2364628246187],[-86.868289299496,36.235955525461]]]},"properties":{"id":"133636","parcel":"04800004600","address":"4722 EATONS CREEK RD","owner":"KINMAN, JEFFRY","point":[-86.86962061964795,36.23552435195399]}},{"type":"Feature","id":"135297","geometry":{"type":"Polygon","coordinates":[[[-86.8692466470705,36.2399995708785],[-86.8690059419632,36.2393244321656],[-86.8699660362513,36.239302136746],[-86.8703772370194,36.2404331540747],[-86.8702014703161,36.2404849654741],[-86.8701189628764,36.2405152417585],[-86.8700352695387,36.2405433013224],[-86.869950048188,36.2405694981172],[-86.8698639303599,36.2405936942064],[-86.8697769870505,36.2406158701507],[-86.8696812072506,36.2406378978486],[-86.8695846333119,36.2406575167184],[-86.8694873562675,36.240674708078],[-86.8692466470705,36.2399995708785]]]},"properties":{"id":"135297","parcel":"04800013900","address":"4828 MCCOOL RD","owner":"SOLOMON, BRENDA JOYCE","point":[-86.8696117743279,36.239662531664266]}},{"type":"Feature","id":"158320","geometry":{"type":"Polygon","coordinates":[[[-86.8681896873791,36.2312871554548],[-86.8684723006781,36.2300297782685],[-86.8686917141827,36.2301728302121],[-86.8691575969531,36.2307361279459],[-86.8695818021561,36.2310336332854],[-86.869551146973,36.2313123594022],[-86.8698245577141,36.2316855951923],[-86.8698146826053,36.231688429562],[-86.8681583846789,36.2320343856476],[-86.8681299211198,36.2320398021927],[-86.868125678169,36.2319318915662],[-86.8681257030537,36.2318239277331],[-86.8681299958284,36.2317160188442],[-86.8681385521473,36.2316082775875],[-86.8681513620537,36.2315008121847],[-86.8681684123036,36.2313937353868],[-86.8681896873791,36.2312871554548]]]},"properties":{"id":"158320","parcel":"05800021200","address":"4629 EATONS CREEK RD","owner":"BRUMIT, ROBERT L., JR & JENNIFER J.","point":[-86.86889306092782,36.23116040441388]}},{"type":"Feature","id":"158751","geometry":{"type":"Polygon","coordinates":[[[-86.8670092811892,36.2343298264522],[-86.8670536214886,36.2342737329151],[-86.867100983393,36.2342192859011],[-86.8671591781511,36.2341550491413],[-86.8672148438472,36.2340893578509],[-86.8672438005768,36.234056948898],[-86.8672756250573,36.2340263561139],[-86.8673101433264,36.2339977447747],[-86.8682338660193,36.233115817345],[-86.8682793521703,36.2332094980262],[-86.8683281370768,36.233302081577],[-86.8683801798838,36.2333934934826],[-86.8684354397258,36.233483658327],[-86.8684938701847,36.2335725016353],[-86.8685554226365,36.2336599507507],[-86.8686200473344,36.233745932123],[-86.8686876901206,36.2338303758386],[-86.869814268445,36.2351935046267],[-86.868289299496,36.235955525461],[-86.8678755722596,36.2347035926262],[-86.8670390848096,36.2350707642528],[-86.8665551560105,36.2353448196136],[-86.8666400143662,36.2350736278828],[-86.8669355424691,36.23443941246],[-86.8669709200642,36.2343839609841],[-86.8670092811892,36.2343298264522]]]},"properties":{"id":"158751","parcel":"05800021700","address":"4700 EATONS CREEK RD","owner":"TAMBELLINI, CHARLES","point":[-86.86808809570341,36.23457225791116]}},{"type":"Feature","id":"159109","geometry":{"type":"Polygon","coordinates":[[[-86.8627954281579,36.2299444883397],[-86.8651974558743,36.2293036113734],[-86.8653417213855,36.2295200843726],[-86.8649736040169,36.2297850496912],[-86.8650933153021,36.2302141752203],[-86.8630974491135,36.2311036933649],[-86.8622006032749,36.2304963848379],[-86.8627954281579,36.2299444883397]]]},"properties":{"id":"159109","parcel":"05800023400","address":"0 EATONS CREEK RD","owner":"FLOWERS, JAMES M. & DEBRA JEAN","point":[-86.86385386705824,36.230079234350946]}},{"type":"Feature","id":"162213","geometry":{"type":"Polygon","coordinates":[[[-86.8655110921343,36.2331440122134],[-86.8654510178951,36.2326572004796],[-86.8659574110622,36.2327054262079],[-86.8679853610588,36.2322889603837],[-86.8680014839303,36.2323877559234],[-86.8680210653806,36.2324861408669],[-86.8680440867564,36.2325840360361],[-86.868070531609,36.2326813604338],[-86.8681003768744,36.2327780385181],[-86.8681336005514,36.2328739902325],[-86.8681701751059,36.2329691382642],[-86.8678983816487,36.2330625492867],[-86.8675598623302,36.2331133290088],[-86.8662707552928,36.2333049861301],[-86.8655110921343,36.2331440122134]]]},"properties":{"id":"162213","parcel":"05800005200","address":"0 EATONS CREEK RD","owner":"ALBRIGHT, ROBERT M. & KELLY P.","point":[-86.86679423759166,36.23282454908131]}},{"type":"Feature","id":"162360","geometry":{"type":"Polygon","coordinates":[[[-86.8675598623302,36.2331133290088],[-86.8678983816487,36.2330625492867],[-86.8681701751059,36.2329691382642],[-86.8681983935721,36.2330367038249],[-86.8676031492837,36.2335986948095],[-86.8675598623302,36.2331133290088]]]},"properties":{"id":"162360","parcel":"05800005100","address":"4668 EATONS CREEK RD","owner":"ALBRIGHT, ROBERT M. & KELLY P.","point":[-86.86772068653922,36.2333561658688]}},{"type":"Feature","id":"162428","geometry":{"type":"Polygon","coordinates":[[[-86.8666802294982,36.2295046848538],[-86.8685036847075,36.2286892023756],[-86.868509376522,36.2287565081154],[-86.8685116169501,36.2288239477224],[-86.8685104035873,36.22889140405],[-86.8685057384984,36.228958761722],[-86.8684976281872,36.2290259044286],[-86.8684860880761,36.2290927175981],[-86.8683080623026,36.2300011137689],[-86.8680227899767,36.2312630583274],[-86.8680047713769,36.2313515058234],[-86.8679895486971,36.2314402973326],[-86.8678937742874,36.2311550348004],[-86.8676340283984,36.2304712387206],[-86.8672860287046,36.2299023527026],[-86.8666802294982,36.2295046848538]]]},"properties":{"id":"162428","parcel":"05800005300","address":"4610 EATONS CREEK RD","owner":"ALBRIGHT, ROBERT M. & KELLY P.","point":[-86.86787238221187,36.230236067816975]}}]}