{"type":"FeatureCollection","features":[{"type":"Feature","id":"114160","geometry":{"type":"Polygon","coordinates":[[[-86.8048033887038,36.2646988839862],[-86.8036064375862,36.2643090836765],[-86.8034309509883,36.2642976141293],[-86.8011629359892,36.2641896053564],[-86.8013123244874,36.2629953169509],[-86.8016828255853,36.2600535657427],[-86.8022006495398,36.260075401136],[-86.8038496178173,36.2601924536011],[-86.8039752163231,36.2602020571791],[-86.8042667679641,36.2602539584685],[-86.8047496689029,36.2603100789036],[-86.8050180182153,36.2602819201301],[-86.8052127756273,36.2602212871494],[-86.8056865789477,36.2599165078565],[-86.8061725468331,36.2593407900917],[-86.8072746083005,36.2585559843144],[-86.8072870691743,36.2585761683204],[-86.8079312541286,36.259607386306],[-86.807902720607,36.2599367837501],[-86.8077928717218,36.2612048912615],[-86.8075158760409,36.264402365658],[-86.804864069006,36.264361148108],[-86.8048631021063,36.2643660987818],[-86.8048033887038,36.2646988839862]]]},"properties":{"id":"114160","parcel":"04000009100","address":"3833 KNIGHT DR","owner":"KABBES, LAUREN M","point":[-86.80457029625282,36.262100177033055]}}]}