{"type":"FeatureCollection","features":[{"type":"Feature","id":"19876","geometry":{"type":"Polygon","coordinates":[[[-86.8838289393996,36.2659523771452],[-86.8832452839342,36.2650819930869],[-86.8835850585884,36.264767173254],[-86.8836522660861,36.2647008634172],[-86.8843986591052,36.2650669841392],[-86.8851182883592,36.2650911324109],[-86.8852221414386,36.2651189675443],[-86.8853705612687,36.2651855985314],[-86.8854798836363,36.2653031048899],[-86.8856279328573,36.2655645853232],[-86.8857351828185,36.2657259101726],[-86.885905070568,36.2659814522585],[-86.885836911482,36.2659959122797],[-86.8858034294306,36.2660046736292],[-86.8857080354984,36.2660221613284],[-86.8856120088069,36.2660372066906],[-86.8855154426606,36.2660497928081],[-86.8854184371118,36.2660599090329],[-86.8853210844129,36.2660675438732],[-86.8852084048316,36.2660733045449],[-86.8850955437813,36.2660757723657],[-86.884982645923,36.2660749444734],[-86.8848698570611,36.2660708207015],[-86.8847573253057,36.2660634080775],[-86.8846451976643,36.2660527145385],[-86.8842083680759,36.2659993227545],[-86.8838289393996,36.2659523771452]]]},"properties":{"id":"19876","parcel":"03800018800","address":"0 OLD HICKORY BLVD","owner":"FOUR WHEELIN FARM TRUST","point":[-86.8845168948188,36.26543284837608]}},{"type":"Feature","id":"92231","geometry":{"type":"Polygon","coordinates":[[[-86.884737031204,36.2624877452034],[-86.884751054102,36.262280759098],[-86.886944842534,36.2627570129069],[-86.8865008442487,36.2638467559847],[-86.8857351828185,36.2657259101726],[-86.8856279328573,36.2655645853232],[-86.8854798836363,36.2653031048899],[-86.8853705612687,36.2651855985314],[-86.8852221414386,36.2651189675443],[-86.8851182883592,36.2650911324109],[-86.8850716312153,36.264143433591],[-86.8846374115798,36.2639581368483],[-86.8846832453334,36.2632816440107],[-86.884737031204,36.2624877452034]]]},"properties":{"id":"92231","parcel":"03800019600","address":"0 EATONS CREEK RD","owner":"FOUR WHEELIN FARM TRUST","point":[-86.88563581335579,36.26405153499652]}},{"type":"Feature","id":"107131","geometry":{"type":"Polygon","coordinates":[[[-86.8817974950877,36.2659636435371],[-86.8808630942097,36.2634432013655],[-86.880479904546,36.2624153111651],[-86.8784552282274,36.2624427430354],[-86.8784424349397,36.2623384385967],[-86.8783393037026,36.2615738511835],[-86.8789894644342,36.2606805212716],[-86.8792409443695,36.2603349783326],[-86.8811900909894,36.2606366570354],[-86.8830257316284,36.2612385904268],[-86.8831173087084,36.2612692280306],[-86.882700103679,36.261485813669],[-86.882314822195,36.262480355723],[-86.8830408949835,36.263603606713],[-86.8831961699654,36.2638536960198],[-86.8833145785171,36.2640444034239],[-86.8836908105602,36.2644425927942],[-86.8834142706514,36.2645841194567],[-86.8836522660861,36.2647008634172],[-86.8835850585884,36.264767173254],[-86.8832452839342,36.2650819930869],[-86.8838289393996,36.2659523771452],[-86.8833353722582,36.265890883926],[-86.8832071203504,36.265878317851],[-86.8830784331794,36.2658691336126],[-86.8829494443778,36.265863340147],[-86.8828202920194,36.2658609454568],[-86.8826911118621,36.2658619494512],[-86.8825620396836,36.265866353842],[-86.8824332122742,36.2658741513219],[-86.8823047664343,36.2658853354852],[-86.8821768366789,36.2658998945361],[-86.8820495585757,36.2659178112641],[-86.88192306658,36.2659390684672],[-86.8817974950877,36.2659636435371]]]},"properties":{"id":"107131","parcel":"03800010100","address":"6130 OLD HICKORY BLVD","owner":"HIGHLAND RIM PRESERVATION TRUST, THE","point":[-86.88165498120465,36.26296184611226]}},{"type":"Feature","id":"107132","geometry":{"type":"Polygon","coordinates":[[[-86.8836908105602,36.2644425927942],[-86.8846374115798,36.2639581368483],[-86.8850716312153,36.264143433591],[-86.8851182883592,36.2650911324109],[-86.8843986591052,36.2650669841392],[-86.8836522660861,36.2647008634172],[-86.8834142706514,36.2645841194567],[-86.8836908105602,36.2644425927942]]]},"properties":{"id":"107132","parcel":"03800010700","address":"6088 OLD HICKORY BLVD","owner":"FOUR WHEELIN FARM TRUST","point":[-86.8843212285155,36.26451410210438]}},{"type":"Feature","id":"107133","geometry":{"type":"Polygon","coordinates":[[[-86.8857351828185,36.2657259101726],[-86.8865008442487,36.2638467559847],[-86.8876428946929,36.2649956555102],[-86.8875762936571,36.2650685422695],[-86.8875065904083,36.2651395023639],[-86.8874324526412,36.2652097144958],[-86.887355246286,36.2652777239203],[-86.8872750716386,36.2653434433751],[-86.8871920334579,36.2654067864664],[-86.8871062365641,36.2654676722075],[-86.8870177935988,36.2655260222583],[-86.8869268183375,36.2655817600729],[-86.8868334290793,36.2656348153813],[-86.8867377463495,36.2656851178973],[-86.8866398918581,36.2657326036349],[-86.8865399940236,36.2657772112632],[-86.8864381801826,36.2658188821631],[-86.8863345833074,36.2658575639834],[-86.8862293374946,36.265893205266],[-86.8861225780345,36.2659257617549],[-86.8860144424542,36.265955190079],[-86.885905070568,36.2659814522585],[-86.8857351828185,36.2657259101726]]]},"properties":{"id":"107133","parcel":"03800010900","address":"6064 OLD HICKORY BLVD","owner":"VICK, JOE R. & JEAN W.","point":[-86.88666948211322,36.264420826547244]}},{"type":"Feature","id":"107243","geometry":{"type":"Polygon","coordinates":[[[-86.8830408949835,36.263603606713],[-86.882314822195,36.262480355723],[-86.8843078516697,36.2624790973189],[-86.884737031204,36.2624877452034],[-86.8846832453334,36.2632816440107],[-86.8830408949835,36.263603606713]]]},"properties":{"id":"107243","parcel":"03800010400","address":"0 OLD HICKORY BLVD","owner":"FOUR WHEELIN FARM TRUST","point":[-86.883642490489,36.26288366078383]}},{"type":"Feature","id":"107244","geometry":{"type":"Polygon","coordinates":[[[-86.8831961699654,36.2638536960198],[-86.884219403488,36.2637797542059],[-86.8846374115798,36.2639581368483],[-86.8836908105602,36.2644425927942],[-86.8833145785171,36.2640444034239],[-86.8831961699654,36.2638536960198]]]},"properties":{"id":"107244","parcel":"03800010600","address":"0 OLD HICKORY BLVD","owner":"FOUR WHEELIN FARM TRUST","point":[-86.88379071716308,36.2642437784414]}},{"type":"Feature","id":"107246","geometry":{"type":"Polygon","coordinates":[[[-86.8865008442487,36.2638467559847],[-86.886944842534,36.2627570129069],[-86.8873581420515,36.2628970508251],[-86.8881287595255,36.2635539627654],[-86.8888207800182,36.2637980865906],[-86.8885631938084,36.2640590251679],[-86.8880490395626,36.264581442859],[-86.8876428946929,36.2649956555102],[-86.8865008442487,36.2638467559847]]]},"properties":{"id":"107246","parcel":"03800011000","address":"6042 OLD HICKORY BLVD","owner":"GILBERT, DONALD G. & MARSHA V.","point":[-86.88763619584574,36.26395299293209]}},{"type":"Feature","id":"107423","geometry":{"type":"Polygon","coordinates":[[[-86.8793667219579,36.2677416474692],[-86.8794292556547,36.2676454570735],[-86.8794954867304,36.2675509034431],[-86.8795653505383,36.26745807897],[-86.879638779114,36.2673670778727],[-86.8797156988604,36.2672779881019],[-86.8797960339654,36.2671908985256],[-86.879879706343,36.267105893522],[-86.8799666323337,36.2670230566084],[-86.8807938906419,36.2674719356908],[-86.880596885427,36.2679370685079],[-86.8804685965052,36.2682368786912],[-86.8793667219579,36.2677416474692]]]},"properties":{"id":"107423","parcel":"03800008000","address":"6167 OLD HICKORY BLVD","owner":"MORGAN, WILLS NAPIER, III & LORI MOORE","point":[-86.8801011246341,36.26759882229072]}},{"type":"Feature","id":"107578","geometry":{"type":"Polygon","coordinates":[[[-86.8881134425828,36.2709037856434],[-86.8868816728227,36.2682669026928],[-86.8867233775731,36.2674593417081],[-86.8876124236456,36.2671209771379],[-86.8867459847006,36.2658417301713],[-86.8868383345439,36.2657954149151],[-86.886928954811,36.2657469114234],[-86.8870177669512,36.2656962617341],[-86.8871046924349,36.2656435096877],[-86.8871228866002,36.2656306126],[-86.8871424101495,36.265619059431],[-86.8871713302504,36.2655996756956],[-86.8871989514339,36.2655790866013],[-86.887293621956,36.2655114735905],[-86.8873855146794,36.2654413916423],[-86.8874745302872,36.265368916296],[-86.887560573915,36.2652941230586],[-86.8876435541085,36.2652170937206],[-86.8877233827533,36.2651379100482],[-86.8877966208912,36.2650618290802],[-86.8878170464766,36.265038328482],[-86.8880069287669,36.2657577520541],[-86.889412522995,36.2662308912203],[-86.8893129145604,36.2708971626599],[-86.8881134425828,36.2709037856434]]]},"properties":{"id":"107578","parcel":"03800008500","address":"6069 OLD HICKORY BLVD","owner":"QUEEN, EDMOND R. REVOCABLE LIVING TRUST","point":[-86.88809007767267,36.26786433388649]}},{"type":"Feature","id":"108419","geometry":{"type":"Polygon","coordinates":[[[-86.8811337580586,36.2663091181212],[-86.881250400583,36.266265157154],[-86.8813688059046,36.2662244042887],[-86.8814888410172,36.2661869073554],[-86.8816103684139,36.2661527097114],[-86.8817332505185,36.2661218484063],[-86.8818573486431,36.2660943604983],[-86.8819825184458,36.2660702749758],[-86.8821086211596,36.2660496216889],[-86.8822355112409,36.2660324215247],[-86.8825951601351,36.2689941002877],[-86.8822724730797,36.2690785946139],[-86.8811337580586,36.2663091181212]]]},"properties":{"id":"108419","parcel":"03800008100","address":"6131 OLD HICKORY BLVD","owner":"FARRICIELLI, GREG","point":[-86.88205893169491,36.26765180350179]}},{"type":"Feature","id":"108965","geometry":{"type":"Polygon","coordinates":[[[-86.8854610800436,36.2715539621083],[-86.885437040143,36.2715490479722],[-86.8854143787375,36.2715409008615],[-86.8853937551294,36.2715297565811],[-86.8853757661614,36.2715159388146],[-86.8853609371922,36.2714998483759],[-86.8853496963788,36.2714819525824],[-86.8853423700743,36.2714627717693],[-86.8853391726205,36.2714428622411],[-86.8853401961814,36.2714228028269],[-86.8853454105117,36.2714031741531],[-86.8853479956816,36.2713915903725],[-86.8853483951276,36.2713798243282],[-86.8853465995988,36.2713681437596],[-86.8853426476991,36.271356816055],[-86.885336631361,36.2713461001009],[-86.8852513133128,36.2712262774735],[-86.885162880222,36.2711079448336],[-86.8850713749714,36.2709911541332],[-86.8849768360014,36.2708759582577],[-86.8848793061927,36.2707624091588],[-86.8847788317442,36.2706505569613],[-86.8846754532993,36.2705404527317],[-86.8845692214962,36.2704321456612],[-86.8844601813881,36.2703256831787],[-86.8844222155245,36.270285887818],[-86.8843826375173,36.2702471361741],[-86.8842934322763,36.2701571375375],[-86.8842048988489,36.2700665841563],[-86.8841302499175,36.2699893974243],[-86.8840591285821,36.2699100560874],[-86.8839916295059,36.2698286658068],[-86.8839278440522,36.2697453358725],[-86.8838678547002,36.2696601774424],[-86.8838117428249,36.269573302583],[-86.8837595820506,36.2694848270224],[-86.8837114427116,36.2693948710189],[-86.8836673895369,36.2693035512664],[-86.8836274806476,36.2692109908154],[-86.8836007984421,36.2691589746449],[-86.8835778473883,36.2691058037245],[-86.8835587028883,36.269051653249],[-86.883543428152,36.2689967030079],[-86.8835320741473,36.2689411328803],[-86.8835246774144,36.2688851264551],[-86.8835212622722,36.268828869213],[-86.8835218407876,36.2687725458223],[-86.8835264105702,36.268716341958],[-86.8835349569883,36.2686604433843],[-86.8835474509231,36.2686050341685],[-86.883559559668,36.2685595992058],[-86.8835753684439,36.2685149167718],[-86.8835948070895,36.2684711829494],[-86.8837636344015,36.2679139523419],[-86.8840973069754,36.2668083091243],[-86.8841766173516,36.2661330601577],[-86.88434510065,36.2661538034772],[-86.8844582275912,36.2661704625757],[-86.8845719267416,36.2661843406241],[-86.8846860921901,36.2661954221735],[-86.8848006203313,36.2662036989686],[-86.884915404211,36.2662091618778],[-86.8850303413868,36.2662118071442],[-86.885145323872,36.2662116328543],[-86.8852602470184,36.2662086370709],[-86.884967998882,36.267012904871],[-86.8848853689857,36.2676332400569],[-86.8848205742887,36.2679062185763],[-86.8848049986261,36.2679695139212],[-86.8845573573163,36.2679081454334],[-86.88407023193,36.2677864458931],[-86.8840552720701,36.2677844752406],[-86.8840401158998,36.2677845608748],[-86.8840251907619,36.2677867005708],[-86.8840109200273,36.2677908353543],[-86.8839977074856,36.2677968469117],[-86.8839859229681,36.2678045658069],[-86.8839759023882,36.2678137750854],[-86.8839679277305,36.2678242122234],[-86.8839622249857,36.2678355835631],[-86.8838555555889,36.2681868827935],[-86.8837560479037,36.2685112091514],[-86.8837356988469,36.2685599245619],[-86.8837190493889,36.2686095538214],[-86.8837061642476,36.2686599117017],[-86.8836970880899,36.2687108113186],[-86.8836918577731,36.268762064042],[-86.8836904901028,36.2688134795856],[-86.8836929918592,36.2688648668348],[-86.8836993531393,36.2689160356982],[-86.8837095495731,36.2689667961892],[-86.8837235445584,36.2690169593121],[-86.8837412859531,36.2690663397892],[-86.883762707157,36.2691147533496],[-86.8837877293883,36.2691620212186],[-86.8838281954224,36.2692533293124],[-86.8838725735989,36.2693434389561],[-86.8839208103678,36.2694322378808],[-86.8839728455612,36.2695196192732],[-86.8840286167845,36.2696054763364],[-86.8840880560978,36.2696897041159],[-86.884151090026,36.2697722004016],[-86.8842176428871,36.2698528648015],[-86.8842876334339,36.2699315969646],[-86.8843609749338,36.2700083037894],[-86.8844285775685,36.2700775839036],[-86.884566141632,36.2702147523454],[-86.8846806497665,36.2703262983181],[-86.8847922436094,36.2704397626488],[-86.8849008769744,36.2705550961147],[-86.8850065014386,36.2706722486082],[-86.8851090707834,36.2707911682028],[-86.8852085398925,36.2709118020628],[-86.8853048636483,36.2710340973522],[-86.885398001384,36.2711580012026],[-86.8854879112989,36.271283458951],[-86.8854959427229,36.2712944242003],[-86.8855059626634,36.2713042582302],[-86.8855177325382,36.2713127257599],[-86.8855309718468,36.2713196251612],[-86.8855453648985,36.271324792917],[-86.8855676146783,36.2713340560634],[-86.8855876560317,36.2713461842402],[-86.8856049308992,36.2713608381613],[-86.8856189617264,36.2713776121597],[-86.8856293559763,36.2713960395615],[-86.8856358263529,36.2714156096615],[-86.885638193138,36.2714357776197],[-86.8856363910905,36.2714559842379],[-86.8856304933219,36.271474704966],[-86.8856209149463,36.2714922359767],[-86.8856080885885,36.2715083487863],[-86.8855923259604,36.2715226517697],[-86.8855740105144,36.2715347987397],[-86.8855535874773,36.2715444935266],[-86.8855314354036,36.2715512502855],[-86.8855082550558,36.2715551305738],[-86.8854846108034,36.2715560419332],[-86.8854610800436,36.2715539621083]]]},"properties":{"id":"108965","parcel":"03800008200","address":"6105 OLD HICKORY BLVD","owner":"OGBURN, ALEXANDRA M.","point":[-86.88360723476016,36.26884686815953]}},{"type":"Feature","id":"109030","geometry":{"type":"Polygon","coordinates":[[[-86.8846374115798,36.2639581368483],[-86.884219403488,36.2637797542059],[-86.8831961699654,36.2638536960198],[-86.8830408949835,36.263603606713],[-86.8846832453334,36.2632816440107],[-86.8846374115798,36.2639581368483]]]},"properties":{"id":"109030","parcel":"03800010500","address":"0 OLD HICKORY BLVD","owner":"MAXWELL, BEAU","point":[-86.88387532609742,36.26369192019442]}},{"type":"Feature","id":"112435","geometry":{"type":"Polygon","coordinates":[[[-86.8861243838383,36.2660704462857],[-86.886231879566,36.2660397202485],[-86.8863379859575,36.2660059788024],[-86.886442576584,36.2659692625333],[-86.8865455228424,36.2659296165497],[-86.8866466994992,36.2658870886395],[-86.8867459847006,36.2658417301713],[-86.8876124236456,36.2671209771379],[-86.8867233775731,36.2674593417081],[-86.8861243838383,36.2660704462857]]]},"properties":{"id":"112435","parcel":"03800011700","address":"6077 OLD HICKORY BLVD","owner":"COX, JAMES D. & JACQUELINE Y.","point":[-86.88680380448886,36.266595652925325]}},{"type":"Feature","id":"112476","geometry":{"type":"Polygon","coordinates":[[[-86.8822355112409,36.2660324215247],[-86.8823544917093,36.2660194130176],[-86.8824739166174,36.2660094410688],[-86.8825936703354,36.2660025146328],[-86.8827136338852,36.2659986417878],[-86.8828336893514,36.2659978260983],[-86.8829537165628,36.2660000684424],[-86.8830735964211,36.2660053660855],[-86.8831932120232,36.2660137135734],[-86.8833124442203,36.266025103667],[-86.8833423394283,36.2660290056752],[-86.8833351711579,36.2660859216336],[-86.8829175182305,36.2689098093761],[-86.8825951601351,36.2689941002877],[-86.8822355112409,36.2660324215247]]]},"properties":{"id":"112476","parcel":"03800018400","address":"6117 OLD HICKORY BLVD","owner":"NICHOLS, VINCENT PATTERSON & ROWENCZAK, SCOTT","point":[-86.88276986321628,36.26749751698621]}},{"type":"Feature","id":"112586","geometry":{"type":"Polygon","coordinates":[[[-86.8811093221362,36.2699084385253],[-86.8810114420719,36.2698921211639],[-86.8809321109327,36.2698965423767],[-86.8808096844751,36.2698694175311],[-86.8806952900046,36.2698323428099],[-86.8806114607166,36.2697983411438],[-86.8804935278987,36.2697481058216],[-86.8799120634159,36.269440828948],[-86.879294773479,36.2685948450689],[-86.8790414766229,36.2685126289876],[-86.8790671768337,36.2684162056212],[-86.8790966968139,36.2683205024987],[-86.8791300064802,36.2682256180724],[-86.8791670712984,36.2681316508268],[-86.8792078511706,36.2680386992864],[-86.8792523048467,36.2679468583788],[-86.8792885078181,36.2678777538503],[-86.8793266537712,36.2678093381474],[-86.8793667219579,36.2677416474692],[-86.8804685965052,36.2682368786912],[-86.8802144615567,36.2688123074141],[-86.8820813765967,36.2697694912161],[-86.881760525574,36.2698970964584],[-86.8816728937783,36.2698872975062],[-86.8815263810325,36.2698905635156],[-86.8813800637965,36.2699114095124],[-86.8812172634604,36.2699142441656],[-86.8811093221362,36.2699084385253]]]},"properties":{"id":"112586","parcel":"03800014000","address":"6179 OLD HICKORY BLVD","owner":"BRIANT, COLIN","point":[-86.8802556803514,36.26912676108512]}},{"type":"Feature","id":"112822","geometry":{"type":"Polygon","coordinates":[[[-86.8825203083894,36.2697053027922],[-86.8822724730797,36.2690785946139],[-86.8825951601351,36.2689941002877],[-86.8829175182305,36.2689098093761],[-86.8834820341109,36.2687620930187],[-86.8835474509231,36.2686050341685],[-86.8835349569883,36.2686604433843],[-86.8835264105702,36.268716341958],[-86.8835218407876,36.2687725458223],[-86.8835212622722,36.268828869213],[-86.8835246774144,36.2688851264551],[-86.8835320741473,36.2689411328803],[-86.883543428152,36.2689967030079],[-86.8835587028883,36.269051653249],[-86.8835778473883,36.2691058037245],[-86.8836007984421,36.2691589746449],[-86.8836274806476,36.2692109908154],[-86.8836673895369,36.2693035512664],[-86.8837114427116,36.2693948710189],[-86.8837595820506,36.2694848270224],[-86.8838117428249,36.269573302583],[-86.8838678547002,36.2696601774424],[-86.8839278440522,36.2697453358725],[-86.8839916295059,36.2698286658068],[-86.8840591285821,36.2699100560874],[-86.8841302499175,36.2699893974243],[-86.8842048988489,36.2700665841563],[-86.8842934322763,36.2701571375375],[-86.8843826375173,36.2702471361741],[-86.8834234592303,36.2708106995053],[-86.8825570168101,36.2697726113907],[-86.8825203083894,36.2697053027922]]]},"properties":{"id":"112822","parcel":"03800016700","address":"5044 GRADY LN","owner":"GRIMES, JOHN MICHAEL","point":[-86.8832225370099,36.26972531989995]}},{"type":"Feature","id":"113045","geometry":{"type":"Polygon","coordinates":[[[-86.8848853689857,36.2676332400569],[-86.884967998882,36.267012904871],[-86.8852602470184,36.2662086370709],[-86.8853226186228,36.2662048833855],[-86.8854393261495,36.2661956467108],[-86.88555555542,36.2661830526602],[-86.8856711563796,36.2661671194585],[-86.885785985651,36.2661478652822],[-86.8858998954865,36.2661253155499],[-86.8860127426205,36.2660994983521],[-86.8861243838383,36.2660704462857],[-86.8867233775731,36.2674593417081],[-86.8868816728227,36.2682669026928],[-86.8848853689857,36.2676332400569]]]},"properties":{"id":"113045","parcel":"03800014100","address":"0 OLD HICKORY BLVD","owner":"OGBURN, ALEXANDRA M.","point":[-86.88578290558821,36.26723606657436]}},{"type":"Feature","id":"113048","geometry":{"type":"Polygon","coordinates":[[[-86.8801154809913,36.2635651227298],[-86.8808630942097,36.2634432013655],[-86.8817974950877,36.2659636435371],[-86.8817640883149,36.2659719066257],[-86.8817298040765,36.2659773254488],[-86.8816212032807,36.2660034997058],[-86.8815135569609,36.2660321453436],[-86.881406952771,36.2660632391938],[-86.8813014739035,36.26609675722],[-86.8811972046344,36.2661326726741],[-86.8810942292102,36.2661709561049],[-86.8801154809913,36.2635651227298]]]},"properties":{"id":"113048","parcel":"03800014500","address":"0 OLD HICKORY BLVD","owner":"KESSLER, SCOTT T.","point":[-86.88095940109477,36.26476438909876]}},{"type":"Feature","id":"113057","geometry":{"type":"Polygon","coordinates":[[[-86.8804685965052,36.2682368786912],[-86.880596885427,36.2679370685079],[-86.8807938906419,36.2674719356908],[-86.8799666323337,36.2670230566084],[-86.8800549919175,36.2669461619521],[-86.8801464666634,36.2668716950423],[-86.880240953978,36.2667997377318],[-86.8803312757035,36.2667354181492],[-86.8804240358652,36.2666734176763],[-86.8805191449768,36.266613795541],[-86.8806165091018,36.2665566110038],[-86.8807160342645,36.2665019197204],[-86.880817620906,36.2664497755852],[-86.8809211727567,36.2664002279624],[-86.8810265857682,36.2663533271746],[-86.8811337580586,36.2663091181212],[-86.8822724730797,36.2690785946139],[-86.8825203083894,36.2697053027922],[-86.8820813765967,36.2697694912161],[-86.8802144615567,36.2688123074141],[-86.8804685965052,36.2682368786912]]]},"properties":{"id":"113057","parcel":"03800015400","address":"6161 OLD HICKORY BLVD","owner":"MORGAN, WILLS N., III","point":[-86.88119901379527,36.26808763727108]}},{"type":"Feature","id":"113119","geometry":{"type":"Polygon","coordinates":[[[-86.88407023193,36.2677864458931],[-86.8845573573163,36.2679081454334],[-86.8848049986261,36.2679695139212],[-86.884763035068,36.2682824317936],[-86.8847738427437,36.2683389413205],[-86.8851677095596,36.2695255163505],[-86.8843609749338,36.2700083037894],[-86.8842876334339,36.2699315969646],[-86.8842176428871,36.2698528648015],[-86.884151090026,36.2697722004016],[-86.8840880560978,36.2696897041159],[-86.8840286167845,36.2696054763364],[-86.8839728455612,36.2695196192732],[-86.8839208103678,36.2694322378808],[-86.8838725735989,36.2693434389561],[-86.8838281954224,36.2692533293124],[-86.8837877293883,36.2691620212186],[-86.883762707157,36.2691147533496],[-86.8837412859531,36.2690663397892],[-86.8837235445584,36.2690169593121],[-86.8837095495731,36.2689667961892],[-86.8836993531393,36.2689160356982],[-86.8836929918592,36.2688648668348],[-86.8836904901028,36.2688134795856],[-86.8836918577731,36.268762064042],[-86.8836970880899,36.2687108113186],[-86.8837061642476,36.2686599117017],[-86.8837190493889,36.2686095538214],[-86.8837356988469,36.2685599245619],[-86.8837560479037,36.2685112091514],[-86.8838555555889,36.2681868827935],[-86.8839622249857,36.2678355835631],[-86.8839679277305,36.2678242122234],[-86.8839759023882,36.2678137750854],[-86.8839859229681,36.2678045658069],[-86.8839977074856,36.2677968469117],[-86.8840109200273,36.2677908353543],[-86.8840251907619,36.2677867005708],[-86.8840401158998,36.2677845608748],[-86.8840552720701,36.2677844752406],[-86.88407023193,36.2677864458931]]]},"properties":{"id":"113119","parcel":"03800016300","address":"5041 GRADY LN","owner":"DIGNAM, COURTNEY & YATES, CALEB","point":[-86.88432674223957,36.26889106277768]}},{"type":"Feature","id":"113125","geometry":{"type":"Polygon","coordinates":[[[-86.8833351711579,36.2660859216336],[-86.8833423394283,36.2660290056752],[-86.8835889643658,36.2660607166709],[-86.883934428548,36.2661037909455],[-86.8841766173516,36.2661330601577],[-86.8840973069754,36.2668083091243],[-86.8837636344015,36.2679139523419],[-86.8835948070895,36.2684711829494],[-86.8835753684439,36.2685149167718],[-86.883559559668,36.2685595992058],[-86.8835474509231,36.2686050341685],[-86.8834820341109,36.2687620930187],[-86.8829175182305,36.2689098093761],[-86.8833351711579,36.2660859216336]]]},"properties":{"id":"113125","parcel":"03800018300","address":"6111 OLD HICKORY BLVD","owner":"NICHOLS, VINCENT PATTERSON & ROWENCZAK, SCOTT EDWARD","point":[-86.88353857814472,36.267360749927185]}}]}