{"type":"FeatureCollection","features":[{"type":"Feature","id":"62963","geometry":{"type":"Polygon","coordinates":[[[-86.8887489719433,36.2801561851938],[-86.8862196957573,36.2799061779076],[-86.8864794551639,36.2799278290063],[-86.8865909481433,36.2783153504949],[-86.8857334565396,36.278059836347],[-86.8858308242684,36.27596557242],[-86.8856015007139,36.2758437890306],[-86.8853256010951,36.2756272591985],[-86.8850208527464,36.2754840727402],[-86.8847633965262,36.2754362817264],[-86.8841436085009,36.2754281068669],[-86.8841902593,36.2752915138643],[-86.8842066993751,36.2751534934699],[-86.8844949460607,36.2751425936048],[-86.8848356880935,36.2751541094504],[-86.8851594649351,36.2752261827492],[-86.8855112689632,36.275407930144],[-86.8858989525508,36.2756731999633],[-86.8861600956356,36.2758778590893],[-86.886829132637,36.2742121071079],[-86.8871515128038,36.2736444034935],[-86.885642449998,36.2731374407405],[-86.8853360964693,36.2730344751562],[-86.8855581660307,36.2724525145028],[-86.8873734558494,36.2726303442501],[-86.8873796209722,36.2726856231207],[-86.8875363352598,36.2727641681273],[-86.8876888420014,36.2728567618776],[-86.8878075587953,36.2729025313638],[-86.8879124740515,36.2729220477758],[-86.8879230117558,36.2729240080853],[-86.8881947568428,36.27307542844],[-86.8882838168676,36.2731010417441],[-86.888465834475,36.2730991216305],[-86.8887288683028,36.2731387741177],[-86.8888650035982,36.2732057678006],[-86.8889745467757,36.2733155112504],[-86.8890907823061,36.2734284805112],[-86.8887489719433,36.2801561851938]]]},"properties":{"id":"62963","parcel":"03800019100","address":"3842 ALESSIO RD","owner":"DUROCHER, DAVID K. & DIANNE W.","point":[-86.8873453398583,36.27701418721114]}},{"type":"Feature","id":"106408","geometry":{"type":"Polygon","coordinates":[[[-86.8819198470236,36.2734225517456],[-86.8819218516371,36.2732368391806],[-86.8813397855708,36.2733663488728],[-86.8813339185033,36.2730829000519],[-86.8824034243428,36.2727959991442],[-86.8823947568665,36.2734190854053],[-86.8823738949289,36.2752624680428],[-86.8823103725342,36.2752604839833],[-86.8819056142226,36.2752523112372],[-86.8819198470236,36.2734225517456]]]},"properties":{"id":"106408","parcel":"03800007000","address":"3697 ALESSIO RD","owner":"WOODS, CHARLES RICHARD ETUX","point":[-86.88214854467647,36.27433766416771]}},{"type":"Feature","id":"106409","geometry":{"type":"Polygon","coordinates":[[[-86.8793220750208,36.2736217457645],[-86.8807414335506,36.2732406369739],[-86.8807717661397,36.2732336881027],[-86.8807746359237,36.2734309029005],[-86.8808303770329,36.2752348171195],[-86.8807911323745,36.2752424419892],[-86.8807529170574,36.2752529514525],[-86.8807160539658,36.2752662548351],[-86.8806808546452,36.2752822426197],[-86.8806476158623,36.2753007774578],[-86.8806166174906,36.2753217040996],[-86.8805881224797,36.27534484669],[-86.8804815377509,36.2754397568245],[-86.8804484368066,36.2754671012095],[-86.8804134033199,36.2754928184884],[-86.8803765587454,36.2755168203538],[-86.8803380312559,36.2755390220543],[-86.8802956615959,36.2755604306886],[-86.8802517295183,36.2755796642575],[-86.8802096871934,36.27559236802],[-86.8801668332236,36.275603148105],[-86.8801233019294,36.2756119719898],[-86.8799700932644,36.2756384631006],[-86.8793220750208,36.2736217457645]]]},"properties":{"id":"106409","parcel":"03800007100","address":"3677 ALESSIO RD","owner":"HILES, CLEBERT M. & JO ANNA","point":[-86.88019327388577,36.27442840117862]}},{"type":"Feature","id":"107219","geometry":{"type":"Polygon","coordinates":[[[-86.8873796209722,36.2726856231207],[-86.8873734558494,36.2726303442501],[-86.8874543888085,36.2726381478469],[-86.887462143493,36.2723611917229],[-86.8868735429871,36.2714205388691],[-86.8864010978763,36.2706724214596],[-86.8852403092706,36.2697689198096],[-86.8851677095596,36.2695255163505],[-86.8847738427437,36.2683389413205],[-86.884763035068,36.2682824317936],[-86.8848049986261,36.2679695139212],[-86.8848205742887,36.2679062185763],[-86.8848853689857,36.2676332400569],[-86.8868816728227,36.2682669026928],[-86.8881134425828,36.2709037856434],[-86.8879124740515,36.2729220477758],[-86.8878075587953,36.2729025313638],[-86.8876888420014,36.2728567618776],[-86.8875363352598,36.2727641681273],[-86.8873796209722,36.2726856231207]]]},"properties":{"id":"107219","parcel":"03800008400","address":"120 GRADY PL","owner":"MILLER, KENDRA D & DANIEL S","point":[-86.88680795181354,36.27022161047118]}},{"type":"Feature","id":"107379","geometry":{"type":"Polygon","coordinates":[[[-86.883596498077,36.275285966713],[-86.8835809624384,36.2748663361437],[-86.8840804206104,36.2731397598556],[-86.8829061934703,36.2731315838484],[-86.8829114303803,36.2726576838612],[-86.8832821422479,36.2725588316286],[-86.8841811588013,36.2723171137744],[-86.8847292917081,36.2723702399462],[-86.8852835564627,36.2724255168702],[-86.8855581660307,36.2724525145028],[-86.8853360964693,36.2730344751562],[-86.885642449998,36.2731374407405],[-86.885157190569,36.2750833550132],[-86.8848619827892,36.2750176651918],[-86.884494427311,36.2750049748514],[-86.8841841416255,36.275016856987],[-86.8840528357066,36.2750156202471],[-86.8840199355197,36.2752900127559],[-86.883596498077,36.275285966713]]]},"properties":{"id":"107379","parcel":"03800005900","address":"3715 ALESSIO RD","owner":"WALES, LORI K.","point":[-86.88462845196027,36.27400382056171]}},{"type":"Feature","id":"107413","geometry":{"type":"Polygon","coordinates":[[[-86.8808303770329,36.2752348171195],[-86.8807746359237,36.2734309029005],[-86.8807717661397,36.2732336881027],[-86.8813339185033,36.2730829000519],[-86.8813397855708,36.2733663488728],[-86.8813397787625,36.2734267830993],[-86.8813274592995,36.2752406349472],[-86.8810078993672,36.2752341811546],[-86.8809551978463,36.275230076178],[-86.8809134672726,36.2752284444552],[-86.8808717346128,36.2752300292904],[-86.8808303770329,36.2752348171195]]]},"properties":{"id":"107413","parcel":"03800007101","address":"3685 ALESSIO RD","owner":"MELENDEZ, ROBERTO","point":[-86.88106802482375,36.27432989670358]}},{"type":"Feature","id":"107421","geometry":{"type":"Polygon","coordinates":[[[-86.8799272941741,36.271637505952],[-86.879913461476,36.2715579794465],[-86.8798957423033,36.2714789597967],[-86.8798741647679,36.2714005720698],[-86.8798487625254,36.2713229394902],[-86.8798195758985,36.2712461843321],[-86.8797866507537,36.2711704270263],[-86.8797500385314,36.2710957888644],[-86.8797097972786,36.2710223847804],[-86.8796337563203,36.2708954771861],[-86.8795137820043,36.270691972091],[-86.8794691707485,36.2706153804582],[-86.8800143317469,36.2703411055945],[-86.8814094890089,36.2710929627752],[-86.8822612495774,36.2717572950044],[-86.8799272941741,36.271637505952]]]},"properties":{"id":"107421","parcel":"03800007700","address":"6235 OLD HICKORY BLVD","owner":"PITCOCK, DONALD R.","point":[-86.88053707518068,36.27105765425711]}},{"type":"Feature","id":"109451","geometry":{"type":"Polygon","coordinates":[[[-86.8824034243428,36.2727959991442],[-86.8829114303803,36.2726576838612],[-86.8829061934703,36.2731315838484],[-86.8828808795844,36.2752747142081],[-86.8823738949289,36.2752624680428],[-86.8823947568665,36.2734190854053],[-86.8824034243428,36.2727959991442]]]},"properties":{"id":"109451","parcel":"03800006900","address":"3703 ALESSIO RD","owner":"HANNING, RYAN & REBECCA","point":[-86.88263811562895,36.274341026112985]}},{"type":"Feature","id":"109454","geometry":{"type":"Polygon","coordinates":[[[-86.8813397855708,36.2733663488728],[-86.8819218516371,36.2732368391806],[-86.8819198470236,36.2734225517456],[-86.8819056142226,36.2752523112372],[-86.8813274592995,36.2752406349472],[-86.8813397787625,36.2734267830993],[-86.8813397855708,36.2733663488728]]]},"properties":{"id":"109454","parcel":"03800007001","address":"3691 ALESSIO RD","owner":"WOODS, CHARLES RICHARD ETUX","point":[-86.88162318716523,36.27433399605813]}},{"type":"Feature","id":"111850","geometry":{"type":"Polygon","coordinates":[[[-86.8822612495774,36.2717572950044],[-86.8814094890089,36.2710929627752],[-86.8800143317469,36.2703411055945],[-86.8794691707485,36.2706153804582],[-86.8794090834143,36.2705193127519],[-86.8793516012921,36.2704222049422],[-86.8792967527167,36.2703241036915],[-86.8792445626938,36.2702250565878],[-86.8791950562084,36.2701251094161],[-86.8804935278987,36.2697481058216],[-86.8806114607166,36.2697983411438],[-86.8806952900046,36.2698323428099],[-86.8808096844751,36.2698694175311],[-86.8809321109327,36.2698965423767],[-86.8810114420719,36.2698921211639],[-86.8811093221362,36.2699084385253],[-86.8812172634604,36.2699142441656],[-86.8813800637965,36.2699114095124],[-86.8815263810325,36.2698905635156],[-86.8816728937783,36.2698872975062],[-86.881760525574,36.2698970964584],[-86.8820813765967,36.2697694912161],[-86.8825203083894,36.2697053027922],[-86.8825570168101,36.2697726113907],[-86.8834234592303,36.2708106995053],[-86.8847292917081,36.2723702399462],[-86.8841811588013,36.2723171137744],[-86.8832821422479,36.2725588316286],[-86.8827113720504,36.2722399522949],[-86.8822698074265,36.2717640955499],[-86.8822612495774,36.2717572950044]]]},"properties":{"id":"111850","parcel":"03800007800","address":"6223 OLD HICKORY BLVD","owner":"TOMLINSON, ANTHONY E.","point":[-86.88288750910337,36.27142616453877]}},{"type":"Feature","id":"112468","geometry":{"type":"Polygon","coordinates":[[[-86.8873734558494,36.2726303442501],[-86.8855581660307,36.2724525145028],[-86.8852835564627,36.2724255168702],[-86.8854610800436,36.2715539621083],[-86.8854846108034,36.2715560419332],[-86.8855082550558,36.2715551305738],[-86.8855314354036,36.2715512502855],[-86.8855535874773,36.2715444935266],[-86.8855740105144,36.2715347987397],[-86.8855923259604,36.2715226517697],[-86.8856080885885,36.2715083487863],[-86.8856209149463,36.2714922359767],[-86.8856304933219,36.271474704966],[-86.8856363910905,36.2714559842379],[-86.8868735429871,36.2714205388691],[-86.887462143493,36.2723611917229],[-86.8874543888085,36.2726381478469],[-86.8873734558494,36.2726303442501]]]},"properties":{"id":"112468","parcel":"03800016500","address":"0 OLD HICKORY BLVD","owner":"VANGUARD, RUBY MAE TRUST","point":[-86.8862947723545,36.27195845125553]}},{"type":"Feature","id":"112473","geometry":{"type":"Polygon","coordinates":[[[-86.8793220542981,36.2736216837291],[-86.8793526202788,36.2734412574762],[-86.8793995396704,36.2731447881303],[-86.8794630039713,36.2730775131238],[-86.879522942342,36.2730081503111],[-86.87957925039,36.2729368203232],[-86.8796318304514,36.2728636482483],[-86.879680589335,36.2727887609445],[-86.8797254417017,36.2727122906199],[-86.8797663100034,36.2726343694257],[-86.8798031234311,36.2725551348713],[-86.8798358178437,36.272474723516],[-86.879864334716,36.272393276384],[-86.8798886255495,36.2723109353277],[-86.8799086485641,36.272227845755],[-86.8799243664117,36.2721441512386],[-86.8799357540069,36.272059997064],[-86.8799427896432,36.2719755320969],[-86.8799454638365,36.2718909033107],[-86.8799437682057,36.2718062567693],[-86.8799377088774,36.2717217420356],[-86.8799272941741,36.271637505952],[-86.8822612495774,36.2717572950044],[-86.8822698074265,36.2717640955499],[-86.8827113720504,36.2722399522949],[-86.8832821422479,36.2725588316286],[-86.8829114303803,36.2726576838612],[-86.8824034243428,36.2727959991442],[-86.8813339185033,36.2730829000519],[-86.8807717661397,36.2732336881027],[-86.8807414335506,36.2732406369739],[-86.8793220750208,36.2736217457645],[-86.8793220542981,36.2736216837291]]]},"properties":{"id":"112473","parcel":"03800017700","address":"6245 OLD HICKORY BLVD","owner":"WHITE, WILLIAM DRAKE & ALEX","point":[-86.88145958588952,36.27259654939658]}},{"type":"Feature","id":"112475","geometry":{"type":"Polygon","coordinates":[[[-86.8848356880935,36.2751541094504],[-86.8844949460607,36.2751425936048],[-86.8842066993751,36.2751534934699],[-86.8841902593,36.2752915138643],[-86.8840199355197,36.2752900127559],[-86.8840528357066,36.2750156202471],[-86.8841841416255,36.275016856987],[-86.884494427311,36.2750049748514],[-86.8848619827892,36.2750176651918],[-86.885157190569,36.2750833550132],[-86.885642449998,36.2731374407405],[-86.8871515128038,36.2736444034935],[-86.886829132637,36.2742121071079],[-86.8861600956356,36.2758778590893],[-86.8858989525508,36.2756731999633],[-86.8855112689632,36.275407930144],[-86.8851594649351,36.2752261827492],[-86.8848356880935,36.2751541094504]]]},"properties":{"id":"112475","parcel":"03800018200","address":"3719 ALESSIO RD","owner":"RUMSEY, CHRISTINE D.","point":[-86.88597260637134,36.27460884345235]}},{"type":"Feature","id":"112604","geometry":{"type":"Polygon","coordinates":[[[-86.8843609749338,36.2700083037894],[-86.8851677095596,36.2695255163505],[-86.8852403092706,36.2697689198096],[-86.8864010978763,36.2706724214596],[-86.8868735429871,36.2714205388691],[-86.8856363910905,36.2714559842379],[-86.885638193138,36.2714357776197],[-86.8856358263529,36.2714156096615],[-86.8856293559763,36.2713960395615],[-86.8856189617264,36.2713776121597],[-86.8856049308992,36.2713608381613],[-86.8855876560317,36.2713461842402],[-86.8855676146783,36.2713340560634],[-86.8855453648985,36.271324792917],[-86.8855309718468,36.2713196251612],[-86.8855177325382,36.2713127257599],[-86.8855059626634,36.2713042582302],[-86.8854959427229,36.2712944242003],[-86.8854879112989,36.271283458951],[-86.885398001384,36.2711580012026],[-86.8853048636483,36.2710340973522],[-86.8852085398925,36.2709118020628],[-86.8851090707834,36.2707911682028],[-86.8850065014386,36.2706722486082],[-86.8849008769744,36.2705550961147],[-86.8847922436094,36.2704397626488],[-86.8846806497665,36.2703262983181],[-86.884566141632,36.2702147523454],[-86.8844285775685,36.2700775839036],[-86.8843609749338,36.2700083037894]]]},"properties":{"id":"112604","parcel":"03800016400","address":"5065 GRADY LN","owner":"KING, RICHARD E. ET UX","point":[-86.88551223415092,36.270498068459304]}},{"type":"Feature","id":"112830","geometry":{"type":"Polygon","coordinates":[[[-86.8828808795844,36.2752747142081],[-86.8829061934703,36.2731315838484],[-86.8840804206104,36.2731397598556],[-86.8835809624384,36.2748663361437],[-86.883596498077,36.275285966713],[-86.8828808795844,36.2752747142081]]]},"properties":{"id":"112830","parcel":"03800017400","address":"0 ALESSIO RD","owner":"WALES, LORI KATHLEEN","point":[-86.88336330263814,36.274002593417904]}},{"type":"Feature","id":"113122","geometry":{"type":"Polygon","coordinates":[[[-86.8847292917081,36.2723702399462],[-86.8834234592303,36.2708106995053],[-86.8843826375173,36.2702471361741],[-86.8844222155245,36.270285887818],[-86.8844601813881,36.2703256831787],[-86.8845692214962,36.2704321456612],[-86.8846754532993,36.2705404527317],[-86.8847788317442,36.2706505569613],[-86.8848793061927,36.2707624091588],[-86.8849768360014,36.2708759582577],[-86.8850713749714,36.2709911541332],[-86.885162880222,36.2711079448336],[-86.8852513133128,36.2712262774735],[-86.885336631361,36.2713461001009],[-86.8853426476991,36.271356816055],[-86.8853465995988,36.2713681437596],[-86.8853483951276,36.2713798243282],[-86.8853479956816,36.2713915903725],[-86.8853454105117,36.2714031741531],[-86.8853401961814,36.2714228028269],[-86.8853391726205,36.2714428622411],[-86.8853423700743,36.2714627717693],[-86.8853496963788,36.2714819525824],[-86.8853609371922,36.2714998483759],[-86.8853757661614,36.2715159388146],[-86.8853937551294,36.2715297565811],[-86.8854143787375,36.2715409008615],[-86.885437040143,36.2715490479722],[-86.8854610800436,36.2715539621083],[-86.8852835564627,36.2724255168702],[-86.8847292917081,36.2723702399462]]]},"properties":{"id":"113122","parcel":"03800016600","address":"5070 GRADY LN","owner":"VANGUARD, RUBY MAE TRUST","point":[-86.88455718493692,36.27128547988948]}}]}