{"type":"FeatureCollection","features":[{"type":"Feature","id":"34876","geometry":{"type":"Polygon","coordinates":[[[-86.8097977083106,36.2403069227542],[-86.8098772331788,36.2402811149412],[-86.8099408107253,36.2404137514381],[-86.8098627942325,36.2404397645789],[-86.8097977083106,36.2403069227542]]]},"properties":{"id":"34876","parcel":"049150A02600CO","address":"724 FLINT RIDGE DR","owner":"LONG, BRIAN & FREEMAN, THELMA","point":[-86.80986954279277,36.24036033756789]}},{"type":"Feature","id":"34878","geometry":{"type":"Polygon","coordinates":[[[-86.8095743177227,36.2403576806102],[-86.809655292997,36.2403402142304],[-86.8096973245477,36.2404798177289],[-86.8096148150429,36.2404976215715],[-86.8095743177227,36.2403576806102]]]},"properties":{"id":"34878","parcel":"049150A02900CO","address":"720 FLINT RIDGE DR","owner":"STRASHENSKY, DANIEL JAMES","point":[-86.8096354644269,36.24041874861804]}},{"type":"Feature","id":"34880","geometry":{"type":"Polygon","coordinates":[[[-86.8096171504572,36.2406643204926],[-86.8095370649722,36.2402584031302],[-86.809630801508,36.2402413081878],[-86.8097238789361,36.2402219914962],[-86.8098879813752,36.2406207817204],[-86.8098879973364,36.2406208194659],[-86.809888011082,36.2406208581276],[-86.8096171715862,36.2406644285013],[-86.8096171504572,36.2406643204926]],[[-86.8097798362404,36.2404620138149],[-86.8097381265536,36.2403223478023],[-86.809655292997,36.2403402142304],[-86.8095743177227,36.2403576806102],[-86.8096148150429,36.2404976215715],[-86.8096973245477,36.2404798177289],[-86.8097798362404,36.2404620138149]]]},"properties":{"id":"34880","parcel":"049150A03000CO","address":"0 FLINT RIDGE DR","owner":"O.I.C. FLINT RIDGE HOMES","point":[-86.80978278072266,36.24041001536283]}},{"type":"Feature","id":"35066","geometry":{"type":"Polygon","coordinates":[[[-86.8094457690845,36.2403545836745],[-86.8095308076476,36.2403477096114],[-86.809546909358,36.2404921617061],[-86.809461357885,36.2404992663314],[-86.8094457690845,36.2403545836745]]]},"properties":{"id":"35066","parcel":"049150A03100CO","address":"718 FLINT RIDGE DR","owner":"MORENO, MARIA DEL CARMEN","point":[-86.80949621127914,36.240423372497595]}},{"type":"Feature","id":"35067","geometry":{"type":"Polygon","coordinates":[[[-86.8093490440003,36.240707979196],[-86.8093365081801,36.2402773303157],[-86.8094036246488,36.2402729611191],[-86.8094705054433,36.2402666494626],[-86.8095370649722,36.2402584031302],[-86.8096171504572,36.2406643204926],[-86.8096171715862,36.2406644285013],[-86.8094267281885,36.2406953612285],[-86.8093490440003,36.240707979196]],[[-86.809546909358,36.2404921617061],[-86.8095308076476,36.2403477096114],[-86.8094457690845,36.2403545836745],[-86.8093630049024,36.2403612739063],[-86.8093777772662,36.2405062062818],[-86.809461357885,36.2404992663314],[-86.809546909358,36.2404921617061]]]},"properties":{"id":"35067","parcel":"049150A03300CO","address":"0 FLINT RIDGE DR","owner":"O.I.C. FLINT RIDGE HOMES","point":[-86.8095549691408,36.24042687708406]}},{"type":"Feature","id":"35702","geometry":{"type":"Polygon","coordinates":[[[-86.8093630049024,36.2403612739063],[-86.8094457690845,36.2403545836745],[-86.809461357885,36.2404992663314],[-86.8093777772662,36.2405062062818],[-86.8093630049024,36.2403612739063]]]},"properties":{"id":"35702","parcel":"049150A03200CO","address":"716 FLINT RIDGE DR","owner":"CLARK, JACOB ANTHONY & O'LINN, KEVIN DANIEL","point":[-86.80941198080801,36.240430269809764]}},{"type":"Feature","id":"35945","geometry":{"type":"Polygon","coordinates":[[[-86.8098772331788,36.2402811149412],[-86.8099561946837,36.2402554893004],[-86.8100197507527,36.240387428332],[-86.8099408107253,36.2404137514381],[-86.8098772331788,36.2402811149412]]]},"properties":{"id":"35945","parcel":"049150A02500CO","address":"726 FLINT RIDGE DR","owner":"ASPLUND, LIAM DRAKE WILLIAMS","point":[-86.80994842896166,36.2403342715579]}},{"type":"Feature","id":"35946","geometry":{"type":"Polygon","coordinates":[[[-86.809655292997,36.2403402142304],[-86.8097381265536,36.2403223478023],[-86.8097798362404,36.2404620138149],[-86.8096973245477,36.2404798177289],[-86.809655292997,36.2403402142304]]]},"properties":{"id":"35946","parcel":"049150A02800CO","address":"722 FLINT RIDGE DR","owner":"HUBBARD, CHARLIE & ASHLIE","point":[-86.80971763882832,36.24040111415713]}},{"type":"Feature","id":"131358","geometry":{"type":"Polygon","coordinates":[[[-86.8090054258257,36.2402664535736],[-86.8090054337967,36.2402663624937],[-86.8091247646432,36.2402743469392],[-86.809124877067,36.240274352495],[-86.8090830084192,36.2406898957595],[-86.8090830004115,36.2406899832346],[-86.8090269786707,36.2406871193056],[-86.8089689978084,36.2406841540103],[-86.8090054258257,36.2402664535736]]]},"properties":{"id":"131358","parcel":"04915007100","address":"710 FLINT RIDGE DR","owner":"FRANCIS, MARCIA REBECCA","point":[-86.80904554931776,36.2404792510663]}},{"type":"Feature","id":"131360","geometry":{"type":"Polygon","coordinates":[[[-86.8087475434572,36.2402505535191],[-86.8087475496632,36.2402505075136],[-86.8088218582325,36.2402549209646],[-86.8088805583507,36.2402584078445],[-86.8088805504256,36.2402585034303],[-86.8088468434674,36.2406761351379],[-86.8088468417113,36.2406761811135],[-86.8086893944113,36.2406662470802],[-86.8086893995784,36.2406662082918],[-86.8086894047271,36.2406661677009],[-86.8087475434572,36.2402505535191]]]},"properties":{"id":"131360","parcel":"04915007200","address":"706 FLINT RIDGE DR","owner":"ANDERSON, BRENDA","point":[-86.80879101106835,36.240462345250464]}},{"type":"Feature","id":"131387","geometry":{"type":"Polygon","coordinates":[[[-86.8082115130037,36.2408914504799],[-86.8082115158726,36.2408914044968],[-86.8085479585222,36.2409067294822],[-86.8085480664786,36.2409067332659],[-86.8085387617422,36.2410584312256],[-86.8082891282925,36.2410535090032],[-86.8082758874248,36.2410519492006],[-86.8082633072539,36.2410487365861],[-86.808251043452,36.2410441447403],[-86.8082421758552,36.2410392922417],[-86.8082401407587,36.2410381783903],[-86.8082367742994,36.2410356819124],[-86.8082353225656,36.2410346056157],[-86.8082302308238,36.2410308282843],[-86.8082275953491,36.2410281169241],[-86.808222006215,36.2410223673751],[-86.8082195881313,36.2410188263096],[-86.8082135901871,36.2410090986642],[-86.8082090279268,36.2409988729353],[-86.8082064394008,36.2409922543322],[-86.8082068424889,36.2409846486721],[-86.808207447621,36.2409727435886],[-86.8082115130037,36.2408914504799]]]},"properties":{"id":"131387","parcel":"04915007900","address":"3463 TISDALL DR","owner":"WICKS, JEFFREY L. REVOCABLE LIVING TRUST","point":[-86.80837538223764,36.240978965711214]}},{"type":"Feature","id":"132191","geometry":{"type":"Polygon","coordinates":[[[-86.8090830084192,36.2406898957595],[-86.809124877067,36.240274352495],[-86.8091411172585,36.2402751503849],[-86.8091491628649,36.2402755543343],[-86.8091574555777,36.2402759701468],[-86.8091787932459,36.2402767474087],[-86.8091987429469,36.2402774636658],[-86.8092126818692,36.240277883113],[-86.8092127408485,36.2402778845204],[-86.8092225767776,36.2402780935186],[-86.80922145797,36.2406999475216],[-86.8092214589543,36.240700043949],[-86.8090830004115,36.2406899832346],[-86.8090830084192,36.2406898957595]]]},"properties":{"id":"132191","parcel":"04915012200","address":"712 FLINT RIDGE DR","owner":"BOSEMAN, LINDA","point":[-86.80916289631291,36.24048401077999]}},{"type":"Feature","id":"132316","geometry":{"type":"Polygon","coordinates":[[[-86.800589854567,36.2403600679688],[-86.8006385184355,36.2400888408889],[-86.8007594053918,36.2400987825989],[-86.8007106797719,36.2403703544169],[-86.800589854567,36.2403600679688]]]},"properties":{"id":"132316","parcel":"049160A02100CO","address":"721 WILLOW TRACE DR","owner":"STAR BORROWER SFR8, LP","point":[-86.80067463004421,36.240229425315626]}},{"type":"Feature","id":"132317","geometry":{"type":"Polygon","coordinates":[[[-86.8003455040053,36.2403392647545],[-86.8003944340904,36.2400665552562],[-86.8004785863589,36.2400735637054],[-86.8005158715375,36.2400772533178],[-86.8004670039417,36.2403496100635],[-86.8003455040053,36.2403392647545]]]},"properties":{"id":"132317","parcel":"049160A02300CO","address":"725 WILLOW TRACE DR","owner":"UPKINS-WALLACE, GRACE MAE & WALLACE, RONALD","point":[-86.80043068761898,36.240208259067856]}},{"type":"Feature","id":"132336","geometry":{"type":"Polygon","coordinates":[[[-86.7999810033194,36.2403082326072],[-86.8000297145106,36.2400367513157],[-86.8001512265732,36.2400470256607],[-86.8001025042641,36.2403185773744],[-86.7999810033194,36.2403082326072]]]},"properties":{"id":"132336","parcel":"049160A02600CO","address":"731 WILLOW TRACE DR","owner":"KIMBRO, LORY A.","point":[-86.80006611535177,36.24017762916654]}},{"type":"Feature","id":"132350","geometry":{"type":"Polygon","coordinates":[[[-86.8022634557158,36.2419600999847],[-86.8022874231601,36.2418028265499],[-86.8062701458747,36.2418448860466],[-86.8063601956527,36.2421299016506],[-86.8063974752468,36.2422640619029],[-86.802200364433,36.2423718897385],[-86.8022634557158,36.2419600999847]]]},"properties":{"id":"132350","parcel":"04900029800","address":"3464 KNIGHT DR","owner":"BUCHANAN, CHARLIE W. & WILMA J.","point":[-86.80429269044245,36.24204498705034]}},{"type":"Feature","id":"132351","geometry":{"type":"Polygon","coordinates":[[[-86.802200364433,36.2423718897385],[-86.8063974752468,36.2422640619029],[-86.806420411699,36.2423466031563],[-86.8065055094744,36.2426528437027],[-86.8021141631794,36.2429247696092],[-86.802200364433,36.2423718897385]]]},"properties":{"id":"132351","parcel":"04900029900","address":"0 KNIGHT DR","owner":"BUCHANAN, CHARLIE W. & WILMA J.","point":[-86.80432322559221,36.2425123374904]}},{"type":"Feature","id":"132367","geometry":{"type":"Polygon","coordinates":[[[-86.8019225087817,36.2441734796945],[-86.8035157895006,36.2440424586175],[-86.8034462031465,36.2444877230021],[-86.8034349152133,36.2445599035477],[-86.8032138888867,36.2445780805692],[-86.8018677207134,36.2446887774975],[-86.8018713345543,36.2446234497841],[-86.8018713362233,36.2446233947967],[-86.8018722135387,36.2446087130064],[-86.8018751516088,36.2445652333915],[-86.8018751533689,36.2445651874161],[-86.8018791588629,36.2445169114691],[-86.8018827472927,36.2444777814789],[-86.8018831172963,36.2444738829159],[-86.8018920343758,36.2443906851462],[-86.8018924115345,36.2443874940175],[-86.8018964583481,36.244353973973],[-86.8019026897562,36.2443061005272],[-86.8019035474636,36.2442998203258],[-86.8019091498339,36.2442614754731],[-86.8019225087817,36.2441734796945]]]},"properties":{"id":"132367","parcel":"04900030400","address":"3496 KNIGHT DR","owner":"CURTIS, KELLY S. & TRAVIS E.","point":[-86.8026792583379,36.24437203102179]}},{"type":"Feature","id":"132430","geometry":{"type":"Polygon","coordinates":[[[-86.8023667467636,36.2413017608342],[-86.802401800202,36.2410683976391],[-86.8036494693632,36.2410819201378],[-86.8036497725601,36.2413923542981],[-86.8023545335431,36.2413783167558],[-86.8023667467636,36.2413017608342]]]},"properties":{"id":"132430","parcel":"04900033500","address":"3454 KNIGHT DR","owner":"ZIRKER, ALLEN & ELEANOR","point":[-86.80301649505752,36.241191856016705]}},{"type":"Feature","id":"132701","geometry":{"type":"Polygon","coordinates":[[[-86.7987844998819,36.2492544879386],[-86.8016810334683,36.2488770931389],[-86.8018038041281,36.2492125130646],[-86.8029719317365,36.2490904798017],[-86.8030300098151,36.2492483217052],[-86.8032760386972,36.2499169581871],[-86.803299027807,36.2499766897689],[-86.8033513159065,36.2501164395451],[-86.79869688585,36.2502527824069],[-86.7987844998819,36.2492544879386]]]},"properties":{"id":"132701","parcel":"04900024000","address":"3605 KNIGHT DR","owner":"3605 KNIGHT DRIVE, LLC","point":[-86.80095561047753,36.24958561994009]}},{"type":"Feature","id":"132792","geometry":{"type":"Polygon","coordinates":[[[-86.8017107359856,36.241308376276],[-86.8018836212971,36.2411347139883],[-86.8021193715702,36.2413430234425],[-86.8017592806398,36.241380575135],[-86.801755180997,36.2413640878075],[-86.8017480865495,36.241348280972],[-86.8017381555527,36.2413335113744],[-86.8017256116337,36.2413201091908],[-86.8017107359856,36.241308376276]]]},"properties":{"id":"132792","parcel":"049120A00500CO","address":"1709 SHORECREST PT","owner":"WILLIAMS, HAROLD","point":[-86.80188970807937,36.24122169841921]}},{"type":"Feature","id":"132798","geometry":{"type":"Polygon","coordinates":[[[-86.801600736463,36.2417315975963],[-86.8016134063501,36.2415090053418],[-86.801636644096,36.2415084203536],[-86.8016594340126,36.2415046974708],[-86.8016811351943,36.2414979400843],[-86.8017011365627,36.2414883406112],[-86.8017188767645,36.2414761677457],[-86.8020567097019,36.241752195812],[-86.801804057906,36.2417508509757],[-86.801600736463,36.2417315975963]]]},"properties":{"id":"132798","parcel":"049120A00700CO","address":"1716 SHORECREST PT","owner":"HURT, CHIARA M.","point":[-86.80175146992482,36.241620540834454]}},{"type":"Feature","id":"132803","geometry":{"type":"Polygon","coordinates":[[[-86.8012600171498,36.2416396355862],[-86.8015122806592,36.2414684683666],[-86.8015285385053,36.2414818909943],[-86.8015473333498,36.2414929273972],[-86.8015681391609,36.2415012683301],[-86.8015903716819,36.2415066779356],[-86.8016134063501,36.2415090053418],[-86.801600736463,36.2417315975963],[-86.8013169693672,36.2417049113166],[-86.8012600171498,36.2416396355862]]]},"properties":{"id":"132803","parcel":"049120A00800CO","address":"1712 SHORECREST PT","owner":"RAMSEY, DENVER DUFF","point":[-86.80148307308244,36.24157439753153]}},{"type":"Feature","id":"132808","geometry":{"type":"Polygon","coordinates":[[[-86.8008922337304,36.2412182084709],[-86.8009384501817,36.2411942775722],[-86.8010655436669,36.2413549599295],[-86.8010939618821,36.241448994639],[-86.8008992176692,36.2414730856789],[-86.8007838255576,36.241262330465],[-86.8007993737576,36.2412572822373],[-86.8008922337304,36.2412182084709]]]},"properties":{"id":"132808","parcel":"049120A01200CO","address":"1529 EMERALD BAY BLVD","owner":"WYNN, ROBBIE C.","point":[-86.8009190630716,36.241308635926046]}},{"type":"Feature","id":"132814","geometry":{"type":"Polygon","coordinates":[[[-86.8007020327904,36.2412892441127],[-86.8007838255576,36.241262330465],[-86.8008992176692,36.2414730856789],[-86.8007066190323,36.2415754529989],[-86.8006181425369,36.2413098529301],[-86.8007020327904,36.2412892441127]]]},"properties":{"id":"132814","parcel":"049120A01300CO","address":"1533 EMERALD BAY BLVD","owner":"MEDARIES, SANDRA DENISE","point":[-86.80074994313365,36.24139145483692]}},{"type":"Feature","id":"132876","geometry":{"type":"Polygon","coordinates":[[[-86.8029749455797,36.2458055762076],[-86.802740025219,36.2452791630693],[-86.8027407027565,36.2452791585675],[-86.8027023879562,36.2449783395264],[-86.803271522373,36.2449196166402],[-86.8032138888867,36.2445780805692],[-86.8034349152133,36.2445599035477],[-86.8069549933566,36.2442703635874],[-86.8066152528261,36.2430477731108],[-86.8065055094744,36.2426528437027],[-86.806420411699,36.2423466031563],[-86.8089202432,36.2425524551953],[-86.8103551728097,36.242797762537],[-86.8106460240852,36.2431188605324],[-86.8115309427297,36.243167859927],[-86.8173737019859,36.2426456492269],[-86.8173644155522,36.2427045944824],[-86.8173409335295,36.242852014389],[-86.8172548860027,36.2434072506087],[-86.817229470031,36.2435518788459],[-86.816838516387,36.245767864002],[-86.8059810567943,36.2456465625936],[-86.8070327736655,36.248219541095],[-86.8030278992697,36.2487231045342],[-86.8022645736545,36.2466868730742],[-86.8039023957689,36.246568300644],[-86.8038736183331,36.2463056027746],[-86.8042114864621,36.2462813781956],[-86.8041631877513,36.2458328372466],[-86.8029749455797,36.2458055762076]]]},"properties":{"id":"132876","parcel":"04900014300","address":"0 KNIGHT DR","owner":"THE FARM NASHVILLE, LLC","point":[-86.80985485166842,36.245471732597686]}},{"type":"Feature","id":"132882","geometry":{"type":"Polygon","coordinates":[[[-86.8034462031465,36.2444877230021],[-86.8035157895006,36.2440424586175],[-86.8019225087817,36.2441734796945],[-86.8019338395576,36.2440978147704],[-86.8019855270453,36.2437612266619],[-86.8020305333791,36.2434681159405],[-86.8066152528261,36.2430477731108],[-86.8069549933566,36.2442703635874],[-86.8034349152133,36.2445599035477],[-86.8034462031465,36.2444877230021]]]},"properties":{"id":"132882","parcel":"04900014500","address":"3484 KNIGHT DR","owner":"THE FARM NASHVILLE, LLC","point":[-86.8044092895918,36.24390456825599]}},{"type":"Feature","id":"132889","geometry":{"type":"Polygon","coordinates":[[[-86.8024601051398,36.2406172294613],[-86.8025223082295,36.2400701592086],[-86.8057247073731,36.2401184671587],[-86.8059937134952,36.2409699341237],[-86.8054546833876,36.2409641037854],[-86.8030222704704,36.2409377653945],[-86.8030544044,36.2406587909943],[-86.8024601051398,36.2406172294613]]]},"properties":{"id":"132889","parcel":"04900014800","address":"0 KNIGHT DR","owner":"FARM NASHVILLE LLC, THE","point":[-86.80414656920838,36.2403679481358]}},{"type":"Feature","id":"132967","geometry":{"type":"Polygon","coordinates":[[[-86.8024120838003,36.2409998305995],[-86.8024223762624,36.2409312616963],[-86.8030222704704,36.2409377653945],[-86.8054546833876,36.2409641037854],[-86.8055719627346,36.2414131618983],[-86.8045694934847,36.241402313762],[-86.8044540550803,36.2410219538996],[-86.8024120838003,36.2409998305995]]]},"properties":{"id":"132967","parcel":"04900036100","address":"3450 KNIGHT DR","owner":"DONOHO, WILLIAM JAMES III","point":[-86.80501583190446,36.241212956406194]}},{"type":"Feature","id":"132969","geometry":{"type":"Polygon","coordinates":[[[-86.8055719627346,36.2414131618983],[-86.8054546833876,36.2409641037854],[-86.8059937134952,36.2409699341237],[-86.806135671896,36.2414192578588],[-86.8055719627346,36.2414131618983]]]},"properties":{"id":"132969","parcel":"04900036200","address":"3450 B KNIGHT DR","owner":"DONOHO, WILLIAM JAMES III","point":[-86.80578892190894,36.2411915580778]}},{"type":"Feature","id":"133082","geometry":{"type":"Polygon","coordinates":[[[-86.8010262101354,36.2401904213944],[-86.8010793079729,36.2399079504355],[-86.8014659230991,36.2399452179252],[-86.8017971295605,36.2399693917347],[-86.8023343377963,36.240009508838],[-86.8023439028713,36.2400102230933],[-86.8023069153402,36.2402967171767],[-86.8023010027473,36.2402962256051],[-86.8010262101354,36.2401904213944]]]},"properties":{"id":"133082","parcel":"04900025200","address":"3445 KNIGHT DR","owner":"PELL, STEPHEN J.","point":[-86.80168773941757,36.24010032850688]}},{"type":"Feature","id":"133088","geometry":{"type":"Polygon","coordinates":[[[-86.8007106797719,36.2403703544169],[-86.8007594053918,36.2400987825989],[-86.8008803502413,36.2401083948474],[-86.800831505008,36.2403806407441],[-86.8007106797719,36.2403703544169]]]},"properties":{"id":"133088","parcel":"049160A02000CO","address":"719 WILLOW TRACE DR","owner":"FRANCIS, THOMAS JESSE & TANDEKILE N.","point":[-86.8007955153672,36.240239374664455]}},{"type":"Feature","id":"133261","geometry":{"type":"Polygon","coordinates":[[[-86.8083099958364,36.2402485826337],[-86.8083219349281,36.2402467633343],[-86.8083352156199,36.2402466771779],[-86.8085875927359,36.2402603690382],[-86.8085820801471,36.2403563685862],[-86.8085783811411,36.2404208572227],[-86.8085783076719,36.2404208532081],[-86.8082391831419,36.2404121389221],[-86.8082462914414,36.2403110005924],[-86.8082478674185,36.2403003660856],[-86.8082487395288,36.2402980620575],[-86.8082518423199,36.2402900859442],[-86.8082566255393,36.2402819390665],[-86.8082608614135,36.2402764139888],[-86.8082648819596,36.2402715933284],[-86.8082755080366,36.2402630964266],[-86.8082872895242,36.2402562942594],[-86.8083002702694,36.2402511225439],[-86.8083073272292,36.2402491664753],[-86.8083087306077,36.2402487749546],[-86.8083099958364,36.2402485826337]]]},"properties":{"id":"133261","parcel":"04915001400","address":"3453 TISDALL DR","owner":"COOK, MARVIN","point":[-86.80841404169625,36.24033368447632]}},{"type":"Feature","id":"133406","geometry":{"type":"Polygon","coordinates":[[[-86.8085896511532,36.2402441363225],[-86.8085900593099,36.2402408494268],[-86.8087339767879,36.2402496529612],[-86.8087475496632,36.2402505075136],[-86.8087475434572,36.2402505535191],[-86.8086894047271,36.2406661677009],[-86.8086893995784,36.2406662082918],[-86.8086893944113,36.2406662470802],[-86.8086324954572,36.2406622379412],[-86.8086323841545,36.2406622332787],[-86.8086131854233,36.2406229121656],[-86.8085714279077,36.2405373771086],[-86.8085783811411,36.2404208572227],[-86.8085820801471,36.2403563685862],[-86.8085875927359,36.2402603690382],[-86.8085875977651,36.2402603167318],[-86.8085896511532,36.2402441363225]]]},"properties":{"id":"133406","parcel":"04915012700","address":"704 FLINT RIDGE DR","owner":"CNK, LLC","point":[-86.80864522183715,36.24047922965346]}},{"type":"Feature","id":"133426","geometry":{"type":"Polygon","coordinates":[[[-86.8009749493546,36.2404649148611],[-86.8010262101354,36.2401904213944],[-86.8023010027473,36.2402962256051],[-86.8022608650531,36.2405634555816],[-86.8022393159955,36.2405617979787],[-86.8016508458383,36.2405165328781],[-86.8009749493546,36.2404649148611]]]},"properties":{"id":"133426","parcel":"04900025100","address":"3449 KNIGHT DR","owner":"PHIPPS, LINDIWE Y. & CHARLES III.","point":[-86.80163953657446,36.24038057465924]}},{"type":"Feature","id":"133666","geometry":{"type":"Polygon","coordinates":[[[-86.7986060969286,36.2447422276509],[-86.7985314072642,36.2447340242638],[-86.7982285394061,36.2446972935318],[-86.7982012174535,36.2438024952644],[-86.7981872383007,36.2432224173484],[-86.7981998327217,36.2418149648542],[-86.7977079484928,36.2414624033243],[-86.7983207179082,36.2415156996298],[-86.7985172341302,36.2415328053495],[-86.8020430119835,36.2418396423544],[-86.8021098025753,36.2418454536149],[-86.8020873165948,36.2419913893448],[-86.8018150823517,36.2437623579733],[-86.8017390979214,36.2442567756737],[-86.8017238973026,36.2443735858233],[-86.8017115148492,36.2444906142948],[-86.8017019534646,36.2446078169088],[-86.7998351776902,36.2447517715269],[-86.7996989323506,36.2447625997995],[-86.799562377778,36.244770460344],[-86.7994256107511,36.2447753498157],[-86.7992887324894,36.244777263939],[-86.7991518397897,36.2447762011723],[-86.7990150305796,36.2447721617691],[-86.7988784050478,36.2447651495737],[-86.7987420611672,36.2447551693465],[-86.7986060969286,36.2447422276509]]]},"properties":{"id":"133666","parcel":"04900035500","address":"0 KNIGHT DR","owner":"JACKSON STREET CHURCH OF CHRIST","point":[-86.80009249964674,36.24260684448022]}},{"type":"Feature","id":"133713","geometry":{"type":"Polygon","coordinates":[[[-86.8093364525566,36.2402773306884],[-86.8093365081801,36.2402773303157],[-86.8093490440003,36.240707979196],[-86.8093085002028,36.240705456022],[-86.8092214589543,36.240700043949],[-86.80922145797,36.2406999475216],[-86.8092225767776,36.2402780935186],[-86.8093364525566,36.2402773306884]]]},"properties":{"id":"133713","parcel":"04915007000","address":"714 FLINT RIDGE DR","owner":"WICKS, JACQUELINE D.","point":[-86.80928234663003,36.2404891167095]}},{"type":"Feature","id":"133749","geometry":{"type":"Polygon","coordinates":[[[-86.8082231506034,36.2407060652493],[-86.8082279721501,36.2406429633585],[-86.8086323841545,36.2406622332787],[-86.8085948406892,36.2407200051922],[-86.8085549267907,36.2407814232015],[-86.8085548644644,36.2407814209149],[-86.8082184525404,36.2407682939004],[-86.808218399114,36.2407682915541],[-86.8082231506034,36.2407060652493]]]},"properties":{"id":"133749","parcel":"04915007800","address":"3459 TISDALL DR","owner":"DONNELL, RICHARD T. & HILL, MARTHA H.","point":[-86.80841090672033,36.24071303842545]}},{"type":"Feature","id":"133764","geometry":{"type":"Polygon","coordinates":[[[-86.8088805504256,36.2402585034303],[-86.8088805583507,36.2402584078445],[-86.8089161228671,36.2402606742978],[-86.8090054337967,36.2402663624937],[-86.8090054258257,36.2402664535736],[-86.8089689978084,36.2406841540103],[-86.8088882851688,36.2406788867803],[-86.8088468417113,36.2406761811135],[-86.8088468434674,36.2406761351379],[-86.8088805504256,36.2402585034303]]]},"properties":{"id":"133764","parcel":"04915012600","address":"708 FLINT RIDGE DR","owner":"SMITH, RHONDA","point":[-86.80892546861541,36.24047129332212]}},{"type":"Feature","id":"133821","geometry":{"type":"Polygon","coordinates":[[[-86.7989169587934,36.2478603263994],[-86.7990829422496,36.2465626384113],[-86.8007633675324,36.2463976791485],[-86.8005663911474,36.2448252183499],[-86.8016948010028,36.2447388972143],[-86.8016928366995,36.2448771368706],[-86.801695383956,36.2450153691157],[-86.8017024429606,36.245153500218],[-86.80171400605,36.2452914301891],[-86.8017300678495,36.2454290653334],[-86.8017506151601,36.2455663084019],[-86.8017756348006,36.2457030639473],[-86.8018051080175,36.2458392356578],[-86.8018390160662,36.2459747281222],[-86.8018773346477,36.2461094468669],[-86.8019200361339,36.2462432983415],[-86.8019670917837,36.246376189002],[-86.8020184672922,36.2465080253416],[-86.8020429263916,36.2465671985897],[-86.8028380159162,36.2487265663608],[-86.8016810334683,36.2488770931389],[-86.7987844998819,36.2492544879386],[-86.7988842158158,36.2481110713792],[-86.7989169587934,36.2478603263994]]]},"properties":{"id":"133821","parcel":"04900024100","address":"3525 KNIGHT DR","owner":"SHOAF, MELVIN ERNEST ETUX","point":[-86.8006410574645,36.24721422853854]}},{"type":"Feature","id":"133855","geometry":{"type":"Polygon","coordinates":[[[-86.8016142475766,36.2408878985867],[-86.8016613161013,36.2408812675884],[-86.8017002620794,36.241077421637],[-86.801497487928,36.2412128210452],[-86.8014738441312,36.2411885296499],[-86.8014512088225,36.2411634069144],[-86.8013551433309,36.2410530649402],[-86.8013477860314,36.241042832263],[-86.8013427017887,36.2410317292202],[-86.8013400385676,36.2410200855901],[-86.8013398765988,36.2410082442175],[-86.8013422194156,36.2409965547646],[-86.8013469982036,36.2409853637685],[-86.8013540716552,36.2409750002216],[-86.8013632314956,36.2409657719307],[-86.8013742067689,36.2409579492658],[-86.8013866738506,36.2409517650934],[-86.8014603326914,36.2409254547],[-86.8015364154999,36.240904072446],[-86.8016142475766,36.2408878985867]]]},"properties":{"id":"133855","parcel":"049120A00300CO","address":"1509 EMERALD BAY BLVD","owner":"QUALITY CLEAN CONSTRUCTION, INC.","point":[-86.8015229939667,36.24104823328478]}},{"type":"Feature","id":"133858","geometry":{"type":"Polygon","coordinates":[[[-86.801497487928,36.2412128210452],[-86.8017002620794,36.241077421637],[-86.8018836212971,36.2411347139883],[-86.8017107359856,36.241308376276],[-86.8016934597262,36.2412982121462],[-86.8016744673942,36.2412903080241],[-86.8016542059052,36.2412848511076],[-86.8016331527316,36.2412819698105],[-86.8016081820045,36.2412782952658],[-86.8015841354206,36.2412717206653],[-86.8015615228276,36.2412623850246],[-86.8015408246365,36.2412504870375],[-86.8015224806425,36.2412362797426],[-86.801497487928,36.2412128210452]]]},"properties":{"id":"133858","parcel":"049120A00400CO","address":"1705 SHORECREST PT","owner":"GARNER, ERAIN","point":[-86.80170039813014,36.24117378398863]}},{"type":"Feature","id":"133861","geometry":{"type":"Polygon","coordinates":[[[-86.8009384501817,36.2411942775722],[-86.800980618796,36.2411722967637],[-86.8011033438009,36.2411022578954],[-86.8011161415675,36.2410963148966],[-86.8011300118405,36.241092243894],[-86.8011445375206,36.2410901657172],[-86.8011592886881,36.2410901436008],[-86.8011738258593,36.2410921750517],[-86.8011877134533,36.241096203476],[-86.8012005396901,36.2411021054297],[-86.8012119223164,36.2411097068028],[-86.8012215208241,36.241118780936],[-86.8013069521694,36.2412171050595],[-86.8010655436669,36.2413549599295],[-86.8009384501817,36.2411942775722]]]},"properties":{"id":"133861","parcel":"049120A01100CO","address":"1525 EMERALD BAY BLVD","owner":"BUTLER, DANIELLE","point":[-86.80109852101353,36.241285886741075]}},{"type":"Feature","id":"133864","geometry":{"type":"Polygon","coordinates":[[[-86.8002555572991,36.2416042661248],[-86.800269513743,36.2413410064458],[-86.8002898727308,36.2413422432885],[-86.8003949782248,36.2413404501707],[-86.8004451219736,36.2413359974281],[-86.8004799033815,36.241590140702],[-86.8002555572991,36.2416042661248]]]},"properties":{"id":"133864","parcel":"049120A01500CO","address":"1541 EMERALD BAY BLVD","owner":"ALVARENGA, EDVIN BELTRAN & ORELLANA, MIRIAN","point":[-86.80036292291848,36.241466155383634]}},{"type":"Feature","id":"133912","geometry":{"type":"Polygon","coordinates":[[[-86.8002240041097,36.2403289202244],[-86.8002728124373,36.2400568929302],[-86.8003944340904,36.2400665552562],[-86.8003455040053,36.2403392647545],[-86.8002240041097,36.2403289202244]]]},"properties":{"id":"133912","parcel":"049160A02400CO","address":"727 WILLOW TRACE DR","owner":"PAUL, HENRY","point":[-86.8003092192962,36.24019773777262]}},{"type":"Feature","id":"133915","geometry":{"type":"Polygon","coordinates":[[[-86.8001025042641,36.2403185773744],[-86.8001512265732,36.2400470256607],[-86.8002728124373,36.2400568929302],[-86.8002240041097,36.2403289202244],[-86.8001025042641,36.2403185773744]]]},"properties":{"id":"133915","parcel":"049160A02500CO","address":"729 WILLOW TRACE DR","owner":"MUNOZ, ARTHUR E.","point":[-86.80018765822531,36.24018773518403]}},{"type":"Feature","id":"133960","geometry":{"type":"Polygon","coordinates":[[[-86.802401800202,36.2410683976391],[-86.8024120838003,36.2409998305995],[-86.8044540550803,36.2410219538996],[-86.8045694934847,36.241402313762],[-86.8036497725601,36.2413923542981],[-86.8036494693632,36.2410819201378],[-86.802401800202,36.2410683976391]]]},"properties":{"id":"133960","parcel":"04900028700","address":"3452 KNIGHT DR","owner":"DONOHO, WILLIAM JAMES III","point":[-86.80408470801699,36.24123785048831]}},{"type":"Feature","id":"134156","geometry":{"type":"Polygon","coordinates":[[[-86.8082349199752,36.2405266264898],[-86.8082349292349,36.2405264434736],[-86.8085713311041,36.240537375954],[-86.8085714279077,36.2405373771086],[-86.8086131854233,36.2406229121656],[-86.8086323841545,36.2406622332787],[-86.8082279721501,36.2406429633585],[-86.8082336030152,36.240548590708],[-86.8082349199752,36.2405266264898]]]},"properties":{"id":"134156","parcel":"04915001500","address":"3457 TISDALL DR","owner":"JOHNSON, KIMBERLY & HOLCOLM, CALVIN C.","point":[-86.80841329113208,36.240585735409084]}},{"type":"Feature","id":"134464","geometry":{"type":"Polygon","coordinates":[[[-86.8082115158726,36.2408914044968],[-86.808218399114,36.2407682915541],[-86.8082184525404,36.2407682939004],[-86.8085548644644,36.2407814209149],[-86.8085549267907,36.2407814232015],[-86.8085480664786,36.2409067332659],[-86.8085479585222,36.2409067294822],[-86.8082115158726,36.2408914044968]]]},"properties":{"id":"134464","parcel":"04915001600","address":"3461 TISDALL DR","owner":"LOWERY, YVETTE RENEE","point":[-86.80838325347202,36.24083641402425]}},{"type":"Feature","id":"134529","geometry":{"type":"Polygon","coordinates":[[[-86.8086062643191,36.239974556051],[-86.808606379988,36.2399745525731],[-86.8085970530635,36.2401240534749],[-86.8083810094103,36.2401126113859],[-86.8083391952231,36.2401103956049],[-86.8083343107672,36.2401097027786],[-86.8083262899088,36.2401085595825],[-86.8083203617162,36.2401068679415],[-86.8083140474982,36.2401050698314],[-86.8083069083326,36.2401022353928],[-86.808301231444,36.2400997669923],[-86.8082915559625,36.2400942322464],[-86.8082859802398,36.2400897921293],[-86.8082845414045,36.2400885607313],[-86.8082831334611,36.2400873038916],[-86.8082804181289,36.2400847228466],[-86.8082719542017,36.2400750405407],[-86.8082698494151,36.2400721084284],[-86.8082688540519,36.2400706163051],[-86.8082678974507,36.2400691067986],[-86.8082673489849,36.2400679081973],[-86.8082633924949,36.2400592592118],[-86.8082610432356,36.2400505715344],[-86.8082605738785,36.2400488388624],[-86.8082597888614,36.2400384058086],[-86.8082612777744,36.2400023178103],[-86.808261966708,36.2399856481418],[-86.8082620812644,36.2399856446716],[-86.8086062643191,36.239974556051]]]},"properties":{"id":"134529","parcel":"04915002900","address":"3451 TISDALL DR","owner":"WHITE, KATHERINE R.","point":[-86.80843110907509,36.240043896147135]}},{"type":"Feature","id":"134570","geometry":{"type":"Polygon","coordinates":[[[-86.802430295596,36.2408793970324],[-86.8024601051398,36.2406172294613],[-86.8030544044,36.2406587909943],[-86.8030222704704,36.2409377653945],[-86.8024223762624,36.2409312616963],[-86.802430295596,36.2408793970324]]]},"properties":{"id":"134570","parcel":"04900032300","address":"3448 KNIGHT DR","owner":"FARM NASHVILLE LLC, THE","point":[-86.80274226794432,36.24076909428669]}},{"type":"Feature","id":"134622","geometry":{"type":"Polygon","coordinates":[[[-86.8082354710423,36.2405117106821],[-86.8082391831419,36.2404121389221],[-86.8085783076719,36.2404208532081],[-86.8085783811411,36.2404208572227],[-86.8085714279077,36.2405373771086],[-86.8085713311041,36.240537375954],[-86.8082349292349,36.2405264434736],[-86.8082354710423,36.2405117106821]]]},"properties":{"id":"134622","parcel":"04915002800","address":"3455 TISDALL DR","owner":"COOK, MARVIN","point":[-86.80840641446403,36.24046628325624]}},{"type":"Feature","id":"134962","geometry":{"type":"Polygon","coordinates":[[[-86.8021961484019,36.2465068457365],[-86.8021450489761,36.2463790118927],[-86.8020980626755,36.2462501458232],[-86.8020552181984,36.2461203365658],[-86.80201654644,36.2459896704396],[-86.8019820738633,36.2458582355954],[-86.80195182248,36.2457261202129],[-86.8019258120947,36.2455934142886],[-86.8019040624844,36.2454602051151],[-86.801886585683,36.2453265845423],[-86.802740025219,36.2452791630693],[-86.8029749455797,36.2458055762076],[-86.8041631877513,36.2458328372466],[-86.8042114864621,36.2462813781956],[-86.8038736183331,36.2463056027746],[-86.8039023957689,36.246568300644],[-86.8022645736545,36.2466868730742],[-86.8022053213059,36.2465287609184],[-86.8021961484019,36.2465068457365]]]},"properties":{"id":"134962","parcel":"04900036800","address":"3512 KNIGHT DR","owner":"DELANEY, WILLIAM E., III","point":[-86.8030863471935,36.24592574719883]}},{"type":"Feature","id":"135211","geometry":{"type":"Polygon","coordinates":[[[-86.8000523310154,36.2409564884306],[-86.8001634076152,36.2409076800305],[-86.800236383446,36.2409816436568],[-86.8002050157148,36.2411999624181],[-86.8000196837672,36.2411822356193],[-86.8000523310154,36.2409564884306]]]},"properties":{"id":"135211","parcel":"049120A03700CO","address":"1544 EMERALD BAY BLVD","owner":"JOHNSON, MASHA LEZLIE","point":[-86.8001280808308,36.24108193976705]}},{"type":"Feature","id":"135264","geometry":{"type":"Polygon","coordinates":[[[-86.8018836212971,36.2411347139883],[-86.8019179639986,36.2408757186416],[-86.8019345899877,36.2408767069062],[-86.8020008235004,36.2408833997402],[-86.8021029591288,36.240893719646],[-86.8021165119258,36.2408959954496],[-86.8021294272173,36.2409000293203],[-86.8021413568067,36.2409057145189],[-86.8021519842946,36.240912898131],[-86.8021610251508,36.2409213882771],[-86.8021682367727,36.2409309585518],[-86.8021734285428,36.240941352463],[-86.8021764596952,36.240952292459],[-86.8021772605988,36.2409643738282],[-86.8021193715702,36.2413430234425],[-86.8018836212971,36.2411347139883]]]},"properties":{"id":"135264","parcel":"049120A00100CO","address":"1501 EMERALD BAY BLVD","owner":"HEAD, DONNA GARRETT","point":[-86.80202957516927,36.24104954256656]}},{"type":"Feature","id":"135267","geometry":{"type":"Polygon","coordinates":[[[-86.8017188767645,36.2414761677457],[-86.8017330514531,36.241463029866],[-86.8017445440851,36.2414482749133],[-86.8017530823097,36.2414322552825],[-86.8017584575623,36.2414153598965],[-86.8017605404296,36.2413979933755],[-86.8017592806398,36.241380575135],[-86.8021193715702,36.2413430234425],[-86.8020567097019,36.241752195812],[-86.8017188767645,36.2414761677457]]]},"properties":{"id":"135267","parcel":"049120A00600CO","address":"1713 SHORECREST PT","owner":"FROST, ASHLEY & ROBERT","point":[-86.80198279520562,36.24161433917726]}},{"type":"Feature","id":"135270","geometry":{"type":"Polygon","coordinates":[[[-86.8011570918882,36.241521646782],[-86.8014169427628,36.2413295546497],[-86.8014467157846,36.2413562775282],[-86.801462409975,36.2413749167432],[-86.8014742449324,36.2413953399007],[-86.8014819194669,36.2414170280762],[-86.8014883676535,36.2414354943013],[-86.8014985857988,36.2414528089507],[-86.8015122806592,36.2414684683666],[-86.8012600171498,36.2416396355862],[-86.8011570918882,36.241521646782]]]},"properties":{"id":"135270","parcel":"049120A00900CO","address":"1708 SHORECREST PT","owner":"ROBINSON, SOLOMON & CYNTHIA W","point":[-86.80133306686682,36.241495055017154]}},{"type":"Feature","id":"135273","geometry":{"type":"Polygon","coordinates":[[[-86.8010939618821,36.241448994639],[-86.8010655436669,36.2413549599295],[-86.8013069521694,36.2412171050595],[-86.8013508387001,36.2412655878992],[-86.8013974406226,36.2413123781848],[-86.8014169427628,36.2413295546497],[-86.8011570918882,36.241521646782],[-86.8010939618821,36.241448994639]]]},"properties":{"id":"135273","parcel":"049120A01000CO","address":"1704 SHORECREST PT","owner":"OGLESBY, EULA DOLORES","point":[-86.80119909509624,36.24140217565275]}},{"type":"Feature","id":"135276","geometry":{"type":"Polygon","coordinates":[[[-86.800601904596,36.2413138061782],[-86.8006181425369,36.2413098529301],[-86.8007066190323,36.2415754529989],[-86.8004799033815,36.241590140702],[-86.8004451219736,36.2413359974281],[-86.8004989892182,36.2413309702294],[-86.800601904596,36.2413138061782]]]},"properties":{"id":"135276","parcel":"049120A01400CO","address":"1537 EMERALD BAY BLVD","owner":"LAIRD, RONALD","point":[-86.80056413365801,36.24145570572133]}},{"type":"Feature","id":"135782","geometry":{"type":"Polygon","coordinates":[[[-86.8004670039417,36.2403496100635],[-86.8005158715375,36.2400772533178],[-86.8006035017351,36.2400859239753],[-86.8006385184355,36.2400888408889],[-86.800589854567,36.2403600679688],[-86.8004670039417,36.2403496100635]]]},"properties":{"id":"135782","parcel":"049160A02200CO","address":"723 WILLOW TRACE DR","owner":"SCRUGGS, MERRELL STANLEY & LEWIS CLYDE","point":[-86.80055276147837,36.24021922550904]}},{"type":"Feature","id":"135995","geometry":{"type":"Polygon","coordinates":[[[-86.8016810334683,36.2488770931389],[-86.8028380159162,36.2487265663608],[-86.8029719317365,36.2490904798017],[-86.8018038041281,36.2492125130646],[-86.8016810334683,36.2488770931389]]]},"properties":{"id":"135995","parcel":"04900032100","address":"3601 KNIGHT DR","owner":"HILL, PRESTON WAYNE","point":[-86.80232637850776,36.24898378803925]}},{"type":"Feature","id":"136632","geometry":{"type":"Polygon","coordinates":[[[-86.8001634076152,36.2409076800305],[-86.8001748690261,36.2408001956532],[-86.8004513861796,36.2408142970862],[-86.8004573960093,36.2408297056215],[-86.8004659609581,36.2408443014215],[-86.8004769168879,36.2408578052842],[-86.8004905291741,36.2408747929075],[-86.8005010691427,36.2408931572704],[-86.8005083284379,36.240912537451],[-86.8005151008669,36.2409451818736],[-86.800236383446,36.2409816436568],[-86.8001634076152,36.2409076800305]]]},"properties":{"id":"136632","parcel":"049120A03900CO","address":"1805 SAILWINDS CV","owner":"MACLIN-BARBER, KAREN","point":[-86.800330896601,36.240883699993404]}},{"type":"Feature","id":"136634","geometry":{"type":"Polygon","coordinates":[[[-86.80072860228,36.2407973514428],[-86.800837831954,36.2408010219262],[-86.8010035431921,36.2409913933514],[-86.8008686753489,36.2410681025697],[-86.8008396664691,36.2410834034511],[-86.8008271702233,36.2410886892118],[-86.8008137606035,36.2410922163751],[-86.8007998148622,36.2410938842034],[-86.8007857197255,36.2410936486758],[-86.8007718701985,36.2410915143839],[-86.8007586529506,36.2410875418526],[-86.8007464362578,36.2410818431],[-86.8007355621422,36.2410745744798],[-86.8007263330679,36.2410659412755],[-86.8007190084663,36.2410561842046],[-86.8006969518,36.2410118779578],[-86.8006791038136,36.24096634605],[-86.8006746856737,36.2409469398398],[-86.8006737455644,36.240927221277],[-86.8006763020502,36.2409075967031],[-86.8006823035912,36.2408884711215],[-86.800691625124,36.2408702401086],[-86.8007040735059,36.240853278062],[-86.8007160474377,36.240835826174],[-86.8007242994652,36.2408170119269],[-86.80072860228,36.2407973514428]]]},"properties":{"id":"136634","parcel":"049120A04400CO","address":"1524 EMERALD BAY BLVD","owner":"TISTA, ADALBERTO AJUALIP ET AL","point":[-86.80081544539306,36.24093731577122]}},{"type":"Feature","id":"136635","geometry":{"type":"Polygon","coordinates":[[[-86.8010299112123,36.2406475640407],[-86.8011742780341,36.2406048517403],[-86.8013115146054,36.2408297465741],[-86.8012483676272,36.240855988062],[-86.8011599852942,36.2409018999545],[-86.8009760881348,36.2406904996379],[-86.8010299112123,36.2406475640407]]]},"properties":{"id":"136635","parcel":"049120A04600CO","address":"1516 EMERALD BAY BLVD","owner":"ALEXANDER, WILLIAM & GLORIA","point":[-86.80115282702033,36.24076013822515]}},{"type":"Feature","id":"136638","geometry":{"type":"Polygon","coordinates":[[[-86.8014744284472,36.2407767474826],[-86.8013838983398,36.2405430270856],[-86.8016581357709,36.2405667545285],[-86.8016832904878,36.2407404742262],[-86.8016419552396,36.2407440452935],[-86.8015393773532,36.2407609331189],[-86.8014744284472,36.2407767474826]]]},"properties":{"id":"136638","parcel":"049120A04800CO","address":"1508 EMERALD BAY BLVD","owner":"CATER, JAIRUS I.","point":[-86.80154864490473,36.24065341196168]}},{"type":"Feature","id":"136640","geometry":{"type":"Polygon","coordinates":[[[-86.8020267229432,36.2407475019911],[-86.8019555915246,36.2407403135512],[-86.8018510810496,36.240733866642],[-86.8017463101664,36.240735111752],[-86.8016832904878,36.2407404742262],[-86.8016581357709,36.2405667545285],[-86.8016508458383,36.2405165328781],[-86.8022393159955,36.2405617979787],[-86.8022186453903,36.2406976385313],[-86.8022153740761,36.2407094720601],[-86.8022097807567,36.240720525202],[-86.8022019149,36.2407306290943],[-86.8021920092956,36.2407394802714],[-86.8021803649507,36.2407468099635],[-86.8021673323231,36.2407523986416],[-86.8021533024495,36.2407560787795],[-86.8021386991936,36.2407577385114],[-86.8021239603987,36.2407573280648],[-86.8020267229432,36.2407475019911]]]},"properties":{"id":"136640","parcel":"049120A04900CO","address":"1500 EMERALD BAY BLVD","owner":"HARRIS, KARON A.","point":[-86.80194803868616,36.240632212830036]}},{"type":"Feature","id":"137452","geometry":{"type":"Polygon","coordinates":[[[-86.8002050157148,36.2411999624181],[-86.800236383446,36.2409816436568],[-86.8005151008669,36.2409451818736],[-86.8005208037969,36.2409726142343],[-86.800535525628,36.2410200405819],[-86.8005525680352,36.2410588500047],[-86.8005708971165,36.2410972723729],[-86.8005748521899,36.2411077322262],[-86.8005767183245,36.2411185664228],[-86.8005764460468,36.2411295031125],[-86.8005740448269,36.2411402682522],[-86.800569573111,36.2411505901776],[-86.8005631451066,36.2411602103739],[-86.8005549207969,36.241168886245],[-86.8005451060318,36.2411764001263],[-86.8005339503491,36.2411825638048],[-86.8005217314353,36.2411872222273],[-86.8005087585093,36.2411902579844],[-86.8004332345142,36.2411998240806],[-86.8003573240474,36.2412047224043],[-86.8002810232349,36.2412046780987],[-86.8002050157148,36.2411999624181]]]},"properties":{"id":"137452","parcel":"049120A03800CO","address":"1801 SAILWINDS CV","owner":"JAMES, MICHELLE & HESTER, BETTIE","point":[-86.80039217209848,36.24107777841257]}},{"type":"Feature","id":"137454","geometry":{"type":"Polygon","coordinates":[[[-86.8001748690261,36.2408001956532],[-86.8001754672391,36.2407922255278],[-86.8002042744787,36.2405217277149],[-86.8004815705168,36.2407141050208],[-86.80046863458,36.2407285098193],[-86.8004586148295,36.2407443661373],[-86.8004517543787,36.2407612902339],[-86.8004482193073,36.2407788718411],[-86.8004480954336,36.2407966849996],[-86.8004513861796,36.2408142970862],[-86.8001748690261,36.2408001956532]]]},"properties":{"id":"137454","parcel":"049120A04000CO","address":"1809 SAILWINDS CV","owner":"CARNEY, JUANITA","point":[-86.80026848973631,36.24061779221101]}},{"type":"Feature","id":"137456","geometry":{"type":"Polygon","coordinates":[[[-86.8002042744787,36.2405217277149],[-86.8005747669368,36.2404733976184],[-86.8005835790279,36.2406744211007],[-86.8005604861071,36.240676654219],[-86.800538156974,36.24068191949],[-86.8005171932056,36.2406900759375],[-86.800498159961,36.2407009017146],[-86.8004815705168,36.2407141050208],[-86.8002042744787,36.2405217277149]]]},"properties":{"id":"137456","parcel":"049120A04100CO","address":"1813 SAILWINDS CV","owner":"JOHNSON, DEMETRIA","point":[-86.80044718792884,36.24059816340683]}},{"type":"Feature","id":"137458","geometry":{"type":"Polygon","coordinates":[[[-86.8005835790279,36.2406744211007],[-86.8005747669368,36.2404733976184],[-86.8008462889059,36.2404968709155],[-86.8008989457663,36.2405399252273],[-86.8006883667602,36.2407083392222],[-86.8006708188303,36.2406960353726],[-86.800650994566,36.2406862592963],[-86.8006294429864,36.2406792840379],[-86.8006067612395,36.2406753012109],[-86.8005835790279,36.2406744211007]]]},"properties":{"id":"137458","parcel":"049120A04200CO","address":"1808 SAILWINDS CV","owner":"SYKES, KEYVETTA","point":[-86.80069766390088,36.240607100647864]}},{"type":"Feature","id":"137460","geometry":{"type":"Polygon","coordinates":[[[-86.80072860228,36.2407973514428],[-86.8007285150433,36.2407778092795],[-86.8007242599223,36.2407585714249],[-86.8007159651814,36.2407402201384],[-86.8007038789227,36.2407233062419],[-86.8006883667602,36.2407083392222],[-86.8008989457663,36.2405399252273],[-86.8010299112123,36.2406475640407],[-86.8009760881348,36.2406904996379],[-86.800837831954,36.2408010219262],[-86.80072860228,36.2407973514428]]]},"properties":{"id":"137460","parcel":"049120A04300CO","address":"1804 SAILWINDS CV","owner":"SHELTON, TRELISSIA E.","point":[-86.80087053325067,36.24066881143774]}},{"type":"Feature","id":"137462","geometry":{"type":"Polygon","coordinates":[[[-86.800837831954,36.2408010219262],[-86.8009760881348,36.2406904996379],[-86.8011599852942,36.2409018999545],[-86.8010035431921,36.2409913933514],[-86.800837831954,36.2408010219262]]]},"properties":{"id":"137462","parcel":"049120A04500CO","address":"1520 EMERALD BAY BLVD","owner":"THREADGILL, TONETTA","point":[-86.80099892271834,36.24085146107229]}},{"type":"Feature","id":"137464","geometry":{"type":"Polygon","coordinates":[[[-86.8011742780341,36.2406048517403],[-86.8013838983398,36.2405430270856],[-86.8014744284472,36.2407767474826],[-86.8014389080102,36.2407852241709],[-86.8013415689838,36.2408171856575],[-86.8013115146054,36.2408297465741],[-86.8011742780341,36.2406048517403]]]},"properties":{"id":"137464","parcel":"049120A04700CO","address":"1512 EMERALD BAY BLVD","owner":"CHANDLER, JOE S., JR. & LINDA S.","point":[-86.80133391935972,36.2406908155912]}},{"type":"Feature","id":"137466","geometry":{"type":"Polygon","coordinates":[[[-86.8020430119835,36.2418396423544],[-86.7985172341302,36.2415328053495],[-86.7986188418063,36.2414530200759],[-86.79862389766,36.2414499647586],[-86.7991517149724,36.2414997663714],[-86.7993136258002,36.241515177332],[-86.7994962405862,36.2415323743356],[-86.7996815732352,36.2415501019357],[-86.7998665638939,36.2415675575357],[-86.8000518939341,36.2415850097041],[-86.8002555572991,36.2416042661248],[-86.8004799033815,36.241590140702],[-86.8007066190323,36.2415754529989],[-86.8008992176692,36.2414730856789],[-86.8010939618821,36.241448994639],[-86.8011570918882,36.241521646782],[-86.8012600171498,36.2416396355862],[-86.8013169693672,36.2417049113166],[-86.801600736463,36.2417315975963],[-86.801804057906,36.2417508509757],[-86.8020567097019,36.241752195812],[-86.8020430119835,36.2418396423544]]]},"properties":{"id":"137466","parcel":"049120A05000CO","address":"0 KNIGHT DR","owner":"PRESTWICK PLACE OWNERS ASSO. INC","point":[-86.80069267717009,36.2416712823618]}},{"type":"Feature","id":"138804","geometry":{"type":"Polygon","coordinates":[[[-86.8016938266927,36.2408769313313],[-86.8017741399675,36.2408714540828],[-86.8018545076748,36.240871469549],[-86.8019179639986,36.2408757186416],[-86.8018836212971,36.2411347139883],[-86.8017002620794,36.241077421637],[-86.8016613161013,36.2408812675884],[-86.8016938266927,36.2408769313313]]]},"properties":{"id":"138804","parcel":"049120A00200CO","address":"1505 EMERALD BAY BLVD","owner":"MATTHEWS, ROBERT L.","point":[-86.80179248162375,36.24097952970888]}},{"type":"Feature","id":"138805","geometry":{"type":"Polygon","coordinates":[[[-86.8000518939341,36.2415850097041],[-86.8000889672358,36.2413270936923],[-86.8001853671465,36.241336344666],[-86.800269513743,36.2413410064458],[-86.8002555572991,36.2416042661248],[-86.8000518939341,36.2415850097041]]]},"properties":{"id":"138805","parcel":"049120A01600CO","address":"1545 EMERALD BAY BLVD","owner":"DAVIS, SHEILA A.","point":[-86.80016624475077,36.24146301738108]}},{"type":"Feature","id":"138816","geometry":{"type":"Polygon","coordinates":[[[-86.8018677207134,36.2446887774975],[-86.8032138888867,36.2445780805692],[-86.803271522373,36.2449196166402],[-86.8027023879562,36.2449783395264],[-86.8027407027565,36.2452791585675],[-86.802740025219,36.2452791630693],[-86.801886585683,36.2453265845423],[-86.801874793566,36.2451992611231],[-86.8018670070807,36.2450717362703],[-86.8018632314966,36.2449440928645],[-86.8018634687271,36.2448164120058],[-86.8018677207134,36.2446887774975]]]},"properties":{"id":"138816","parcel":"04900014400","address":"3504 KNIGHT DR","owner":"MARTIN, SUZANNE GRAMMER ET VIR","point":[-86.80236142019675,36.24496134682319]}},{"type":"Feature","id":"138820","geometry":{"type":"Polygon","coordinates":[[[-86.8021141631794,36.2429247696092],[-86.8065055094744,36.2426528437027],[-86.8066152528261,36.2430477731108],[-86.8020305333791,36.2434681159405],[-86.8021141631794,36.2429247696092]]]},"properties":{"id":"138820","parcel":"04900014600","address":"3480 KNIGHT DR","owner":"BUCHANAN, WILMA J. & CHARLIE W.","point":[-86.80319317502283,36.24325611340391]}},{"type":"Feature","id":"138824","geometry":{"type":"Polygon","coordinates":[[[-86.8023004194083,36.2417175512442],[-86.8023545335431,36.2413783167558],[-86.8036497725601,36.2413923542981],[-86.8045694934847,36.241402313762],[-86.8055719627346,36.2414131618983],[-86.806135671896,36.2414192578588],[-86.8061477054755,36.2414573437785],[-86.8062701458747,36.2418448860466],[-86.8022874231601,36.2418028265499],[-86.8023004194083,36.2417175512442]]]},"properties":{"id":"138824","parcel":"04900014700","address":"3460 KNIGHT DR","owner":"WELLS, DAVID J. & CAROLE S.","point":[-86.80425574806716,36.2415875148283]}},{"type":"Feature","id":"138832","geometry":{"type":"Polygon","coordinates":[[[-86.7998953687137,36.2407589180719],[-86.7998967729376,36.240740411486],[-86.7998944629539,36.2407219646409],[-86.7998885015241,36.2407040637966],[-86.7998790458153,36.2406871792668],[-86.7998663428499,36.2406717555347],[-86.8001348075058,36.2404933441601],[-86.8002042744787,36.2405217277149],[-86.8001754672391,36.2407922255278],[-86.7998953687137,36.2407589180719]]]},"properties":{"id":"138832","parcel":"049120A03400CO","address":"1908 WAVEPORT PL","owner":"WRIGHT, MELVN, III & SHIRLEY J.","point":[-86.80008780899102,36.240596829481625]}}]}