{"type":"FeatureCollection","features":[{"type":"Feature","id":"34465","geometry":{"type":"Polygon","coordinates":[[[-86.8603079840141,36.1254831506708],[-86.8607513381369,36.1247432101109],[-86.861327678015,36.1249324940071],[-86.8611663334385,36.1252295107403],[-86.8611636251786,36.1252295300742],[-86.8609061228197,36.1257148614075],[-86.8607048461362,36.1256408754737],[-86.8605054397469,36.1255636276336],[-86.8603079840141,36.1254831506708]]]},"properties":{"id":"34465","parcel":"10314009000","address":"213 WILSONIA AVE","owner":"BARGE, DANIEL B III","point":[-86.86089821685671,36.125080597899604]}},{"type":"Feature","id":"34466","geometry":{"type":"Polygon","coordinates":[[[-86.8597192082485,36.1252398329043],[-86.8596947261134,36.1252306673689],[-86.8601076875599,36.1245917643917],[-86.8607513381369,36.1247432101109],[-86.8603079840141,36.1254831506708],[-86.8598260222091,36.1252852209926],[-86.8597790349847,36.1252655212379],[-86.8597328019766,36.1252446804709],[-86.8597192082485,36.1252398329043]]]},"properties":{"id":"34466","parcel":"10314009100","address":"211 WILSONIA AVE","owner":"STEAD, JANET M.","point":[-86.86022878905639,36.12498694662874]}},{"type":"Feature","id":"36206","geometry":{"type":"Polygon","coordinates":[[[-86.8630824890179,36.1298024090831],[-86.8637411400656,36.1293361790306],[-86.8638829626378,36.1294546629826],[-86.8640746338628,36.1296107004463],[-86.8641163411899,36.1296439078452],[-86.8641566409465,36.1296782411021],[-86.8641691470197,36.1296896293703],[-86.864179202972,36.1297025150971],[-86.8641865428891,36.1297165567985],[-86.8641909704808,36.1297313791446],[-86.8641923681454,36.1297465891169],[-86.8641906970087,36.1297617796135],[-86.8641860038057,36.1297765492281],[-86.8641784119936,36.1297905023136],[-86.8641681252907,36.1298032678836],[-86.8641554155346,36.1298145069099],[-86.8640948623898,36.1298569603166],[-86.8640369064274,36.129901735725],[-86.8639816809401,36.1299487285365],[-86.8639293158201,36.1299978278679],[-86.863879933155,36.1300489201881],[-86.8638336472078,36.1301018875157],[-86.8637905654888,36.1301566038057],[-86.8637507899645,36.1302129439545],[-86.8637144125256,36.1302707757199],[-86.8636815183689,36.1303299642036],[-86.8630824890179,36.1298024090831]]]},"properties":{"id":"36206","parcel":"10313001000","address":"308 HILLWOOD BLVD","owner":"STANLEY, MICHAEL A. & CYNTHIA P.","point":[-86.8636220831961,36.12983516193741]}},{"type":"Feature","id":"36213","geometry":{"type":"Polygon","coordinates":[[[-86.8644796412228,36.1297352647792],[-86.8653106228989,36.1289249505986],[-86.8659455200843,36.1292632353485],[-86.865145225602,36.1301546485377],[-86.865029306649,36.1300901339847],[-86.8649152992389,36.1300234145943],[-86.8648032671309,36.1299545295711],[-86.8646932729524,36.1298835163256],[-86.8645853782392,36.1298104140788],[-86.8644796412228,36.1297352647792]]]},"properties":{"id":"36213","parcel":"10313002600","address":"401 HILLWOOD BLVD","owner":"ESKIND, JASON MORRIS LEGACY TRUST","point":[-86.86522767416214,36.12949926929578]}},{"type":"Feature","id":"36214","geometry":{"type":"Polygon","coordinates":[[[-86.863935819444,36.1293018196299],[-86.8649058576081,36.1285740243306],[-86.8653106228989,36.1289249505986],[-86.8644796412228,36.1297352647792],[-86.8643819383,36.1296645254873],[-86.8642871903056,36.1295911881749],[-86.8641955036604,36.1295153332018],[-86.8640649896999,36.1294091306308],[-86.863935819444,36.1293018196299]]]},"properties":{"id":"36214","parcel":"10313002700","address":"305 HILLWOOD BLVD","owner":"KING, DAVID & CATHY LIVING TRUST","point":[-86.86465222098983,36.12911341986178]}},{"type":"Feature","id":"36215","geometry":{"type":"Polygon","coordinates":[[[-86.8636159844738,36.129031858779],[-86.8634737744015,36.1289144137589],[-86.8634573732901,36.1289008685839],[-86.8634025992557,36.1288463183315],[-86.8641000481245,36.1284611232267],[-86.8645557811961,36.1282688559448],[-86.8649058576081,36.1285740243306],[-86.863935819444,36.1293018196299],[-86.8638087712797,36.1291960164655],[-86.8636842617872,36.1290882464151],[-86.8636159844738,36.129031858779]]]},"properties":{"id":"36215","parcel":"10313002800","address":"303 HILLWOOD BLVD","owner":"GERBER, JOHN D. & RENEE E.","point":[-86.86418684080395,36.1287102106719]}},{"type":"Feature","id":"36240","geometry":{"type":"Polygon","coordinates":[[[-86.8691807751848,36.1275894983091],[-86.8695221968459,36.1263607222107],[-86.8695923545395,36.1263833164333],[-86.8696612915247,36.1264082609548],[-86.8697288884595,36.1264355124748],[-86.8697950281938,36.1264650249733],[-86.8698595957196,36.1264967452049],[-86.8700339694893,36.1265877910324],[-86.8700612748934,36.1266046428083],[-86.8700858962164,36.1266240276222],[-86.8701074749082,36.1266456677621],[-86.8701257031124,36.1266692481978],[-86.8701403171594,36.1266944310482],[-86.8701511064341,36.1267208537144],[-86.8701579145455,36.1267481342792],[-86.8701606438602,36.1267758795858],[-86.8701137529208,36.127193780551],[-86.8701020354135,36.1272824695095],[-86.8700862382656,36.1273707408522],[-86.870066383449,36.1274584718443],[-86.8700425007024,36.1275455387931],[-86.8700146209054,36.1276318207012],[-86.8699827849365,36.127717196499],[-86.8699470370267,36.1278015468945],[-86.8691807751848,36.1275894983091]]]},"properties":{"id":"36240","parcel":"10313003500","address":"6011 DUNHAM SPRINGS RD","owner":"DEAN, KENNETH SCOTT & JENNIFER LEE, TRUSTEES","point":[-86.86974311163767,36.12698440220066]}},{"type":"Feature","id":"36425","geometry":{"type":"Polygon","coordinates":[[[-86.8608971465026,36.1281345894847],[-86.8614008828246,36.1273727881404],[-86.8615112227988,36.1274290650168],[-86.8616194090301,36.1274880285824],[-86.8616379299008,36.1274985611955],[-86.8616904854065,36.1275299786098],[-86.8617448655554,36.127559282073],[-86.8618009429018,36.1275863985879],[-86.8618585823409,36.1276112660275],[-86.8616331210726,36.1279732984047],[-86.8613952869878,36.1283551982437],[-86.8611253757758,36.1282360593403],[-86.8608971465026,36.1281345894847]]]},"properties":{"id":"36425","parcel":"10314006600","address":"230 HILLWOOD BLVD","owner":"HOVIOUS FAMILY TRUST, THE","point":[-86.86143491200183,36.12779192299713]}},{"type":"Feature","id":"36427","geometry":{"type":"Polygon","coordinates":[[[-86.8627346752604,36.1269632755778],[-86.8629470768234,36.1269841064113],[-86.8630492507415,36.1269939907998],[-86.8632688108437,36.1275044837378],[-86.8631983624442,36.1275295649804],[-86.8631265573346,36.127551973666],[-86.8630535516467,36.1275716618081],[-86.8629795004703,36.1275885877376],[-86.8629045633882,36.1276027142597],[-86.862828900062,36.1276140113896],[-86.8627526735649,36.1276224563293],[-86.8627346752604,36.1269632755778]]]},"properties":{"id":"36427","parcel":"10314006900","address":"233 W HILLWOOD DR","owner":"CHOATE, WALTER L. & DEBORAH S.","point":[-86.86295075028136,36.12724899921449]}},{"type":"Feature","id":"36429","geometry":{"type":"Polygon","coordinates":[[[-86.8611760932106,36.127128251391],[-86.861422238507,36.126594651366],[-86.8615023584525,36.1266181867737],[-86.861590277278,36.1266438628576],[-86.8618926457644,36.1267561182619],[-86.8619739163102,36.1267868581175],[-86.8620381104736,36.1268113694955],[-86.8621483397744,36.126853187277],[-86.8619031766698,36.1274768876719],[-86.8618462102593,36.1274484103073],[-86.8617907640545,36.1274180212469],[-86.8617369386239,36.1273857738514],[-86.8617019266717,36.1273656314893],[-86.8616161545933,36.1273188744314],[-86.8615284338431,36.1272745619936],[-86.8614388683249,36.1272327484081],[-86.8613475663359,36.1271934833696],[-86.8612546394858,36.1271568147467],[-86.8612073655438,36.1271392905911],[-86.8611760932106,36.127128251391]]]},"properties":{"id":"36429","parcel":"10314007100","address":"229 HILLWOOD BLVD","owner":"SARB, MATT & ASHLEY","point":[-86.86166692201083,36.126990725756855]}},{"type":"Feature","id":"36431","geometry":{"type":"Polygon","coordinates":[[[-86.8618926457644,36.1267561182619],[-86.862084345646,36.1261987315227],[-86.8622510651159,36.1262424023139],[-86.8627146125767,36.1263634482643],[-86.8624905990348,36.1269386511101],[-86.862351421292,36.1269252877435],[-86.8623414500125,36.1269243315588],[-86.8621483397744,36.126853187277],[-86.8620381104736,36.1268113694955],[-86.8619739163102,36.1267868581175],[-86.8618926457644,36.1267561182619]]]},"properties":{"id":"36431","parcel":"10314008400","address":"220 WILSONIA AVE","owner":"CLEMENT 2024 TENANCY BY THE ENTIRETY TRUST, THE","point":[-86.86229915336416,36.126559778827456]}},{"type":"Feature","id":"36432","geometry":{"type":"Polygon","coordinates":[[[-86.8621860126442,36.1260815264896],[-86.8625405570401,36.1253032046682],[-86.8631735977565,36.1254744929732],[-86.862824428736,36.1262483826465],[-86.86279564513,36.1262415413729],[-86.8627673785092,36.1262334066563],[-86.8621860126442,36.1260815264896]]]},"properties":{"id":"36432","parcel":"10314008700","address":"219 WILSONIA AVE","owner":"KELTNER COMMUNITY PROPERTY TRUST","point":[-86.86268046459189,36.12577801151464]}},{"type":"Feature","id":"36509","geometry":{"type":"Polygon","coordinates":[[[-86.8626636867527,36.1294054237829],[-86.863210463006,36.1288652746645],[-86.8632668606799,36.1289265216426],[-86.8633252083671,36.1289865550296],[-86.8633854645247,36.1290453345624],[-86.8634298774776,36.1290816935529],[-86.8634759738754,36.1291166452897],[-86.8635785639233,36.1291992544916],[-86.863678266125,36.1292841591222],[-86.8637411400656,36.1293361790306],[-86.8630824890179,36.1298024090831],[-86.8626636867527,36.1294054237829]]]},"properties":{"id":"36509","parcel":"10314000200","address":"304 HILLWOOD BLVD","owner":"SCHARF, DAVID B. & TONYA W.","point":[-86.86323545508608,36.129309628553806]}},{"type":"Feature","id":"36623","geometry":{"type":"Polygon","coordinates":[[[-86.865145225602,36.1301546485377],[-86.8659455200843,36.1292632353485],[-86.8664278160868,36.1295191007549],[-86.8666343598418,36.1295791523489],[-86.8660272641607,36.1305483007275],[-86.8659592544122,36.1305224164559],[-86.8658186107021,36.1304686837408],[-86.8656798211742,36.1304118677835],[-86.8655429862954,36.1303520111313],[-86.8654082098743,36.130289157209],[-86.865275590203,36.1302233530865],[-86.865145225602,36.1301546485377]]]},"properties":{"id":"36623","parcel":"10313002500","address":"403 HILLWOOD BLVD","owner":"LIPSHIE, SAMUEL D. & MARY ANN","point":[-86.86592888197495,36.12986694652427]}},{"type":"Feature","id":"36650","geometry":{"type":"Polygon","coordinates":[[[-86.8687524491451,36.1283046374901],[-86.8689343233853,36.1275956693334],[-86.8689435941409,36.1275954376201],[-86.8691807751848,36.1275894983091],[-86.8699470370267,36.1278015468945],[-86.8699212311726,36.1278580137309],[-86.8698939203374,36.1279140128307],[-86.8698666704652,36.1279759852005],[-86.8698429984152,36.1280389168693],[-86.8698229549458,36.128102674083],[-86.8698065829604,36.1281671159337],[-86.8697939187571,36.1282321069685],[-86.8697849896482,36.128297502786],[-86.8697798130274,36.1283631662665],[-86.8687524491451,36.1283046374901]]]},"properties":{"id":"36650","parcel":"10313003600","address":"6007 DUNHAM SPRINGS RD","owner":"MILLER, MELINDA B. & DONALD C.","point":[-86.86934190469174,36.12800689266002]}},{"type":"Feature","id":"36651","geometry":{"type":"Polygon","coordinates":[[[-86.8685913810261,36.1289343388488],[-86.8687524491451,36.1283046374901],[-86.8697798130274,36.1283631662665],[-86.8697777732582,36.1284126543019],[-86.8697783601319,36.1284621675616],[-86.8697815693137,36.1285116141457],[-86.8697873975991,36.1285609039488],[-86.8697887617991,36.1286132227094],[-86.8697861605361,36.1286655096742],[-86.8697796016579,36.1287175692077],[-86.8697691118782,36.1287692037353],[-86.8697547301404,36.1288202164948],[-86.8697365110006,36.1288704160193],[-86.8697145223657,36.1289196125477],[-86.8696888488464,36.1289676198032],[-86.8696595862125,36.1290142559349],[-86.8696268469579,36.1290593443787],[-86.8695907525528,36.1291027166172],[-86.8695514411622,36.1291442067166],[-86.8695090610488,36.1291836576828],[-86.8694637705734,36.1292209214619],[-86.8694157437294,36.1292558570976],[-86.8694029178987,36.1292637258151],[-86.869388711889,36.1292698406636],[-86.8693734895023,36.1292740449014],[-86.8693576351098,36.1292762339128],[-86.8693415558143,36.1292763497857],[-86.8693256559879,36.1292743896059],[-86.8693103439373,36.1292704054097],[-86.869296006264,36.1292644962567],[-86.8692830101451,36.129256813621],[-86.8692249787312,36.129216865935],[-86.8691644507825,36.1291794381742],[-86.8691015896038,36.1291446310038],[-86.8690365695689,36.1291125414039],[-86.8689695682743,36.1290832564178],[-86.8685913810261,36.1289343388488]]]},"properties":{"id":"36651","parcel":"10313003700","address":"6001 DUNHAM SPRINGS RD","owner":"POTTER, ROBERT","point":[-86.86919466702967,36.12879409202841]}},{"type":"Feature","id":"36782","geometry":{"type":"Polygon","coordinates":[[[-86.8598241266848,36.1283620112964],[-86.8601839591959,36.1278188134737],[-86.8602362701846,36.1278418477116],[-86.8603663296177,36.1278988250045],[-86.8605376018897,36.1279748524394],[-86.8607855346589,36.1280848365119],[-86.8604257277882,36.128630235964],[-86.8598241266848,36.1283620112964]]]},"properties":{"id":"36782","parcel":"10314005500","address":"905 NEARTOP DR","owner":"HARVEY, WILLIAM JOHN III & CASEY EILEEN","point":[-86.86030502001479,36.12822342509197]}},{"type":"Feature","id":"36799","geometry":{"type":"Polygon","coordinates":[[[-86.8598436703235,36.1276652027909],[-86.8602860671592,36.1269917509357],[-86.8604050147916,36.1270295866405],[-86.860714939254,36.1271282619114],[-86.8608460486835,36.1271701626258],[-86.8603663296177,36.1278988250045],[-86.8602362701846,36.1278418477116],[-86.8601839591959,36.1278188134737],[-86.8599521715201,36.1277142523715],[-86.8598436703235,36.1276652027909]]]},"properties":{"id":"36799","parcel":"10314006400","address":"222 HILLWOOD BLVD","owner":"WATSON, LEEROY & GLORIA LIVING TRUST","point":[-86.86034468104809,36.12741768355552]}},{"type":"Feature","id":"36802","geometry":{"type":"Polygon","coordinates":[[[-86.8599516600315,36.1261304406554],[-86.8602277022579,36.1256054209672],[-86.8603763969297,36.1256665527768],[-86.8604884713346,36.1257119658513],[-86.8606017298168,36.1257554019688],[-86.8607161188433,36.1257968425811],[-86.8608315859621,36.1258362664284],[-86.8606151178987,36.126358665159],[-86.8605553889731,36.1263410772874],[-86.8602591051887,36.1262535172171],[-86.8601006896967,36.1262080675271],[-86.8601000506295,36.1262077350031],[-86.8599516600315,36.1261304406554]]]},"properties":{"id":"36802","parcel":"10314008100","address":"214 WILSONIA AVE","owner":"DRUMNASH, LLC","point":[-86.86039983567979,36.12598336392354]}},{"type":"Feature","id":"36803","geometry":{"type":"Polygon","coordinates":[[[-86.8606151178987,36.126358665159],[-86.8608315859621,36.1258362664284],[-86.8609860887454,36.1258892282566],[-86.8611416686164,36.1259400731926],[-86.8612982809932,36.1259887889324],[-86.861377998294,36.1260128518443],[-86.86144322214,36.1260318934988],[-86.8612646305736,36.126549624641],[-86.8611090813429,36.1265037709578],[-86.8610228801724,36.1264785887866],[-86.8608705741254,36.126433761645],[-86.8606151178987,36.126358665159]]]},"properties":{"id":"36803","parcel":"10314008200","address":"216 WILSONIA AVE","owner":"BEARDEN FAMILY TRUST","point":[-86.86103485325812,36.126195286640666]}},{"type":"Feature","id":"36883","geometry":{"type":"Polygon","coordinates":[[[-86.8602909262475,36.1296904871468],[-86.8602791174107,36.1296004655097],[-86.861182013353,36.1294226028791],[-86.8611958628674,36.1294750254309],[-86.861205487325,36.1295280675822],[-86.8612108465025,36.1295815043],[-86.8612119179509,36.1296351104241],[-86.861208695875,36.1296886597737],[-86.8612011966979,36.1297419260088],[-86.8611894491024,36.1297946863069],[-86.8611735050807,36.1298467158758],[-86.8611534300159,36.1298977952351],[-86.8611293082355,36.1299477101765],[-86.8611012440942,36.1299962490523],[-86.8610693531444,36.1300432082462],[-86.8610337720862,36.1300883875957],[-86.8609946499682,36.1301315985669],[-86.8609651171865,36.1301559835712],[-86.8602909262475,36.1296904871468]]]},"properties":{"id":"36883","parcel":"10314005300","address":"844 NEARTOP DR","owner":"GREEN, ROBERT ALAN & OWENS, ANNE LESLIE","point":[-86.86079881042406,36.12976784603408]}},{"type":"Feature","id":"36912","geometry":{"type":"Polygon","coordinates":[[[-86.8633340381077,36.1287696149159],[-86.8633072870233,36.1287384912363],[-86.8632681697686,36.1286912437421],[-86.8630238008846,36.128387859698],[-86.8628123192555,36.128125301549],[-86.8627516973269,36.1280602604137],[-86.8626890132151,36.1279965201276],[-86.8626707962602,36.1279716514754],[-86.862668315169,36.1279659000965],[-86.8626589856262,36.1279442647858],[-86.8626535962212,36.1279157326102],[-86.862654637008,36.1278868804618],[-86.8626624535,36.1278585269397],[-86.8626767296469,36.1278320550704],[-86.8626876312621,36.1278191365117],[-86.8626967888971,36.1278082862535],[-86.8627219629409,36.1277877777529],[-86.8627515860636,36.127771632091],[-86.8627847716821,36.1277600511841],[-86.8628191177621,36.1277538426362],[-86.8629042789374,36.1277428516085],[-86.8629886932286,36.1277285635572],[-86.8630721676836,36.1277110123106],[-86.8631545094101,36.1276902371045],[-86.8632355311782,36.1276662870491],[-86.8633150435862,36.1276392157767],[-86.8633928684303,36.1276090849518],[-86.8634593054303,36.1275840323085],[-86.8634700975904,36.1275799623709],[-86.8641000481245,36.1284611232267],[-86.8634025992557,36.1288463183315],[-86.8633340381077,36.1287696149159]]]},"properties":{"id":"36912","parcel":"10314006700","address":"220 W HILLWOOD DR","owner":"BROWN, WAYNE A. ET UX","point":[-86.86343636096086,36.12825717267886]}},{"type":"Feature","id":"36913","geometry":{"type":"Polygon","coordinates":[[[-86.8630492507415,36.1269939907998],[-86.8631874393626,36.126498520333],[-86.8632618550065,36.1265221602853],[-86.8634484083621,36.1265820476133],[-86.8635951926604,36.1266280133119],[-86.8637029371156,36.1266630716087],[-86.8638615210128,36.1267168802023],[-86.8640188434545,36.1267730716073],[-86.8641748531166,36.1268316245655],[-86.8643294931394,36.1268925196611],[-86.8639760856413,36.1271519093178],[-86.8638745016526,36.1272144469206],[-86.8637944212406,36.1272585893621],[-86.8637385127959,36.1272893179079],[-86.8634575103614,36.1274189775951],[-86.8634319032259,36.1274307919571],[-86.8633786218274,36.1274569103864],[-86.8633242348521,36.1274814846918],[-86.8632688108437,36.1275044837378],[-86.8630492507415,36.1269939907998]]]},"properties":{"id":"36913","parcel":"10314006800","address":"224 WILSONIA AVE","owner":"WRIGHT, MONA F. & DONALD E.","point":[-86.8635828901311,36.12707303094501]}},{"type":"Feature","id":"36914","geometry":{"type":"Polygon","coordinates":[[[-86.8600425585874,36.1267693224939],[-86.8602591051887,36.1262535172171],[-86.8605553889731,36.1263410772874],[-86.8606151178987,36.126358665159],[-86.8608705741254,36.126433761645],[-86.8606351170857,36.1269540984992],[-86.8603524289157,36.1268660090421],[-86.8603274443875,36.126858720087],[-86.8601845060523,36.1268150591308],[-86.8600425585874,36.1267693224939]]]},"properties":{"id":"36914","parcel":"10314007300","address":"223 HILLWOOD BLVD","owner":"ANCHOR, KENNETH & FELICIA, TRUSTEES","point":[-86.8604538194348,36.12660153958823]}},{"type":"Feature","id":"36917","geometry":{"type":"Polygon","coordinates":[[[-86.8624905990348,36.1269386511101],[-86.8627146125767,36.1263634482643],[-86.8628729957435,36.1264066739985],[-86.8630306154531,36.1264517021493],[-86.8631874393626,36.126498520333],[-86.8630492507415,36.1269939907998],[-86.8629470768234,36.1269841064113],[-86.8627346752604,36.1269632755778],[-86.8624905990348,36.1269386511101]]]},"properties":{"id":"36917","parcel":"10314008500","address":"222 WILSONIA AVE","owner":"HUGGINS, WILLIAM A. & MARGARET P.","point":[-86.86285119601924,36.12671860017527]}},{"type":"Feature","id":"36998","geometry":{"type":"Polygon","coordinates":[[[-86.8683051646946,36.1300110728927],[-86.8689576870334,36.1292349831371],[-86.8690171074379,36.1292647129956],[-86.8690743421225,36.1292971434978],[-86.8691292032834,36.129332168747],[-86.8691815152274,36.1293696728452],[-86.8692311055534,36.1294095362656],[-86.8692778139703,36.1294516294805],[-86.8693214878543,36.1294958129923],[-86.8693619856695,36.1295419454216],[-86.8693929874502,36.1295828710535],[-86.8694209307209,36.1296252211186],[-86.8694457138577,36.1296688467379],[-86.8694672518205,36.1297135917026],[-86.8694854673254,36.1297592979455],[-86.8695002941478,36.1298058028128],[-86.8695116815954,36.1298529417359],[-86.8695133979897,36.1298748431961],[-86.8695106907364,36.1298966773989],[-86.8695036323408,36.1299178624929],[-86.869492409891,36.1299378302209],[-86.8694773263965,36.1299560466401],[-86.8694587831519,36.1299720248671],[-86.8694372776533,36.1299853377111],[-86.8693616947809,36.1300326185187],[-86.8692887618554,36.1300825633065],[-86.8692186222484,36.1301350755102],[-86.8691514137088,36.1301900522969],[-86.869087267282,36.1302473872771],[-86.8690263083613,36.1303069650892],[-86.8689217681324,36.1304088115651],[-86.8683051646946,36.1300110728927]]]},"properties":{"id":"36998","parcel":"10313002100","address":"412 WILSONIA AVE","owner":"FRAZIER, KEITH D. & TRACY R.","point":[-86.86898244376302,36.129828800784814]}},{"type":"Feature","id":"37143","geometry":{"type":"Polygon","coordinates":[[[-86.8603663296177,36.1278988250045],[-86.8608460486835,36.1271701626258],[-86.8609384957845,36.1271981565184],[-86.8610303032924,36.1272275059308],[-86.8611251079972,36.1272606210758],[-86.8612187175468,36.1272959023539],[-86.8613110572053,36.1273333214602],[-86.8613410034116,36.1273468432186],[-86.8614008828246,36.1273727881404],[-86.8608971465026,36.1281345894847],[-86.8608352926433,36.1281077381933],[-86.8607855346589,36.1280848365119],[-86.8605376018897,36.1279748524394],[-86.8603663296177,36.1278988250045]]]},"properties":{"id":"37143","parcel":"10314006500","address":"224 HILLWOOD BLVD","owner":"RUST, JOCELYN K","point":[-86.86088322695113,36.12763580725642]}},{"type":"Feature","id":"37144","geometry":{"type":"Polygon","coordinates":[[[-86.8621174577811,36.1275569344493],[-86.8620442509876,36.1275334645101],[-86.8619727510671,36.1275067548308],[-86.8619031766698,36.1274768876719],[-86.8621483397744,36.126853187277],[-86.8623414500125,36.1269243315588],[-86.862351421292,36.1269252877435],[-86.8624905990348,36.1269386511101],[-86.8627346752604,36.1269632755778],[-86.8627526735649,36.1276224563293],[-86.8627282403145,36.1276228996514],[-86.8627039395232,36.1276250021873],[-86.862629414059,36.1276274287245],[-86.8625548321628,36.1276267065311],[-86.862480399377,36.1276228359404],[-86.8624063147059,36.1276158290491],[-86.862332780545,36.1276057033382],[-86.8622599949636,36.1275924871353],[-86.8621881561086,36.1275762159783],[-86.8621174577811,36.1275569344493]]]},"properties":{"id":"37144","parcel":"10314007000","address":"231 HILLWOOD BLVD","owner":"LEOW, ROBERT F. & OLIVIA BILLINGSLEY","point":[-86.86237298221343,36.12722014447109]}},{"type":"Feature","id":"37145","geometry":{"type":"Polygon","coordinates":[[[-86.8606351170857,36.1269540984992],[-86.8608705741254,36.126433761645],[-86.8610228801724,36.1264785887866],[-86.8611090813429,36.1265037709578],[-86.8612646305736,36.126549624641],[-86.861422238507,36.126594651366],[-86.8611760932106,36.127128251391],[-86.8610885454463,36.1270975927603],[-86.8609993786689,36.1270701749239],[-86.8607939811278,36.1270047870625],[-86.8606351170857,36.1269540984992]]]},"properties":{"id":"37145","parcel":"10314007200","address":"225 HILLWOOD BLVD","owner":"DREAMINC","point":[-86.86102788765831,36.12677437466608]}},{"type":"Feature","id":"37148","geometry":{"type":"Polygon","coordinates":[[[-86.8612646305736,36.126549624641],[-86.86144322214,36.1260318934988],[-86.8614659090904,36.1260392869568],[-86.861489413831,36.1260447467223],[-86.8617636223993,36.1261158183576],[-86.862084345646,36.1261987315227],[-86.8618926457644,36.1267561182619],[-86.861590277278,36.1266438628576],[-86.8615023584525,36.1266181867737],[-86.861422238507,36.126594651366],[-86.8612646305736,36.126549624641]]]},"properties":{"id":"37148","parcel":"10314008300","address":"218 WILSONIA AVE","owner":"NUISMER, N. JACK, JR. ET UX","point":[-86.86167457835154,36.126374178890714]}},{"type":"Feature","id":"37149","geometry":{"type":"Polygon","coordinates":[[[-86.8615421815682,36.1259147065409],[-86.8619043549424,36.1251209480763],[-86.8622325490303,36.1252218944484],[-86.86223627372,36.1252218678253],[-86.8625405570401,36.1253032046682],[-86.8621860126442,36.1260815264896],[-86.8615421815682,36.1259147065409]]]},"properties":{"id":"37149","parcel":"10314008800","address":"217 WILSONIA AVE","owner":"BRYANT, JOHN M., JR. & KARYN C.","point":[-86.86204148510136,36.125608956787794]}},{"type":"Feature","id":"37150","geometry":{"type":"Polygon","coordinates":[[[-86.8609061228197,36.1257148614075],[-86.8611636251786,36.1252295300742],[-86.8611663334385,36.1252295107403],[-86.861327678015,36.1249324940071],[-86.8619043549424,36.1251209480763],[-86.8615421815682,36.1259147065409],[-86.8613812149882,36.1258689243453],[-86.8612214991223,36.1258203399251],[-86.861063112019,36.1257689779641],[-86.8609061228197,36.1257148614075]]]},"properties":{"id":"37150","parcel":"10314008900","address":"215 WILSONIA AVE","owner":"DICKS, BRUCE T. & MARGARET M.","point":[-86.86138929497922,36.12547260643951]}},{"type":"Feature","id":"37452","geometry":{"type":"Polygon","coordinates":[[[-86.8621050540992,36.1301016915947],[-86.8613281696723,36.1299094478329],[-86.8613472419404,36.1298517628844],[-86.8613620957842,36.1297932662526],[-86.8613726767751,36.1297341629192],[-86.8613789515734,36.1296746559123],[-86.8613808957756,36.1296149527023],[-86.8613785049651,36.1295552597148],[-86.8622069413392,36.129505387821],[-86.8624483397479,36.1295322320804],[-86.8624204036883,36.1297038524026],[-86.8623824920515,36.1299546605248],[-86.8621328705525,36.1299190837707],[-86.8621050540992,36.1301016915947]]]},"properties":{"id":"37452","parcel":"10314000800","address":"847 NEARTOP DR","owner":"WILLINGHAM, JUSTIN LAL","point":[-86.86187847662315,36.12982311970105]}},{"type":"Feature","id":"37585","geometry":{"type":"Polygon","coordinates":[[[-86.8659455200843,36.1292632353485],[-86.8653106228989,36.1289249505986],[-86.8661582715121,36.1281540690198],[-86.8662425406113,36.1282153776862],[-86.8663294832656,36.1282741777458],[-86.8664189886383,36.1283303915772],[-86.8665109370734,36.1283839479315],[-86.8666052088939,36.1284347737574],[-86.8667016834092,36.1284828050245],[-86.8668002332719,36.1285279786511],[-86.8669007289515,36.128570235177],[-86.8670030409655,36.1286095196483],[-86.8664278160868,36.1295191007549],[-86.8659455200843,36.1292632353485]]]},"properties":{"id":"37585","parcel":"10313003200","address":"404 WILSONIA AVE","owner":"JACOBS, GAIL G.","point":[-86.86619382236424,36.12876727944133]}},{"type":"Feature","id":"37586","geometry":{"type":"Polygon","coordinates":[[[-86.8673001911638,36.1297721604717],[-86.8666343598418,36.1295791523489],[-86.8664278160868,36.1295191007549],[-86.8670030409655,36.1286095196483],[-86.8671004980405,36.1286441225072],[-86.8671994683528,36.1286757744192],[-86.8672998147698,36.1287044322039],[-86.8674014013087,36.1287300562775],[-86.8675040864807,36.128752611603],[-86.8676279626794,36.1287790260527],[-86.8677509982759,36.1288079105342],[-86.8678731175523,36.1288392484705],[-86.8679942469626,36.1288730187629],[-86.8681143141012,36.1289092030081],[-86.8675094457633,36.1298321910839],[-86.8673001911638,36.1297721604717]]]},"properties":{"id":"37586","parcel":"10313003300","address":"408 WILSONIA AVE","owner":"VIVES REVOCABLE LIVING TRUST","point":[-86.86726756396777,36.1292141509811]}},{"type":"Feature","id":"37783","geometry":{"type":"Polygon","coordinates":[[[-86.861825536355,36.1279719239266],[-86.8620029828065,36.127687153503],[-86.8621802015898,36.127791774438],[-86.8622456405064,36.1278304666305],[-86.8623073733273,36.1278748922118],[-86.8623676405776,36.1279206233839],[-86.8624263997111,36.1279676298095],[-86.8624395886742,36.127978521275],[-86.8620295880644,36.1286407628043],[-86.8617217054561,36.1284982468605],[-86.8615476726157,36.1284178434504],[-86.861825536355,36.1279719239266]]]},"properties":{"id":"37783","parcel":"10314000500","address":"232 HILLWOOD BLVD","owner":"MOMAN, JOJO-ELIZABETH","point":[-86.86199407238867,36.128198183707056]}},{"type":"Feature","id":"37987","geometry":{"type":"Polygon","coordinates":[[[-86.8596810702053,36.1291607942216],[-86.8600490584657,36.1286197361557],[-86.8606152571583,36.1288706309212],[-86.8602554693446,36.1294182251133],[-86.860162916841,36.1293771294848],[-86.859877082646,36.1292495030929],[-86.8596810702053,36.1291607942216]]]},"properties":{"id":"37987","parcel":"10314005100","address":"900 NEARTOP DR","owner":"PEREZ OLIVARES TRUST, THE","point":[-86.86014984291121,36.12901571544524]}},{"type":"Feature","id":"37988","geometry":{"type":"Polygon","coordinates":[[[-86.8602554693446,36.1294182251133],[-86.8606152571583,36.1288706309212],[-86.8606805944926,36.1289018890845],[-86.8607439906052,36.1289356747444],[-86.8608052979901,36.128971908742],[-86.8608643724152,36.1290105064878],[-86.8609210762538,36.1290513779375],[-86.8609752773646,36.1290944266988],[-86.8610157765806,36.1291361374851],[-86.8610528539173,36.1291798915579],[-86.8610863562748,36.1292255043482],[-86.8611161404719,36.1292727840064],[-86.8611420810226,36.1293215313459],[-86.8611640701463,36.1293715407443],[-86.861182013353,36.1294226028791],[-86.8602791174107,36.1296004655097],[-86.8602554693446,36.1294182251133]]]},"properties":{"id":"37988","parcel":"10314005200","address":"850 NEARTOP DR","owner":"HARMS, TIMOTHY & ELIZABETH","point":[-86.8607341854844,36.12924871798769]}},{"type":"Feature","id":"37989","geometry":{"type":"Polygon","coordinates":[[[-86.8604257277882,36.128630235964],[-86.8607855346589,36.1280848365119],[-86.8608352926433,36.1281077381933],[-86.8608971465026,36.1281345894847],[-86.8611253757758,36.1282360593403],[-86.8613952869878,36.1283551982437],[-86.8613530392704,36.1284198822394],[-86.8613077056495,36.1284831768403],[-86.8612593561816,36.1285449860068],[-86.8612080631357,36.128605212782],[-86.8611539066263,36.1286637664618],[-86.8610969689909,36.1287205563263],[-86.8610373381903,36.1287754979243],[-86.860975103278,36.1288285049945],[-86.860963356778,36.1288359829625],[-86.8609502940479,36.1288418489129],[-86.8609362456651,36.1288459544782],[-86.8609215726612,36.1288481934338],[-86.8609066477243,36.128848509944],[-86.8608918496151,36.1288468958983],[-86.8608775565109,36.1288433918594],[-86.8608641337858,36.1288380871513],[-86.8608101815956,36.1288055761783],[-86.8607537993824,36.1287759035387],[-86.8606952117532,36.1287491893002],[-86.8604257277882,36.128630235964]]]},"properties":{"id":"37989","parcel":"10314005400","address":"101 W HILLWOOD DR","owner":"101 W HILLWOOD LLC","point":[-86.86093729891894,36.1284510738642]}},{"type":"Feature","id":"38175","geometry":{"type":"Polygon","coordinates":[[[-86.8622805101362,36.1290455433098],[-86.8628398264259,36.1284130038619],[-86.8631254136035,36.1287669870893],[-86.8631665365603,36.1288169295379],[-86.863210463006,36.1288652746645],[-86.8626636867527,36.1294054237829],[-86.8622805101362,36.1290455433098]]]},"properties":{"id":"38175","parcel":"10314000300","address":"302 HILLWOOD BLVD","owner":"PENNINGTON FAMILY REVOCABLE LIVING TRUST, THE","point":[-86.86273969552903,36.128955403255176]}},{"type":"Feature","id":"38410","geometry":{"type":"Polygon","coordinates":[[[-86.8620295880644,36.1286407628043],[-86.8624395886742,36.127978521275],[-86.862498982331,36.1280305450853],[-86.8625563015989,36.1280840780277],[-86.8626114903349,36.1281390655284],[-86.8626695636732,36.1282010443678],[-86.8626744446828,36.128207120171],[-86.8628398264259,36.1284130038619],[-86.8622805101362,36.1290455433098],[-86.8623265956543,36.1287990722952],[-86.8623125860809,36.1287916052553],[-86.8622367676885,36.1287511928329],[-86.8620295880644,36.1286407628043]]]},"properties":{"id":"38410","parcel":"10314000400","address":"300 HILLWOOD BLVD","owner":"CHIDSEY, GEOFFREY & KELLIANN D.","point":[-86.8624195758268,36.12852686664181]}},{"type":"Feature","id":"38812","geometry":{"type":"Polygon","coordinates":[[[-86.8615476726157,36.1284178434504],[-86.8617217054561,36.1284982468605],[-86.8620295880644,36.1286407628043],[-86.8622367676885,36.1287511928329],[-86.8623125860809,36.1287916052553],[-86.8623265956543,36.1287990722952],[-86.8612801940499,36.129232900917],[-86.8612512571771,36.1291833422108],[-86.8612188131275,36.1291352352674],[-86.8611829725343,36.1290887415255],[-86.8611438559982,36.1290440196485],[-86.8611015951405,36.1290012201095],[-86.8610946097296,36.1289925599624],[-86.8610893601923,36.1289831267407],[-86.8610859756444,36.1289731475479],[-86.861084536478,36.1289628642556],[-86.8610850775867,36.1289525235668],[-86.8610875861345,36.12894237613],[-86.8610920003175,36.1289326648316],[-86.8610982149382,36.1289236265586],[-86.8611060801385,36.1289154777874],[-86.8611794956031,36.1288508571052],[-86.8612496470035,36.1287838938086],[-86.8613164210726,36.1287146950635],[-86.8613797101675,36.1286433743045],[-86.8614394122108,36.1285700458278],[-86.8614954296093,36.1284948275024],[-86.8615476726157,36.1284178434504]]]},"properties":{"id":"38812","parcel":"10314000600","address":"100 W HILLWOOD DR","owner":"TWINS TRUST","point":[-86.86173500234372,36.12882494524837]}},{"type":"Feature","id":"38851","geometry":{"type":"Polygon","coordinates":[[[-86.8612801940499,36.129232900917],[-86.8623265956543,36.1287990722952],[-86.8622805101362,36.1290455433098],[-86.8622069413392,36.129505387821],[-86.8613785049651,36.1295552597148],[-86.8613721078952,36.1294998674176],[-86.8613616523452,36.129444883538],[-86.8613471737627,36.1293905024992],[-86.8613287253694,36.1293369185972],[-86.8613063725674,36.1292843224353],[-86.8612801940499,36.129232900917]]]},"properties":{"id":"38851","parcel":"10314000700","address":"851 NEARTOP DR","owner":"ROBIN, DEBORAH SUSAN","point":[-86.86188617213718,36.12913934521587]}},{"type":"Feature","id":"71209","geometry":{"type":"Polygon","coordinates":[[[-86.8605877864238,36.1209006020941],[-86.8607213020707,36.1204732952602],[-86.8607239916348,36.1204403106336],[-86.8616887092912,36.1205081449104],[-86.8615989384207,36.1209725004967],[-86.8615876245141,36.1210212678728],[-86.8615723970885,36.1210693304544],[-86.8615533216368,36.1211164795753],[-86.8615304792819,36.1211625136676],[-86.86150397007,36.121207234633],[-86.8605877864238,36.1209006020941]]]},"properties":{"id":"71209","parcel":"116020A00800CO","address":"5005 HILL PLACE DR","owner":"MILLER, CHERYL T.","point":[-86.86114996792729,36.12070438835608]}},{"type":"Feature","id":"71212","geometry":{"type":"Polygon","coordinates":[[[-86.8600711040072,36.1214647004045],[-86.8602223623213,36.1212996184632],[-86.8605877864238,36.1209006020941],[-86.86150397007,36.121207234633],[-86.8614732583826,36.1212510365512],[-86.8614390004398,36.1212930720302],[-86.8614013496968,36.1213331507012],[-86.8613604741775,36.1213710938079],[-86.8613165586669,36.1214067314873],[-86.8612698002577,36.1214399018999],[-86.8612204084194,36.1214704575387],[-86.8611686049487,36.1214982607229],[-86.8611146228885,36.1215231863096],[-86.8608288709842,36.1216504946911],[-86.860795476256,36.1216646082978],[-86.8607603503556,36.1216756112937],[-86.8607239306078,36.1216833671664],[-86.8606866714399,36.12168777984],[-86.8606490388081,36.121688791912],[-86.8606115013979,36.121686392828],[-86.8605745283349,36.1216806125887],[-86.860538580297,36.1216715218136],[-86.8604798468737,36.1216571056415],[-86.8603959282344,36.1216315921989],[-86.8603135097662,36.1216030414815],[-86.8602327576113,36.1215715099897],[-86.8601964926407,36.1215555103149],[-86.8601621887881,36.1215368802125],[-86.8601301343603,36.1215157762545],[-86.8601006012262,36.1214923758601],[-86.8600738370497,36.1214668782519],[-86.8600711040072,36.1214647004045]]]},"properties":{"id":"71212","parcel":"116020A00900CO","address":"5001 HILL PLACE DR","owner":"MANNING, LISA Z.","point":[-86.86083063448659,36.12129634673675]}},{"type":"Feature","id":"71216","geometry":{"type":"Polygon","coordinates":[[[-86.8596386081351,36.1207356744055],[-86.8596742031655,36.120364284736],[-86.8607213020707,36.1204732952602],[-86.8605877864238,36.1209006020941],[-86.8602223623213,36.1212996184632],[-86.8596386081351,36.1207356744055]]]},"properties":{"id":"71216","parcel":"116020A01000CO","address":"4802 POST RD","owner":"WHITE, DEBRA L., LIVING TRUST","point":[-86.86016843396686,36.120818203676556]}},{"type":"Feature","id":"73075","geometry":{"type":"Polygon","coordinates":[[[-86.8596742031655,36.120364284736],[-86.8597679638932,36.119745238762],[-86.8597781674187,36.119677860695],[-86.8598030061447,36.1195548464653],[-86.859824256378,36.1194313900385],[-86.8607946727299,36.1197453329165],[-86.8607239916348,36.1204403106336],[-86.8607213020707,36.1204732952602],[-86.8596742031655,36.120364284736]]]},"properties":{"id":"73075","parcel":"116020A01100CO","address":"4806 POST RD","owner":"VFHT, THE","point":[-86.86024208160772,36.12005537069819]}},{"type":"Feature","id":"74594","geometry":{"type":"Polygon","coordinates":[[[-86.8607239916348,36.1204403106336],[-86.8607946727299,36.1197453329165],[-86.8617786405338,36.1200591739046],[-86.8617579254064,36.1201472279406],[-86.8616887092912,36.1205081449104],[-86.8607239916348,36.1204403106336]]]},"properties":{"id":"74594","parcel":"116020A00700CO","address":"5009 HILL PLACE DR","owner":"HASSENFELD, JOHN E. & HEIDI","point":[-86.86126333933036,36.12010261722187]}},{"type":"Feature","id":"206717","geometry":{"type":"Polygon","coordinates":[[[-86.8600028417857,36.1298515510794],[-86.8601645373334,36.1296537507755],[-86.8602330890609,36.1296906300981],[-86.8600713936089,36.129888430492],[-86.8600028417857,36.1298515510794]]]},"properties":{"id":"206717","parcel":"103140K00200CO","address":"87 BROOKWOOD TER","owner":"85 BROOKWOOD TER LLC","point":[-86.8601179655405,36.129771090644866]}},{"type":"Feature","id":"207415","geometry":{"type":"Polygon","coordinates":[[[-86.8597057227956,36.1299364048574],[-86.860162916841,36.1293771294848],[-86.8602554693446,36.1294182251133],[-86.8602791174107,36.1296004655097],[-86.8602909262475,36.1296904871468],[-86.8599538249945,36.1300818819628],[-86.8598306206225,36.1300081924429],[-86.8597057227956,36.1299364048574]],[[-86.8602330890609,36.1296906300981],[-86.8601645373334,36.1296537507755],[-86.8600028417857,36.1298515510794],[-86.8600713936089,36.129888430492],[-86.8602330890609,36.1296906300981]],[[-86.8598793505782,36.1297808919651],[-86.8599519890391,36.1298199702901],[-86.8601165321829,36.1296186870182],[-86.8600438949361,36.1295796087824],[-86.8598793505782,36.1297808919651]]]},"properties":{"id":"207415","parcel":"103140K90000CO","address":"85 C BROOKWOOD TER","owner":"O.I.C. HOMES AT 85 BROOKWOOD","point":[-86.86005915928746,36.12973576459653]}}]}