{"type":"FeatureCollection","features":[{"type":"Feature","id":"122907","geometry":{"type":"Polygon","coordinates":[[[-86.8568864752224,36.3805611788396],[-86.8566513457399,36.3794494809668],[-86.8583209898655,36.3794786243487],[-86.8583621132302,36.3795828378317],[-86.8584003634314,36.3796877647121],[-86.8584357209563,36.3797933537614],[-86.8584681684912,36.3798995510319],[-86.8584976887514,36.3800063052789],[-86.8585231140517,36.3801071756792],[-86.8585450356321,36.3802085837181],[-86.8585634358737,36.3803104475118],[-86.8585783005293,36.3804126878556],[-86.8585896175807,36.380515225529],[-86.8585973783236,36.3806179785838],[-86.8586015774162,36.3807208668502],[-86.8586017860052,36.3807400919289],[-86.8568864752224,36.3805611788396]]]},"properties":{"id":"122907","parcel":"00500004600","address":"8530 GREENBRIER RD","owner":"WRIGHT, MICHAEL & MEREDITH","point":[-86.8576448741396,36.38005571220524]}}]}