{"type":"FeatureCollection","features":[{"type":"Feature","id":"87652","geometry":{"type":"Polygon","coordinates":[[[-86.8428940263294,36.2841581273807],[-86.8428996814939,36.2841538638192],[-86.8428996684619,36.2841539990966],[-86.8428787378354,36.2843539912366],[-86.8428787693469,36.2843540234616],[-86.8428922372625,36.2843675978048],[-86.8432179252538,36.2846958789051],[-86.8432352157425,36.2847133063961],[-86.8432489268357,36.2847271259431],[-86.8433157405364,36.2847944720731],[-86.8433307456888,36.284809595694],[-86.8420172748674,36.2852165076694],[-86.8410746274497,36.2859762955909],[-86.8409181191315,36.2858719003114],[-86.8408071155602,36.2857952503142],[-86.840762940039,36.2857647458921],[-86.8411894652038,36.285443214436],[-86.8424869348882,36.2844650682798],[-86.8428442021416,36.2841956943448],[-86.8428493736442,36.2841917973592],[-86.8428527020291,36.284189287621],[-86.8428884617277,36.2841623236185],[-86.8428912434769,36.2841602259541],[-86.8428940263294,36.2841581273807]]]},"properties":{"id":"87652","parcel":"03000017100","address":"4814 WHITES CREEK PIKE","owner":"GASSAWAY, CHARLES C. & KELLYE LYNN","point":[-86.84221783533118,36.28501245246384]}},{"type":"Feature","id":"88263","geometry":{"type":"Polygon","coordinates":[[[-86.8436147038925,36.2851693146945],[-86.8435122481266,36.285044692909],[-86.8434766711322,36.2850014183325],[-86.843330924608,36.2848097764969],[-86.8433307456888,36.284809595694],[-86.8433157405364,36.2847944720731],[-86.8432489268357,36.2847271259431],[-86.8432352157425,36.2847133063961],[-86.8432179252538,36.2846958789051],[-86.8428922372625,36.2843675978048],[-86.8428787693469,36.2843540234616],[-86.8428787378354,36.2843539912366],[-86.8428996684619,36.2841539990966],[-86.8428996814939,36.2841538638192],[-86.8429486260252,36.2836523329602],[-86.8430085958996,36.2830378245204],[-86.8430251546231,36.2828630561297],[-86.8430542887003,36.2825555459549],[-86.8430543431923,36.2825555410686],[-86.8451684278903,36.2823623638949],[-86.8447713424574,36.2807279287289],[-86.8447300093763,36.2805425206914],[-86.8447300255627,36.2805424728124],[-86.8449414250391,36.280005927264],[-86.8452737059171,36.2795410095479],[-86.8454597610404,36.2792760581285],[-86.8455303287852,36.2791755668797],[-86.8455303600397,36.2791755229507],[-86.8455303934914,36.2791754763025],[-86.8456204223143,36.2790528647907],[-86.8456982429911,36.2789468854808],[-86.8457590560156,36.2788639041295],[-86.8458714616395,36.2787105277517],[-86.8460499912293,36.2784631500023],[-86.8462412637512,36.2782019441644],[-86.8465756754982,36.2777474458134],[-86.8466453803016,36.2777936574014],[-86.8468744183121,36.2780189548697],[-86.8469082503922,36.2780626976867],[-86.8469456392061,36.2781044995239],[-86.8469864146614,36.2781441714073],[-86.8470303933952,36.2781815325668],[-86.8470773754833,36.2782164149663],[-86.8471516491112,36.2782570065207],[-86.8472248202159,36.2782988909333],[-86.8472376403866,36.2783007342413],[-86.8472499391713,36.2783041998391],[-86.847261402854,36.2783091998014],[-86.8472717429126,36.2783156081742],[-86.8472806982551,36.2783232618601],[-86.8472880419836,36.2783319686822],[-86.8472935880821,36.2783415082386],[-86.8472971970494,36.278351638171],[-86.8472987782211,36.2783621031615],[-86.8467204458634,36.2791671807488],[-86.8464593607542,36.2794991994185],[-86.8461461471806,36.2797156579968],[-86.8459550080894,36.2800532286694],[-86.8457486592374,36.2806189058639],[-86.8490885287687,36.280683395245],[-86.8490467004935,36.2834290389266],[-86.8474544952288,36.2833418693627],[-86.8481677913364,36.2852537206961],[-86.8470954539398,36.2852077234016],[-86.8459123338013,36.2851472978482],[-86.8457372175345,36.2851383535523],[-86.8460323718181,36.2867177975753],[-86.8460641659776,36.2868879306718],[-86.8460648956316,36.2868918351562],[-86.8459763347221,36.286966593904],[-86.8458995785471,36.2870313860494],[-86.8458692222479,36.2870570108116],[-86.8458689220662,36.2870562126086],[-86.8458686218844,36.2870554144055],[-86.8457993906009,36.2868711638892],[-86.845437925482,36.2866675196742],[-86.8449025454704,36.2863658902835],[-86.84439443167,36.2860796181066],[-86.8442248306068,36.2859031037439],[-86.8437798433121,36.2854399724783],[-86.8438422308802,36.2853830362496],[-86.8436210251375,36.2851770041454],[-86.8436147038925,36.2851693146945]]]},"properties":{"id":"88263","parcel":"03000007100","address":"6847 OLD HICKORY BLVD","owner":"WHITES CREEK LANDCO, LLC","point":[-86.84658638459716,36.282462157883074]}},{"type":"Feature","id":"88293","geometry":{"type":"Polygon","coordinates":[[[-86.8398187197815,36.286886094211],[-86.8398186769193,36.2868860413354],[-86.84124044049,36.2870849272996],[-86.8413193938076,36.2867078567661],[-86.8413864041237,36.286387823286],[-86.8415717457913,36.2865233335975],[-86.8413166151325,36.2871008763813],[-86.8404157193919,36.2878944087527],[-86.8400926663266,36.2878082604476],[-86.839622859929,36.2876829307751],[-86.8396668826369,36.2876584104257],[-86.8397084379166,36.2876312151895],[-86.8397472803511,36.287601507195],[-86.8397831780259,36.2875694619957],[-86.8398159170285,36.2875352730446],[-86.8398453035702,36.2874991417667],[-86.8398711618357,36.2874612847824],[-86.8398933372272,36.287421924874],[-86.839911698686,36.2873812999805],[-86.8399261363134,36.2873396487954],[-86.8399365648049,36.2872972197543],[-86.8399429222996,36.2872542674385],[-86.8399451703029,36.287211045365],[-86.8399432948567,36.2871678113866],[-86.8399373087279,36.2871248240708],[-86.8399272468978,36.2870823373244],[-86.8399131688455,36.2870406057847],[-86.8398951584717,36.2869998776102],[-86.8398733240884,36.2869603935797],[-86.839847792892,36.2869223907355],[-86.8398187197815,36.286886094211]]]},"properties":{"id":"88293","parcel":"03000010700","address":"4823 WHITES CREEK PIKE","owner":"WHALEY, SABRINA","point":[-86.84060166321234,36.287147201145075]}},{"type":"Feature","id":"88333","geometry":{"type":"Polygon","coordinates":[[[-86.8403111249501,36.2855893586023],[-86.8403111669995,36.2855893348777],[-86.8403178923097,36.285595475157],[-86.8403188623322,36.2855963561377],[-86.8403201448272,36.2855975206403],[-86.8403702584652,36.2856420451303],[-86.8404215902594,36.2856856508748],[-86.8404560178908,36.2857144153038],[-86.8404937366051,36.2857451134374],[-86.8405376465486,36.2857803954888],[-86.8405731248185,36.2858080828035],[-86.840582059751,36.2858149485242],[-86.8405915545423,36.2858222267252],[-86.840649125595,36.2858653744136],[-86.8407042462804,36.2859059759821],[-86.8407174745383,36.2859154389558],[-86.8407517765355,36.2859395826013],[-86.8408009713474,36.2859735318122],[-86.8408575714461,36.2860118095305],[-86.8408802145204,36.2860267757739],[-86.840928913777,36.2860580751214],[-86.8409311541129,36.2860597043038],[-86.8409453301488,36.2860700438768],[-86.839717545081,36.2867562620347],[-86.8396838285939,36.2867206691578],[-86.8396448373973,36.2866831482012],[-86.8396341221331,36.2866760433322],[-86.8396304864854,36.2866736334282],[-86.83962188809,36.2866627052045],[-86.8395866444537,36.2866330026125],[-86.8395500167395,36.2866044181509],[-86.8395499000299,36.2866043297385],[-86.8394991923179,36.2865680491052],[-86.8394724268016,36.2865508410055],[-86.8394346034726,36.2865273937822],[-86.8393957237949,36.2865051074725],[-86.8393763609014,36.2864947118098],[-86.8393433383429,36.2864777318837],[-86.8393034948802,36.2864586164984],[-86.8392738347125,36.2864453623757],[-86.8392492956476,36.2864350873473],[-86.8392131778793,36.2864207857374],[-86.8391507552389,36.2863988069911],[-86.8390871943244,36.28637908201],[-86.8390409098178,36.2863669904691],[-86.8389942019209,36.2863560184885],[-86.838989899017,36.2863550344557],[-86.8392938138789,36.286178914635],[-86.8403111249501,36.2855893586023]]]},"properties":{"id":"88333","parcel":"03000023200","address":"4811 WHITES CREEK PIKE","owner":"BATES, BOBBY JOE","point":[-86.8401178130668,36.2861244797562]}},{"type":"Feature","id":"88334","geometry":{"type":"Polygon","coordinates":[[[-86.8417599195469,36.2864548898367],[-86.8426532763561,36.2856985477747],[-86.8434766711322,36.2850014183325],[-86.8435122481266,36.285044692909],[-86.8436147038925,36.2851693146945],[-86.8436210251375,36.2851770041454],[-86.8438422308802,36.2853830362496],[-86.8437798433121,36.2854399724783],[-86.8437608323367,36.2854573225259],[-86.8422975528549,36.2867926977388],[-86.8422662118918,36.286821298947],[-86.8422327610692,36.2867970903193],[-86.8417599195469,36.2864548898367]]]},"properties":{"id":"88334","parcel":"03000023300","address":"4830 WHITES CREEK PIKE","owner":"GATICA, JUAN F","point":[-86.84264372829058,36.286077295671625]}},{"type":"Feature","id":"89829","geometry":{"type":"Polygon","coordinates":[[[-86.8407235738932,36.2880211105464],[-86.8410327067332,36.2877514426928],[-86.8410904739292,36.2877948753874],[-86.8412031245318,36.2878795734462],[-86.8412099642608,36.2878736082939],[-86.8418381462417,36.2873260700517],[-86.8417391301822,36.2872570764095],[-86.842121596842,36.2869233141431],[-86.8421217014754,36.2869233134142],[-86.8421218248671,36.2869234017775],[-86.8424375569598,36.2871529563323],[-86.8424374841834,36.2871530217289],[-86.8417666842551,36.2877537276989],[-86.841629998339,36.2878755305975],[-86.8408060231675,36.2886097880409],[-86.8401398804229,36.2885303678902],[-86.840139790134,36.2885303568015],[-86.8407235738932,36.2880211105464]]]},"properties":{"id":"89829","parcel":"03000025400","address":"4835 WHITES CREEK PIKE","owner":"HADDOCK, TODD M. SR. & ALISHA","point":[-86.84153359258987,36.28777444123174]}},{"type":"Feature","id":"90342","geometry":{"type":"Polygon","coordinates":[[[-86.8413584253924,36.2861814442115],[-86.842303044146,36.2854155966512],[-86.8426532763561,36.2856985477747],[-86.8417599195469,36.2864548898367],[-86.8413584826491,36.2861814897763],[-86.8413584253924,36.2861814442115]]]},"properties":{"id":"90342","parcel":"03000006900","address":"4824 WHITES CREEK PIKE","owner":"BUNCE, DAVID R. & REBA D.","point":[-86.8420121652834,36.2859400060955]}},{"type":"Feature","id":"91448","geometry":{"type":"Polygon","coordinates":[[[-86.8422638156394,36.2819167474879],[-86.8431788699051,36.2813115227396],[-86.8430598399828,36.282496857898],[-86.8398926058214,36.2848978038281],[-86.8397345430459,36.2847104584005],[-86.8395111711353,36.2844433539308],[-86.8426600060387,36.2822908737089],[-86.8422638156394,36.2819167474879]]]},"properties":{"id":"91448","parcel":"03000014900","address":"4792 WHITES CREEK PIKE","owner":"PARKER, RYAN & BUSBY, JOEY J","point":[-86.841355376415,36.2834702118958]}},{"type":"Feature","id":"91450","geometry":{"type":"Polygon","coordinates":[[[-86.839130477955,36.2839943889237],[-86.8422638156394,36.2819167474879],[-86.8426600060387,36.2822908737089],[-86.8395111711353,36.2844433539308],[-86.839130477955,36.2839943889237]]]},"properties":{"id":"91450","parcel":"03000015000","address":"4784 WHITES CREEK PIKE","owner":"OFFUTT, ALFERD T. & SARA B. REVOCABLE TRUST","point":[-86.84091450123198,36.28314267004326]}},{"type":"Feature","id":"91452","geometry":{"type":"Polygon","coordinates":[[[-86.838766201367,36.2835574007517],[-86.8418636041729,36.2815470451271],[-86.8422638156394,36.2819167474879],[-86.839130477955,36.2839943889237],[-86.838766201367,36.2835574007517]]]},"properties":{"id":"91452","parcel":"03000015100","address":"4780 WHITES CREEK PIKE","owner":"MULL, GEOFFREY","point":[-86.84052838054788,36.2827371048174]}},{"type":"Feature","id":"91552","geometry":{"type":"Polygon","coordinates":[[[-86.8423093850463,36.2803308631172],[-86.8425452705276,36.2803072431527],[-86.8433202495633,36.28038262077],[-86.8439472586455,36.2804436027687],[-86.8441224361041,36.2804839458205],[-86.8441880582345,36.2804990583242],[-86.8444137491634,36.2805171596288],[-86.8446526251569,36.2805363156604],[-86.8447298745746,36.2805425099173],[-86.8447300093763,36.2805425206914],[-86.8447713424574,36.2807279287289],[-86.8451684278903,36.2823623638949],[-86.8430543431923,36.2825555410686],[-86.8430542887003,36.2825555459549],[-86.8430598399828,36.282496857898],[-86.8431788699051,36.2813115227396],[-86.8423586021392,36.2808755241495],[-86.8423298881125,36.2805999264065],[-86.842309387713,36.2803309045558],[-86.8423093850463,36.2803308631172]]]},"properties":{"id":"91552","parcel":"03000025700","address":"0 WHITES CREEK PIKE","owner":"BATES, THEODORE A. & MATTIE N.","point":[-86.84408364772804,36.2818368301612]}},{"type":"Feature","id":"91694","geometry":{"type":"Polygon","coordinates":[[[-86.839717545081,36.2867562620347],[-86.8409453301488,36.2860700438768],[-86.8412806221015,36.2863115564609],[-86.8413864041237,36.286387823286],[-86.8413193938076,36.2867078567661],[-86.84124044049,36.2870849272996],[-86.8398186769193,36.2868860413354],[-86.839793784473,36.2868502177518],[-86.8397784438487,36.2868292523787],[-86.8397586241804,36.286804025502],[-86.8397377894573,36.28677934011],[-86.8397239779951,36.2867634831635],[-86.839717545081,36.2867562620347]]]},"properties":{"id":"91694","parcel":"03000002000","address":"4819 WHITES CREEK PIKE","owner":"GROSS, ROBERT A JR","point":[-86.84072317997513,36.28654700292804]}},{"type":"Feature","id":"91696","geometry":{"type":"Polygon","coordinates":[[[-86.8392204811112,36.2879373093244],[-86.8393053663533,36.287884566919],[-86.8393115030995,36.2878813744702],[-86.8393614255233,36.2878549116516],[-86.8394103387878,36.2878272409453],[-86.8394533073505,36.2878014527382],[-86.8394707584061,36.2877905517956],[-86.8394880057358,36.2877794404733],[-86.8395050460191,36.287768120597],[-86.8395135453798,36.287762443228],[-86.839569001423,36.2877236859009],[-86.839571678793,36.287721698092],[-86.8396070269903,36.2876951462287],[-86.8396228146821,36.2876829680403],[-86.839622859929,36.2876829307751],[-86.8400926663266,36.2878082604476],[-86.8404157193919,36.2878944087527],[-86.8413166151325,36.2871008763813],[-86.8415717457913,36.2865233335975],[-86.8415718658137,36.2865234192812],[-86.842121596842,36.2869233141431],[-86.8417391301822,36.2872570764095],[-86.8418381462417,36.2873260700517],[-86.8412099642608,36.2878736082939],[-86.8412031245318,36.2878795734462],[-86.8410904739292,36.2877948753874],[-86.8410327067332,36.2877514426928],[-86.8407235738932,36.2880211105464],[-86.840139790134,36.2885303568015],[-86.8399753184213,36.2885106963884],[-86.8395360706539,36.2884581852683],[-86.8389565391114,36.2882599402766],[-86.8388026609829,36.2882073004106],[-86.838802533627,36.2882072580347],[-86.838816454677,36.2881980246473],[-86.8388530918821,36.2881737324929],[-86.8388854221484,36.2881522920039],[-86.8389258605169,36.2881257500846],[-86.8389682567147,36.2880979184049],[-86.838968318621,36.2880978774194],[-86.8390171657644,36.2880663536247],[-86.8390361392502,36.2880541371815],[-86.8390608865888,36.2880382026906],[-86.8391616939864,36.2879741735704],[-86.8391923804682,36.2879548920673],[-86.8392204811112,36.2879373093244]]]},"properties":{"id":"91696","parcel":"03000002100","address":"4825 WHITES CREEK PIKE","owner":"TAYLOR, JOHN P.","point":[-86.84124512182223,36.28750518987083]}},{"type":"Feature","id":"92115","geometry":{"type":"Polygon","coordinates":[[[-86.8402736034326,36.2853426410698],[-86.8425458313943,36.2836783536406],[-86.8423827170624,36.2835267576599],[-86.8429698463972,36.2830680962574],[-86.8430085958996,36.2830378245204],[-86.8429486260252,36.2836523329602],[-86.8428996814939,36.2841538638192],[-86.8428940263294,36.2841581273807],[-86.8428912434769,36.2841602259541],[-86.8428884617277,36.2841623236185],[-86.8428527020291,36.284189287621],[-86.8428493736442,36.2841917973592],[-86.8428442021416,36.2841956943448],[-86.8424869348882,36.2844650682798],[-86.8411894652038,36.285443214436],[-86.840762940039,36.2857647458921],[-86.8406771358059,36.2857006694821],[-86.8405935634721,36.2856346875845],[-86.8405122892558,36.2855668511142],[-86.8404333760356,36.2854972110094],[-86.8403568833974,36.2854258227373],[-86.8402828709173,36.2853527408642],[-86.8402736034326,36.2853426410698]]]},"properties":{"id":"92115","parcel":"03000014200","address":"4810 WHITES CREEK PIKE","owner":"GASSAWAY, CHARLES C.& KELLYE L.","point":[-86.84216151558816,36.284329717208436]}},{"type":"Feature","id":"92116","geometry":{"type":"Polygon","coordinates":[[[-86.8410746274497,36.2859762955909],[-86.8420172748674,36.2852165076694],[-86.8433307456888,36.284809595694],[-86.843330924608,36.2848097764969],[-86.8434766711322,36.2850014183325],[-86.8426532763561,36.2856985477747],[-86.842303044146,36.2854155966512],[-86.8413584253924,36.2861814442115],[-86.8410746274497,36.2859762955909]]]},"properties":{"id":"92116","parcel":"03000014300","address":"4818 WHITES CREEK PIKE","owner":"GASSAWAY, CHARLES C. & KELLYE LYNN","point":[-86.84186265423905,36.2855562599686]}},{"type":"Feature","id":"92949","geometry":{"type":"Polygon","coordinates":[[[-86.8374634389639,36.2822841366504],[-86.8405941265528,36.2803428039038],[-86.8402265689163,36.2799794597612],[-86.8412257528785,36.2793802977012],[-86.8412258203324,36.2793802557745],[-86.8413235091565,36.2795555393222],[-86.8413807659807,36.2796582746775],[-86.8417202624647,36.2800624650172],[-86.8420464060154,36.2803590667368],[-86.8423093850463,36.2803308631172],[-86.842309387713,36.2803309045558],[-86.8423298881125,36.2805999264065],[-86.8414413914953,36.2811500201623],[-86.8410134293795,36.2807222688399],[-86.837918531273,36.2827117112975],[-86.8378030727641,36.2826059278706],[-86.8376660063771,36.2824780441809],[-86.8375529063898,36.2823705957935],[-86.8374634389639,36.2822841366504]]]},"properties":{"id":"92949","parcel":"03000014500","address":"4754 WHITES CREEK PIKE","owner":"HARBISON, JACKIE R. ETUX","point":[-86.84016128719485,36.28093472448736]}},{"type":"Feature","id":"92950","geometry":{"type":"Polygon","coordinates":[[[-86.8398926058214,36.2848978038281],[-86.8430598399828,36.282496857898],[-86.8430542887003,36.2825555459549],[-86.8430251546231,36.2828630561297],[-86.8430085958996,36.2830378245204],[-86.8429698463972,36.2830680962574],[-86.8423827170624,36.2835267576599],[-86.8425458313943,36.2836783536406],[-86.8402736034326,36.2853426410698],[-86.8401619726331,36.2852145834426],[-86.8400836229726,36.2851211806266],[-86.8398926058214,36.2848978038281]]]},"properties":{"id":"92950","parcel":"03000014600","address":"4800 WHITES CREEK PIKE","owner":"CONN, JOSEPH E. &  MAREK, MICHELLE","point":[-86.84120518147307,36.28428806749673]}},{"type":"Feature","id":"233054","geometry":{"type":"Polygon","coordinates":[[[-86.8422975528549,36.2867926977388],[-86.8437608323367,36.2854573225259],[-86.8437798433121,36.2854399724783],[-86.8442248306068,36.2859031037439],[-86.8428282710846,36.2871775981205],[-86.8422975528549,36.2867926977388]]]},"properties":{"id":"233054","parcel":"03000027600","address":"4840 WHITES CREEK PIKE","owner":"WHITES CREEK LANDCO, LLC","point":[-86.84326119735627,36.286347904654235]}}]}