{"type":"FeatureCollection","features":[{"type":"Feature","id":"53848","geometry":{"type":"Polygon","coordinates":[[[-86.8541168469005,36.2439332810032],[-86.8545214785318,36.2439092862051],[-86.8545942405249,36.2439240523193],[-86.8550303557674,36.2445554555713],[-86.8553369032267,36.2449416238253],[-86.8535724631951,36.2451419708516],[-86.8523450908256,36.2453340953747],[-86.8504587285443,36.2447041759316],[-86.8508139672818,36.2444156165844],[-86.8513570543118,36.2442746775353],[-86.8519931487239,36.2442284635694],[-86.8524271312554,36.2442075178396],[-86.8527797486278,36.2441483954429],[-86.8531356585662,36.2440534806588],[-86.8534811721299,36.2440182526714],[-86.8541168469005,36.2439332810032]]]},"properties":{"id":"53848","parcel":"04800030300","address":"0 VESTER RD","owner":"LAWHORN, JONATHAN W & GORDON WAYNE","point":[-86.85282263292396,36.24462993368571]}},{"type":"Feature","id":"56736","geometry":{"type":"Polygon","coordinates":[[[-86.8488535828787,36.2475404089654],[-86.8490874534981,36.2473379581966],[-86.849150437973,36.2473924559716],[-86.8497099836917,36.2469468004659],[-86.8498329578435,36.2470294448243],[-86.8523450908256,36.2453340953747],[-86.8535724631951,36.2451419708516],[-86.8533282419642,36.245471563434],[-86.8533275425781,36.2454717089694],[-86.8524264010788,36.2466931801329],[-86.851669381489,36.2477192628196],[-86.8510745931324,36.2467685214512],[-86.8506667185047,36.2469003759645],[-86.8502565812114,36.2469465051213],[-86.8499013466164,36.2473330026432],[-86.8492695784654,36.2478278352524],[-86.8489447170422,36.2478122167125],[-86.8486653882673,36.2477013340225],[-86.8488535828787,36.2475404089654]]]},"properties":{"id":"56736","parcel":"04800031100","address":"4166 VESTER RD","owner":"GRIFFITH, JOHN & SHAWNA","point":[-86.8520581004887,36.24608143559607]}},{"type":"Feature","id":"132203","geometry":{"type":"Polygon","coordinates":[[[-86.8571122620531,36.2427739684049],[-86.8577777988108,36.2410990484153],[-86.8592542001521,36.2406534265628],[-86.8593428783186,36.2400748191998],[-86.8591691982138,36.2400694618107],[-86.8594438497274,36.238878591239],[-86.8594842251856,36.2385992054894],[-86.8597277387277,36.2385403339736],[-86.8601377913014,36.2385791703476],[-86.8603794734132,36.2386016228548],[-86.8605776561085,36.2386155948003],[-86.8608927009629,36.2386485126803],[-86.8625082893132,36.2387842299548],[-86.8625487284264,36.2390102973379],[-86.8635740021669,36.2394930437841],[-86.8641697141328,36.2396404204675],[-86.8633626457291,36.2405120562341],[-86.8633082658661,36.24047952915],[-86.8632561126978,36.2404446915309],[-86.8632019906932,36.2404096804956],[-86.8631453055619,36.2403774419891],[-86.8630862733413,36.2403480970355],[-86.8630251199819,36.2403217575756],[-86.8629620757646,36.2402985247044],[-86.8628973830697,36.2402784868135],[-86.8628312885886,36.2402617196465],[-86.8627640422223,36.2402482872081],[-86.8626959015303,36.2402382417324],[-86.8626271250078,36.2402316192251],[-86.8620024298085,36.2401635558666],[-86.8619781990597,36.2401628932915],[-86.8619544499614,36.2401589485033],[-86.8619318524002,36.2401518356889],[-86.8619110471465,36.2401417539613],[-86.861892622522,36.2401289902301],[-86.8618770986682,36.2401139048932],[-86.861853811832,36.2400929185306],[-86.8618251461958,36.2400763659635],[-86.8617931506275,36.2400653321055],[-86.8617588407802,36.2400598079066],[-86.8617239221144,36.2400606058498],[-86.8616900829461,36.2400671659282],[-86.8616586793402,36.2400794766681],[-86.8616310636527,36.2400969804621],[-86.8616089200776,36.24011883975],[-86.8615929152894,36.2401439520496],[-86.8615837170585,36.2401712130677],[-86.8615819898307,36.2401995194356],[-86.861587716823,36.2402272237761],[-86.8616005498093,36.2402535066259],[-86.861620133367,36.2402769888913],[-86.8616454399676,36.2402965873773],[-86.8616751045245,36.2403114844632],[-86.8617080971883,36.2403205888599],[-86.86174272446,36.2403241902316],[-86.8617776234199,36.2403214664391],[-86.8618107631896,36.2403129889464],[-86.8618411258273,36.2402987623129],[-86.8618616494444,36.2402917357051],[-86.8618832147548,36.2402871972416],[-86.8619053644337,36.240285243014],[-86.8619276294346,36.2402859142214],[-86.8619495390105,36.2402891979996],[-86.859064974259,36.242968873148],[-86.8574551047541,36.2433692897249],[-86.8571122620531,36.2427739684049]]]},"properties":{"id":"132203","parcel":"04800022300","address":"4744 MCCOOL CT","owner":"TAMBELLINI, CHARLES MILLER","point":[-86.85991505492008,36.2408778860904]}},{"type":"Feature","id":"132204","geometry":{"type":"Polygon","coordinates":[[[-86.8490125392747,36.2479428310794],[-86.8487872500265,36.2479334258945],[-86.848536369321,36.2478143209956],[-86.8486016028656,36.247758369953],[-86.8486653882673,36.2477013340225],[-86.8489447170422,36.2478122167125],[-86.8492695784654,36.2478278352524],[-86.8499013466164,36.2473330026432],[-86.8502565812114,36.2469465051213],[-86.8506667185047,36.2469003759645],[-86.8510745931324,36.2467685214512],[-86.851669381489,36.2477192628196],[-86.8517210968466,36.2478019271747],[-86.8532097330603,36.2491098851887],[-86.8520173298481,36.2494586282389],[-86.8498146675834,36.2476009557499],[-86.8493653810847,36.2479557337397],[-86.8490125392747,36.2479428310794]]]},"properties":{"id":"132204","parcel":"04800022400","address":"4162 VESTER RD","owner":"VICK, JOHN M. III ET UX","point":[-86.85173688370728,36.248533382635465]}},{"type":"Feature","id":"132864","geometry":{"type":"Polygon","coordinates":[[[-86.851669381489,36.2477192628196],[-86.8524264010788,36.2466931801329],[-86.8577344252781,36.247576142116],[-86.85725700514,36.2478802204531],[-86.856345487714,36.248139410531],[-86.8556144393257,36.2485291737518],[-86.8543075914912,36.2486109433397],[-86.8534031451005,36.2492766210433],[-86.8522914531742,36.2495943324976],[-86.852207608523,36.2496190982269],[-86.8520173298481,36.2494586282389],[-86.8532097330603,36.2491098851887],[-86.8517210968466,36.2478019271747],[-86.851669381489,36.2477192628196]]]},"properties":{"id":"132864","parcel":"04800014100","address":"0 VESTER RD","owner":"VICK, JOHN M., III & SANDRA","point":[-86.85415094097348,36.248332076803344]}},{"type":"Feature","id":"133448","geometry":{"type":"Polygon","coordinates":[[[-86.8514340410971,36.2498421162909],[-86.8490125392747,36.2479428310794],[-86.8493653810847,36.2479557337397],[-86.8498146675834,36.2476009557499],[-86.8520173298481,36.2494586282389],[-86.852207608523,36.2496190982269],[-86.8514340410971,36.2498421162909]]]},"properties":{"id":"133448","parcel":"04800022500","address":"0 VESTER RD","owner":"VICK, JOHN M., III & SANDRA","point":[-86.85055643892129,36.248707019907265]}},{"type":"Feature","id":"133672","geometry":{"type":"Polygon","coordinates":[[[-86.8514962114988,36.2421546318686],[-86.8506018633819,36.2419407021756],[-86.8518025399945,36.2399641418834],[-86.8518622827177,36.2398657901687],[-86.852590243559,36.2401437249514],[-86.8514962114988,36.2421546318686]]]},"properties":{"id":"133672","parcel":"04800006000","address":"5163 DRAKES BRANCH RD","owner":"GROVES, CARL WAYNE & WANDA K.","point":[-86.85162454397887,36.2410422531111]}},{"type":"Feature","id":"133897","geometry":{"type":"Polygon","coordinates":[[[-86.8491747891184,36.2471329661855],[-86.8489582360627,36.2469257134798],[-86.8488499535851,36.2461880733703],[-86.8488137105753,36.2459448064604],[-86.849971303231,36.2451492558786],[-86.8501443584043,36.2450303227388],[-86.8503105512326,36.2448245377845],[-86.8504587285443,36.2447041759316],[-86.8523450908256,36.2453340953747],[-86.8498329578435,36.2470294448243],[-86.8497099836917,36.2469468004659],[-86.849150437973,36.2473924559716],[-86.8490874534981,36.2473379581966],[-86.8492513613993,36.2471895656656],[-86.8491747891184,36.2471329661855]]]},"properties":{"id":"133897","parcel":"04800029600","address":"4176 VESTER RD","owner":"GRIFFITH, SHAWNA & JOHN","point":[-86.8500436358266,36.24606796501357]}},{"type":"Feature","id":"134130","geometry":{"type":"Polygon","coordinates":[[[-86.852590243559,36.2401437249514],[-86.8518622827177,36.2398657901687],[-86.8518172340873,36.2398540345889],[-86.8518462783147,36.2395619562573],[-86.8518913267739,36.2395737109262],[-86.8518967556419,36.2395191169152],[-86.8524533303295,36.2395461228757],[-86.8562410866168,36.2397298398772],[-86.8591691982138,36.2400694618107],[-86.8593428783186,36.2400748191998],[-86.8592542001521,36.2406534265628],[-86.8577777988108,36.2410990484153],[-86.8571122620531,36.2427739684049],[-86.8560363841719,36.2426299602131],[-86.8561711149104,36.2410379241156],[-86.8550906674294,36.2409708567741],[-86.852590243559,36.2401437249514]]]},"properties":{"id":"134130","parcel":"04800006300","address":"5155 DRAKES BRANCH RD","owner":"HOLSINGER, MARTIN & COMER, CINDY DUNLAP","point":[-86.85678731038449,36.241864364217214]}},{"type":"Feature","id":"134596","geometry":{"type":"Polygon","coordinates":[[[-86.8546087610743,36.2491153649364],[-86.8533427572136,36.2494638449696],[-86.8534031451005,36.2492766210433],[-86.8543075914912,36.2486109433397],[-86.8556144393257,36.2485291737518],[-86.856345487714,36.248139410531],[-86.85725700514,36.2478802204531],[-86.8577344252781,36.247576142116],[-86.8584991807669,36.2470890467869],[-86.8589731914953,36.2468807991219],[-86.859789188851,36.2464579456696],[-86.8615818900114,36.2483966652937],[-86.8615788284545,36.2486142517421],[-86.8609248935491,36.2486079223551],[-86.8588817030949,36.2485895023467],[-86.8588793478491,36.2485598489007],[-86.8588695454526,36.2485316264107],[-86.8588523039867,36.2485053746686],[-86.8588289976872,36.2484827449146],[-86.8587999765158,36.2484648179652],[-86.8587669421159,36.2484521423018],[-86.8587312577366,36.2484452534907],[-86.8586949631316,36.2484446876992],[-86.8586590770353,36.2484507107667],[-86.8586256321215,36.2484624863045],[-86.8585959749573,36.2484797289616],[-86.8585714539563,36.2485016045112],[-86.8585484751709,36.2485296507991],[-86.858521948316,36.2485555619875],[-86.858492173953,36.2485790430309],[-86.8584594885991,36.2485998310735],[-86.8584242624232,36.2486176882557],[-86.8583868938201,36.2486324143703],[-86.8583478049014,36.2486438414871],[-86.85829925611,36.2486681182794],[-86.8582531784849,36.2486953714643],[-86.8582098495354,36.2487254377487],[-86.8581695298983,36.248758136836],[-86.8581324633181,36.2487932696234],[-86.8580988744998,36.2488306254269],[-86.8580689624043,36.2488699793254],[-86.8580462498263,36.2489056842813],[-86.8580264322217,36.2489425033525],[-86.8580095913696,36.2489802818453],[-86.8577913842333,36.2496257347645],[-86.8577807196711,36.2496642372355],[-86.8577739779957,36.2497033174976],[-86.8577712042166,36.2497427129671],[-86.8577724177441,36.2497821603405],[-86.8577776079388,36.2498213956258],[-86.8577867419188,36.2498601558901],[-86.8577997590063,36.2498981801995],[-86.8550253571198,36.2490014371596],[-86.8546087610743,36.2491153649364]]]},"properties":{"id":"134596","parcel":"04800017500","address":"0 BURTON HOLLOW RD","owner":"BURTON, KENNETH","point":[-86.85878811427779,36.24826785944032]}},{"type":"Feature","id":"135587","geometry":{"type":"Polygon","coordinates":[[[-86.8499577533194,36.2450045565771],[-86.8497944943039,36.2431882709886],[-86.8503409600048,36.2430437779227],[-86.8506018633819,36.2419407021756],[-86.8514962114988,36.2421546318686],[-86.8534103547873,36.2427641634742],[-86.8548256454629,36.2428099472552],[-86.8560363841719,36.2426299602131],[-86.8571122620531,36.2427739684049],[-86.8574551047541,36.2433692897249],[-86.8571316592229,36.2438699214033],[-86.8545942405249,36.2439240523193],[-86.8545214785318,36.2439092862051],[-86.8541168469005,36.2439332810032],[-86.8534811721299,36.2440182526714],[-86.8531356585662,36.2440534806588],[-86.8527797486278,36.2441483954429],[-86.8524271312554,36.2442075178396],[-86.8519931487239,36.2442284635694],[-86.8513570543118,36.2442746775353],[-86.8508139672818,36.2444156165844],[-86.8504587285443,36.2447041759316],[-86.8503105512326,36.2448245377845],[-86.8501443584043,36.2450303227388],[-86.849971303231,36.2451492558786],[-86.8499577533194,36.2450045565771]]]},"properties":{"id":"135587","parcel":"04800005900","address":"0 VESTER RD","owner":"LAWHORN, JONATHAN W & GORDON WAYNE","point":[-86.85356291273509,36.24361509767637]}},{"type":"Feature","id":"139837","geometry":{"type":"Polygon","coordinates":[[[-86.8553369032267,36.2449416238253],[-86.8565265247859,36.2448065308181],[-86.8573917372722,36.2450355393547],[-86.8586554548216,36.2455118282603],[-86.8589731914953,36.2468807991219],[-86.8584991807669,36.2470890467869],[-86.8577344252781,36.247576142116],[-86.8524264010788,36.2466931801329],[-86.8533275425781,36.2454717089694],[-86.8533282419642,36.245471563434],[-86.8535724631951,36.2451419708516],[-86.8553369032267,36.2449416238253]]]},"properties":{"id":"139837","parcel":"04800031700","address":"0 VESTER RD","owner":"GRIFFITH, JOHN & SHAWNA","point":[-86.85582900612113,36.24610289230512]}},{"type":"Feature","id":"238624","geometry":{"type":"Polygon","coordinates":[[[-86.852590243559,36.2401437249514],[-86.8526655158634,36.2403318400784],[-86.8528916531314,36.2407265863683],[-86.8531177937638,36.2411213321817],[-86.8539417175037,36.2418082099304],[-86.8534103547873,36.2427641634742],[-86.8514962114988,36.2421546318686],[-86.852590243559,36.2401437249514]]]},"properties":{"id":"238624","parcel":"04800032800","address":"5161 DRAKES BRANCH RD","owner":"GILLESPIE, BROOK","point":[-86.85270120001228,36.24146375453075]}}]}