{"type":"FeatureCollection","features":[{"type":"Feature","id":"241873","geometry":{"type":"Polygon","coordinates":[[[-86.8507103333536,36.185915732316],[-86.8495801292944,36.185808326025],[-86.847888135855,36.1856488007607],[-86.8478789001853,36.18564889717],[-86.8477943051162,36.1855318026141],[-86.8476595059751,36.1853481457639],[-86.8476430059607,36.1853262850629],[-86.8477250442702,36.1851389073978],[-86.8477356283249,36.1851146592251],[-86.847734097838,36.1851112658774],[-86.8476773176761,36.1849854066343],[-86.8476107097525,36.1848408284982],[-86.8475384936823,36.1846787086276],[-86.8474392633742,36.184525569328],[-86.8473427649742,36.1843746080635],[-86.8472462970847,36.1842258447009],[-86.8471365252029,36.1841013502746],[-86.8470322556828,36.1839834081257],[-86.846916997969,36.1838523546924],[-86.8467046001982,36.1837637383261],[-86.8466159329966,36.1835201476115],[-86.8465928890876,36.1834568517092],[-86.8464982726752,36.1834816917613],[-86.8464728815057,36.1834203329011],[-86.8463508082828,36.183126702474],[-86.8463986861042,36.1830406605397],[-86.8462703931031,36.1829580464906],[-86.8462428791233,36.1826659503072],[-86.8464417160464,36.1826600832985],[-86.8466406606366,36.182657536387],[-86.8468396261904,36.1826583083782],[-86.8470385315911,36.1826624007423],[-86.847237289014,36.1826698113926],[-86.8474358184059,36.1826805372867],[-86.8476340319031,36.1826945727341],[-86.8478318483215,36.1827119128989],[-86.8480291808796,36.18273254938],[-86.8482259494853,36.1827564755327],[-86.8484220684199,36.1827836784431],[-86.8486174553382,36.1828141487794],[-86.8488120267346,36.1828478727121],[-86.8489702612977,36.1828710357349],[-86.8491277138556,36.1828974720568],[-86.8492842808401,36.1829271634832],[-86.8494398597938,36.1829600918116],[-86.8495943493126,36.1829962334252],[-86.8496097039797,36.1830005208572],[-86.8498067292209,36.1830580537026],[-86.8500025273106,36.1831182779493],[-86.850197043572,36.1831811732592],[-86.8503902211529,36.1832467238161],[-86.8505820053949,36.1833149110849],[-86.8507723416097,36.1833857138269],[-86.8532427970357,36.1843093719731],[-86.8522824241773,36.1860655251843],[-86.8507103333536,36.185915732316]]]},"properties":{"id":"241873","parcel":"08000002900","address":"0 COUNTY HOSPITAL RD","owner":"METRO GOV'T  M  FINANCE","point":[-86.85027107839933,36.184341999225445]}}]}