{"type":"FeatureCollection","features":[{"type":"Feature","id":"125525","geometry":{"type":"Polygon","coordinates":[[[-86.8796365640641,36.0901139351603],[-86.8797715748715,36.0899740814119],[-86.8799376759315,36.0900816627958],[-86.8798150082227,36.0902381880337],[-86.8796365640641,36.0901139351603]]]},"properties":{"id":"125525","parcel":"12912008801","address":"0 HIGHWAY 100","owner":"BRASWELL, ROBERT H.","point":[-86.87978859693787,36.09009780055421]}},{"type":"Feature","id":"126580","geometry":{"type":"Polygon","coordinates":[[[-86.8797278125889,36.0905767131605],[-86.87975525249,36.090540766725],[-86.8797555773733,36.0905409238836],[-86.8801989893784,36.0907551025382],[-86.8800201414406,36.090987169032],[-86.8795764280687,36.0907750297505],[-86.8797278125889,36.0905767131605]]]},"properties":{"id":"126580","parcel":"12912006800","address":"1008 PERCY WARNER BLVD","owner":"LOVRENOVIC, KRUNOSLAY & SELMA","point":[-86.87988767114011,36.09076506651101]}},{"type":"Feature","id":"127741","geometry":{"type":"Polygon","coordinates":[[[-86.8793514464905,36.0904092779676],[-86.8796365640641,36.0901139351603],[-86.8798150082227,36.0902381880337],[-86.8795656960537,36.0905546595872],[-86.8793514464905,36.0904092779676]]]},"properties":{"id":"127741","parcel":"12912008900","address":"6602 HIGHWAY 100","owner":"BRASWELL, ROBERT","point":[-86.87959083081962,36.090323740865536]}}]}