{"type":"FeatureCollection","features":[{"type":"Feature","id":"57279","geometry":{"type":"Polygon","coordinates":[[[-86.877521567891,36.3165056255055],[-86.87774440613,36.3150950147723],[-86.8782478534968,36.3151033891611],[-86.8779750002645,36.3166328469548],[-86.8777589213425,36.3165729638042],[-86.877521567891,36.3165056255055]]]},"properties":{"id":"57279","parcel":"02100041700","address":"3715 OLD CLARKSVILLE PIKE","owner":"FLOCKHART, JEREMIAH EVAN & SYDNEY PEREZ ETAL","point":[-86.87787755005338,36.315804500613964]}},{"type":"Feature","id":"59110","geometry":{"type":"Polygon","coordinates":[[[-86.8729439807247,36.3160966978779],[-86.8731195199396,36.315436828264],[-86.8735964143468,36.3155606630362],[-86.8733978419987,36.3163061225315],[-86.8729211682857,36.316182380913],[-86.8729439807247,36.3160966978779]]]},"properties":{"id":"59110","parcel":"02200024300","address":"3616 OLD CLARKSVILLE PIKE","owner":"SAY REAL ESTATE TRUST","point":[-86.87327015032753,36.31582868085914]}},{"type":"Feature","id":"59775","geometry":{"type":"Polygon","coordinates":[[[-86.8723897519044,36.3159528973026],[-86.8726002765516,36.3153053077467],[-86.8731195199396,36.315436828264],[-86.8729439807247,36.3160966978779],[-86.8723897519044,36.3159528973026]]]},"properties":{"id":"59775","parcel":"02200024400","address":"3612 OLD CLARKSVILLE PIKE","owner":"LATHAM, VERNON D. & SHERYLL D.","point":[-86.87276226379198,36.315694871465965]}},{"type":"Feature","id":"79783","geometry":{"type":"Polygon","coordinates":[[[-86.8756975643328,36.3159848440543],[-86.875699143722,36.3159707688125],[-86.8757620991885,36.3154097496936],[-86.8764366021585,36.3155987939386],[-86.876373976551,36.3161733043399],[-86.8756975643328,36.3159848440543]]]},"properties":{"id":"79783","parcel":"02100018700","address":"3647 OLD CLARKSVILLE PIKE","owner":"TOMLINSON, JANICE J.","point":[-86.87606817202617,36.31578478225797]}},{"type":"Feature","id":"79843","geometry":{"type":"Polygon","coordinates":[[[-86.8773252695013,36.3178123526231],[-86.8778206658006,36.3167305691653],[-86.8779055360474,36.3167548488349],[-86.8782065176655,36.316836041372],[-86.8779307781567,36.3178078618326],[-86.877915585817,36.3178614064512],[-86.8773252695013,36.3178123526231]]]},"properties":{"id":"79843","parcel":"02100020700","address":"3712 OLD CLARKSVILLE PIKE","owner":"WRAY, DERRICK & DAWN MICHELLE","point":[-86.87780936950911,36.317321686957584]}},{"type":"Feature","id":"79846","geometry":{"type":"Polygon","coordinates":[[[-86.8771059719234,36.3172162179293],[-86.8773833911894,36.3166104280894],[-86.87746457822,36.3166333838363],[-86.8775463261283,36.3166549935168],[-86.8776774022127,36.3166905775103],[-86.8778206658006,36.3167305691653],[-86.8773252695013,36.3178123526231],[-86.8771059719234,36.3172162179293]]]},"properties":{"id":"79846","parcel":"02100020800","address":"3708 OLD CLARKSVILLE PIKE","owner":"SMILEY, RONALD D. & JODY T.","point":[-86.87746331993343,36.31697339408842]}},{"type":"Feature","id":"80208","geometry":{"type":"Polygon","coordinates":[[[-86.8779307781567,36.3178078618326],[-86.8782065176655,36.316836041372],[-86.8782895687933,36.3168586423619],[-86.878471427159,36.3169128105785],[-86.8785411433278,36.3169327549861],[-86.8782524879822,36.3178882864261],[-86.8779307781567,36.3178078618326]]]},"properties":{"id":"80208","parcel":"02100001500","address":"3716 OLD CLARKSVILLE PIKE","owner":"HAGAN, SAMUEL & BETTE","point":[-86.87823194572253,36.31737030472668]}},{"type":"Feature","id":"80233","geometry":{"type":"Polygon","coordinates":[[[-86.8769995569537,36.3130431113482],[-86.8770386300601,36.3127708793778],[-86.8785532863751,36.3128987992955],[-86.8785371776566,36.3131669724944],[-86.8769995569537,36.3130431113482]]]},"properties":{"id":"80233","parcel":"02100003900","address":"6229 EATONS CREEK RD","owner":"HALLMAN, JOEL W. & STEPHANIE BOHLINGER","point":[-86.87777946525887,36.31297096095885]}},{"type":"Feature","id":"80234","geometry":{"type":"Polygon","coordinates":[[[-86.878942178518,36.312384228476],[-86.8791100442828,36.3112987876021],[-86.8792463033631,36.3113126826584],[-86.8794678705975,36.3113315988888],[-86.8792869608164,36.3124161302533],[-86.8790566905507,36.312393624225],[-86.878942178518,36.312384228476]]]},"properties":{"id":"80234","parcel":"02100004700","address":"4922 RAWLINGS RD","owner":"GILBERT, RYAN PATRICK","point":[-86.87920182536011,36.311857910763486]}},{"type":"Feature","id":"80235","geometry":{"type":"Polygon","coordinates":[[[-86.8796442327414,36.3124486954321],[-86.8798330836307,36.3113674376084],[-86.8801644352872,36.311402500601],[-86.8799952947491,36.3124811731685],[-86.8797301086788,36.3124563053144],[-86.8796442327414,36.3124486954321]]]},"properties":{"id":"80235","parcel":"02100004900","address":"4930 RAWLINGS RD","owner":"MAXWELL, JAMES GRAEME & SINDY SUE","point":[-86.87990900512993,36.311925603016356]}},{"type":"Feature","id":"80309","geometry":{"type":"Polygon","coordinates":[[[-86.8751016088781,36.3131975058888],[-86.8753503681038,36.3109120327921],[-86.8771320529245,36.3110313632958],[-86.8770102294052,36.3119151262548],[-86.8769993441293,36.3119816823438],[-86.8769301712367,36.3125398206609],[-86.8768426144231,36.3133265920131],[-86.8768231192766,36.3133261142248],[-86.8767405341702,36.3133200898291],[-86.8766574163895,36.3133140295843],[-86.8766341107754,36.3133118589271],[-86.8766315462726,36.313311663925],[-86.876498553188,36.3133015454603],[-86.8760819666268,36.3132688077089],[-86.8756650130189,36.3132403070004],[-86.8754886048643,36.3132282487142],[-86.8751016088781,36.3131975058888]]]},"properties":{"id":"80309","parcel":"02100018900","address":"6240 EATONS CREEK RD","owner":"MIDGETT, JAMES C., JR.","point":[-86.87608426344215,36.3122598420874]}},{"type":"Feature","id":"80343","geometry":{"type":"Polygon","coordinates":[[[-86.8765479232045,36.3172018050583],[-86.876638885584,36.3163975911318],[-86.8770413592678,36.3165116912503],[-86.8773833911894,36.3166104280894],[-86.8771059719234,36.3172162179293],[-86.8765812571029,36.3172026665493],[-86.8765479232045,36.3172018050583]]]},"properties":{"id":"80343","parcel":"02100022700","address":"3700 OLD CLARKSVILLE PIKE","owner":"SABELLA, DONNA","point":[-86.87691463086917,36.3169060647842]}},{"type":"Feature","id":"81075","geometry":{"type":"Polygon","coordinates":[[[-86.876373976551,36.3161733043399],[-86.8764366021585,36.3155987939386],[-86.8765300057256,36.3156245051725],[-86.8765684723489,36.3156350943639],[-86.8765172576901,36.3161228546595],[-86.8765149343956,36.3161339981726],[-86.8765102066249,36.3161446228778],[-86.876503419175,36.3161544892502],[-86.8764947495851,36.3161633382488],[-86.8764844269058,36.3161709365953],[-86.8764727228915,36.3161770858497],[-86.8764599442052,36.3161816224678],[-86.8764464280839,36.3161844286465],[-86.8764325289467,36.3161854297181],[-86.8764186128865,36.3161845995969],[-86.8764050454113,36.3161819599676],[-86.876373976551,36.3161733043399]]]},"properties":{"id":"81075","parcel":"02100018800","address":"0 EATONS CREEK RD","owner":"FLORES, FRANCISCO REYES & ESQUIVEL, IRMA LIRA","point":[-86.87647447058134,36.31587890386584]}},{"type":"Feature","id":"81093","geometry":{"type":"Polygon","coordinates":[[[-86.876835491719,36.3146646022763],[-86.8768657473371,36.3143655874783],[-86.8778323039827,36.314538585316],[-86.8787994781364,36.3144132657772],[-86.878675242258,36.315110497242],[-86.8782478534968,36.3151033891611],[-86.87774440613,36.3150950147723],[-86.8767987475371,36.315027751079],[-86.876835491719,36.3146646022763]]]},"properties":{"id":"81093","parcel":"02100020200","address":"6255 EATONS CREEK RD","owner":"BEAIRD - GAINES, LILLIAN","point":[-86.87776955647215,36.31484715431707]}},{"type":"Feature","id":"81115","geometry":{"type":"Polygon","coordinates":[[[-86.8765559020737,36.3174123761716],[-86.8765812571029,36.3172026665493],[-86.8771059719234,36.3172162179293],[-86.8773252695013,36.3178123526231],[-86.8765176445692,36.3177791873366],[-86.8765559020737,36.3174123761716]]]},"properties":{"id":"81115","parcel":"02100022800","address":"6313 EATONS CREEK RD","owner":"COLSTON, CHARLES E. ET UX","point":[-86.87689132103897,36.317596147415315]}},{"type":"Feature","id":"81712","geometry":{"type":"Polygon","coordinates":[[[-86.8782524879822,36.3178882864261],[-86.8785411433278,36.3169327549861],[-86.8786512197489,36.3169642465616],[-86.8787644542365,36.3169966163252],[-86.8788784928804,36.3170270812324],[-86.8787389458037,36.318009895603],[-86.8782524879822,36.3178882864261]]]},"properties":{"id":"81712","parcel":"02100001400","address":"3722 OLD CLARKSVILLE PIKE","owner":"HASAN, SPURGEON TALIB","point":[-86.87859997102603,36.31745771927799]}},{"type":"Feature","id":"81714","geometry":{"type":"Polygon","coordinates":[[[-86.875997703949,36.3189453866797],[-86.8760646070107,36.3188508571274],[-86.8761276073592,36.3187545884841],[-86.8761866359864,36.3186566839969],[-86.8764117361036,36.3186918629677],[-86.8763684401688,36.319012473417],[-86.875997703949,36.3189453866797]]]},"properties":{"id":"81714","parcel":"02100001700","address":"6293 EATONS CREEK RD","owner":"SMITH, JOE N.","point":[-86.87624641528281,36.318802878512365]}},{"type":"Feature","id":"82369","geometry":{"type":"Polygon","coordinates":[[[-86.8762544193534,36.3197516887406],[-86.8763020940858,36.3192134837633],[-86.8763414970547,36.319215945203],[-86.8763684401688,36.319012473417],[-86.8764117361036,36.3186918629677],[-86.8761866359864,36.3186566839969],[-86.8762342889766,36.3185735178079],[-86.8762781482355,36.3184889947879],[-86.8763181537932,36.3184032298325],[-86.8763542545797,36.3183163368712],[-86.8763863995652,36.3182284334384],[-86.8764145488466,36.3181396360857],[-86.8764386614375,36.3180500640762],[-86.8764587075078,36.3179598383944],[-86.8764746572178,36.3178690791229],[-86.8764864929972,36.3177779080578],[-86.8765176445692,36.3177791873366],[-86.8773252695013,36.3178123526231],[-86.877915585817,36.3178614064512],[-86.8779307781567,36.3178078618326],[-86.8782524879822,36.3178882864261],[-86.8787389458037,36.318009895603],[-86.8785619303008,36.3199286218179],[-86.8762544193534,36.3197516887406]]]},"properties":{"id":"82369","parcel":"02100001600","address":"6289 EATONS CREEK RD","owner":"SMITH, JOE N","point":[-86.87752555750157,36.318853336944116]}},{"type":"Feature","id":"82370","geometry":{"type":"Polygon","coordinates":[[[-86.8751398840813,36.3188695524977],[-86.8752539231182,36.3186121380131],[-86.8759753387189,36.3187032657266],[-86.8759345789547,36.318765894975],[-86.8758910816376,36.3188273048358],[-86.8758449027279,36.3188874200981],[-86.8757961014877,36.3189461619222],[-86.8751398840813,36.3188695524977]]]},"properties":{"id":"82370","parcel":"02100002000","address":"6328 EATONS CREEK RD","owner":"CARROLL, JANICE M","point":[-86.87554268758237,36.31879621510806]}},{"type":"Feature","id":"82390","geometry":{"type":"Polygon","coordinates":[[[-86.8770386300601,36.3127708793778],[-86.8770749334639,36.3124937205626],[-86.8785702358796,36.3126165849789],[-86.8785532863751,36.3128987992955],[-86.8770386300601,36.3127708793778]]]},"properties":{"id":"82390","parcel":"02100004000","address":"6223 EATONS CREEK RD","owner":"BATES, REBECCA P.","point":[-86.8778071960271,36.31269373745659]}},{"type":"Feature","id":"82391","geometry":{"type":"Polygon","coordinates":[[[-86.8782870717662,36.312037528934],[-86.8784178512144,36.3112323155101],[-86.8785728687638,36.3112478036281],[-86.8787876223376,36.3112671671539],[-86.8785918754622,36.3123529300054],[-86.8785861083155,36.3123523284239],[-86.8783961891822,36.3123324966318],[-86.878241520056,36.3123179889978],[-86.8782870717662,36.312037528934]]]},"properties":{"id":"82391","parcel":"02100004500","address":"4914 RAWLINGS RD","owner":"NEEL, CHARLES OAKLEY, III ET UX","point":[-86.87853390500264,36.31165234482221]}},{"type":"Feature","id":"82497","geometry":{"type":"Polygon","coordinates":[[[-86.8757719109885,36.3170327893798],[-86.8758079567869,36.3167789896822],[-86.8764201202206,36.3168223877823],[-86.8763902614292,36.3170960096996],[-86.8757719109885,36.3170327893798]]]},"properties":{"id":"82497","parcel":"02100002300","address":"6308 EATONS CREEK RD","owner":"SMITH, JOE N. & ELIZABETH CHRISTINE","point":[-86.87609775126909,36.31692759082072]}},{"type":"Feature","id":"82501","geometry":{"type":"Polygon","coordinates":[[[-86.8783842073373,36.3167437853652],[-86.878675242258,36.315110497242],[-86.8787994781364,36.3144132657772],[-86.8788625361636,36.3140593744646],[-86.8795933563214,36.3142009949823],[-86.879102588485,36.3169437732456],[-86.8789364514947,36.3168927866326],[-86.8787689754851,36.3168447520617],[-86.8786002419979,36.3167996932682],[-86.8784303314209,36.3167576303913],[-86.8783842073373,36.3167437853652]]]},"properties":{"id":"82501","parcel":"02100003500","address":"3725 OLD CLARKSVILLE PIKE","owner":"NEWSOME, LOU ANNE REVOCABLE TRUST","point":[-86.8789070444992,36.31592752425828]}},{"type":"Feature","id":"82514","geometry":{"type":"Polygon","coordinates":[[[-86.8769740072723,36.3163454409373],[-86.8767347073709,36.3162731647196],[-86.8767222795423,36.316268452129],[-86.876710953656,36.3162621814205],[-86.8767010243763,36.3162545135819],[-86.8766927534105,36.3162456503959],[-86.8766863549227,36.3162358246319],[-86.8766819976813,36.3162252928204],[-86.876679796091,36.3162143299108],[-86.8766798056688,36.3162032229954],[-86.8766974736845,36.3160286135983],[-86.8767987475371,36.315027751079],[-86.87774440613,36.3150950147723],[-86.877521567891,36.3165056255055],[-86.8772675601563,36.316432313396],[-86.8769740072723,36.3163454409373]]]},"properties":{"id":"82514","parcel":"02100003600","address":"3705 OLD CLARKSVILLE PIKE","owner":"METRO GOV'T  M  MISC","point":[-86.87720767484552,36.315561801727526]}},{"type":"Feature","id":"82515","geometry":{"type":"Polygon","coordinates":[[[-86.8768657473371,36.3143655874783],[-86.8769012211822,36.3140149903131],[-86.877986847198,36.3142303359469],[-86.87803678452,36.3138975887443],[-86.8788625361636,36.3140593744646],[-86.8787994781364,36.3144132657772],[-86.8778323039827,36.314538585316],[-86.8768657473371,36.3143655874783]]]},"properties":{"id":"82515","parcel":"02100003601","address":"6249 EATONS CREEK RD","owner":"STOKES, CALEB R.","point":[-86.87842348447676,36.31414485478089]}},{"type":"Feature","id":"82516","geometry":{"type":"Polygon","coordinates":[[[-86.8769715979304,36.3133194417189],[-86.8769995569537,36.3130431113482],[-86.8785371776566,36.3131669724944],[-86.8785202946198,36.3134480723429],[-86.8769715979304,36.3133194417189]]]},"properties":{"id":"82516","parcel":"02100003800","address":"6233 EATONS CREEK RD","owner":"PETTY, JACQUELYN STEPHANIE","point":[-86.87775597133493,36.31324321128997]}},{"type":"Feature","id":"82517","geometry":{"type":"Polygon","coordinates":[[[-86.8785918754622,36.3123529300054],[-86.8787876223376,36.3112671671539],[-86.8788942757531,36.3112767841858],[-86.8791100442828,36.3112987876021],[-86.878942178518,36.312384228476],[-86.8787060947803,36.3123648570875],[-86.8785918754622,36.3123529300054]]]},"properties":{"id":"82517","parcel":"02100004600","address":"4918 RAWLINGS RD","owner":"MULLINAX, BARBARA ANN","point":[-86.87885771675516,36.31182586595648]}},{"type":"Feature","id":"82757","geometry":{"type":"Polygon","coordinates":[[[-86.8757323851336,36.319263759347],[-86.8758128409288,36.3191722518846],[-86.875997703949,36.3189453866797],[-86.8763684401688,36.319012473417],[-86.8763414970547,36.319215945203],[-86.8763020940858,36.3192134837633],[-86.8762544193534,36.3197516887406],[-86.8762313706881,36.3197496603324],[-86.876231316033,36.3197496526173],[-86.8757365279304,36.3196384164522],[-86.8756614413481,36.3196219177938],[-86.8754496788091,36.3195753880353],[-86.8755402026799,36.3194805472113],[-86.8756279737068,36.3193840256148],[-86.8757129423612,36.3192858758822],[-86.8757323851336,36.319263759347]]]},"properties":{"id":"82757","parcel":"02100001800","address":"6299 EATONS CREEK RD","owner":"BJF TRUST","point":[-86.87598086773957,36.319335273205056]}},{"type":"Feature","id":"82759","geometry":{"type":"Polygon","coordinates":[[[-86.8752539231182,36.3186121380131],[-86.875371874071,36.3183458936034],[-86.8761167208955,36.3184533362699],[-86.8760730379255,36.318537903016],[-86.8760258934325,36.3186212439026],[-86.8759753387189,36.3187032657266],[-86.8752539231182,36.3186121380131]]]},"properties":{"id":"82759","parcel":"02100002100","address":"6324 EATONS CREEK RD","owner":"GARCIA, ARNOLDO GUOX & SANTIAGO, IRMA CEBALLOS","point":[-86.87570039288593,36.318495210099876]}},{"type":"Feature","id":"82760","geometry":{"type":"Polygon","coordinates":[[[-86.875371874071,36.3183458936034],[-86.8754868666475,36.3180863215932],[-86.8762213377199,36.3181922678679],[-86.8761884881493,36.318279815867],[-86.8761536115319,36.3183668486134],[-86.8761167208955,36.3184533362699],[-86.875371874071,36.3183458936034]]]},"properties":{"id":"82760","parcel":"02100002200","address":"6320 EATONS CREEK RD","owner":"MORRIS, RICK","point":[-86.87581290658711,36.31823563526441]}},{"type":"Feature","id":"82778","geometry":{"type":"Polygon","coordinates":[[[-86.8769012211822,36.3140149903131],[-86.8769346812496,36.3136842980194],[-86.87803678452,36.3138975887443],[-86.877986847198,36.3142303359469],[-86.8769012211822,36.3140149903131]]]},"properties":{"id":"82778","parcel":"02100003602","address":"0 EATONS CREEK RD","owner":"HAMPTON, WILLIAM & JOAN","point":[-86.87746755395348,36.313956289392614]}},{"type":"Feature","id":"82779","geometry":{"type":"Polygon","coordinates":[[[-86.8769346812496,36.3136842980194],[-86.8769715979304,36.3133194417189],[-86.8785202946198,36.3134480723429],[-86.8785371776566,36.3131669724944],[-86.8785532863751,36.3128987992955],[-86.8785702358796,36.3126165849789],[-86.8785861083155,36.3123523284239],[-86.8785918754622,36.3123529300054],[-86.8787060947803,36.3123648570875],[-86.878942178518,36.312384228476],[-86.8790566905507,36.312393624225],[-86.8792869608164,36.3124161302533],[-86.8793862840167,36.3124258380131],[-86.8796442327414,36.3124486954321],[-86.8797301086788,36.3124563053144],[-86.8799952947491,36.3124811731685],[-86.8803185347955,36.3125110667078],[-86.8800593141995,36.3142894922726],[-86.8797416599797,36.3142296687137],[-86.8795933563214,36.3142009949823],[-86.8788625361636,36.3140593744646],[-86.87803678452,36.3138975887443],[-86.8769346812496,36.3136842980194]]]},"properties":{"id":"82779","parcel":"02100003700","address":"6239 EATONS CREEK RD","owner":"PATERSON-HAMPTON, JOAN","point":[-86.87937200440487,36.31324485287246]}},{"type":"Feature","id":"82780","geometry":{"type":"Polygon","coordinates":[[[-86.8770749334639,36.3124937205626],[-86.8771077879984,36.312211642534],[-86.878241520056,36.3123179889978],[-86.8783961891822,36.3123324966318],[-86.8785861083155,36.3123523284239],[-86.8785702358796,36.3126165849789],[-86.8770749334639,36.3124937205626]]]},"properties":{"id":"82780","parcel":"02100004100","address":"6221 EATONS CREEK RD","owner":"GRAHAM SISTERS PROPERTIES, LLC","point":[-86.87783253624069,36.31242302894164]}},{"type":"Feature","id":"82781","geometry":{"type":"Polygon","coordinates":[[[-86.8771077879984,36.312211642534],[-86.8771454482237,36.3119344738037],[-86.8779522225471,36.3120063543001],[-86.8780634501376,36.3120162633039],[-86.8782870717662,36.312037528934],[-86.878241520056,36.3123179889978],[-86.8771077879984,36.312211642534]]]},"properties":{"id":"82781","parcel":"02100004200","address":"6217 EATONS CREEK RD","owner":"JONES, SHEPPARD","point":[-86.87769626686789,36.31212458599954]}},{"type":"Feature","id":"82979","geometry":{"type":"Polygon","coordinates":[[[-86.8796604788302,36.3220786420185],[-86.8791861630449,36.3220395131453],[-86.8783483552031,36.3219758299727],[-86.8784365557265,36.321237037653],[-86.8785619303008,36.3199286218179],[-86.8787389458037,36.318009895603],[-86.8788784928804,36.3170270812324],[-86.8789712440139,36.317050373705],[-86.8792632746299,36.317137015374],[-86.8795567182443,36.3172204719062],[-86.8798515223292,36.3173007292535],[-86.8801476332327,36.3173777724756],[-86.8801778414912,36.3173860683996],[-86.880284480127,36.3174154403731],[-86.8803917378781,36.3174432963711],[-86.8803441454039,36.3178644790609],[-86.8810060854837,36.3180508486971],[-86.8804534623571,36.3221407219225],[-86.8796604788302,36.3220786420185]]]},"properties":{"id":"82979","parcel":"02100001300","address":"3736 OLD CLARKSVILLE PIKE","owner":"SMITH, JOE N","point":[-86.87976386737753,36.318989721334525]}},{"type":"Feature","id":"83850","geometry":{"type":"Polygon","coordinates":[[[-86.8771482406222,36.3119141252159],[-86.877256622002,36.311123856786],[-86.8780801055976,36.3111996283794],[-86.8779522225471,36.3120063543001],[-86.8771454482237,36.3119344738037],[-86.8771482406222,36.3119141252159]]]},"properties":{"id":"83850","parcel":"02100004300","address":"4900 RAWLINGS RD","owner":"DLJC PROPERTIES, LLC","point":[-86.87761035116016,36.31155687380546]}},{"type":"Feature","id":"83853","geometry":{"type":"Polygon","coordinates":[[[-86.8779522225471,36.3120063543001],[-86.8780801055976,36.3111996283794],[-86.8782140563245,36.3112119524754],[-86.8784178512144,36.3112323155101],[-86.8782870717662,36.312037528934],[-86.8780634501376,36.3120162633039],[-86.8779522225471,36.3120063543001]]]},"properties":{"id":"83853","parcel":"02100004400","address":"4910 RAWLINGS RD","owner":"NEEL, CHARLES O., III","point":[-86.87818428330066,36.311619334377475]}},{"type":"Feature","id":"83856","geometry":{"type":"Polygon","coordinates":[[[-86.8792869608164,36.3124161302533],[-86.8794678705975,36.3113315988888],[-86.8795724475656,36.3113405274597],[-86.8798330836307,36.3113674376084],[-86.8796442327414,36.3124486954321],[-86.8793862840167,36.3124258380131],[-86.8792869608164,36.3124161302533]]]},"properties":{"id":"83856","parcel":"02100004800","address":"4926 RAWLINGS RD","owner":"DAVENPORT, RYAN & KAYLA","point":[-86.87955796458455,36.3118917821943]}},{"type":"Feature","id":"84262","geometry":{"type":"Polygon","coordinates":[[[-86.8720575613979,36.3201891242834],[-86.8722396154164,36.3185309217118],[-86.874971355338,36.3188498776995],[-86.8748523161767,36.3190495561217],[-86.8750013846896,36.3190805724555],[-86.875437024663,36.3193575075852],[-86.8753486364367,36.3194501978491],[-86.8752579611366,36.3195414310762],[-86.8751650362031,36.3196311691384],[-86.8750698990973,36.3197193757102],[-86.8749725884242,36.3198060171616],[-86.8748264129344,36.3199267299639],[-86.8746819940218,36.3200488222864],[-86.8745393548731,36.3201722759426],[-86.8744686133129,36.3202387597536],[-86.8743232078355,36.3203926426414],[-86.8742766585059,36.3204466315353],[-86.8742323880431,36.3205018620611],[-86.8741904458652,36.3205582707774],[-86.8741508813707,36.3206157924408],[-86.8734716895304,36.3202492412388],[-86.873077936761,36.3207426928734],[-86.8720575613979,36.3201891242834]]]},"properties":{"id":"84262","parcel":"02200013600","address":"6350 EATONS CREEK RD","owner":"SAY REAL ESTATE TRUST","point":[-86.8736158970928,36.31967369429308]}},{"type":"Feature","id":"84738","geometry":{"type":"Polygon","coordinates":[[[-86.8754529011616,36.3135295683942],[-86.8754696403502,36.3133795425245],[-86.8767882501725,36.3134842837648],[-86.8768078252023,36.313485837959],[-86.8768103586032,36.3134860394916],[-86.8767935491732,36.3136349251023],[-86.8758102705282,36.3135576542419],[-86.8755416104106,36.3135365397887],[-86.8754529011616,36.3135295683942]]]},"properties":{"id":"84738","parcel":"02100024500","address":"0 EATONS CREEK RD","owner":"ANDERSON, LYNDA G.","point":[-86.87613161497733,36.31350780585445]}},{"type":"Feature","id":"84740","geometry":{"type":"Polygon","coordinates":[[[-86.8750811790145,36.3133487759918],[-86.8751016088781,36.3131975058888],[-86.8754886048643,36.3132282487142],[-86.8756650130189,36.3132403070004],[-86.8760819666268,36.3132688077089],[-86.876498553188,36.3133015454603],[-86.8766315462726,36.313311663925],[-86.8766341107754,36.3133118589271],[-86.8766574163895,36.3133140295843],[-86.8767405341702,36.3133200898291],[-86.8768231192766,36.3133261142248],[-86.8768103586032,36.3134860394916],[-86.8768078252023,36.313485837959],[-86.8767882501725,36.3134842837648],[-86.8754696403502,36.3133795425245],[-86.8750811790145,36.3133487759918]]]},"properties":{"id":"84740","parcel":"02100025100","address":"6240 EATONS CREEK RD","owner":"MIDGETT, JAMES C., JR.","point":[-86.87595248712044,36.31333744863194]}},{"type":"Feature","id":"84744","geometry":{"type":"Polygon","coordinates":[[[-86.8736427855293,36.3155687816373],[-86.874093285333,36.3156917822386],[-86.8738728606769,36.3165196383223],[-86.8734218399376,36.3163985693095],[-86.8736427855293,36.3155687816373]]]},"properties":{"id":"84744","parcel":"02200012300","address":"3622 OLD CLARKSVILLE PIKE","owner":"GONZAGA, JAIRO","point":[-86.87375756457457,36.31604517625936]}},{"type":"Feature","id":"84875","geometry":{"type":"Polygon","coordinates":[[[-86.8754868666475,36.3180863215932],[-86.87560500505,36.3178196465552],[-86.8762965460435,36.3179142051445],[-86.8762817594988,36.3179843969529],[-86.876264283438,36.3180541828623],[-86.8762441360374,36.3181234951472],[-86.8762213377199,36.3181922678679],[-86.8754868666475,36.3180863215932]]]},"properties":{"id":"84875","parcel":"02100039300","address":"6318 EATONS CREEK RD","owner":"SMITH, JOE N. & ELIZABETH CHRISTINE","point":[-86.87589496566326,36.3180188980121]}},{"type":"Feature","id":"84876","geometry":{"type":"Polygon","coordinates":[[[-86.8757027282178,36.3175199050351],[-86.8757331538629,36.3173056788481],[-86.8763604826767,36.317369637313],[-86.8763556362191,36.317413827627],[-86.8763315441647,36.3176377982123],[-86.8757027282178,36.3175199050351]]]},"properties":{"id":"84876","parcel":"02100039500","address":"6314 EATONS CREEK RD","owner":"SMITH, JOE N. & ELIZABETH CHRISTINE","point":[-86.87603010162285,36.317466867730715]}},{"type":"Feature","id":"85487","geometry":{"type":"Polygon","coordinates":[[[-86.8748410840344,36.3151535623225],[-86.8748728100438,36.3149115551677],[-86.875343791678,36.3149991888935],[-86.8753067806353,36.3152831005056],[-86.8752340276523,36.3158411828708],[-86.8747656669642,36.3157106912441],[-86.8748410840344,36.3151535623225]]]},"properties":{"id":"85487","parcel":"02200017100","address":"3639 OLD CLARKSVILLE PIKE","owner":"FLORES, FRANCISCO REYES & ESQUIVEL, IRMA LIRA","point":[-86.87503675948957,36.31549689674549]}},{"type":"Feature","id":"85552","geometry":{"type":"Polygon","coordinates":[[[-86.8749004677695,36.3147005871947],[-86.8750811790145,36.3133487759918],[-86.8754696403502,36.3133795425245],[-86.8754529011616,36.3135295683942],[-86.8754447744874,36.3136009205415],[-86.875440220909,36.3136409053761],[-86.8754193788772,36.3138299971393],[-86.8753857803657,36.3141311086337],[-86.8753788340607,36.3141855413959],[-86.8753526909307,36.3144318550071],[-86.8753172217739,36.3147336351626],[-86.8754062467955,36.3147405421923],[-86.8756826641498,36.3147619874247],[-86.8766564191476,36.3148390139115],[-86.876612643903,36.3152352673845],[-86.875343791678,36.3149991888935],[-86.8748728100438,36.3149115551677],[-86.8749004677695,36.3147005871947]]]},"properties":{"id":"85552","parcel":"02200015600","address":"6250 EATONS CREEK RD","owner":"HOLDER, LANDON","point":[-86.87515933831133,36.31430848281257]}},{"type":"Feature","id":"85580","geometry":{"type":"Polygon","coordinates":[[[-86.8752340276523,36.3158411828708],[-86.8753067806353,36.3152831005056],[-86.875343791678,36.3149991888935],[-86.876612643903,36.3152352673845],[-86.8765684723489,36.3156350943639],[-86.8765300057256,36.3156245051725],[-86.8764366021585,36.3155987939386],[-86.8757620991885,36.3154097496936],[-86.875699143722,36.3159707688125],[-86.8752340276523,36.3158411828708]]]},"properties":{"id":"85580","parcel":"02100032200","address":"6266 EATONS CREEK RD","owner":"FLORES, FRANCISCO REYES & ESQUIVEL, IRMA LIRA (D.O.)","point":[-86.87634111009608,36.31550452261977]}},{"type":"Feature","id":"85583","geometry":{"type":"Polygon","coordinates":[[[-86.8757331538629,36.3173056788481],[-86.8757719109885,36.3170327893798],[-86.8763902614292,36.3170960096996],[-86.8763604826767,36.317369637313],[-86.8757331538629,36.3173056788481]]]},"properties":{"id":"85583","parcel":"02100039600","address":"6310 EATONS CREEK RD","owner":"SMITH, JOE N. & ELIZABETH CHRISTINE","point":[-86.8760634528863,36.31720084653608]}},{"type":"Feature","id":"85931","geometry":{"type":"Polygon","coordinates":[[[-86.8753857803657,36.3141311086337],[-86.8754193788772,36.3138299971393],[-86.8767582785131,36.3139363033082],[-86.8767230460173,36.3142373306153],[-86.8753857803657,36.3141311086337]]]},"properties":{"id":"85931","parcel":"02100024300","address":"6250 EATONS CREEK RD","owner":"HOLDER, LANDON & KULAS, CARRIE","point":[-86.87607176169973,36.31403370766466]}},{"type":"Feature","id":"85933","geometry":{"type":"Polygon","coordinates":[[[-86.8754447744874,36.3136009205415],[-86.8754529011616,36.3135295683942],[-86.8755416104106,36.3135365397887],[-86.8758102705282,36.3135576542419],[-86.8767935491732,36.3136349251023],[-86.8767923791992,36.3136449202019],[-86.8767582785131,36.3139363033082],[-86.8754193788772,36.3138299971393],[-86.875440220909,36.3136409053761],[-86.8754447744874,36.3136009205415]]]},"properties":{"id":"85933","parcel":"02100024400","address":"6246 EATONS CREEK RD","owner":"ANDERSON, LYNDA G.","point":[-86.87610556166264,36.31373746031427]}},{"type":"Feature","id":"85935","geometry":{"type":"Polygon","coordinates":[[[-86.8753172217739,36.3147336351626],[-86.8753526909307,36.3144318550071],[-86.8756789264957,36.314457770241],[-86.8766903305455,36.3145381071144],[-86.8766760560059,36.314664528057],[-86.8766564191476,36.3148390139115],[-86.8756826641498,36.3147619874247],[-86.8754062467955,36.3147405421923],[-86.8753172217739,36.3147336351626]]]},"properties":{"id":"85935","parcel":"02100025200","address":"6258 EATONS CREEK RD","owner":"BROWN, SAMUEL LEE ET UX","point":[-86.8760080656828,36.314600619246626]}},{"type":"Feature","id":"85991","geometry":{"type":"Polygon","coordinates":[[[-86.8758079567869,36.3167789896822],[-86.8758887422301,36.3161918849781],[-86.8759449236285,36.316207228959],[-86.8764087425818,36.3163355292023],[-86.8764196465221,36.3163392957556],[-86.8764330388096,36.3163463292824],[-86.8764387719384,36.3163498701483],[-86.8764438906344,36.3163539399871],[-86.8764505568092,36.3163599813315],[-86.8764562199623,36.3163666581074],[-86.8764604062759,36.316372513745],[-86.8764623170535,36.3163762193013],[-86.8764659527994,36.316384249108],[-86.8764680712017,36.3163903134991],[-86.8764695586049,36.31639802632],[-86.876469871602,36.3163996426731],[-86.8764699779605,36.3164092535951],[-86.8764251574958,36.3167760249943],[-86.8764201202206,36.3168223877823],[-86.8758079567869,36.3167789896822]]]},"properties":{"id":"85991","parcel":"02100030100","address":"3646 OLD CLARKSVILLE PIKE","owner":"HORNET ENTERPRISES, LLC","point":[-86.8761406269897,36.316592321666626]}},{"type":"Feature","id":"86536","geometry":{"type":"Polygon","coordinates":[[[-86.8705898856357,36.3146400057151],[-86.8703252586333,36.3145684876999],[-86.8704610144647,36.3135205442096],[-86.8708331007529,36.3104738651146],[-86.8698784899986,36.3103765134673],[-86.8700063638775,36.309289613895],[-86.872324927808,36.3094536609714],[-86.8739077828176,36.3095658472479],[-86.8737149224283,36.3107896457827],[-86.8753503681038,36.3109120327921],[-86.8751016088781,36.3131975058888],[-86.8750811790145,36.3133487759918],[-86.8749004677695,36.3147005871947],[-86.8748728100438,36.3149115551677],[-86.8748410840344,36.3151535623225],[-86.8747656669642,36.3157106912441],[-86.874763392589,36.3157274950395],[-86.8731557172989,36.3153026403767],[-86.8713408229996,36.3148392229678],[-86.8712512563153,36.314815748508],[-86.8712100040698,36.3148049091309],[-86.8708390033946,36.3147067041753],[-86.8705898856357,36.3146400057151]]]},"properties":{"id":"86536","parcel":"02200006100","address":"3565 OLD CLARKSVILLE PIKE","owner":"SMITH, JOE N. ET AL","point":[-86.87293330814194,36.31205235461777]}},{"type":"Feature","id":"86678","geometry":{"type":"Polygon","coordinates":[[[-86.879102588485,36.3169437732456],[-86.8795933563214,36.3142009949823],[-86.8797416599797,36.3142296687137],[-86.8800593141995,36.3142894922726],[-86.880112406706,36.3142994908322],[-86.8803049661078,36.3143383889529],[-86.8798038293775,36.3171420971256],[-86.8795686600793,36.3170793135096],[-86.8793348896488,36.3170131991084],[-86.879102588485,36.3169437732456]]]},"properties":{"id":"86678","parcel":"02100034700","address":"3727 OLD CLARKSVILLE PIKE","owner":"BROWN, KENNETH D & PHYLLIS S","point":[-86.8797039055011,36.31564108289082]}},{"type":"Feature","id":"86721","geometry":{"type":"Polygon","coordinates":[[[-86.8779750002645,36.3166328469548],[-86.8782478534968,36.3151033891611],[-86.878675242258,36.315110497242],[-86.8783842073373,36.3167437853652],[-86.8782641068443,36.3167094156992],[-86.878143285822,36.3166767427686],[-86.8780217800063,36.3166457762253],[-86.8779750002645,36.3166328469548]]]},"properties":{"id":"86721","parcel":"02100025400","address":"3717 OLD CLARKSVILLE PIKE","owner":"MEYER, PAULA ANNETTE","point":[-86.87832520223643,36.31587167274506]}},{"type":"Feature","id":"86796","geometry":{"type":"Polygon","coordinates":[[[-86.87560500505,36.3178196465552],[-86.8756861825482,36.3176364069407],[-86.8757027282178,36.3175199050351],[-86.8763315441647,36.3176377982123],[-86.8763259798814,36.3176903878411],[-86.8763191673913,36.3177652380462],[-86.8763093523342,36.3178398711792],[-86.8762965460435,36.3179142051445],[-86.87560500505,36.3178196465552]]]},"properties":{"id":"86796","parcel":"02100039400","address":"6316 EATONS CREEK RD","owner":"SMITH, JOE N. & ELIZABETH CHRISTINE","point":[-86.87598428657651,36.31772746247013]}},{"type":"Feature","id":"86836","geometry":{"type":"Polygon","coordinates":[[[-86.8715882711209,36.3184548617352],[-86.8718616648119,36.3162792864137],[-86.8720031728555,36.3151531575018],[-86.8726002765516,36.3153053077467],[-86.8723897519044,36.3159528973026],[-86.8729439807247,36.3160966978779],[-86.8729211682857,36.316182380913],[-86.8733978419987,36.3163061225315],[-86.8735964143468,36.3155606630362],[-86.8735982022612,36.3155539503239],[-86.8736435051875,36.3155660799369],[-86.8736427855293,36.3155687816373],[-86.8734218399376,36.3163985693095],[-86.8738728606769,36.3165196383223],[-86.874093285333,36.3156917822386],[-86.8740945011239,36.3156872167961],[-86.8741778362803,36.3157103439688],[-86.8756978072218,36.3161365385168],[-86.8758887422301,36.3161918849781],[-86.8758079567869,36.3167789896822],[-86.8757719109885,36.3170327893798],[-86.8757331538629,36.3173056788481],[-86.8757027282178,36.3175199050351],[-86.8756861825482,36.3176364069407],[-86.87560500505,36.3178196465552],[-86.8754868666475,36.3180863215932],[-86.875371874071,36.3183458936034],[-86.8752539231182,36.3186121380131],[-86.8751398840813,36.3188695524977],[-86.874971355338,36.3188498776995],[-86.8722396154164,36.3185309217118],[-86.8715882711209,36.3184548617352]]]},"properties":{"id":"86836","parcel":"02200000300","address":"3612 OLD CLARKSVILLE PIKE","owner":"WINTERS, ANNETTE E & WINTERS JOINT REVOC LIVING TRUST","point":[-86.87378669479882,36.31690379127113]}},{"type":"Feature","id":"86840","geometry":{"type":"Polygon","coordinates":[[[-86.8748523161767,36.3190495561217],[-86.874971355338,36.3188498776995],[-86.8751398840813,36.3188695524977],[-86.8757961014877,36.3189461619222],[-86.8757297336419,36.3190239677101],[-86.875576924433,36.3192028033619],[-86.8755078125613,36.3192806514168],[-86.875437024663,36.3193575075852],[-86.8750013846896,36.3190805724555],[-86.8748523161767,36.3190495561217]]]},"properties":{"id":"86840","parcel":"02200000400","address":"6336 EATONS CREEK RD","owner":"WALLER, SHIRLEY W.","point":[-86.87536302586619,36.31914176530011]}},{"type":"Feature","id":"87799","geometry":{"type":"Polygon","coordinates":[[[-86.8753788340607,36.3141855413959],[-86.8753857803657,36.3141311086337],[-86.8767230460173,36.3142373306153],[-86.8766903305455,36.3145381071144],[-86.8756789264957,36.314457770241],[-86.8753526909307,36.3144318550071],[-86.8753788340607,36.3141855413959]]]},"properties":{"id":"87799","parcel":"02100024200","address":"6254 EATONS CREEK RD","owner":"SANDERS, JIMMY LOU REVOCABLE LIVING TRUST","point":[-86.87603773955401,36.31433459464264]}}]}