{"type":"FeatureCollection","features":[{"type":"Feature","id":"107580","geometry":{"type":"Polygon","coordinates":[[[-86.8775411223317,36.2725303289612],[-86.8770497875714,36.2718155510754],[-86.8783589908178,36.2716382009044],[-86.8796439117418,36.2712602066774],[-86.8796739117035,36.2713345469158],[-86.8797000635002,36.2714098344305],[-86.8797223255969,36.2714859379434],[-86.879740655345,36.2715627261848],[-86.8797550245333,36.2716400650754],[-86.879765406063,36.2717178205275],[-86.8797717817483,36.2717958592895],[-86.8797741411633,36.2718740453491],[-86.8797724816728,36.2719522426369],[-86.8797668039998,36.2720303168613],[-86.879757117751,36.2721081318629],[-86.8797434414464,36.2721855523185],[-86.879725798088,36.2722624455757],[-86.8797042173455,36.2723386780316],[-86.8796787389155,36.2724141169116],[-86.8796494047409,36.2724886312268],[-86.8794473196456,36.2726203080984],[-86.8792452461172,36.272753087667],[-86.879209396199,36.2727825904031],[-86.8791708369096,36.2728097605761],[-86.8791298002032,36.2728344378764],[-86.8790865326232,36.2728564727034],[-86.8790412898374,36.2728757352179],[-86.8789943454611,36.2728921080677],[-86.878945977802,36.2729054954971],[-86.8788964786837,36.2729158160725],[-86.8788461412733,36.2729230090795],[-86.878242767598,36.2730279357194],[-86.8776407600334,36.2731339480348],[-86.8775411223317,36.2725303289612]]]},"properties":{"id":"107580","parcel":"03800009400","address":"0 OLD HICKORY BLVD","owner":"VANCE, WILLIAM C.","point":[-86.87853174574394,36.27222278332392]}},{"type":"Feature","id":"112474","geometry":{"type":"Polygon","coordinates":[[[-86.8766287946217,36.2712029997515],[-86.8772879334687,36.2711718454866],[-86.8774391005096,36.2701180919534],[-86.8772517577601,36.2696200450123],[-86.8788238234166,36.2694421545952],[-86.8788374486944,36.2695282997525],[-86.8788539962626,36.2696141091192],[-86.8788734542621,36.2696995160878],[-86.8788958053194,36.2697844585973],[-86.8775868858211,36.2700458715358],[-86.8783589908178,36.2716382009044],[-86.8770497875714,36.2718155510754],[-86.8766287946217,36.2712029997515]]]},"properties":{"id":"112474","parcel":"03800018000","address":"6216 OLD HICKORY BLVD","owner":"VANCE, ROBERT M.","point":[-86.87762057541785,36.270645232073484]}},{"type":"Feature","id":"112588","geometry":{"type":"Polygon","coordinates":[[[-86.8775868858211,36.2700458715358],[-86.8788958053194,36.2697844585973],[-86.8789253466801,36.2698821889196],[-86.8789586455746,36.2699791231383],[-86.8789956675996,36.2700751686719],[-86.879036380537,36.2701702293177],[-86.8790807410896,36.2702642134596],[-86.8791287070617,36.270357028572],[-86.879180231836,36.2704485848648],[-86.8792352654555,36.2705387925721],[-86.8793285603516,36.2706933198676],[-86.8794658189602,36.2709247183254],[-86.8795557451611,36.2710800945914],[-86.8795884024208,36.2711390600207],[-86.8796178099006,36.2711991369014],[-86.8796439117418,36.2712602066774],[-86.8783589908178,36.2716382009044],[-86.8775868858211,36.2700458715358]]]},"properties":{"id":"112588","parcel":"03800015300","address":"6220 OLD HICKORY BLVD","owner":"VANCE, ROBERT M","point":[-86.87867670258758,36.27080829042495]}}]}