{"type":"FeatureCollection","features":[{"type":"Feature","id":"35368","geometry":{"type":"Polygon","coordinates":[[[-86.8822587651164,36.1630627493673],[-86.8823111361383,36.1622551658908],[-86.8816531809745,36.1619565337675],[-86.8813023655826,36.1610915042304],[-86.8818470752509,36.1603101574917],[-86.8819193680044,36.1603459300124],[-86.882886537743,36.1607849876072],[-86.8841529655629,36.1613598780425],[-86.8846160358312,36.1615700840331],[-86.883911795906,36.1625795813741],[-86.8837059840757,36.1625942742443],[-86.8836191667891,36.1625861170404],[-86.8834404057318,36.1625962185736],[-86.8832943846616,36.1626258578708],[-86.883059839232,36.1627374580307],[-86.8828983162165,36.1628353378591],[-86.8827200189039,36.1628871884234],[-86.8825745346872,36.1629651710589],[-86.8824560767541,36.163036361258],[-86.8822666218236,36.163059724927],[-86.8822587651164,36.1630627493673]]]},"properties":{"id":"35368","parcel":"09000020000","address":"6614 ROBERTSON AVE","owner":"PINE BLUFF MATERIALS CO, LLC","point":[-86.88302726143536,36.16176321325573]}},{"type":"Feature","id":"244647","geometry":{"type":"Polygon","coordinates":[[[-86.8832273416661,36.1607824939427],[-86.8819993216878,36.1602244734728],[-86.882597979065,36.1593163001286],[-86.8825998032527,36.1593135333815],[-86.8840760305296,36.1599845959639],[-86.8840875103744,36.1599927684807],[-86.8840877938117,36.1599929700933],[-86.8844665371138,36.1602626037186],[-86.8843934830819,36.1603359425685],[-86.8840500247862,36.1602720906374],[-86.883948664933,36.1609239256388],[-86.8838515185383,36.1610644569511],[-86.8838506456705,36.1610657197255],[-86.8832273416661,36.1607824939427]]]},"properties":{"id":"244647","parcel":"09008024100","address":"6601 ROBERTSON AVE","owner":"PSF II ROCK HARBOR PROPCO LLC","point":[-86.88316414389635,36.16010884405496]}},{"type":"Feature","id":"275444","geometry":{"type":"Polygon","coordinates":[[[-86.8852332352261,36.1624775934298],[-86.8855748867316,36.1620069811145],[-86.8856202962507,36.1619473104463],[-86.8874454031138,36.1627778129946],[-86.8874456619287,36.1628048332145],[-86.8874498140938,36.1628316436486],[-86.8874578010435,36.1628578770059],[-86.8874695142806,36.1628831735721],[-86.8874847932138,36.1629071866337],[-86.8875298355648,36.1630197909682],[-86.8875779352621,36.1631315607474],[-86.8876290683632,36.1632424411659],[-86.8876832087223,36.163352379237],[-86.8877403312948,36.1634613210642],[-86.8880346297551,36.1638459475574],[-86.8883034099747,36.164129670197],[-86.8881841192058,36.1641261508026],[-86.8880369413036,36.1640525124725],[-86.8878049176148,36.163904776773],[-86.8875861253464,36.1637283746121],[-86.8873185530477,36.1635523297955],[-86.8868820284905,36.1632940145229],[-86.8865190449117,36.1630681226492],[-86.8862517482665,36.1629162475259],[-86.8860229559946,36.1628146364221],[-86.8857857636807,36.1626889124572],[-86.8856086833006,36.162606699571],[-86.8854072621498,36.1625290614345],[-86.8852332352261,36.1624775934298]]]},"properties":{"id":"275444","parcel":"09000000400","address":"6615 G ROBERTSON AVE","owner":"PINE BLUFF MATERIALS CO., LLC","point":[-86.88700802323665,36.16304394238504]}},{"type":"Feature","id":"275447","geometry":{"type":"Polygon","coordinates":[[[-86.8814213298629,36.1700947768229],[-86.8812523570642,36.1701042014371],[-86.8810837069609,36.1701168635458],[-86.8809154739485,36.1701327570534],[-86.8807478535766,36.1701527773041],[-86.8805808645671,36.1701760093687],[-86.8804146023676,36.1702024417378],[-86.8802493756244,36.1702329445986],[-86.8800849942838,36.1702663197426],[-86.8799138617251,36.1703050623067],[-86.8795487620595,36.1688501150772],[-86.8795716836231,36.1688395085606],[-86.8798271048306,36.1686530421575],[-86.8799386480612,36.1682017053668],[-86.8799752494285,36.1680805665549],[-86.8800920696965,36.1673720632047],[-86.8802133281776,36.1668195616442],[-86.8803946427786,36.166550122912],[-86.8807579467494,36.1660727733973],[-86.8809253680686,36.1657726673812],[-86.8810317220002,36.165587286114],[-86.8811300430503,36.1654107544417],[-86.8811901061928,36.1652059315255],[-86.8811991421363,36.1647992949258],[-86.8812063991391,36.1647753770216],[-86.8812094425972,36.1647508707039],[-86.8812118983901,36.1647195865655],[-86.8812170252526,36.1646885163552],[-86.8812247981591,36.164657808966],[-86.8812351787476,36.1646276133881],[-86.8812442432276,36.1645824959587],[-86.8812554976267,36.1645377050231],[-86.8812689215753,36.1644933083252],[-86.8812762457303,36.1644539231047],[-86.8812812297523,36.1644142981068],[-86.8812838613189,36.1643745244508],[-86.8813210077478,36.1641803082352],[-86.8813302495587,36.1641286489283],[-86.8813426194115,36.16407742012],[-86.8813580864812,36.1640267491145],[-86.8813766109719,36.1639767560711],[-86.8813981508952,36.1639275638687],[-86.881412466344,36.163890497034],[-86.8814301681669,36.1638544040812],[-86.8814511552428,36.1638194876333],[-86.8815771835718,36.1636976950053],[-86.8817296279131,36.1635141718251],[-86.8819514820905,36.1632356449835],[-86.8820804136759,36.1631314118062],[-86.8822587651164,36.1630627493673],[-86.8822666218236,36.163059724927],[-86.8824560767541,36.163036361258],[-86.8825745346872,36.1629651710589],[-86.8827200189039,36.1628871884234],[-86.8828983162165,36.1628353378591],[-86.883059839232,36.1627374580307],[-86.8832943846616,36.1626258578708],[-86.8834404057318,36.1625962185736],[-86.8836191667891,36.1625861170404],[-86.8837059840757,36.1625942742443],[-86.883911795906,36.1625795813741],[-86.8841635538932,36.1625535631779],[-86.8843287649221,36.1625435616616],[-86.8844610151821,36.1624942434822],[-86.8845827188985,36.162471374754],[-86.8847102591785,36.1624858237963],[-86.8848079902742,36.1625004912494],[-86.8850514709774,36.1624613452804],[-86.8852332352261,36.1624775934298],[-86.8854072621498,36.1625290614345],[-86.8856086833006,36.162606699571],[-86.8857857636807,36.1626889124572],[-86.8860229559946,36.1628146364221],[-86.8862517482665,36.1629162475259],[-86.8865190449117,36.1630681226492],[-86.8868820284905,36.1632940145229],[-86.8873185530477,36.1635523297955],[-86.8875861253464,36.1637283746121],[-86.8878049176148,36.163904776773],[-86.8880369413036,36.1640525124725],[-86.8881841192058,36.1641261508026],[-86.8883034099747,36.164129670197],[-86.8885231902254,36.1643939699263],[-86.8886261539683,36.164496778612],[-86.8887262156723,36.164601455297],[-86.8888233257955,36.1647079435725],[-86.8889174315009,36.1648161906592],[-86.8890084876903,36.1649261401158],[-86.8890964448188,36.1650377355333],[-86.8891812588875,36.1651509195608],[-86.8892628858766,36.1652656330446],[-86.8893412851198,36.1653818186089],[-86.8894164148081,36.1654994161822],[-86.8895871677406,36.1657415513859],[-86.889725520947,36.1659342017013],[-86.88988311061,36.1661503352125],[-86.8900606046467,36.1663891231492],[-86.89006945086,36.1664134690147],[-86.8900751705062,36.1664384210633],[-86.8900777028566,36.1664637183729],[-86.886190246679,36.1671907627584],[-86.8861868860761,36.1671595689991],[-86.8861795545855,36.1671288270939],[-86.8861683303715,36.1670988672369],[-86.8861533359746,36.1670700120858],[-86.8861347327145,36.1670425731979],[-86.8861127217403,36.167016845615],[-86.8860875384733,36.1669931079042],[-86.8860578561437,36.1669704991699],[-86.8860253069307,36.1669506531591],[-86.8859902780863,36.166933808569],[-86.8859531909127,36.1669201677961],[-86.8859144873655,36.1669098916269],[-86.885874632347,36.1669031055303],[-86.8858341013601,36.1668998889326],[-86.8857933783459,36.1669002806415],[-86.8857529534413,36.1669042770596],[-86.8857133073788,36.1669118286944],[-86.8856749160031,36.1669228464334],[-86.8856382391165,36.1669371980211],[-86.8856037138515,36.1669547117128],[-86.8855717535788,36.1669751780848],[-86.8855427423711,36.1669983518777],[-86.88551702505,36.1670239565753],[-86.8854949105411,36.167051686183],[-86.8854766630018,36.1670812070948],[-86.8854625019322,36.1671121680065],[-86.8854525943749,36.1671441981707],[-86.8854470616532,36.1671769136556],[-86.885445967216,36.1672099237433],[-86.8854493266602,36.1672428326592],[-86.8854560085696,36.1672704708671],[-86.88546547882,36.1672975667789],[-86.8854776742538,36.1673239387993],[-86.8854937959642,36.1673610991388],[-86.8855064006715,36.167399144196],[-86.8855154147749,36.167437853699],[-86.8855207880036,36.1674770063034],[-86.8855224866973,36.1675163751346],[-86.8855205039009,36.167555735826],[-86.8854914962087,36.1675784481217],[-86.8854651455495,36.1676031958286],[-86.8854416664331,36.1676297781925],[-86.885421253143,36.1676579747798],[-86.8848061248367,36.16897931673],[-86.8842511468925,36.1701714083999],[-86.8842154592334,36.1702480575018],[-86.8842044673043,36.1702668476161],[-86.884190103255,36.1702840770871],[-86.8841726950489,36.1702993514559],[-86.8841526422675,36.1703123190006],[-86.8841304051257,36.1703226825327],[-86.8841064923161,36.1703302057958],[-86.8840814532482,36.1703347153247],[-86.8840558614567,36.1703361077776],[-86.8840303034958,36.1703343509187],[-86.8840043410672,36.1703292145275],[-86.8839205544242,36.1703091916297],[-86.8837806738907,36.170274538016],[-86.8836218459999,36.1702431116252],[-86.8834623396338,36.1702140324085],[-86.8833021077284,36.1701883660162],[-86.8831412102239,36.1701656072919],[-86.882979723916,36.1701457664866],[-86.8828177333998,36.1701288555968],[-86.8826553165516,36.1701148821625],[-86.8824925556732,36.170103851889],[-86.8823295319748,36.1700957722928],[-86.8822163974314,36.1700857632235],[-86.8821029374289,36.1700785720132],[-86.8819892587374,36.1700742050908],[-86.8818754680867,36.1700726652808],[-86.8817616733183,36.1700739554002],[-86.8816479811119,36.1700780737683],[-86.8815344970058,36.1700850160096],[-86.8814213298629,36.1700947768229]]]},"properties":{"id":"275447","parcel":"09000000700","address":"7177 COCKRILL BEND BLVD","owner":"ROGERS GROUP, INC.","point":[-86.88528995166465,36.166396816718326]}},{"type":"Feature","id":"276167","geometry":{"type":"Polygon","coordinates":[[[-86.8864054892656,36.1597864754014],[-86.8863562646782,36.1591706298477],[-86.8869850006699,36.1591704059969],[-86.8869904318446,36.159183304841],[-86.8869934258563,36.1591967163996],[-86.8870025248586,36.1592319030526],[-86.8870139140249,36.1592666492709],[-86.887027562234,36.1593008552408],[-86.8870539614108,36.1593668484284],[-86.8870772793561,36.1594335997015],[-86.8870974827866,36.1595010155734],[-86.8871145428338,36.1595689998211],[-86.8871284362054,36.1596374579825],[-86.8871311919085,36.1596605681481],[-86.8871313769766,36.1596837855353],[-86.8871289893119,36.1597069226935],[-86.8871240479423,36.1597297929179],[-86.8871200698072,36.1598191470105],[-86.8871201656963,36.1599085594791],[-86.8871243353748,36.1599979086528],[-86.8871397430713,36.1600410558762],[-86.8871514881338,36.1600849546494],[-86.8871595138141,36.1601294008006],[-86.8871629407972,36.1601612556427],[-86.8871644605394,36.1601932074224],[-86.8871653608411,36.1602194586607],[-86.8871693898959,36.1602455174585],[-86.8871765104846,36.1602711362376],[-86.8871826229782,36.1602872079705],[-86.8871900749857,36.1603029030354],[-86.8872003740559,36.1603436128917],[-86.8872086070912,36.1603846308506],[-86.8872143300047,36.160426000735],[-86.8872180029252,36.1604675235848],[-86.8872189950423,36.1605091436522],[-86.8872179165335,36.160550761817],[-86.8872144164888,36.1605886277344],[-86.8872092768057,36.1606263705131],[-86.8872055248788,36.1606672566634],[-86.8872049706732,36.1607082526947],[-86.8872076168158,36.1607491954564],[-86.8872134514657,36.1607899201013],[-86.8872174311633,36.1608103669945],[-86.8872180119161,36.1608587352516],[-86.8872212227006,36.1609070364056],[-86.8872201573921,36.1609935787017],[-86.8872201274351,36.1610515428529],[-86.8872220786074,36.1611957484037],[-86.8872257431397,36.1613113771326],[-86.8872271264795,36.1613255566922],[-86.8872298836474,36.161371754887],[-86.8872294860085,36.1614180060161],[-86.8872294178342,36.1614195630253],[-86.8872293655566,36.1614206530553],[-86.8872253459791,36.1614693146921],[-86.8872178334064,36.1615177045847],[-86.8872068559752,36.161565655789],[-86.8872016901572,36.1615840663261],[-86.8871979411105,36.1616123895238],[-86.8871952056115,36.161640704369],[-86.8871921499785,36.1616976488745],[-86.8871924504085,36.161754646218],[-86.8871961032455,36.1618115675435],[-86.8872034950557,36.1618681937023],[-86.887214181788,36.1619244720789],[-86.8872281398317,36.1619802784696],[-86.8872362406744,36.1620079647711],[-86.8872378236066,36.1620186215662],[-86.8872435402113,36.1620496727425],[-86.8872513074818,36.1620804276438],[-86.8872611044585,36.1621108008022],[-86.8872670508714,36.1621275118501],[-86.8872740131068,36.1621442181334],[-86.8872896243135,36.1621767936282],[-86.8872977383311,36.1622058533757],[-86.887308551222,36.1622497463468],[-86.8873176941643,36.1622938886305],[-86.8873231040012,36.1623232449495],[-86.8873275010728,36.1623528790977],[-86.8873329219546,36.1623974371955],[-86.887336967922,36.1624420910229],[-86.8873393281382,36.1625016851157],[-86.8873364240036,36.1625146181801],[-86.8873354513861,36.1625322047634],[-86.8873376955882,36.1625497136189],[-86.887343107874,36.1625667620616],[-86.8873490019097,36.1625790824613],[-86.8873569216113,36.1625905596924],[-86.8873717303611,36.1626063277281],[-86.8873894342957,36.1626199916206],[-86.8873986055012,36.1626221242069],[-86.8874071110033,36.1626253558392],[-86.8874148368996,36.1626299370092],[-86.8874216202757,36.1626354128681],[-86.8874273052196,36.162641656581],[-86.8874317611996,36.1626485249033],[-86.8874343830632,36.1626559718134],[-86.8874355537994,36.162663657417],[-86.8874352424559,36.1626713980812],[-86.8874334580399,36.1626790053726],[-86.887431251071,36.1626826195033],[-86.887429615353,36.162686428616],[-86.8874294912379,36.1626869585789],[-86.8874302208217,36.1626927646562],[-86.8874333310178,36.1626979610889],[-86.8874373584483,36.1627007966382],[-86.887441858066,36.1627031185919],[-86.8874467049029,36.1627278428674],[-86.8874478927228,36.1627528590239],[-86.8874454031138,36.1627778129946],[-86.8856202962507,36.1619473104463],[-86.8856629928627,36.1618876596683],[-86.8852217223576,36.1616887106691],[-86.885222946723,36.1616863781932],[-86.8857219490909,36.1607350930684],[-86.8857219686828,36.1607350559722],[-86.8857219839198,36.1607350270194],[-86.8857220035117,36.1607349899232],[-86.8857392021811,36.1607025501593],[-86.8864255513177,36.1600360084135],[-86.8864054892656,36.1597864754014]]]},"properties":{"id":"276167","parcel":"09007000200","address":"6615 ROBERTSON AVE","owner":"PINE BLUFF MATERIALS CO., LLC","point":[-86.88641527485215,36.1609495462808]}},{"type":"Feature","id":"277826","geometry":{"type":"Polygon","coordinates":[[[-86.883911795906,36.1625795813741],[-86.8846160358312,36.1615700840331],[-86.8855748867316,36.1620069811145],[-86.8852332352261,36.1624775934298],[-86.8850514709774,36.1624613452804],[-86.8848079902742,36.1625004912494],[-86.8847102591785,36.1624858237963],[-86.8845827188985,36.162471374754],[-86.8844610151821,36.1624942434822],[-86.8843287649221,36.1625435616616],[-86.8841635538932,36.1625535631779],[-86.883911795906,36.1625795813741]]]},"properties":{"id":"277826","parcel":"09000001200","address":"6616 ROBERTSON AVE","owner":"NEW ALBANY CONCRETE SERVICE, INC.","point":[-86.88478171875646,36.16223365329055]}}]}