{"type":"FeatureCollection","features":[{"type":"Feature","id":"73474","geometry":{"type":"Polygon","coordinates":[[[-86.847772938229,36.3608707778215],[-86.8505689856989,36.3602534095044],[-86.8507196819006,36.3607501347228],[-86.8507615810222,36.3608882444075],[-86.8475127833366,36.3614939422171],[-86.847772938229,36.3608707778215]]]},"properties":{"id":"73474","parcel":"00900006700","address":"0 RIDGEWOOD RD","owner":"KERR, JOE F. JR. ET UX","point":[-86.84926479168242,36.36087951734528]}},{"type":"Feature","id":"73477","geometry":{"type":"Polygon","coordinates":[[[-86.8492713997327,36.3597630352594],[-86.8503415196606,36.359533663651],[-86.8503649231924,36.359590116668],[-86.8503851930917,36.3596473568414],[-86.8505689856989,36.3602534095044],[-86.847772938229,36.3608707778215],[-86.8481335387067,36.3600069943477],[-86.8481335821333,36.3600068876991],[-86.8484204377375,36.3599454257065],[-86.8492713997327,36.3597630352594]]]},"properties":{"id":"73477","parcel":"00900006800","address":"7964 RIDGEWOOD RD","owner":"ABBOTT, ROBERT D. JR.","point":[-86.84930742246046,36.36013015284873]}},{"type":"Feature","id":"73504","geometry":{"type":"Polygon","coordinates":[[[-86.8480856310032,36.3643058041663],[-86.8485976035265,36.362449686225],[-86.8510759925335,36.3619548635839],[-86.851107194142,36.3620569454031],[-86.851140913991,36.3621585021096],[-86.8511771416159,36.3622594923191],[-86.8512158598769,36.362359875595],[-86.8512497312711,36.3624145757829],[-86.8496885080636,36.3626409085554],[-86.8497686162377,36.3628265879101],[-86.8498222119426,36.3634530604964],[-86.8498372208349,36.3637122652587],[-86.8495174168936,36.3644523351497],[-86.8480856310032,36.3643058041663]]]},"properties":{"id":"73504","parcel":"00900009900","address":"0 RIDGEWOOD RD","owner":"CANTRELL, GEORGE R. ETUX","point":[-86.8491015716284,36.3631389499459]}},{"type":"Feature","id":"73507","geometry":{"type":"Polygon","coordinates":[[[-86.8468748433609,36.3641805088384],[-86.8473610059988,36.3621317434462],[-86.8502568917646,36.3615513295566],[-86.8502616470443,36.3615512961413],[-86.8509228391971,36.3614194649947],[-86.8509612224109,36.3615463781967],[-86.8510161576073,36.3617283883252],[-86.8510444856965,36.361841899845],[-86.8510759925335,36.3619548635839],[-86.8485976035265,36.362449686225],[-86.8480856310032,36.3643058041663],[-86.8468748433609,36.3641805088384]]]},"properties":{"id":"73507","parcel":"00900010000","address":"7988 RIDGEWOOD RD","owner":"BROWN, ANDREW & VANESSA","point":[-86.84771954197267,36.36331507945027]}},{"type":"Feature","id":"74058","geometry":{"type":"Polygon","coordinates":[[[-86.8475127833366,36.3614939422171],[-86.8507615810222,36.3608882444075],[-86.8509228391971,36.3614194649947],[-86.8502616470443,36.3615512961413],[-86.8502568917646,36.3615513295566],[-86.8473610059988,36.3621317434462],[-86.8474952657107,36.3615707038984],[-86.8475127833366,36.3614939422171]]]},"properties":{"id":"74058","parcel":"00900006600","address":"7980 RIDGEWOOD RD","owner":"KERR, JOE F. JR. ET UX","point":[-86.84895127607872,36.36152270808544]}},{"type":"Feature","id":"75510","geometry":{"type":"Polygon","coordinates":[[[-86.8454036853967,36.3640278320726],[-86.8474677463115,36.3583605111347],[-86.8487934857051,36.3586110928672],[-86.8481335821333,36.3600068876991],[-86.8481335387067,36.3600069943477],[-86.847772938229,36.3608707778215],[-86.8475127833366,36.3614939422171],[-86.8474952657107,36.3615707038984],[-86.8473610059988,36.3621317434462],[-86.8468748433609,36.3641805088384],[-86.8454036853967,36.3640278320726]]]},"properties":{"id":"75510","parcel":"00900007000","address":"7928 RIDGEWOOD RD","owner":"FAIRCLOTH, SHARON Z.","point":[-86.84704173947377,36.36118159208228]}}]}