{"type":"FeatureCollection","features":[{"type":"Feature","id":"65414","geometry":{"type":"Polygon","coordinates":[[[-86.8754849039668,36.3519615427663],[-86.8756469365134,36.3519206656853],[-86.8760785868543,36.3525258768603],[-86.874035326895,36.3534049024808],[-86.8726012888955,36.3540463409094],[-86.8729514451918,36.3525999984965],[-86.8754849039668,36.3519615427663]]]},"properties":{"id":"65414","parcel":"00900024800","address":"0 WHITES CREEK PIKE","owner":"HARRISON, ANDREW","point":[-86.87391069767341,36.35300289279915]}},{"type":"Feature","id":"65427","geometry":{"type":"Polygon","coordinates":[[[-86.8752901216791,36.3511623455039],[-86.8753075955628,36.351109258482],[-86.8769300071278,36.3507319645403],[-86.8778209085036,36.3500523048146],[-86.8779751980109,36.3502903457356],[-86.8779956845901,36.3503280639313],[-86.8780174582835,36.3503653077487],[-86.8780803871487,36.350472687388],[-86.878146050522,36.3505789918066],[-86.8782144189076,36.3506841725478],[-86.878285463993,36.3507881874552],[-86.8756469365134,36.3519206656853],[-86.8754849039668,36.3519615427663],[-86.8752901216791,36.3511623455039]]]},"properties":{"id":"65427","parcel":"00800025300","address":"0 WHITES CREEK PIKE","owner":"ARMSTRONG, JOSEPH C.","point":[-86.87695509866526,36.35094889563105]}},{"type":"Feature","id":"65797","geometry":{"type":"Polygon","coordinates":[[[-86.8733408926781,36.3509912976523],[-86.8738199352168,36.3490124118368],[-86.8744935574515,36.3490715253033],[-86.8748783321237,36.3491052899427],[-86.8743154988796,36.3510768251066],[-86.8733408926781,36.3509912976523]]]},"properties":{"id":"65797","parcel":"00900024900","address":"0 WHITES CREEK PIKE","owner":"HADLEY, JESSICA","point":[-86.87408914472012,36.35004827478872]}},{"type":"Feature","id":"66329","geometry":{"type":"Polygon","coordinates":[[[-86.8729514451918,36.3525999984965],[-86.8733408926781,36.3509912976523],[-86.8743154988796,36.3510768251066],[-86.8752901216791,36.3511623455039],[-86.8754849039668,36.3519615427663],[-86.8729514451918,36.3525999984965]]]},"properties":{"id":"66329","parcel":"00900024700","address":"0 WHITES CREEK PIKE","owner":"ARMSTRONG, REBECCA B.","point":[-86.87429540814239,36.35156080033735]}},{"type":"Feature","id":"72300","geometry":{"type":"Polygon","coordinates":[[[-86.8783952610033,36.3505234767147],[-86.8792668969641,36.350237513945],[-86.8788256715521,36.3511806819634],[-86.8787446479411,36.3510753078072],[-86.8786672635794,36.3509681587829],[-86.8785935772965,36.3508593164816],[-86.8785236468465,36.350748866107],[-86.8784575243827,36.3506368901996],[-86.8783952610033,36.3505234767147]]]},"properties":{"id":"72300","parcel":"00800008600","address":"7801 WHITES CREEK PIKE","owner":"BIRCKHEAD COMMUNITY PROPERTY TRUST","point":[-86.87877209594906,36.35069316407598]}},{"type":"Feature","id":"73334","geometry":{"type":"Polygon","coordinates":[[[-86.8672832288088,36.3585956510898],[-86.867481182741,36.3571663736841],[-86.8705837321053,36.3574349903662],[-86.874406964827,36.357765896185],[-86.8742223144625,36.3591893206715],[-86.8728153176637,36.3590689982478],[-86.8672832288088,36.3585956510898]]]},"properties":{"id":"73334","parcel":"00900001800","address":"0 JACKMAN RD","owner":"TOWNS, S. O.","point":[-86.87084693399053,36.35818082874389]}},{"type":"Feature","id":"73337","geometry":{"type":"Polygon","coordinates":[[[-86.8743154988796,36.3510768251066],[-86.8748783321237,36.3491052899427],[-86.8753279827701,36.3491404999873],[-86.8759463808906,36.3491889225357],[-86.8753075955628,36.351109258482],[-86.8752901216791,36.3511623455039],[-86.8743154988796,36.3510768251066]]]},"properties":{"id":"73337","parcel":"00900002100","address":"7760 WHITES CREEK PIKE","owner":"ARMSTRONG, JOHN, IV","point":[-86.87510867783408,36.35013285342222]}},{"type":"Feature","id":"73355","geometry":{"type":"Polygon","coordinates":[[[-86.8756469365134,36.3519206656853],[-86.878285463993,36.3507881874552],[-86.878356430345,36.3508872984117],[-86.8784298094548,36.3509852526549],[-86.8785055752758,36.351082011617],[-86.8785454302248,36.3511339041623],[-86.8781748631861,36.351623986279],[-86.8760785868543,36.3525258768603],[-86.8756469365134,36.3519206656853]]]},"properties":{"id":"73355","parcel":"00800018600","address":"7780 WHITES CREEK PIKE","owner":"MOONEYHAM, LANNY","point":[-86.87691131695729,36.35177233310051]}},{"type":"Feature","id":"73525","geometry":{"type":"Polygon","coordinates":[[[-86.8678066539168,36.3548236479192],[-86.8679851426067,36.353541796519],[-86.8681665299412,36.3534833059922],[-86.8682924023214,36.3534417484094],[-86.868334455159,36.3534245405055],[-86.8683750504365,36.353405177403],[-86.8684140185617,36.3533837387273],[-86.8684307160493,36.353371436106],[-86.8684607952853,36.3533505848305],[-86.8702106842074,36.3535230859802],[-86.8705476998343,36.3521728211808],[-86.8691281580328,36.3520948819084],[-86.8693756058896,36.351306704809],[-86.86954344767,36.3508440445069],[-86.8695821132439,36.3507579815456],[-86.8696241201177,36.3506729498879],[-86.8696694268705,36.3505890336422],[-86.8697179887497,36.3505063178418],[-86.8697697576219,36.3504248839391],[-86.8698151247724,36.3503585582397],[-86.8698628523891,36.3502933267619],[-86.8699129020619,36.3502292429516],[-86.8699652298312,36.3501663620969],[-86.8701092184879,36.3500263312929],[-86.8702556750436,36.3498879849726],[-86.8704045675055,36.3497513521968],[-86.8705558671942,36.3496164592985],[-86.8707095421284,36.3494833362397],[-86.871904503987,36.349945831159],[-86.8722084055927,36.3488741750136],[-86.8738185111873,36.349012289642],[-86.8738199352168,36.3490124118368],[-86.8733408926781,36.3509912976523],[-86.8729514451918,36.3525999984965],[-86.8726012888955,36.3540463409094],[-86.870242918286,36.3551011704707],[-86.8678066539168,36.3548236479192]]]},"properties":{"id":"73525","parcel":"00900019600","address":"7857 GREENBRIER RD","owner":"ARMSTRONG, JAMES L & HELEN L REVOCABLE LIVING TRUST","point":[-86.8712099973704,36.35170291988363]}},{"type":"Feature","id":"74031","geometry":{"type":"Polygon","coordinates":[[[-86.8788256715521,36.3511806819634],[-86.8792668969641,36.350237513945],[-86.8796081952861,36.3495079333265],[-86.8809816978928,36.3496688318417],[-86.8807821323066,36.3521200139688],[-86.8799289099791,36.3522869167243],[-86.8798131251088,36.3521883453359],[-86.8796996751045,36.3520880129842],[-86.8795886038128,36.3519859554057],[-86.8794799495093,36.3518822083778],[-86.8793737516028,36.3517768094718],[-86.8792700495216,36.3516697980614],[-86.8792484402326,36.3516504516536],[-86.8791290166425,36.3515268375141],[-86.8790131597727,36.3514010217777],[-86.8789009316475,36.3512730724972],[-86.8788256715521,36.3511806819634]]]},"properties":{"id":"74031","parcel":"00800020500","address":"7815 WHITES CREEK PIKE","owner":"BETHEL CHURCH OF CHRIST","point":[-86.87997156964593,36.3507100311548]}},{"type":"Feature","id":"74520","geometry":{"type":"Polygon","coordinates":[[[-86.8705837321053,36.3574349903662],[-86.870242918286,36.3551011704707],[-86.8726012888955,36.3540463409094],[-86.874035326895,36.3534049024808],[-86.8743456783296,36.3538158992336],[-86.8754527728613,36.3533395694267],[-86.8758222442307,36.352885270106],[-86.8763684146685,36.3527383499353],[-86.8770264628541,36.3528963277005],[-86.8777886181595,36.3522522344291],[-86.8783056121563,36.3517158211725],[-86.8786396496909,36.3512527758232],[-86.8787439974377,36.3513775318558],[-86.8788518376831,36.3515003283919],[-86.8784609438118,36.3518338996046],[-86.8769775964629,36.3540372722198],[-86.8771591071277,36.3545745940305],[-86.8771591209359,36.3545746335843],[-86.8766873557653,36.3550130566936],[-86.8766666801735,36.3550322701391],[-86.8764925196912,36.3550360202403],[-86.8761282052827,36.3550438626152],[-86.8757914117899,36.3550446526624],[-86.8757404808442,36.3554823339035],[-86.8757128783649,36.3557193208153],[-86.8756886728644,36.3559257910502],[-86.8756762414579,36.3560299896959],[-86.8745800107259,36.356430181628],[-86.874406964827,36.357765896185],[-86.8705837321053,36.3574349903662]]]},"properties":{"id":"74520","parcel":"00900002000","address":"7786 WHITES CREEK PIKE","owner":"HOBSON, ROBERT W REV TRUST","point":[-86.8745440813983,36.35431013678355]}},{"type":"Feature","id":"75375","geometry":{"type":"Polygon","coordinates":[[[-86.8759463808906,36.3491889225357],[-86.876525304736,36.3492342501337],[-86.8772571285177,36.3492915458587],[-86.8773451960519,36.3493935047784],[-86.8774311389547,36.3494966434276],[-86.877514930166,36.3496009331677],[-86.8775965493094,36.3497063453115],[-86.8778209085036,36.3500523048146],[-86.8769300071278,36.3507319645403],[-86.8753075955628,36.351109258482],[-86.8759463808906,36.3491889225357]]]},"properties":{"id":"75375","parcel":"00800018300","address":"7760 WHITES CREEK PIKE","owner":"ARMSTRONG, JOHN H. III. & REBECCA B.","point":[-86.87646111677739,36.350391193758036]}},{"type":"Feature","id":"75973","geometry":{"type":"Polygon","coordinates":[[[-86.8784609438118,36.3518338996046],[-86.8788518376831,36.3515003283919],[-86.8789291546945,36.3515846839392],[-86.8790081915742,36.3516679914303],[-86.8790889257736,36.3517502266927],[-86.8791109255631,36.351774239548],[-86.8792366578052,36.351902481614],[-86.8793659044237,36.3520284187999],[-86.8794985989754,36.3521519866894],[-86.8796346750452,36.3522731235697],[-86.879398091335,36.3524930728434],[-86.8775190655776,36.3542400324784],[-86.8771591209359,36.3545746335843],[-86.8771591071277,36.3545745940305],[-86.8769775964629,36.3540372722198],[-86.8784609438118,36.3518338996046]]]},"properties":{"id":"75973","parcel":"00800006100","address":"7794 WHITES CREEK PIKE","owner":"HOBSON, ROBERT W REV TRUST","point":[-86.87803254183973,36.353265020305486]}},{"type":"Feature","id":"192250","geometry":{"type":"Polygon","coordinates":[[[-86.874035326895,36.3534049024808],[-86.8760785868543,36.3525258768603],[-86.8781748631861,36.351623986279],[-86.8785454302248,36.3511339041623],[-86.8786396496909,36.3512527758232],[-86.8783056121563,36.3517158211725],[-86.8777886181595,36.3522522344291],[-86.8770264628541,36.3528963277005],[-86.8763684146685,36.3527383499353],[-86.8758222442307,36.352885270106],[-86.8754527728613,36.3533395694267],[-86.8743456783296,36.3538158992336],[-86.874035326895,36.3534049024808]]]},"properties":{"id":"192250","parcel":"00800025900","address":"7784 WHITES CREEK PIKE","owner":"SUMER, MESUT & ORUC, SALTANAT","point":[-86.87701188162899,36.35238913929918]}}]}