{"type":"FeatureCollection","features":[{"type":"Feature","id":"34122","geometry":{"type":"Polygon","coordinates":[[[-86.8110493038721,36.239431210689],[-86.8111371945119,36.2394042841916],[-86.8111947274248,36.2395184939868],[-86.8111078744005,36.2395460462374],[-86.8110493038721,36.239431210689]]]},"properties":{"id":"34122","parcel":"049150A00100CO","address":"741 A FLINT RIDGE DR","owner":"DAVIS, ZIPPORAH","point":[-86.81112215275867,36.239474852576556]}},{"type":"Feature","id":"34123","geometry":{"type":"Polygon","coordinates":[[[-86.8113584879706,36.2395715181073],[-86.8111693628256,36.2392031753332],[-86.8112583802746,36.2391724541131],[-86.8114284392843,36.2391467780943],[-86.811601815248,36.239490768983],[-86.8113584879706,36.2395715181073]],[[-86.8114226868156,36.2394434623161],[-86.8113740759226,36.2393515158356],[-86.811386142989,36.2393479802878],[-86.8113990624028,36.2393445678932],[-86.8114471064159,36.2394353663705],[-86.81153538082,36.2394067075006],[-86.8114772491561,36.2392948000779],[-86.8113753417282,36.2393263795029],[-86.811274340272,36.2393599598473],[-86.811334060137,36.2394717332262],[-86.8114226868156,36.2394434623161]]]},"properties":{"id":"34123","parcel":"049150A00600CO","address":"0 FLINT RIDGE DR","owner":"O.I.C. FLINT RIDGE HOMES","point":[-86.81126742406022,36.239355648289546]}},{"type":"Feature","id":"34124","geometry":{"type":"Polygon","coordinates":[[[-86.8126605547913,36.2387778813008],[-86.8126901873345,36.2387021686659],[-86.8127172210838,36.2387087308797],[-86.8127125795113,36.2387184866266],[-86.8128505423445,36.2387551397787],[-86.812826114747,36.2388212353093],[-86.8126605547913,36.2387778813008]]]},"properties":{"id":"34124","parcel":"049150A00700CO","address":"205 FLINT RIDGE CT","owner":"THE WILLIAM FRANKLIN BUCHANAN COMMUNITY DEV CORP","point":[-86.81275567399123,36.23876651077378]}},{"type":"Feature","id":"34125","geometry":{"type":"Polygon","coordinates":[[[-86.812530934935,36.2387313598764],[-86.8127012871076,36.2385124712313],[-86.8130053174545,36.2387264496333],[-86.8130145506571,36.23873407879],[-86.8130008660054,36.2387509450084],[-86.8129904025343,36.2387692630968],[-86.8129833919723,36.2387886304386],[-86.8129799846363,36.238808625138],[-86.812980256125,36.238828807776],[-86.8125771278549,36.238867780092],[-86.812530934935,36.2387313598764]],[[-86.8128505423445,36.2387551397787],[-86.8127125795113,36.2387184866266],[-86.8127172210838,36.2387087308797],[-86.812720601138,36.2386987664174],[-86.8128583315311,36.238734345028],[-86.8128837108103,36.238667975413],[-86.8127190824816,36.2386264817113],[-86.8126901873345,36.2387021686659],[-86.8126605547913,36.2387778813008],[-86.812826114747,36.2388212353093],[-86.8128505423445,36.2387551397787]]]},"properties":{"id":"34125","parcel":"049150A00900CO","address":"0 FLINT RIDGE CT","owner":"O.I.C. FLINT RIDGE HOMES","point":[-86.81263299692648,36.23868310615005]}},{"type":"Feature","id":"34126","geometry":{"type":"Polygon","coordinates":[[[-86.8113410244517,36.2397858929188],[-86.8114288972743,36.2397567618693],[-86.8114706365763,36.2398393859531],[-86.81138276479,36.2398685170248],[-86.8113410244517,36.2397858929188]]]},"properties":{"id":"34126","parcel":"049150A01900CO","address":"750 FLINT RIDGE DR","owner":"REYES, MILDRED DE LA CRUZ","point":[-86.81140583067236,36.23981263945378]}},{"type":"Feature","id":"34127","geometry":{"type":"Polygon","coordinates":[[[-86.8113120051902,36.2400662899773],[-86.8111569074077,36.2397552736109],[-86.8114218687693,36.2396677869328],[-86.8115742054384,36.239976565686],[-86.8115742293122,36.2399766155451],[-86.811312120481,36.2400662495479],[-86.8113120051902,36.2400662899773]],[[-86.8113566616896,36.2398769306878],[-86.8113156576057,36.2397940627967],[-86.8112280482679,36.2398218788684],[-86.8112682627174,36.2399049981328],[-86.8113566616896,36.2398769306878]],[[-86.8113410244517,36.2397858929188],[-86.81138276479,36.2398685170248],[-86.8114706365763,36.2398393859531],[-86.8114288972743,36.2397567618693],[-86.8113410244517,36.2397858929188]]]},"properties":{"id":"34127","parcel":"049150A02100CO","address":"0 FLINT RIDGE DR","owner":"O.I.C. FLINT RIDGE HOMES","point":[-86.81147024084801,36.23985402011534]}},{"type":"Feature","id":"34862","geometry":{"type":"Polygon","coordinates":[[[-86.8111232539688,36.2396478142839],[-86.8109386694264,36.2392827888309],[-86.8111693628256,36.2392031753332],[-86.8113584879706,36.2395715181073],[-86.8111232539688,36.2396478142839]],[[-86.8112827836164,36.2394905631784],[-86.8112248011329,36.2393774406496],[-86.8111371945119,36.2394042841916],[-86.8110493038721,36.239431210689],[-86.8111078744005,36.2395460462374],[-86.8111947274248,36.2395184939868],[-86.8112827836164,36.2394905631784]]]},"properties":{"id":"34862","parcel":"049150A00300CO","address":"0 FLINT RIDGE DR","owner":"O.I.C. FLINT RIDGE HOMES","point":[-86.8110500473571,36.23941767922756]}},{"type":"Feature","id":"34864","geometry":{"type":"Polygon","coordinates":[[[-86.811274340272,36.2393599598473],[-86.8113753417282,36.2393263795029],[-86.811386142989,36.2393479802878],[-86.8113740759226,36.2393515158356],[-86.8114226868156,36.2394434623161],[-86.811334060137,36.2394717332262],[-86.811274340272,36.2393599598473]]]},"properties":{"id":"34864","parcel":"049150A00400CO","address":"745 A FLINT RIDGE DR","owner":"BOUYER, VALORIE","point":[-86.81134863045615,36.23940171128914]}},{"type":"Feature","id":"34866","geometry":{"type":"Polygon","coordinates":[[[-86.8130053174545,36.2387264496333],[-86.8127012871076,36.2385124712313],[-86.8128125356055,36.2383695248516],[-86.8130996741094,36.2383356197231],[-86.8130996804868,36.2383362415449],[-86.8130988016816,36.238336358314],[-86.8131354186875,36.2386824454427],[-86.8131121016502,36.2386847581815],[-86.8130894432259,36.2386897828601],[-86.8130679229363,36.2386974135087],[-86.8130479941441,36.238707488456],[-86.8130300774526,36.2387197975839],[-86.8130145506571,36.23873407879],[-86.8130053174545,36.2387264496333]],[[-86.8129964396511,36.2386033278978],[-86.8129290629293,36.2384972063117],[-86.8129413436281,36.2384924993422],[-86.8129521855373,36.2384877632995],[-86.8130193195804,36.2385939766316],[-86.8130954137357,36.2385636934048],[-86.8130152604284,36.2384361710794],[-86.8129278325349,36.2384720398853],[-86.8128407699541,36.2385076303855],[-86.8129200826403,36.2386353252111],[-86.8129964396511,36.2386033278978]]]},"properties":{"id":"34866","parcel":"049150A01200CO","address":"0 FLINT RIDGE CT","owner":"O.I.C. FLINT RIDGE HOMES","point":[-86.81279848255407,36.23853792626168]}},{"type":"Feature","id":"34868","geometry":{"type":"Polygon","coordinates":[[[-86.8131498275164,36.2385617706948],[-86.8131973826574,36.2384248178992],[-86.8133631459727,36.2384626613445],[-86.8133149814406,36.238598855848],[-86.8131498275164,36.2385617706948]]]},"properties":{"id":"34868","parcel":"049150A01300CO","address":"210 FLINT RIDGE CT","owner":"FERREIRA, LEANDRO & LAWRENCE, MOLLY MORGAN","point":[-86.81325632763354,36.23851221581914]}},{"type":"Feature","id":"34870","geometry":{"type":"Polygon","coordinates":[[[-86.813274906853,36.2394311904375],[-86.8132791719943,36.2394089269121],[-86.8132932010394,36.2394104439084],[-86.8133179994526,36.2392935403615],[-86.8134018386598,36.2393051283969],[-86.8133726381318,36.2394429670645],[-86.813274906853,36.2394311904375]]]},"properties":{"id":"34870","parcel":"049150A01600CO","address":"818 FLINT RIDGE DR","owner":"BE A HELPING HAND FOUNDATION","point":[-86.81334768569455,36.23935703887276]}},{"type":"Feature","id":"34872","geometry":{"type":"Polygon","coordinates":[[[-86.8131768060061,36.2394188484298],[-86.813204038209,36.2392794341513],[-86.8132905401757,36.2392894442708],[-86.8132665985127,36.2394069035251],[-86.8132791719943,36.2394089269121],[-86.813274906853,36.2394311904375],[-86.8131768060061,36.2394188484298]]]},"properties":{"id":"34872","parcel":"049150A01700CO","address":"816 FLINT RIDGE DR","owner":"JEFFERSON STREET UNITED MERCHANTS PRTNSHP COMM DEV CORP","point":[-86.81323460362442,36.23934810527473]}},{"type":"Feature","id":"34874","geometry":{"type":"Polygon","coordinates":[[[-86.8111741604828,36.2399754410536],[-86.8111620849093,36.2399505367061],[-86.8111386554083,36.2399579923633],[-86.8110907934624,36.2398595400183],[-86.8111736877199,36.2398324631899],[-86.8112218533911,36.2399297111929],[-86.8111999336884,36.2399367385426],[-86.8112129037641,36.2399627310008],[-86.8111741604828,36.2399754410536]]]},"properties":{"id":"34874","parcel":"049150A02200CO","address":"746 FLINT RIDGE DR","owner":"FLANDERS, THOMAS & ROSEANNE","point":[-86.81115616323437,36.23989462537076]}},{"type":"Feature","id":"35065","geometry":{"type":"Polygon","coordinates":[[[-86.8110552036703,36.2401559188675],[-86.8109000470519,36.2398383072128],[-86.8111569074077,36.2397552736109],[-86.8113120051902,36.2400662899773],[-86.8110553189705,36.2401558793396],[-86.8110552036703,36.2401559188675]],[[-86.8111067440314,36.2399907995208],[-86.8110488110022,36.2398749097453],[-86.8109635676079,36.2399025925768],[-86.8110220367631,36.2400185896464],[-86.8111067440314,36.2399907995208]],[[-86.8110907934624,36.2398595400183],[-86.8111386554083,36.2399579923633],[-86.8111620849093,36.2399505367061],[-86.8111741604828,36.2399754410536],[-86.8112129037641,36.2399627310008],[-86.8111999336884,36.2399367385426],[-86.8112218533911,36.2399297111929],[-86.8111736877199,36.2398324631899],[-86.8110907934624,36.2398595400183]]]},"properties":{"id":"35065","parcel":"049150A02400CO","address":"0 FLINT RIDGE DR","owner":"O.I.C. FLINT RIDGE HOMES","point":[-86.81111263206685,36.23995420496087]}},{"type":"Feature","id":"35699","geometry":{"type":"Polygon","coordinates":[[[-86.8128407699541,36.2385076303855],[-86.8129278325349,36.2384720398853],[-86.8129413436281,36.2384924993422],[-86.8129290629293,36.2384972063117],[-86.8129964396511,36.2386033278978],[-86.8129200826403,36.2386353252111],[-86.8128407699541,36.2385076303855]]]},"properties":{"id":"35699","parcel":"049150A01000CO","address":"209 FLINT RIDGE CT","owner":"YOUNG, ROBERT CUSHMAN III","point":[-86.81291827505748,36.238555478651485]}},{"type":"Feature","id":"35700","geometry":{"type":"Polygon","coordinates":[[[-86.8132673688388,36.2395721223434],[-86.8131312619398,36.2395664548673],[-86.8131681326829,36.2391939964171],[-86.8132165169552,36.2391968440412],[-86.8132646508233,36.2392017436822],[-86.8133124006576,36.2392086827215],[-86.8134516501902,36.2392299962126],[-86.8133758573915,36.2395766318491],[-86.8132673688388,36.2395721223434]],[[-86.8134018386598,36.2393051283969],[-86.8133179994526,36.2392935403615],[-86.8132932010394,36.2394104439084],[-86.8132791719943,36.2394089269121],[-86.8132665985127,36.2394069035251],[-86.8132905401757,36.2392894442708],[-86.813204038209,36.2392794341513],[-86.8131768060061,36.2394188484298],[-86.813274906853,36.2394311904375],[-86.8133726381318,36.2394429670645],[-86.8134018386598,36.2393051283969]]]},"properties":{"id":"35700","parcel":"049150A01800CO","address":"0 FLINT RIDGE DR","owner":"O.I.C. FLINT RIDGE HOMES","point":[-86.81317062279076,36.23935576062529]}},{"type":"Feature","id":"35938","geometry":{"type":"Polygon","coordinates":[[[-86.8111371945119,36.2394042841916],[-86.8112248011329,36.2393774406496],[-86.8112827836164,36.2394905631784],[-86.8111947274248,36.2395184939868],[-86.8111371945119,36.2394042841916]]]},"properties":{"id":"35938","parcel":"049150A00200CO","address":"741 B FLINT RIDGE DR","owner":"SUMMERS, ALISHA N.","point":[-86.81120979909326,36.23944742340747]}},{"type":"Feature","id":"35939","geometry":{"type":"Polygon","coordinates":[[[-86.8114471064159,36.2394353663705],[-86.8113990624028,36.2393445678932],[-86.811386142989,36.2393479802878],[-86.8113753417282,36.2393263795029],[-86.8114772491561,36.2392948000779],[-86.81153538082,36.2394067075006],[-86.8114471064159,36.2394353663705]]]},"properties":{"id":"35939","parcel":"049150A00500CO","address":"745 B FLINT RIDGE DR","owner":"LYONS, LILLIE","point":[-86.81146827212063,36.23937735575237]}},{"type":"Feature","id":"35940","geometry":{"type":"Polygon","coordinates":[[[-86.8128583315311,36.238734345028],[-86.812720601138,36.2386987664174],[-86.8127172210838,36.2387087308797],[-86.8126901873345,36.2387021686659],[-86.8127190824816,36.2386264817113],[-86.8128837108103,36.238667975413],[-86.8128583315311,36.238734345028]]]},"properties":{"id":"35940","parcel":"049150A00800CO","address":"207 FLINT RIDGE CT","owner":"JEFFERSON STREET UNITED MERCHANTS PRTNSHP COMM DEV CORP","point":[-86.81278760239556,36.238683348171]}},{"type":"Feature","id":"35941","geometry":{"type":"Polygon","coordinates":[[[-86.8130193195804,36.2385939766316],[-86.8129521855373,36.2384877632995],[-86.8129413436281,36.2384924993422],[-86.8129278325349,36.2384720398853],[-86.8130152604284,36.2384361710794],[-86.8130954137357,36.2385636934048],[-86.8130193195804,36.2385939766316]]]},"properties":{"id":"35941","parcel":"049150A01100CO","address":"211 FLINT RIDGE CT","owner":"BE A HELPING HAND FOUNDATION","point":[-86.81302536585376,36.23852810731793]}},{"type":"Feature","id":"35942","geometry":{"type":"Polygon","coordinates":[[[-86.8131354186875,36.2386824454427],[-86.8130988016816,36.238336358314],[-86.8130996804868,36.2383362415449],[-86.8130996741094,36.2383356197231],[-86.8131407930899,36.2383307645948],[-86.8133922758943,36.2382972627873],[-86.8134108276551,36.2383176981681],[-86.8134992418998,36.2384151826186],[-86.8135084751229,36.2384228126394],[-86.8132475920478,36.2387088865846],[-86.8132276681849,36.2386981822352],[-86.8132059793544,36.2386900312973],[-86.8131830236476,36.2386846196803],[-86.8131593230002,36.2386820718483],[-86.8131354186875,36.2386824454427]],[[-86.8133631459727,36.2384626613445],[-86.8131973826574,36.2384248178992],[-86.8131498275164,36.2385617706948],[-86.8133149814406,36.238598855848],[-86.8133631459727,36.2384626613445]]]},"properties":{"id":"35942","parcel":"049150A01500CO","address":"0 FLINT RIDGE CT","owner":"O.I.C. FLINT RIDGE HOMES","point":[-86.81338613721981,36.23851241836115]}},{"type":"Feature","id":"35943","geometry":{"type":"Polygon","coordinates":[[[-86.8112280482679,36.2398218788684],[-86.8113156576057,36.2397940627967],[-86.8113566616896,36.2398769306878],[-86.8112682627174,36.2399049981328],[-86.8112280482679,36.2398218788684]]]},"properties":{"id":"35943","parcel":"049150A02000CO","address":"748 FLINT RIDGE DR","owner":"EDWARDS, JAKE & PEINE, KAYLEN","point":[-86.81129220395255,36.239849404557205]}},{"type":"Feature","id":"35944","geometry":{"type":"Polygon","coordinates":[[[-86.8109635676079,36.2399025925768],[-86.8110488110022,36.2398749097453],[-86.8111067440314,36.2399907995208],[-86.8110220367631,36.2400185896464],[-86.8109635676079,36.2399025925768]]]},"properties":{"id":"35944","parcel":"049150A02300CO","address":"744 FLINT RIDGE DR","owner":"ROSING, ARON A & KIMBERLY B","point":[-86.81103524743757,36.23994669621502]}},{"type":"Feature","id":"78162","geometry":{"type":"Polygon","coordinates":[[[-86.8135302433418,36.2366801554926],[-86.8137145913253,36.236668408885],[-86.8137904099606,36.2370712533529],[-86.8135908020576,36.2370959087542],[-86.8135109496903,36.2366813840484],[-86.8135302433418,36.2366801554926]]]},"properties":{"id":"78162","parcel":"049140A04300CO","address":"564 GREEN LN","owner":"CHATMAN, LAQUWANDA C.","point":[-86.81365111106675,36.23687631945661]}},{"type":"Feature","id":"81010","geometry":{"type":"Polygon","coordinates":[[[-86.8151365605581,36.2364805814068],[-86.8152542852597,36.2364660383609],[-86.8153309564616,36.2368733707362],[-86.8152132322723,36.2368879129464],[-86.8151365605581,36.2364805814068]]]},"properties":{"id":"81010","parcel":"049140A90200CO","address":"582 B GREEN LN","owner":"VISTA AT WHITES CREEK HOMEOWNERS ASSC","point":[-86.81523375857627,36.236676976113976]}},{"type":"Feature","id":"94080","geometry":{"type":"Polygon","coordinates":[[[-86.8152542852597,36.2364660383609],[-86.8154554065779,36.2364411933306],[-86.8155320787797,36.2368485246801],[-86.8153644768536,36.2368692294497],[-86.8153309564616,36.2368733707362],[-86.8152542852597,36.2364660383609]]]},"properties":{"id":"94080","parcel":"049140A00700CO","address":"584 GREEN LN","owner":"COPELAND, KAREN","point":[-86.81539318164702,36.23665728160316]}},{"type":"Feature","id":"94081","geometry":{"type":"Polygon","coordinates":[[[-86.8149354390401,36.2365054259059],[-86.8151365605581,36.2364805814068],[-86.8152132322723,36.2368879129464],[-86.81519687484,36.2368899339867],[-86.8150292727388,36.2369106382911],[-86.8150121086327,36.2369127575777],[-86.8149354390401,36.2365054259059]]]},"properties":{"id":"94081","parcel":"049140A00800CO","address":"582 GREEN LN","owner":"MURDIC, TANAE C. MCKNIGHT & NICHOLAS T.","point":[-86.81507433505982,36.23669666950846]}},{"type":"Feature","id":"94097","geometry":{"type":"Polygon","coordinates":[[[-86.8153644768536,36.2368692294497],[-86.8155320787797,36.2368485246801],[-86.8155934166635,36.237174389693],[-86.8154258151769,36.2371950945382],[-86.8153644768536,36.2368692294497]]]},"properties":{"id":"94097","parcel":"049140A02000CO","address":"6229 DEL SOL DR","owner":"HARPER, JAMES W. III & JEANETTA LYVETTE","point":[-86.81547894679882,36.23702180962781]}},{"type":"Feature","id":"94098","geometry":{"type":"Polygon","coordinates":[[[-86.8141745012008,36.2370162249984],[-86.8143588645527,36.236993451372],[-86.8144201977266,36.2373193169668],[-86.8143196358119,36.2373317391096],[-86.8143063694538,36.2373325234008],[-86.8142931135233,36.2373316150661],[-86.8142801975779,36.2373290389215],[-86.8142679382143,36.2373248577236],[-86.8142566368717,36.2373191748874],[-86.8142465719888,36.237312129132],[-86.8142379923206,36.2373038936243],[-86.8142311068978,36.2372946733428],[-86.8142260871414,36.2372846942483],[-86.8142230568323,36.2372742015489],[-86.8141745012008,36.2370162249984]]]},"properties":{"id":"94098","parcel":"049140A01300CO","address":"6201 DEL SOL DR","owner":"PRESLEY, JUDITH","point":[-86.81429313131908,36.237145359763986]}},{"type":"Feature","id":"94100","geometry":{"type":"Polygon","coordinates":[[[-86.8137904099606,36.2370712533529],[-86.8140082940969,36.2370443403042],[-86.8140554525521,36.2372949045075],[-86.814056419541,36.2373056526506],[-86.8140552993559,36.2373163896232],[-86.8140521193388,36.2373268529763],[-86.8140469580592,36.2373367853227],[-86.8140399431535,36.2373459406614],[-86.8140312458656,36.2373540943272],[-86.8140210810739,36.2373610456946],[-86.8140096995511,36.2373666227368],[-86.8139973813634,36.2373706892795],[-86.8139844291867,36.237373144145],[-86.8138503464386,36.2373897058986],[-86.8137904099606,36.2370712533529]]]},"properties":{"id":"94100","parcel":"049140A04100CO","address":"6195 DEL SOL DR","owner":"MOHON, CODY A","point":[-86.8139229313575,36.237183079004545]}},{"type":"Feature","id":"94101","geometry":{"type":"Polygon","coordinates":[[[-86.8158754767699,36.2372889216621],[-86.8159279002489,36.2372917346064],[-86.8159799621344,36.2372974628225],[-86.8160314129607,36.2373060800572],[-86.8160820097879,36.2373175455934],[-86.8161315128739,36.2373318051742],[-86.8161796867866,36.237348790995],[-86.8162263037503,36.2373684225822],[-86.816271141421,36.2373906068083],[-86.8163139895606,36.2374152378469],[-86.8158625340921,36.2376197538607],[-86.8158754767699,36.2372889216621]]]},"properties":{"id":"94101","parcel":"049140A02700CO","address":"6240 DEL SOL DR","owner":"OLE SOUTH PROPERTIES, INC","point":[-86.81597740502527,36.237517325612394]}},{"type":"Feature","id":"94102","geometry":{"type":"Polygon","coordinates":[[[-86.8156342001272,36.2373082857909],[-86.8157362973452,36.237295673737],[-86.8157824918648,36.2372911304133],[-86.8158289424496,36.2372888763296],[-86.8158754767699,36.2372889216621],[-86.8158625340921,36.2376197538607],[-86.8157039197946,36.2376331153571],[-86.8156955387863,36.2376341507085],[-86.8156342001272,36.2373082857909]]]},"properties":{"id":"94102","parcel":"049140A02800CO","address":"6236 DEL SOL DR","owner":"ESMOND, NIA DEANN & PERRY, THOMAS BASIR","point":[-86.8157660546161,36.23746404711939]}},{"type":"Feature","id":"94103","geometry":{"type":"Polygon","coordinates":[[[-86.8154665972559,36.2373289906995],[-86.8156342001272,36.2373082857909],[-86.8156955387863,36.2376341507085],[-86.8155279352422,36.2376548557002],[-86.8154665972559,36.2373289906995]]]},"properties":{"id":"94103","parcel":"049140A02900CO","address":"6232 DEL SOL DR","owner":"HAYNIE, WILLIAM J. & SANDRA","point":[-86.81558106780079,36.23748157076008]}},{"type":"Feature","id":"94104","geometry":{"type":"Polygon","coordinates":[[[-86.815298994297,36.2373496953754],[-86.8154665972559,36.2373289906995],[-86.8155279352422,36.2376548557002],[-86.8153603327136,36.2376755595505],[-86.815298994297,36.2373496953754]]]},"properties":{"id":"94104","parcel":"049140A03000CO","address":"6228 DEL SOL DR","owner":"MARION, LL ALAN LIVING TRUST, THE","point":[-86.81541346484741,36.23750227559432]}},{"type":"Feature","id":"94105","geometry":{"type":"Polygon","coordinates":[[[-86.8143486840127,36.2374670846309],[-86.8145162874679,36.2374463812741],[-86.8145776227516,36.2377722467387],[-86.8144100186235,36.2377929501786],[-86.8143486840127,36.2374670846309]]]},"properties":{"id":"94105","parcel":"049140A03500CO","address":"6204 DEL SOL DR","owner":"KLEIN, STACEY J. & CASTRO, EMILIO CARABALLO","point":[-86.81446315316181,36.237619665740866]}},{"type":"Feature","id":"94106","geometry":{"type":"Polygon","coordinates":[[[-86.81418108047,36.2374877877551],[-86.8143486840127,36.2374670846309],[-86.8144100186235,36.2377929501786],[-86.8142424143986,36.2378136524847],[-86.81418108047,36.2374877877551]]]},"properties":{"id":"94106","parcel":"049140A03600CO","address":"6200 DEL SOL DR","owner":"GADDES, LOLITA R & BRADEN, STEVIE","point":[-86.81429554936392,36.23764036902297]}},{"type":"Feature","id":"94463","geometry":{"type":"Polygon","coordinates":[[[-86.8154554065779,36.2364411933306],[-86.8156565277699,36.2364163479654],[-86.815733200981,36.2368236791902],[-86.8157168602337,36.2368256974846],[-86.8155320787797,36.2368485246801],[-86.8154554065779,36.2364411933306]]]},"properties":{"id":"94463","parcel":"049140A00600CO","address":"586 GREEN LN","owner":"FAUSTE, SAGATA & ESPERANCE, SAFI","point":[-86.81559430344437,36.236632436343115]}},{"type":"Feature","id":"94464","geometry":{"type":"Polygon","coordinates":[[[-86.8147764830271,36.2365250621362],[-86.8149354390401,36.2365054259059],[-86.8150121086327,36.2369127575777],[-86.8148616705408,36.2369313414615],[-86.8148108526554,36.2369376189884],[-86.8147346088724,36.2365325437702],[-86.8147555553878,36.2365288010889],[-86.8147764830271,36.2365250621362]]]},"properties":{"id":"94464","parcel":"049140A00900CO","address":"580 GREEN LN","owner":"FLAHERTY, ALEXIS KATHERINE","point":[-86.81487335840447,36.23672265075643]}},{"type":"Feature","id":"94490","geometry":{"type":"Polygon","coordinates":[[[-86.8138114726793,36.2382414170676],[-86.8137425666325,36.2378837276437],[-86.8139072057049,36.2378550582013],[-86.8140748100956,36.2378343554593],[-86.8142424143986,36.2378136524847],[-86.8144100186235,36.2377929501786],[-86.8145776227516,36.2377722467387],[-86.8147452267921,36.2377515430661],[-86.8149128307543,36.2377308400621],[-86.8150804335073,36.2377101359318],[-86.8150190973175,36.2373842707091],[-86.8151313912413,36.2373703989175],[-86.8151927278819,36.2376962640844],[-86.8153603327136,36.2376755595505],[-86.8155279352422,36.2376548557002],[-86.8156955387863,36.2376341507085],[-86.8157039197946,36.2376331153571],[-86.8158625340921,36.2376197538607],[-86.8163139895606,36.2374152378469],[-86.8163547229481,36.2374422552607],[-86.8142532320996,36.2384122056061],[-86.8138114726793,36.2382414170676]]]},"properties":{"id":"94490","parcel":"049140A90100CO","address":"6220 DEL SOL DR","owner":"VISTA AT WHITES CREEK HOMEOWNERS ASSC","point":[-86.81439182404566,36.23806352771648]}},{"type":"Feature","id":"94491","geometry":{"type":"Polygon","coordinates":[[[-86.8137145913253,36.236668408885],[-86.8138563284978,36.2366593770496],[-86.8138704210347,36.2366594308144],[-86.8138843082628,36.2366613758898],[-86.8138976058066,36.2366651571854],[-86.8139099465985,36.2366706717279],[-86.813920987526,36.2366777659122],[-86.8139304273223,36.2366862443941],[-86.8139380010234,36.2366958719294],[-86.8139435012049,36.2367063831448],[-86.8139467769262,36.2367174879527],[-86.8140082940969,36.2370443403042],[-86.8137904099606,36.2370712533529],[-86.8137145913253,36.236668408885]]]},"properties":{"id":"94491","parcel":"049140A04200CO","address":"568 GREEN LN","owner":"BRADY, TOWANDA","point":[-86.81386602830439,36.236880740712564]}},{"type":"Feature","id":"94492","geometry":{"type":"Polygon","coordinates":[[[-86.8157168602337,36.2368256974846],[-86.815733200981,36.2368236791902],[-86.8159343230563,36.2367988333652],[-86.8159377685363,36.2367984081345],[-86.815910124085,36.2371527686787],[-86.8158593320296,36.2371512920838],[-86.8158085152413,36.2371520606577],[-86.8157578260903,36.2371550706677],[-86.8157168602337,36.2368256974846]]]},"properties":{"id":"94492","parcel":"049140A02200CO","address":"6237 DEL SOL DR","owner":"PIYAVUNNO, JUSTIN","point":[-86.81583001083538,36.236988559334335]}},{"type":"Feature","id":"94493","geometry":{"type":"Polygon","coordinates":[[[-86.8155320787797,36.2368485246801],[-86.8157168602337,36.2368256974846],[-86.8157578260903,36.2371550706677],[-86.8157107389831,36.2371598957934],[-86.8155934166635,36.237174389693],[-86.8155320787797,36.2368485246801]]]},"properties":{"id":"94493","parcel":"049140A02100CO","address":"6233 DEL SOL DR","owner":"ROSTER, ANDREW & BERTSCH, MADISON","point":[-86.81564984286891,36.23700180526416]}},{"type":"Feature","id":"94495","geometry":{"type":"Polygon","coordinates":[[[-86.8150292727388,36.2369106382911],[-86.81519687484,36.2368899339867],[-86.8152582113688,36.2372157982646],[-86.8150906085948,36.2372365026521],[-86.8150292727388,36.2369106382911]]]},"properties":{"id":"94495","parcel":"049140A01800CO","address":"6221 DEL SOL DR","owner":"BLACKLEDGE, DEVON D. SR.","point":[-86.8151437418335,36.237063218333915]}},{"type":"Feature","id":"94496","geometry":{"type":"Polygon","coordinates":[[[-86.8148108526554,36.2369376189884],[-86.8148616705408,36.2369313414615],[-86.8149230068456,36.2372572067994],[-86.8147554038873,36.2372779098204],[-86.8146940682646,36.2369520453005],[-86.8148108526554,36.2369376189884]]]},"properties":{"id":"94496","parcel":"049140A01600CO","address":"6213 DEL SOL DR","owner":"MURPHY, MITCHELL ROBERT & SOPHIA","point":[-86.8148085373723,36.23710462610607]}},{"type":"Feature","id":"94497","geometry":{"type":"Polygon","coordinates":[[[-86.8135908020576,36.2370959087542],[-86.8137904099606,36.2370712533529],[-86.8138503464386,36.2373897058986],[-86.8136521143972,36.2374141908002],[-86.8135908020576,36.2370959087542]]]},"properties":{"id":"94497","parcel":"049140A04000CO","address":"6191 DEL SOL DR","owner":"SEABROOK, CORRIE & TUCKER, ZACHARY","point":[-86.81372089884731,36.23724280790364]}},{"type":"Feature","id":"95156","geometry":{"type":"Polygon","coordinates":[[[-86.8145316564028,36.2365688035082],[-86.8147346088724,36.2365325437702],[-86.8148108526554,36.2369376189884],[-86.8146940682646,36.2369520453005],[-86.8146058410619,36.2369629433968],[-86.8145316564028,36.2365688035082]]]},"properties":{"id":"95156","parcel":"049140A01000CO","address":"576 GREEN LN","owner":"BERRY, GEORGE","point":[-86.81467125423855,36.236753211331695]}},{"type":"Feature","id":"95171","geometry":{"type":"Polygon","coordinates":[[[-86.8143229082749,36.2366060987582],[-86.8145316564028,36.2365688035082],[-86.8146058410619,36.2369629433968],[-86.8145264659008,36.236972748907],[-86.8143949750043,36.2369889909754],[-86.8143229082749,36.2366060987582]]]},"properties":{"id":"95171","parcel":"049140A01100CO","address":"572 GREEN LN","owner":"HAYES, DANICIA M. & WYLY, DARIN","point":[-86.81446437437428,36.2367845211629]}},{"type":"Feature","id":"95173","geometry":{"type":"Polygon","coordinates":[[[-86.8146058410619,36.2369629433968],[-86.8146940682646,36.2369520453005],[-86.8147554038873,36.2372779098204],[-86.8145878008507,36.2372986135099],[-86.8145264659008,36.236972748907],[-86.8146058410619,36.2369629433968]]]},"properties":{"id":"95173","parcel":"049140A01500CO","address":"6209 DEL SOL DR","owner":"APPLETON, SCOTT DONALD & BETH ANNE","point":[-86.81464093467375,36.23712532941977]}},{"type":"Feature","id":"95174","geometry":{"type":"Polygon","coordinates":[[[-86.8143949750043,36.2369889909754],[-86.8145264659008,36.236972748907],[-86.8145878008507,36.2372986135099],[-86.8144201977266,36.2373193169668],[-86.8143588645527,36.236993451372],[-86.8143949750043,36.2369889909754]]]},"properties":{"id":"95174","parcel":"049140A01400CO","address":"6205 DEL SOL DR","owner":"FRAIRE, STEPHANIE ANAIS","point":[-86.81447333218324,36.23714603249655]}},{"type":"Feature","id":"95175","geometry":{"type":"Polygon","coordinates":[[[-86.814851494125,36.2374049747638],[-86.8150190973175,36.2373842707091],[-86.8150804335073,36.2377101359318],[-86.8149128307543,36.2377308400621],[-86.814851494125,36.2374049747638]]]},"properties":{"id":"95175","parcel":"049140A03200CO","address":"6216 DEL SOL DR","owner":"ABDALLAH, MARYAM & ARMSTRONG, ANTIONETTE A.","point":[-86.81496596385642,36.23755755540427]}},{"type":"Feature","id":"95176","geometry":{"type":"Polygon","coordinates":[[[-86.8146838908448,36.2374256785859],[-86.814851494125,36.2374049747638],[-86.8149128307543,36.2377308400621],[-86.8147452267921,36.2377515430661],[-86.8146838908448,36.2374256785859]]]},"properties":{"id":"95176","parcel":"049140A03300CO","address":"6212 DEL SOL DR","owner":"DAVIS, VON F. & WENDY S.","point":[-86.81479836061678,36.23757825938012]}},{"type":"Feature","id":"95177","geometry":{"type":"Polygon","coordinates":[[[-86.8145162874679,36.2374463812741],[-86.8146838908448,36.2374256785859],[-86.8147452267921,36.2377515430661],[-86.8145776227516,36.2377722467387],[-86.8145162874679,36.2374463812741]]]},"properties":{"id":"95177","parcel":"049140A03400CO","address":"6208 DEL SOL DR","owner":"RANSOM, MICHAEL & MAYORGA, JANELLE","point":[-86.81463075687213,36.237598962226116]}},{"type":"Feature","id":"95286","geometry":{"type":"Polygon","coordinates":[[[-86.8138458742251,36.2375291923967],[-86.8140134768304,36.2375084897453],[-86.8140748100956,36.2378343554593],[-86.8139072057049,36.2378550582013],[-86.8138458742251,36.2375291923967]]]},"properties":{"id":"95286","parcel":"049140A03800CO","address":"6192 DEL SOL DR","owner":"COLLINS, DAMIEN L.","point":[-86.81396034167938,36.23768177398365]}},{"type":"Feature","id":"95287","geometry":{"type":"Polygon","coordinates":[[[-86.8136782570799,36.2375498958139],[-86.8138458742251,36.2375291923967],[-86.8139072057049,36.2378550582013],[-86.8137425666325,36.2378837276437],[-86.8136782570799,36.2375498958139]]]},"properties":{"id":"95287","parcel":"049140A03900CO","address":"6190 DEL SOL DR","owner":"DANDRIDGE, JEMICE S & HATHAWAY, DONNELL","point":[-86.8137930690823,36.237702477589565]}},{"type":"Feature","id":"95288","geometry":{"type":"Polygon","coordinates":[[[-86.8140134768304,36.2375084897453],[-86.81418108047,36.2374877877551],[-86.8142424143986,36.2378136524847],[-86.8140748100956,36.2378343554593],[-86.8140134768304,36.2375084897453]]]},"properties":{"id":"95288","parcel":"049140A03700CO","address":"6196 DEL SOL DR","owner":"MOORE, SEBASTIAN & LANIER, REONA","point":[-86.81412794535669,36.237661071171004]}},{"type":"Feature","id":"95289","geometry":{"type":"Polygon","coordinates":[[[-86.8141862358447,36.2366229811754],[-86.8143229082749,36.2366060987582],[-86.8143949750043,36.2369889909754],[-86.8143588645527,36.236993451372],[-86.8141745012008,36.2370162249984],[-86.8141152132103,36.2367012209051],[-86.814114267295,36.2366892748523],[-86.8141158973058,36.2366773772314],[-86.8141200524439,36.2366658897875],[-86.8141266061366,36.2366551621584],[-86.8141353592358,36.236645518335],[-86.814146047759,36.2366372521019],[-86.814158345003,36.2366306162089],[-86.8141718781099,36.2366258105433],[-86.8141862358447,36.2366229811754]]]},"properties":{"id":"95289","parcel":"049140A01200CO","address":"570 GREEN LN","owner":"CLEMONS, VERNON & ROBBINS","point":[-86.81425509380018,36.23684510602292]}},{"type":"Feature","id":"95291","geometry":{"type":"Polygon","coordinates":[[[-86.8153309564616,36.2368733707362],[-86.8153644768536,36.2368692294497],[-86.8154258151769,36.2371950945382],[-86.8152582113688,36.2372157982646],[-86.81519687484,36.2368899339867],[-86.8152132322723,36.2368879129464],[-86.8153309564616,36.2368733707362]]]},"properties":{"id":"95291","parcel":"049140A01900CO","address":"6225 DEL SOL DR","owner":"DAO, THIENG & DUNG VU","point":[-86.81531134456503,36.23704251431818]}},{"type":"Feature","id":"95292","geometry":{"type":"Polygon","coordinates":[[[-86.8150121086327,36.2369127575777],[-86.8150292727388,36.2369106382911],[-86.8150906085948,36.2372365026521],[-86.8149230068456,36.2372572067994],[-86.8148616705408,36.2369313414615],[-86.8150121086327,36.2369127575777]]]},"properties":{"id":"95292","parcel":"049140A01700CO","address":"6217 DEL SOL DR","owner":"ROBERTSON, WYNONAH & SHONDRA & REGINA","point":[-86.81497613957055,36.2370839221132]}},{"type":"Feature","id":"95294","geometry":{"type":"Polygon","coordinates":[[[-86.8151313912413,36.2373703989175],[-86.815298994297,36.2373496953754],[-86.8153603327136,36.2376755595505],[-86.8151927278819,36.2376962640844],[-86.8151313912413,36.2373703989175]]]},"properties":{"id":"95294","parcel":"049140A03100CO","address":"6224 DEL SOL DR","owner":"HERNANDEZ, NELSON J. & MADRID, DANIA C.","point":[-86.81524586145898,36.237522979289615]}},{"type":"Feature","id":"131354","geometry":{"type":"Polygon","coordinates":[[[-86.8116760011413,36.239582573284],[-86.811862564945,36.2395219811877],[-86.8118754233626,36.2395182609239],[-86.8118888629196,36.2395163176287],[-86.8119025147788,36.2395162024486],[-86.811916001836,36.2395179197204],[-86.8119289509198,36.2395214232844],[-86.8119410061137,36.2395266136914],[-86.8119518344377,36.2395333498803],[-86.8119611380397,36.2395414445903],[-86.8119686576525,36.2395506760535],[-86.8119741870561,36.2395607878981],[-86.8121100097689,36.2398433685195],[-86.8118394216741,36.2399111156224],[-86.8116760011413,36.239582573284]]]},"properties":{"id":"131354","parcel":"04915005900","address":"756 FLINT RIDGE DR","owner":"LEE, TORYE","point":[-86.81189409687903,36.239712972815475]}},{"type":"Feature","id":"131377","geometry":{"type":"Polygon","coordinates":[[[-86.8107239178254,36.2348289289809],[-86.8109621010287,36.2347967416844],[-86.8113441392813,36.2368271967429],[-86.811009087195,36.236869397314],[-86.8108695438114,36.2361347984725],[-86.8106922913314,36.2352016628321],[-86.8106232846733,36.2348383717091],[-86.8107239178254,36.2348289289809]]]},"properties":{"id":"131377","parcel":"04900021300","address":"533 GREEN LN","owner":"HUNT, RONALD E. ET UX","point":[-86.81095354621708,36.235668503587576]}},{"type":"Feature","id":"132173","geometry":{"type":"Polygon","coordinates":[[[-86.8143858426116,36.2358122727468],[-86.814572346024,36.2356696599095],[-86.8149001437274,36.2363773497797],[-86.8146137738579,36.2364151402834],[-86.8143858426116,36.2358122727468]]]},"properties":{"id":"132173","parcel":"04900020400","address":"577 GREEN LN","owner":"NELSON, LUKE WILLIAM","point":[-86.81463096972995,36.236094792917555]}},{"type":"Feature","id":"132174","geometry":{"type":"Polygon","coordinates":[[[-86.8123389125316,36.2347269582979],[-86.8123966679594,36.2347253793452],[-86.8126776403489,36.2347425906381],[-86.8130193976625,36.2366161763136],[-86.8126843462473,36.236658381541],[-86.8123389125316,36.2347269582979]]]},"properties":{"id":"132174","parcel":"04900020800","address":"553 GREEN LN","owner":"MARTINEZ, JUAN CARLOS JERONIMO","point":[-86.81267883649195,36.235679118130214]}},{"type":"Feature","id":"132175","geometry":{"type":"Polygon","coordinates":[[[-86.8125928015497,36.2392720371609],[-86.8126596488606,36.2392510596676],[-86.8127278586066,36.2392331922078],[-86.8127972122138,36.2392184921277],[-86.8128674843424,36.2392070078067],[-86.8129479113069,36.2396097295585],[-86.8127811535468,36.2396506833658],[-86.8125928015497,36.2392720371609]]]},"properties":{"id":"132175","parcel":"04915005600","address":"808 FLINT RIDGE DR","owner":"808 FLINT TRUST","point":[-86.81279547734123,36.23944092280292]}},{"type":"Feature","id":"132176","geometry":{"type":"Polygon","coordinates":[[[-86.8123616716762,36.2393516067495],[-86.8125928015497,36.2392720371609],[-86.8127811535468,36.2396506833658],[-86.8126654530391,36.239677281718],[-86.8125087702913,36.2396281493351],[-86.8125007955112,36.2396256416092],[-86.8123616716762,36.2393516067495]]]},"properties":{"id":"132176","parcel":"04915005700","address":"804 FLINT RIDGE DR","owner":"CARTER, TY & JEFFREY & CATHERINE","point":[-86.81256599142876,36.239488835392535]}},{"type":"Feature","id":"132189","geometry":{"type":"Polygon","coordinates":[[[-86.8100438888893,36.2349016058613],[-86.8102700928044,36.2348746851748],[-86.810674448085,36.2369115464152],[-86.8103393952859,36.236953745128],[-86.8099303307525,36.2349171343272],[-86.8100438888893,36.2349016058613]]]},"properties":{"id":"132189","parcel":"04900021500","address":"525 GREEN LN","owner":"WALLER, ROBIN DEWAYNE REVOCABLE TRUST ETAL","point":[-86.81030355200464,36.23591434286961]}},{"type":"Feature","id":"133243","geometry":{"type":"Polygon","coordinates":[[[-86.8111606707719,36.2369728132258],[-86.8114937660936,36.236931676244],[-86.811795263348,36.2384896011318],[-86.8114614962259,36.238528987755],[-86.8111606707719,36.2369728132258]]]},"properties":{"id":"133243","parcel":"04900016000","address":"536 GREEN LN","owner":"SMITH, ELVIS & KIMBERLY","point":[-86.8114778844682,36.23773120751332]}},{"type":"Feature","id":"133246","geometry":{"type":"Polygon","coordinates":[[[-86.8118289754902,36.2368902780917],[-86.8121641845367,36.2368488790087],[-86.8124661688464,36.2384104103933],[-86.8121308257159,36.2384499933258],[-86.8118289754902,36.2368902780917]]]},"properties":{"id":"133246","parcel":"04900016200","address":"544 GREEN LN","owner":"WALLACE, CONNIE LYNN","point":[-86.81214762362875,36.237650344791604]}},{"type":"Feature","id":"133249","geometry":{"type":"Polygon","coordinates":[[[-86.8156637282601,36.2403097890697],[-86.8186785765265,36.2388975267266],[-86.8186974738533,36.2389266082906],[-86.8188359906115,36.2391412105894],[-86.8158359055553,36.2405467203674],[-86.8156637282601,36.2403097890697]]]},"properties":{"id":"133249","parcel":"04900017400","address":"3517 WHITES CREEK PIKE","owner":"ROBINSON, WILLIAM I. ET UX","point":[-86.8172499428844,36.23972551051534]}},{"type":"Feature","id":"133285","geometry":{"type":"Polygon","coordinates":[[[-86.8104705519155,36.239444338913],[-86.8107096495869,36.2393618246657],[-86.8108826390359,36.2397285460311],[-86.8106528296216,36.2398048075753],[-86.8104705519155,36.239444338913]]]},"properties":{"id":"133285","parcel":"04915004100","address":"733 FLINT RIDGE DR","owner":"HOOTEN, JOHN, JR.","point":[-86.81067900568594,36.23958644646461]}},{"type":"Feature","id":"133358","geometry":{"type":"Polygon","coordinates":[[[-86.814572346024,36.2356696599095],[-86.8148107000485,36.2354873987677],[-86.8150042003539,36.2360061161607],[-86.8151313051945,36.2363468446494],[-86.8149001437274,36.2363773497797],[-86.814572346024,36.2356696599095]]]},"properties":{"id":"133358","parcel":"04900020300","address":"581 GREEN LN","owner":"ANDERSON, DORIS R.","point":[-86.8147958510881,36.235837899961986]}},{"type":"Feature","id":"133361","geometry":{"type":"Polygon","coordinates":[[[-86.8132475920478,36.2387088865846],[-86.8135084751229,36.2384228126394],[-86.8135779843119,36.2385007625941],[-86.8137098428369,36.2386486353782],[-86.8137293013989,36.2387397354709],[-86.8137322740244,36.2387536055624],[-86.8136157496449,36.2387649188291],[-86.8136156929563,36.2387649237171],[-86.8133129065621,36.2387952519846],[-86.81330654624,36.2387751878461],[-86.8132965759061,36.2387561123513],[-86.8132832179658,36.2387384493936],[-86.8132667690252,36.2387225899217],[-86.8132475920478,36.2387088865846]]]},"properties":{"id":"133361","parcel":"04915005200","address":"204 FLINT RIDGE CT","owner":"BOONE, DAWANNA WATTS","point":[-86.81350713306207,36.23857448587651]}},{"type":"Feature","id":"133364","geometry":{"type":"Polygon","coordinates":[[[-86.8121498213533,36.239426376892],[-86.8123616716762,36.2393516067495],[-86.8125007955112,36.2396256416092],[-86.8122355769324,36.2397176485708],[-86.8122108795705,36.2397262160952],[-86.8122107864651,36.2397260328656],[-86.8121039379836,36.2395154145884],[-86.8121002827611,36.2395040662496],[-86.8120989437946,36.2394923878029],[-86.8120999576232,36.2394806881329],[-86.812103298479,36.2394692756409],[-86.8121088748948,36.2394584528614],[-86.8121165440362,36.2394485037477],[-86.812126099447,36.2394396919519],[-86.8121372898685,36.2394322516858],[-86.8121498213533,36.239426376892]]]},"properties":{"id":"133364","parcel":"04915005800","address":"800 FLINT RIDGE DR","owner":"BROWN, TAMIKA","point":[-86.81230235632322,36.239570528247064]}},{"type":"Feature","id":"133698","geometry":{"type":"Polygon","coordinates":[[[-86.8136156929563,36.2387649237171],[-86.8136157496449,36.2387649188291],[-86.8135296268276,36.2391292049308],[-86.813529581143,36.2391291980284],[-86.8135295321119,36.2391291902473],[-86.8133064956661,36.2390958198],[-86.8132823928894,36.2390932350437],[-86.8132686342329,36.2390914999254],[-86.8132554002981,36.2390879912121],[-86.8132430368985,36.2390827994053],[-86.8132318702944,36.2390760611017],[-86.8132221893294,36.2390679528056],[-86.8132142498335,36.2390586863923],[-86.813208257881,36.2390485038131],[-86.8132043708478,36.2390376716811],[-86.8132026906532,36.2390264732052],[-86.8132032603671,36.2390152028053],[-86.8132099979958,36.2389777987081],[-86.8132166343152,36.2389632736022],[-86.813225722976,36.2389496485622],[-86.8132370876274,36.2389371933482],[-86.8132504994119,36.2389261564433],[-86.8132698979589,36.238912107803],[-86.8132863336925,36.2388957673911],[-86.8132994013452,36.2388775389948],[-86.8133087751435,36.238857875435],[-86.8133142242333,36.238837264042],[-86.8133156125784,36.2388162167429],[-86.8133129065621,36.2387952519846],[-86.8136156929563,36.2387649237171]]]},"properties":{"id":"133698","parcel":"04915005300","address":"200 FLINT RIDGE CT","owner":"WASHINGTON, MICHAEL A. ET UX","point":[-86.81340241415049,36.23894368778802]}},{"type":"Feature","id":"133701","geometry":{"type":"Polygon","coordinates":[[[-86.8128674843424,36.2392070078067],[-86.8129423013856,36.2391996701689],[-86.8130174488941,36.2391950502423],[-86.8130927756741,36.2391931580566],[-86.8131681326829,36.2391939964171],[-86.8131312619398,36.2395664548673],[-86.8130606333809,36.2395831329543],[-86.8129479113069,36.2396097295585],[-86.8128674843424,36.2392070078067]]]},"properties":{"id":"133701","parcel":"04915005500","address":"812 FLINT RIDGE DR","owner":"LEMIEUX, LAUREN & DAVID","point":[-86.81302618838814,36.23938677332138]}},{"type":"Feature","id":"133704","geometry":{"type":"Polygon","coordinates":[[[-86.8114218687693,36.2396677869328],[-86.8116760011413,36.239582573284],[-86.8118394216741,36.2399111156224],[-86.8116568714348,36.239956211603],[-86.8115742293122,36.2399766155451],[-86.8115742054384,36.239976565686],[-86.8114218687693,36.2396677869328]]]},"properties":{"id":"133704","parcel":"04915006000","address":"752 FLINT RIDGE DR","owner":"GILMER, HORACE E. ET UX","point":[-86.8116303984849,36.23978945107208]}},{"type":"Feature","id":"133737","geometry":{"type":"Polygon","coordinates":[[[-86.8103961059063,36.2348596883914],[-86.8106232846733,36.2348383717091],[-86.8106922913314,36.2352016628321],[-86.8108695438114,36.2361347984725],[-86.811009087195,36.236869397314],[-86.810674448085,36.2369115464152],[-86.8102700928044,36.2348746851748],[-86.8103961059063,36.2348596883914]]]},"properties":{"id":"133737","parcel":"04900021400","address":"529 GREEN LN","owner":"WALLER, ROBIN DEWAYNE REVOCABLE TRUST ETAL","point":[-86.81060421500064,36.23566795111977]}},{"type":"Feature","id":"134149","geometry":{"type":"Polygon","coordinates":[[[-86.8128345960174,36.2367660780885],[-86.8131698084449,36.2367246743814],[-86.8134709080377,36.2382867870993],[-86.8133922758943,36.2382972627873],[-86.8131407930899,36.2383307645948],[-86.8128345960174,36.2367660780885]]]},"properties":{"id":"134149","parcel":"04900016500","address":"556 GREEN LN","owner":"DUER, DAN & JANIE G.","point":[-86.81315386853204,36.23752643480473]}},{"type":"Feature","id":"134150","geometry":{"type":"Polygon","coordinates":[[[-86.8142532320996,36.2384122056061],[-86.8163547229481,36.2374422552607],[-86.816508902196,36.2373710903287],[-86.816851229946,36.2372130808847],[-86.8169108225977,36.2371855745129],[-86.8173145027344,36.2369992451181],[-86.8173700890953,36.2369735870551],[-86.8173786553838,36.2369848127943],[-86.8173789621439,36.2369852162829],[-86.8174963662786,36.2371415239342],[-86.8176110322342,36.2372991595214],[-86.8177229385387,36.2374580916535],[-86.8145856889362,36.2388680668926],[-86.8142532320996,36.2384122056061]]]},"properties":{"id":"134150","parcel":"04900016700","address":"3415 WHITES CREEK PIKE","owner":"PATTERSON, PEGGY JOYCE","point":[-86.81597416286478,36.23793513982735]}},{"type":"Feature","id":"134152","geometry":{"type":"Polygon","coordinates":[[[-86.8145856889362,36.2388680668926],[-86.8177229385387,36.2374580916535],[-86.8177717896315,36.2375291474883],[-86.8179027313444,36.2377274119868],[-86.8180352375356,36.2379249934075],[-86.8149612206815,36.2393702945331],[-86.8145856889362,36.2388680668926]]]},"properties":{"id":"134152","parcel":"04900016800","address":"3431 WHITES CREEK PIKE","owner":"FERGUSON, JONATHAN & CERMAK, KECIA","point":[-86.81633358485932,36.23839657811151]}},{"type":"Feature","id":"134153","geometry":{"type":"Polygon","coordinates":[[[-86.8152153503829,36.2397101557614],[-86.8182694381642,36.2382802460899],[-86.8183245569273,36.2383636821179],[-86.8183579400629,36.2384131276754],[-86.8153119489684,36.239839341998],[-86.8152153503829,36.2397101557614]]]},"properties":{"id":"134153","parcel":"04900017100","address":"3505 WHITES CREEK PIKE","owner":"MONGE, JUAN R. MEJIA","point":[-86.81678670405813,36.2390616521792]}},{"type":"Feature","id":"134171","geometry":{"type":"Polygon","coordinates":[[[-86.8114284392843,36.2391467780943],[-86.8117699721533,36.2390952121456],[-86.8117770826516,36.2391204508206],[-86.8117906652565,36.2391688821083],[-86.8118083552502,36.2392164350103],[-86.8118300701897,36.2392628802593],[-86.8118632968716,36.2393285881289],[-86.8118677695642,36.2393400256132],[-86.8118697459219,36.2393519160798],[-86.8118691689093,36.2393639048186],[-86.8118660537826,36.2393756348308],[-86.8118604948561,36.2393867557964],[-86.8118526567234,36.239396935849],[-86.8118427743673,36.2394058723906],[-86.8118311409884,36.2394132984821],[-86.8118181047594,36.2394189918776],[-86.811601815248,36.239490768983],[-86.8114284392843,36.2391467780943]]]},"properties":{"id":"134171","parcel":"04915004500","address":"749 FLINT RIDGE DR","owner":"COATS, CHARQUITA N.","point":[-86.81167496299044,36.2392954640177]}},{"type":"Feature","id":"134172","geometry":{"type":"Polygon","coordinates":[[[-86.8122606630995,36.2390055919321],[-86.8122630167891,36.2390053336698],[-86.8123453721655,36.2388592329569],[-86.8125274211243,36.2387358744539],[-86.812530934935,36.2387313598764],[-86.8125771278549,36.238867780092],[-86.8126724102398,36.2391319525482],[-86.8126277959973,36.2391430676952],[-86.8125838150876,36.2391557332271],[-86.8125405506932,36.2391699242513],[-86.8123715969965,36.2392281990338],[-86.8122606630995,36.2390055919321]]]},"properties":{"id":"134172","parcel":"04915004700","address":"805 FLINT RIDGE DR","owner":"HESTER, JAMES W. ET UX","point":[-86.8124519636192,36.238936606980786]}},{"type":"Feature","id":"134428","geometry":{"type":"Polygon","coordinates":[[[-86.8121641845367,36.2368488790087],[-86.8125129774298,36.236805800523],[-86.8128125356055,36.2383695248516],[-86.8124661688464,36.2384104103933],[-86.8121641845367,36.2368488790087]]]},"properties":{"id":"134428","parcel":"04900016300","address":"548 GREEN LN","owner":"DUER, DAN & JANIE G.","point":[-86.8124890515132,36.23760920349707]}},{"type":"Feature","id":"134433","geometry":{"type":"Polygon","coordinates":[[[-86.8125129774298,36.236805800523],[-86.8128345960174,36.2367660780885],[-86.8131407930899,36.2383307645948],[-86.8130996741094,36.2383356197231],[-86.8128125356055,36.2383695248516],[-86.8125129774298,36.236805800523]]]},"properties":{"id":"134433","parcel":"04900016400","address":"552 GREEN LN","owner":"DUKE, DOUGLAS ELMER ET UX","point":[-86.81282531118798,36.237568280552686]}},{"type":"Feature","id":"134439","geometry":{"type":"Polygon","coordinates":[[[-86.8153119489684,36.239839341998],[-86.8183579400629,36.2384131276754],[-86.8185193097523,36.2386546861566],[-86.8154878301986,36.2400745553588],[-86.8153119489684,36.239839341998]]]},"properties":{"id":"134439","parcel":"04900017200","address":"3509 WHITES CREEK PIKE","owner":"WHITES CREEK PIKE ESTATES, LLC","point":[-86.81691584064092,36.239247025194054]}},{"type":"Feature","id":"134557","geometry":{"type":"Polygon","coordinates":[[[-86.8102410766093,36.2395235310193],[-86.8104705519155,36.239444338913],[-86.8106528296216,36.2398048075753],[-86.810422996184,36.2398788706836],[-86.8102410766093,36.2395235310193]]]},"properties":{"id":"134557","parcel":"04915004000","address":"729 FLINT RIDGE DR","owner":"LOVE, REVER M.","point":[-86.81044739501613,36.23966417017569]}},{"type":"Feature","id":"134562","geometry":{"type":"Polygon","coordinates":[[[-86.8107096495869,36.2393618246657],[-86.8109386694264,36.2392827888309],[-86.8111232539688,36.2396478142839],[-86.8108826390359,36.2397285460311],[-86.8107096495869,36.2393618246657]]]},"properties":{"id":"134562","parcel":"04915004200","address":"737 FLINT RIDGE DR","owner":"DILLARD, DANIEL & JANICE ELAINE","point":[-86.81091402559429,36.23950481582031]}},{"type":"Feature","id":"134579","geometry":{"type":"Polygon","coordinates":[[[-86.8101577683228,36.2370966646841],[-86.8104909102394,36.2370555247558],[-86.8107911551961,36.2386118912845],[-86.8104600722004,36.2386554713773],[-86.8101601864155,36.2371091371354],[-86.8101577683228,36.2370966646841]]]},"properties":{"id":"134579","parcel":"04900015700","address":"524 GREEN LN","owner":"BROOKINS, DESMOND J","point":[-86.81047605230252,36.23786051527329]}},{"type":"Feature","id":"134582","geometry":{"type":"Polygon","coordinates":[[[-86.8131698084449,36.2367246743814],[-86.8135109496903,36.2366813840484],[-86.8135908020576,36.2370959087542],[-86.8136521143972,36.2374141908002],[-86.8136782570799,36.2375498958139],[-86.8137425666325,36.2378837276437],[-86.8138114726793,36.2382414170676],[-86.8134709080377,36.2382867870993],[-86.8131698084449,36.2367246743814]]]},"properties":{"id":"134582","parcel":"04900016600","address":"560 GREEN LN","owner":"LASSITER, MARILYN M & DONALD W","point":[-86.81349043582782,36.23748177102354]}},{"type":"Feature","id":"134584","geometry":{"type":"Polygon","coordinates":[[[-86.8149612206815,36.2393702945331],[-86.8180352375356,36.2379249934075],[-86.8180758873148,36.2379850111159],[-86.8181235456425,36.2380580387109],[-86.8150572149256,36.2394986730283],[-86.8149612206815,36.2393702945331]]]},"properties":{"id":"134584","parcel":"04900016900","address":"3501 WHITES CREEK PIKE","owner":"SHEDD, MADISON","point":[-86.81654188740723,36.238714176363665]}},{"type":"Feature","id":"134586","geometry":{"type":"Polygon","coordinates":[[[-86.8150572149256,36.2394986730283],[-86.8181235456425,36.2380580387109],[-86.8182694381642,36.2382802460899],[-86.8152153503829,36.2397101557614],[-86.8150572149256,36.2394986730283]]]},"properties":{"id":"134586","parcel":"04900017000","address":"3503 WHITES CREEK PIKE","owner":"MARTIN, LATONYA R.","point":[-86.81666108940092,36.23888946695915]}},{"type":"Feature","id":"134588","geometry":{"type":"Polygon","coordinates":[[[-86.8154878301986,36.2400745553588],[-86.8185193097523,36.2386546861566],[-86.8186006104894,36.2387780261069],[-86.8186785765265,36.2388975267266],[-86.8156637282601,36.2403097890697],[-86.8154878301986,36.2400745553588]]]},"properties":{"id":"134588","parcel":"04900017300","address":"3513 WHITES CREEK PIKE","owner":"WHITES CREEK PIKE ESTATES, LLC","point":[-86.81708329586702,36.239486051865946]}},{"type":"Feature","id":"134629","geometry":{"type":"Polygon","coordinates":[[[-86.8118690254323,36.2390485258346],[-86.8122606630995,36.2390055919321],[-86.8123715969965,36.2392281990338],[-86.8121116421584,36.2393406513187],[-86.8120979782647,36.2393449105645],[-86.8120836388562,36.2393473033485],[-86.8120690093287,36.2393477657948],[-86.8120544833822,36.2393462844417],[-86.8120404508299,36.2393429008305],[-86.8120272908403,36.2393377034393],[-86.8120153553149,36.2393308341035],[-86.8120049665521,36.2393224772165],[-86.8119964027579,36.2393128571234],[-86.8119457816052,36.2392373794533],[-86.8119260123737,36.2392054862965],[-86.8119086447469,36.2391726883605],[-86.8118937389099,36.2391391051086],[-86.8118813517192,36.2391048569272],[-86.8118690254323,36.2390485258346]]]},"properties":{"id":"134629","parcel":"04915004600","address":"801 FLINT RIDGE DR","owner":"MADDOX, VALENCIA","point":[-86.81213488754024,36.239189429143885]}},{"type":"Feature","id":"134632","geometry":{"type":"Polygon","coordinates":[[[-86.8125771278549,36.238867780092],[-86.812980256125,36.238828807776],[-86.8129834904576,36.2388500934368],[-86.8129911093977,36.2388706330943],[-86.8130028944082,36.2388898369964],[-86.8130185083347,36.2389071567455],[-86.8130375033029,36.2389220960599],[-86.8130477112854,36.2389295257854],[-86.8130562048589,36.2389382567415],[-86.8130627355376,36.2389480337438],[-86.8130671134717,36.2389585696693],[-86.8130692086708,36.2389695562634],[-86.8130689621936,36.2389806703729],[-86.813059963809,36.2390293535381],[-86.8130568215982,36.2390404853337],[-86.8130513435061,36.2390510082816],[-86.8130436975688,36.2390606013057],[-86.8130341133493,36.2390689762622],[-86.8130228819289,36.2390758770384],[-86.813010342724,36.2390810958638],[-86.8129968779415,36.2390844751505],[-86.8129828925929,36.2390859112322],[-86.8129042639595,36.2390924724288],[-86.8128261644208,36.2391023529342],[-86.8127488095154,36.239115525163],[-86.8126724102398,36.2391319525482],[-86.8125771278549,36.238867780092]]]},"properties":{"id":"134632","parcel":"04915004800","address":"201 FLINT RIDGE CT","owner":"FREEMAN, WILLIE MAE IRREV TRUST","point":[-86.81284542036563,36.23900466951077]}},{"type":"Feature","id":"134717","geometry":{"type":"Polygon","coordinates":[[[-86.8123492955971,36.2367005867324],[-86.8119924254989,36.2347396873588],[-86.8120766647189,36.234734123642],[-86.8123389125316,36.2347269582979],[-86.8126843462473,36.236658381541],[-86.8123492955971,36.2367005867324]],[[-86.8123507386178,36.2365191672849],[-86.8124453294356,36.2365078693368],[-86.8124239129036,36.2363901915698],[-86.8123293222323,36.2364014904028],[-86.8123507386178,36.2365191672849]],[[-86.8125042439122,36.2364418825625],[-86.8125102561808,36.236474918136],[-86.8125171229903,36.2364740986749],[-86.8125239887842,36.2365118249398],[-86.8125723775418,36.2365060459823],[-86.8125675441071,36.2364794861019],[-86.8126126116532,36.2364741025866],[-86.8126012543023,36.2364116995696],[-86.8125700748214,36.2364154232865],[-86.8125665817709,36.2363962275462],[-86.8125043115077,36.2364035364658],[-86.812511140708,36.2364410583937],[-86.8125042439122,36.2364418825625]]]},"properties":{"id":"134717","parcel":"049150C90000CO","address":"551 B GREEN LN","owner":"O.I.C. 549 & 551 GREEN LANE TOWNHOMES","point":[-86.81231572817926,36.23556510848393]}},{"type":"Feature","id":"134991","geometry":{"type":"Polygon","coordinates":[[[-86.8123293222323,36.2364014904028],[-86.8124239129036,36.2363901915698],[-86.8124453294356,36.2365078693368],[-86.8123507386178,36.2365191672849],[-86.8123293222323,36.2364014904028]]]},"properties":{"id":"134991","parcel":"049150C00100CO","address":"549 GREEN LN","owner":"DRYE, DEREK & MARKS, KATELYN","point":[-86.81238732582997,36.23645467988402]}},{"type":"Feature","id":"134993","geometry":{"type":"Polygon","coordinates":[[[-86.8116449033641,36.2364866484089],[-86.8117616641988,36.236472218891],[-86.8117864275659,36.2366037247415],[-86.8116696654296,36.2366181542902],[-86.8116449033641,36.2364866484089]]]},"properties":{"id":"134993","parcel":"049150D00100CO","address":"541 GREEN LN","owner":"SMITH, AMY","point":[-86.81171566516512,36.23654518659586]}},{"type":"Feature","id":"136483","geometry":{"type":"Polygon","coordinates":[[[-86.8118373937278,36.2365975853818],[-86.8118050621321,36.2364260020808],[-86.811858304238,36.23641941842],[-86.8118673956332,36.2364676654189],[-86.8119034070358,36.2364632118389],[-86.811908392773,36.2364896742867],[-86.8119173059114,36.236488572533],[-86.8119231150888,36.2365193987235],[-86.8119514411245,36.2365158953324],[-86.8119590750308,36.2365564112521],[-86.8119215058435,36.2365610573713],[-86.8119263162999,36.2365865890996],[-86.8118373937278,36.2365975853818]]]},"properties":{"id":"136483","parcel":"049150D00200CO","address":"543 GREEN LN","owner":"DWYER, KATELYN ROSE","point":[-86.81186973945064,36.236502690203636]}},{"type":"Feature","id":"136486","geometry":{"type":"Polygon","coordinates":[[[-86.8121803162731,36.2365547347581],[-86.8121733304336,36.236519392197],[-86.8121628413234,36.2365207533109],[-86.8121462825691,36.2364369813494],[-86.8121574916093,36.2364355270739],[-86.8121559663632,36.2364278144852],[-86.8121813875244,36.2364245171285],[-86.8121755926137,36.2363952013543],[-86.8122388871665,36.2363869907724],[-86.8122448815789,36.2364173173104],[-86.8122592881214,36.2364154485798],[-86.8122604567836,36.2364213655638],[-86.8122734101148,36.2364196850509],[-86.8122971097711,36.2365395835005],[-86.8121803162731,36.2365547347581]]]},"properties":{"id":"136486","parcel":"049150E00200CO","address":"547 GREEN LN","owner":"GAVAN, BRIAN SCOTT & SELA RENEE","point":[-86.81221971920304,36.23647828082044]}},{"type":"Feature","id":"136513","geometry":{"type":"Polygon","coordinates":[[[-86.8125239887842,36.2365118249398],[-86.8125171229903,36.2364740986749],[-86.8125102561808,36.236474918136],[-86.8125042439122,36.2364418825625],[-86.812511140708,36.2364410583937],[-86.8125043115077,36.2364035364658],[-86.8125665817709,36.2363962275462],[-86.8125700748214,36.2364154232865],[-86.8126012543023,36.2364116995696],[-86.8126126116532,36.2364741025866],[-86.8125675441071,36.2364794861019],[-86.8125723775418,36.2365060459823],[-86.8125239887842,36.2365118249398]]]},"properties":{"id":"136513","parcel":"049150C00200CO","address":"551 GREEN LN","owner":"BRADSHAW, ALLISON","point":[-86.81255842773149,36.23645799258675]}},{"type":"Feature","id":"136517","geometry":{"type":"Polygon","coordinates":[[[-86.8116791921141,36.2367849943333],[-86.8112870340184,36.2347803921948],[-86.8113989541645,36.2347782354448],[-86.8116230952176,36.2347638553085],[-86.8120142434685,36.2367427901003],[-86.8116791921141,36.2367849943333]],[[-86.8117864275659,36.2366037247415],[-86.8117616641988,36.236472218891],[-86.8116449033641,36.2364866484089],[-86.8116696654296,36.2366181542902],[-86.8117864275659,36.2366037247415]],[[-86.8118050621321,36.2364260020808],[-86.8118373937278,36.2365975853818],[-86.8119263162999,36.2365865890996],[-86.8119215058435,36.2365610573713],[-86.8119590750308,36.2365564112521],[-86.8119514411245,36.2365158953324],[-86.8119231150888,36.2365193987235],[-86.8119173059114,36.236488572533],[-86.811908392773,36.2364896742867],[-86.8119034070358,36.2364632118389],[-86.8118673956332,36.2364676654189],[-86.811858304238,36.23641941842],[-86.8118050621321,36.2364260020808]]]},"properties":{"id":"136517","parcel":"049150D90000CO","address":"543 B GREEN LN","owner":"O.I.C. 541 & 543 GREEN LANE TOWNHOMES","point":[-86.81161786185832,36.2355999768644]}},{"type":"Feature","id":"136519","geometry":{"type":"Polygon","coordinates":[[[-86.8120101196194,36.2365735750075],[-86.8119960871114,36.2365025838488],[-86.811986310155,36.2365038518377],[-86.8119782297787,36.2364629757148],[-86.811985461387,36.2364620375702],[-86.811978019239,36.2364243863489],[-86.8120752453663,36.2364117731713],[-86.8120788931514,36.236430229758],[-86.8120869602399,36.236429183248],[-86.8120927492813,36.2364584720279],[-86.8120838544829,36.236459625944],[-86.8121039706551,36.2365613999728],[-86.8120101196194,36.2365735750075]]]},"properties":{"id":"136519","parcel":"049150E00100CO","address":"545 GREEN LN","owner":"CONDON, MARISSA RENEE & JARED & PATRISSO, JEFFREY P.","point":[-86.81203530274624,36.23648285542721]}},{"type":"Feature","id":"136522","geometry":{"type":"Polygon","coordinates":[[[-86.8120142434685,36.2367427901003],[-86.8116230952176,36.2347638553085],[-86.8119924254989,36.2347396873588],[-86.8123492955971,36.2367005867324],[-86.8120142434685,36.2367427901003]],[[-86.8121039706551,36.2365613999728],[-86.8120838544829,36.236459625944],[-86.8120927492813,36.2364584720279],[-86.8120869602399,36.236429183248],[-86.8120788931514,36.236430229758],[-86.8120752453663,36.2364117731713],[-86.811978019239,36.2364243863489],[-86.811985461387,36.2364620375702],[-86.8119782297787,36.2364629757148],[-86.811986310155,36.2365038518377],[-86.8119960871114,36.2365025838488],[-86.8120101196194,36.2365735750075],[-86.8121039706551,36.2365613999728]],[[-86.8121559663632,36.2364278144852],[-86.8121574916093,36.2364355270739],[-86.8121462825691,36.2364369813494],[-86.8121628413234,36.2365207533109],[-86.8121733304336,36.236519392197],[-86.8121803162731,36.2365547347581],[-86.8122971097711,36.2365395835005],[-86.8122734101148,36.2364196850509],[-86.8122604567836,36.2364213655638],[-86.8122592881214,36.2364154485798],[-86.8122448815789,36.2364173173104],[-86.8122388871665,36.2363869907724],[-86.8121755926137,36.2363952013543],[-86.8121813875244,36.2364245171285],[-86.8121559663632,36.2364278144852]]]},"properties":{"id":"136522","parcel":"049150E90000CO","address":"547 B GREEN LN","owner":"O.I.C. 545 & 547 GREEN LANE TOWNHOMES","point":[-86.81196402040138,36.23557547540045]}},{"type":"Feature","id":"136872","geometry":{"type":"Polygon","coordinates":[[[-86.8117450466547,36.2370725257763],[-86.8118129510967,36.2370639014142],[-86.8118419556126,36.23721376971],[-86.8117740488298,36.2372223950041],[-86.8117450466547,36.2370725257763]]]},"properties":{"id":"136872","parcel":"049150F00200CO","address":"542 GREEN LN","owner":"CARPENTER, JAMES MACLEAN IV","point":[-86.81179350052696,36.23714314775237]}},{"type":"Feature","id":"136875","geometry":{"type":"Polygon","coordinates":[[[-86.811795263348,36.2384896011318],[-86.8114937660936,36.236931676244],[-86.8118289754902,36.2368902780917],[-86.8121308257159,36.2384499933258],[-86.811795263348,36.2384896011318]],[[-86.8116738641187,36.2372334370954],[-86.8116450947887,36.2370847775655],[-86.8115745459857,36.2370937368392],[-86.8116033152052,36.2372423981879],[-86.8116738641187,36.2372334370954]],[[-86.8117450466547,36.2370725257763],[-86.8117740488298,36.2372223950041],[-86.8118419556126,36.23721376971],[-86.8118129510967,36.2370639014142],[-86.8117450466547,36.2370725257763]]]},"properties":{"id":"136875","parcel":"049150F90000CO","address":"542 B GREEN LN","owner":"O.I.C. 540 GREEN LANE TOWNHOMES","point":[-86.81184235193196,36.23784615720426]}},{"type":"Feature","id":"137758","geometry":{"type":"Polygon","coordinates":[[[-86.8115745459857,36.2370937368392],[-86.8116450947887,36.2370847775655],[-86.8116738641187,36.2372334370954],[-86.8116033152052,36.2372423981879],[-86.8115745459857,36.2370937368392]]]},"properties":{"id":"137758","parcel":"049150F00100CO","address":"540 GREEN LN","owner":"DEEL, KAITLYN MACKENZIE & SUSAN BRITTANY","point":[-86.81162420493091,36.237163586977765]}},{"type":"Feature","id":"145126","geometry":{"type":"Polygon","coordinates":[[[-86.8150042003539,36.2360061161607],[-86.8160748910539,36.2354752232202],[-86.8161330682399,36.235446374892],[-86.8166156381147,36.2361036996963],[-86.816617989157,36.2361077304345],[-86.8166195117812,36.2361120146176],[-86.8166201636769,36.236116440776],[-86.8166199303163,36.2361208945489],[-86.8166188171854,36.2361252605384],[-86.8166168531497,36.2361294249915],[-86.8166140893785,36.2361332794118],[-86.8166105971576,36.2361367241793],[-86.8166064667947,36.2361396703606],[-86.8166018065268,36.2361420415187],[-86.8165967369568,36.2361437737504],[-86.8165913889317,36.2361448256148],[-86.8162668976459,36.2361871316526],[-86.8159093649293,36.2362299646069],[-86.815912341756,36.2362462689155],[-86.8157071266524,36.2362708539536],[-86.8151313051945,36.2363468446494],[-86.8150042003539,36.2360061161607]]]},"properties":{"id":"145126","parcel":"04900038200","address":"3341 WHITES CREEK PIKE","owner":"TRI STAR ENERGY, LLC","point":[-86.8159447925012,36.23574129498438]}},{"type":"Feature","id":"145350","geometry":{"type":"Polygon","coordinates":[[[-86.8153087757886,36.2351066812741],[-86.8155945456608,36.234894258876],[-86.8156752064179,36.2349302592279],[-86.8158183747445,36.2350177127035],[-86.8158994705248,36.2351281788105],[-86.8159365709929,36.2351787148085],[-86.8158803550532,36.2352098164537],[-86.8160748910539,36.2354752232202],[-86.8150042003539,36.2360061161607],[-86.8148107000485,36.2354873987677],[-86.8153087757886,36.2351066812741]]]},"properties":{"id":"145350","parcel":"04900038300","address":"0 WHITES CREEK PIKE","owner":"TRI STAR ENERGY, LLC","point":[-86.81548991515335,36.23534176876714]}},{"type":"Feature","id":"154237","geometry":{"type":"Polygon","coordinates":[[[-86.8142157724734,36.2361754690855],[-86.8143163163307,36.2361627298957],[-86.8143370199127,36.2362699738367],[-86.8142364770352,36.2362827130359],[-86.8142157724734,36.2361754690855]]]},"properties":{"id":"154237","parcel":"049140B00200CO","address":"573 GREEN LN","owner":"MOON, EDWARD & JENNIFER","point":[-86.81427639640194,36.23622272147692]}},{"type":"Feature","id":"154238","geometry":{"type":"Polygon","coordinates":[[[-86.8140792906151,36.2361883052767],[-86.8141788649221,36.2361756150942],[-86.8142003073182,36.2362860300964],[-86.8141007328758,36.2362987202962],[-86.8140792906151,36.2361883052767]]]},"properties":{"id":"154238","parcel":"049140C00100CO","address":"571 GREEN LN","owner":"PRODUCTION PHYSIOS, LLC","point":[-86.81413979892928,36.236237167701944]}},{"type":"Feature","id":"155016","geometry":{"type":"Polygon","coordinates":[[[-86.8139458166516,36.236205995028],[-86.8140462120479,36.2361931993837],[-86.8140673677151,36.236302143691],[-86.8139669732874,36.2363149384438],[-86.8139458166516,36.236205995028]]]},"properties":{"id":"155016","parcel":"049140C00200CO","address":"569 GREEN LN","owner":"HERNANDEZ, JAEL ARACELY GONZALEZ","point":[-86.8140065924284,36.236254069375455]}},{"type":"Feature","id":"155020","geometry":{"type":"Polygon","coordinates":[[[-86.8135359804166,36.2364621206968],[-86.814159780962,36.2359851312095],[-86.8142525442701,36.2364628077455],[-86.8137823129089,36.2365248588419],[-86.8135539989803,36.2365549853092],[-86.8135359804166,36.2364621206968]],[[-86.8140673677151,36.236302143691],[-86.8140462120479,36.2361931993837],[-86.8139458166516,36.236205995028],[-86.8139669732874,36.2363149384438],[-86.8140673677151,36.236302143691]],[[-86.8140792906151,36.2361883052767],[-86.8141007328758,36.2362987202962],[-86.8142003073182,36.2362860300964],[-86.8141788649221,36.2361756150942],[-86.8140792906151,36.2361883052767]]]},"properties":{"id":"155020","parcel":"049140C90000CO","address":"571 B GREEN LN","owner":"O.I.C. HOMES AT 573 GREEN LANE LOT II","point":[-86.81388633675735,36.236245722317236]}},{"type":"Feature","id":"155739","geometry":{"type":"Polygon","coordinates":[[[-86.8143498788977,36.2361553540035],[-86.8144481583996,36.2361429012452],[-86.8144695037216,36.2362534691696],[-86.814371224086,36.2362659219447],[-86.8143498788977,36.2361553540035]]]},"properties":{"id":"155739","parcel":"049140B00100CO","address":"575 GREEN LN","owner":"STAGER, LUKE","point":[-86.81440969127262,36.236204411601584]}},{"type":"Feature","id":"155876","geometry":{"type":"Polygon","coordinates":[[[-86.8142525442701,36.2364628077455],[-86.814159780962,36.2359851312095],[-86.8143858426116,36.2358122727468],[-86.8146137738579,36.2364151402834],[-86.8142525442701,36.2364628077455]],[[-86.8143370199127,36.2362699738367],[-86.8143163163307,36.2361627298957],[-86.8142157724734,36.2361754690855],[-86.8142364770352,36.2362827130359],[-86.8143370199127,36.2362699738367]],[[-86.8143498788977,36.2361553540035],[-86.814371224086,36.2362659219447],[-86.8144695037216,36.2362534691696],[-86.8144481583996,36.2361429012452],[-86.8143498788977,36.2361553540035]]]},"properties":{"id":"155876","parcel":"049140B90000CO","address":"575 B GREEN LN","owner":"O.I.C. HOMES AT 573 GREEN LANE LOT 1","point":[-86.81432809307815,36.23606405375273]}},{"type":"Feature","id":"163374","geometry":{"type":"Polygon","coordinates":[[[-86.818840990595,36.2338471312013],[-86.821359003355,36.2335340788363],[-86.8215404438913,36.2337718362494],[-86.8170148515359,36.2360614119101],[-86.8162350522753,36.2350221089398],[-86.8163891390035,36.2346720920757],[-86.8172387836792,36.2342026488789],[-86.8184427808048,36.2339000161873],[-86.818840990595,36.2338471312013]]]},"properties":{"id":"163374","parcel":"05900018400","address":"0 WHITES CREEK PIKE","owner":"WHITES CREEK LAND PARTNERS, LLC","point":[-86.81785896519138,36.23484946535341]}},{"type":"Feature","id":"164444","geometry":{"type":"Polygon","coordinates":[[[-86.8133390883175,36.2364828585833],[-86.813142035788,36.2353138807925],[-86.8136384184814,36.2350540298812],[-86.8139006280945,36.2351217267928],[-86.8145018731389,36.2351806865004],[-86.8153087757886,36.2351066812741],[-86.8148107000485,36.2354873987677],[-86.814572346024,36.2356696599095],[-86.8143858426116,36.2358122727468],[-86.814159780962,36.2359851312095],[-86.8135359804166,36.2364621206968],[-86.8135353966229,36.2364591108357],[-86.8133390883175,36.2364828585833]]]},"properties":{"id":"164444","parcel":"05900006900","address":"0 GREEN LN","owner":"SMALLEY, RODNEY W.","point":[-86.81384639533387,36.23573998364415]}},{"type":"Feature","id":"164521","geometry":{"type":"Polygon","coordinates":[[[-86.8037017172563,36.2340110896882],[-86.804047557632,36.2319197716682],[-86.8058554764369,36.2322749394461],[-86.8060777587896,36.2322958705599],[-86.8066183164582,36.231973338035],[-86.8067633458623,36.2314024026429],[-86.8069820509734,36.2312045448695],[-86.8077044961767,36.2311367754467],[-86.8079067279186,36.2305707959145],[-86.809426477543,36.2299938820228],[-86.8103187894192,36.2294470038587],[-86.8114028218964,36.2292626149206],[-86.8118429699587,36.2295968225874],[-86.8118680017602,36.2296439278992],[-86.8120240253684,36.2298514891286],[-86.8121738855214,36.2300351145931],[-86.8122218736065,36.2300971353667],[-86.8122537161858,36.2301200501679],[-86.8123587059927,36.2301589209658],[-86.8123923204028,36.2302052582557],[-86.8141960144997,36.2326914520074],[-86.8143104255641,36.2328491511424],[-86.8141963710096,36.2332564444032],[-86.8137509350289,36.2334677420303],[-86.8134836324514,36.233594539187],[-86.8130542174309,36.2337784804869],[-86.8124327792067,36.2340045575794],[-86.8116522834541,36.2341701229478],[-86.8096960151795,36.234401098728],[-86.808674675581,36.2344360007345],[-86.8085385851928,36.2344406500877],[-86.8066128460229,36.2342811853698],[-86.8059544783006,36.2341439998903],[-86.8037017172563,36.2340110896882]]]},"properties":{"id":"164521","parcel":"05900007200","address":"3205 WHITES CREEK PIKE","owner":"BT-OH, LLC","point":[-86.8100774475084,36.23166860191999]}},{"type":"Feature","id":"176309","geometry":{"type":"Polygon","coordinates":[[[-86.8130193976625,36.2366161763136],[-86.8126776403489,36.2347425906381],[-86.8127522482084,36.2347471618577],[-86.8130609775776,36.2348330025731],[-86.813142035788,36.2353138807925],[-86.8133390883175,36.2364828585833],[-86.8133544181062,36.2365738054331],[-86.8130193976625,36.2366161763136]],[[-86.813139523523,36.2364230735963],[-86.8131180650794,36.2363028177378],[-86.8130776145455,36.2363075548113],[-86.8130759868586,36.2362984315594],[-86.8129782095509,36.2363098830317],[-86.8130025453178,36.2364462564977],[-86.8130766718025,36.2364375760262],[-86.813075424159,36.2364305807806],[-86.813139523523,36.2364230735963]],[[-86.8131432398724,36.2362493652596],[-86.813169881728,36.2364212794373],[-86.8132402013209,36.2364141268806],[-86.8132354872537,36.236383716065],[-86.8133025483959,36.2363768963397],[-86.8132806192179,36.2362353921108],[-86.8131432398724,36.2362493652596]]]},"properties":{"id":"176309","parcel":"049150G90000CO","address":"559 B GREEN LN","owner":"O.I.C. 557 & 559 GREEN LANE TOWNHOMES","point":[-86.81304274974049,36.23577437319114]}},{"type":"Feature","id":"177278","geometry":{"type":"Polygon","coordinates":[[[-86.8129782095509,36.2363098830317],[-86.8130759868586,36.2362984315594],[-86.8130776145455,36.2363075548113],[-86.8131180650794,36.2363028177378],[-86.813139523523,36.2364230735963],[-86.813075424159,36.2364305807806],[-86.8130766718025,36.2364375760262],[-86.8130025453178,36.2364462564977],[-86.8129782095509,36.2363098830317]]]},"properties":{"id":"177278","parcel":"049150G00100CO","address":"557 GREEN LN","owner":"GRREN PASTURES TRUST","point":[-86.81305886679776,36.23636647834178]}},{"type":"Feature","id":"177280","geometry":{"type":"Polygon","coordinates":[[[-86.8131432398724,36.2362493652596],[-86.8132806192179,36.2362353921108],[-86.8133025483959,36.2363768963397],[-86.8132354872537,36.236383716065],[-86.8132402013209,36.2364141268806],[-86.813169881728,36.2364212794373],[-86.8131432398724,36.2362493652596]]]},"properties":{"id":"177280","parcel":"049150G00200CO","address":"559 GREEN LN","owner":"MORARU, VALERIE MARIE & CLAUDIU CONSTANTIN","point":[-86.81322289412148,36.23631313082639]}},{"type":"Feature","id":"179624","geometry":{"type":"Polygon","coordinates":[[[-86.8084091256538,36.2389359145904],[-86.80836613148,36.238838096418],[-86.8082811600274,36.2387571214137],[-86.8081785754973,36.2386593611823],[-86.8081267209978,36.2385431445356],[-86.8080657777581,36.2384065554529],[-86.8080794906076,36.2384043656115],[-86.8080934604419,36.2384040306304],[-86.808107309095,36.238405559348],[-86.8081206589996,36.2384089101285],[-86.8081331476658,36.2384139925681],[-86.8081444365907,36.238420668336],[-86.8081542179785,36.2384287556358],[-86.8081622248169,36.2384380354473],[-86.8081782318609,36.2384577991869],[-86.8081967369331,36.238476075368],[-86.8082175310065,36.2384926580995],[-86.808190105918,36.2385206731637],[-86.8082157154137,36.2385369695272],[-86.8082432438222,36.238551063904],[-86.8082663861169,36.2385606290832],[-86.80829479097,36.2385698985855],[-86.8083241641314,36.2385769165812],[-86.8083542323788,36.2385816191066],[-86.808361698857,36.2385464094702],[-86.8083953896003,36.2385485065577],[-86.8084390065893,36.2387823664733],[-86.8085462958654,36.2387692345935],[-86.8086535862093,36.2387561017098],[-86.8087608765269,36.238742969632],[-86.8088681667996,36.2387298365575],[-86.8089754559336,36.2387167042965],[-86.8090827461445,36.2387035719326],[-86.8091900363107,36.2386904385722],[-86.809297325338,36.2386773060251],[-86.8094046154331,36.2386641724741],[-86.8095119043894,36.2386510397363],[-86.8096430849115,36.2386349817415],[-86.8098244933401,36.2385973362709],[-86.8099656836818,36.2384947653425],[-86.8100444728644,36.2383567410047],[-86.8100820132478,36.2382105782138],[-86.8100629483215,36.2380618722187],[-86.8100377937622,36.2379674102135],[-86.8099562491892,36.2378551831596],[-86.8097079238996,36.2379736682559],[-86.8096886201988,36.2379456262687],[-86.8096709691717,36.2379168783355],[-86.8099478692039,36.2378312813312],[-86.8099253465112,36.2377455870682],[-86.8098992343711,36.2376462268272],[-86.8095925806415,36.2376837592206],[-86.8097222579462,36.2376669667632],[-86.8097563221514,36.2376586064293],[-86.8097889523654,36.2376470913982],[-86.8098197051492,36.2376325751529],[-86.8098481631289,36.237615257867],[-86.8098739382054,36.2375953737662],[-86.8098966804804,36.2375731937712],[-86.809916080427,36.2375490200763],[-86.8099318743959,36.2375231807043],[-86.8099438468128,36.2374960267881],[-86.8099518345913,36.2374679289363],[-86.8099557303775,36.2374392681981],[-86.8099654467717,36.2372860287492],[-86.8099568731963,36.2372252038678],[-86.8099402472475,36.23713605611],[-86.8101601864155,36.2371091371354],[-86.8104600722004,36.2386554713773],[-86.8107911551961,36.2386118912845],[-86.8107952171121,36.2386113566177],[-86.8105267740504,36.2388000336753],[-86.8103722796629,36.2388203686463],[-86.8100306868075,36.2387262218893],[-86.8084159821384,36.2389515144563],[-86.8084091256538,36.2389359145904]]]},"properties":{"id":"179624","parcel":"049150H90000CO","address":"516 GREEN LN","owner":"OLE SOUTH PROPERTIES, INC.","point":[-86.8101939062793,36.2380182601334]}},{"type":"Feature","id":"179966","geometry":{"type":"Polygon","coordinates":[[[-86.8086066947802,36.239385413378],[-86.808566599923,36.2392941937787],[-86.8085265062705,36.2392029741563],[-86.8084864127103,36.2391117545181],[-86.8084463192424,36.2390205348643],[-86.8084159821384,36.2389515144563],[-86.8100306868075,36.2387262218893],[-86.8103722796629,36.2388203686463],[-86.8105267740504,36.2388000336753],[-86.8107952171121,36.2386113566177],[-86.8111256442353,36.2385678620211],[-86.8114614962259,36.238528987755],[-86.811795263348,36.2384896011318],[-86.8121308257159,36.2384499933258],[-86.8124661688464,36.2384104103933],[-86.8128125356055,36.2383695248516],[-86.8127012871076,36.2385124712313],[-86.812530934935,36.2387313598764],[-86.8125274211243,36.2387358744539],[-86.8123453721655,36.2388592329569],[-86.8122630167891,36.2390053336698],[-86.8122606630995,36.2390055919321],[-86.8118690254323,36.2390485258346],[-86.811823260634,36.2390535433287],[-86.8118297149702,36.2390861911049],[-86.8117699721533,36.2390952121456],[-86.8114284392843,36.2391467780943],[-86.8112583802746,36.2391724541131],[-86.8111693628256,36.2392031753332],[-86.8109386694264,36.2392827888309],[-86.8107096495869,36.2393618246657],[-86.8104705519155,36.239444338913],[-86.8102410766093,36.2395235310193],[-86.8100753302953,36.2395807292948],[-86.809934012205,36.2393591908608],[-86.8098130293621,36.2391695284402],[-86.8094399513112,36.2394134157461],[-86.8093758510072,36.2394553181587],[-86.8092908650279,36.2393699260245],[-86.8092514481772,36.239395886587],[-86.8092416116403,36.2394023648909],[-86.808813105903,36.2396845921697],[-86.8088082941746,36.2396877544343],[-86.8087923762986,36.2396824417707],[-86.8087878414266,36.2396808985437],[-86.8087705483027,36.2396750254927],[-86.8087635395838,36.2396726525501],[-86.8087279676684,36.2396605822771],[-86.8087025866402,36.239603580323],[-86.8086929179357,36.2395815832833],[-86.8086510426502,36.2394863109847],[-86.8086066947802,36.239385413378]]]},"properties":{"id":"179966","parcel":"049150H90300CO","address":"0 GUSTAF DR","owner":"OLE SOUTH PROPERTIES, INC.","point":[-86.8102108734861,36.2390346269939]}},{"type":"Feature","id":"182109","geometry":{"type":"Polygon","coordinates":[[[-86.810121623844,36.2396355818415],[-86.8102495102219,36.2395903185685],[-86.8103092190315,36.2397010263301],[-86.8101813314058,36.2397462905735],[-86.810121623844,36.2396355818415]]]},"properties":{"id":"182109","parcel":"049150I00200CO","address":"727 FLINT RIDGE DR","owner":"TICHENOR, SAGE","point":[-86.81021542116407,36.23966830412217]}},{"type":"Feature","id":"182453","geometry":{"type":"Polygon","coordinates":[[[-86.8101771391707,36.2398528530607],[-86.8101441004241,36.2397915938707],[-86.8102876771664,36.2397407781692],[-86.8103207148903,36.2398020373284],[-86.8102876673948,36.239813732836],[-86.8102932264126,36.2398240401286],[-86.810270219984,36.2398321831392],[-86.8102646609686,36.2398218758456],[-86.8101771391707,36.2398528530607]]]},"properties":{"id":"182453","parcel":"049150I00100CO","address":"725 FLINT RIDGE DR","owner":"ROGAN, SHANTA RENEE","point":[-86.81023240769763,36.23979681563218]}},{"type":"Feature","id":"182457","geometry":{"type":"Polygon","coordinates":[[[-86.8101742645854,36.239961850905],[-86.8100135405526,36.2396310883271],[-86.8100753302953,36.2395807292948],[-86.8102410766093,36.2395235310193],[-86.810422996184,36.2398788706836],[-86.8101742645854,36.239961850905]],[[-86.8101771391707,36.2398528530607],[-86.8102646609686,36.2398218758456],[-86.810270219984,36.2398321831392],[-86.8102932264126,36.2398240401286],[-86.8102876673948,36.239813732836],[-86.8103207148903,36.2398020373284],[-86.8102876771664,36.2397407781692],[-86.8101441004241,36.2397915938707],[-86.8101771391707,36.2398528530607]],[[-86.8101813314058,36.2397462905735],[-86.8103092190315,36.2397010263301],[-86.8102495102219,36.2395903185685],[-86.810121623844,36.2396355818415],[-86.8101813314058,36.2397462905735]]]},"properties":{"id":"182457","parcel":"049150I90000CO","address":"727 B FLINT RIDGE DR","owner":"O.I.C. 725 FLINT RIDGE","point":[-86.81012392495883,36.23974335893978]}},{"type":"Feature","id":"205387","geometry":{"type":"Polygon","coordinates":[[[-86.8115541403881,36.2366057432931],[-86.8115506491573,36.2365878975918],[-86.8114877957039,36.2365959669562],[-86.8114630027479,36.2364692387918],[-86.8115207242354,36.2364618275818],[-86.8115147713169,36.2364313979885],[-86.811564773319,36.2364249777199],[-86.8115709997664,36.2364568042189],[-86.8115898084392,36.2364543895761],[-86.8116021251552,36.2365173432116],[-86.8115941623878,36.2365183664569],[-86.8116098565516,36.2365985897528],[-86.8115541403881,36.2366057432931]]]},"properties":{"id":"205387","parcel":"049150K00200CO","address":"539 GREEN LN","owner":"GILES, SARA & MURRAY, PATRICK","point":[-86.8115325638454,36.23649329102177]}},{"type":"Feature","id":"207979","geometry":{"type":"Polygon","coordinates":[[[-86.8113441392813,36.2368271967429],[-86.8109621010287,36.2347967416844],[-86.8110490904009,36.2347849794226],[-86.8112870340184,36.2347803921948],[-86.8116791921141,36.2367849943333],[-86.8113441392813,36.2368271967429]],[[-86.8114480976589,36.2366193579816],[-86.8114324377042,36.2365393092797],[-86.8114424214635,36.2365380282303],[-86.8114302610497,36.2364758774482],[-86.8114083337057,36.2364786933424],[-86.8114016729932,36.2364446481622],[-86.8113502055052,36.2364512557527],[-86.8113564072627,36.2364829607587],[-86.8113023377029,36.2364899021448],[-86.8113273077073,36.236617540318],[-86.8113864447751,36.2366099475267],[-86.8113897516454,36.2366268490557],[-86.8114480976589,36.2366193579816]],[[-86.8114630027479,36.2364692387918],[-86.8114877957039,36.2365959669562],[-86.8115506491573,36.2365878975918],[-86.8115541403881,36.2366057432931],[-86.8116098565516,36.2365985897528],[-86.8115941623878,36.2365183664569],[-86.8116021251552,36.2365173432116],[-86.8115898084392,36.2364543895761],[-86.8115709997664,36.2364568042189],[-86.811564773319,36.2364249777199],[-86.8115147713169,36.2364313979885],[-86.8115207242354,36.2364618275818],[-86.8114630027479,36.2364692387918]]]},"properties":{"id":"207979","parcel":"049150K90000CO","address":"537 C GREEN LN","owner":"O.I.C. HOMES AT 537 & 539 GREEN LANE","point":[-86.81128239339115,36.23561089003377]}},{"type":"Feature","id":"209174","geometry":{"type":"Polygon","coordinates":[[[-86.8113897516454,36.2366268490557],[-86.8113864447751,36.2366099475267],[-86.8113273077073,36.236617540318],[-86.8113023377029,36.2364899021448],[-86.8113564072627,36.2364829607587],[-86.8113502055052,36.2364512557527],[-86.8114016729932,36.2364446481622],[-86.8114083337057,36.2364786933424],[-86.8114302610497,36.2364758774482],[-86.8114424214635,36.2365380282303],[-86.8114324377042,36.2365393092797],[-86.8114480976589,36.2366193579816],[-86.8113897516454,36.2366268490557]]]},"properties":{"id":"209174","parcel":"049150K00100CO","address":"537 GREEN LN","owner":"JARMAN, PARIS","point":[-86.81137237923532,36.236513965207514]}},{"type":"Feature","id":"216412","geometry":{"type":"Polygon","coordinates":[[[-86.8144520494473,36.2322699791719],[-86.8144372101096,36.2322780454148],[-86.8144228654005,36.2322832567504],[-86.8144076628122,36.2322865001198],[-86.81439200972,36.2322876889594],[-86.8143918551208,36.2322876918042],[-86.8143763897877,36.2322867992795],[-86.8143613043179,36.232283899801],[-86.8143469921707,36.2322790682243],[-86.8143338273289,36.2322724327104],[-86.8143221541854,36.2322641648803],[-86.8143122775507,36.2322544816846],[-86.814304455886,36.2322436364366],[-86.8143025496938,36.2322402209126],[-86.8142439447628,36.2321594417274],[-86.8141207152129,36.2319895827238],[-86.814027535303,36.2318380554037],[-86.8139511116167,36.2317137763041],[-86.8130777702099,36.2304491377845],[-86.8128396647198,36.2301009279105],[-86.8129158790718,36.2300547294913],[-86.8129012208004,36.2300367047923],[-86.8128909495523,36.2300240761264],[-86.8130382382751,36.2299423810264],[-86.813304699813,36.2297945856456],[-86.8137733952169,36.2293625899556],[-86.8137763165443,36.2293598980518],[-86.8145938696939,36.2293005203038],[-86.8152681391547,36.2293703411483],[-86.8158571365126,36.2293592489684],[-86.8158585300688,36.2293592224322],[-86.8161970610882,36.2290591965578],[-86.8162046936345,36.2290524315288],[-86.816311776508,36.2290101672235],[-86.8163171652656,36.2290080398924],[-86.8164039905714,36.2288211382486],[-86.8164814143334,36.2285039189688],[-86.816481659835,36.2285029142114],[-86.8167681406088,36.2282151449379],[-86.817053535831,36.2280638234752],[-86.8172268217786,36.2279979950839],[-86.8177151026488,36.2280786344717],[-86.8179465814992,36.228125229446],[-86.8182709874248,36.2282045851443],[-86.8182715740198,36.2282047289766],[-86.8183345670161,36.2280813339143],[-86.8183421328388,36.2280665137694],[-86.8184824368778,36.2278407591611],[-86.8216534060881,36.2277742635549],[-86.8216279138859,36.227825794168],[-86.8216066203179,36.227878560679],[-86.8215896176393,36.2279323407536],[-86.8215769768795,36.2279869031888],[-86.8215751134749,36.2280335865351],[-86.821577075503,36.2280802672941],[-86.8215828541587,36.2281267391378],[-86.8215924239798,36.228172798555],[-86.8216057428196,36.2282182421476],[-86.8216227518839,36.2282628702353],[-86.8216433768337,36.2283064859471],[-86.8216675255886,36.2283488979399],[-86.821645804668,36.2283753560736],[-86.8216272231118,36.2284033403064],[-86.8216119419093,36.2284326062055],[-86.8216000941312,36.2284628987127],[-86.8215917838448,36.2284939548554],[-86.821587081646,36.228525501975],[-86.8215860314358,36.2285572675936],[-86.8215886403532,36.2285889740759],[-86.8216122693348,36.2286332849544],[-86.821632790746,36.2286786011378],[-86.8216501396959,36.2287247797694],[-86.8216642623697,36.2287716734104],[-86.8216751116443,36.2288191363789],[-86.821655920705,36.2288736640541],[-86.8216393039738,36.2289287447106],[-86.8216252862075,36.228984297969],[-86.8216117608248,36.2290281126169],[-86.8216025880356,36.2290726619227],[-86.8215978238579,36.2291176616105],[-86.8215974998113,36.2291628248672],[-86.8216016173927,36.2292078659843],[-86.8216101513936,36.2292524985334],[-86.8216230465916,36.2292964380923],[-86.8216402200121,36.2293394058346],[-86.8216615653769,36.2293811284996],[-86.8216869453463,36.2294213411488],[-86.8217161981925,36.2294597871207],[-86.8217491378558,36.2294962234377],[-86.8217855561314,36.229530417187],[-86.8216553717164,36.2295488187097],[-86.8215672076908,36.2295612816205],[-86.821375888268,36.2295584423473],[-86.8201034720792,36.229340339976],[-86.8198433098646,36.2290913891827],[-86.8193859068882,36.2291166510939],[-86.8193264675573,36.2291141891885],[-86.8191368677937,36.2309332226011],[-86.8191364417028,36.2309373108825],[-86.8185851433383,36.2311613762414],[-86.8182615565987,36.2312951861851],[-86.817762976771,36.2315995088088],[-86.8173697768153,36.2318395075208],[-86.8162767512322,36.2323161280079],[-86.8154331351021,36.2324501590249],[-86.8154000049615,36.2324597223678],[-86.8153584551303,36.2324685629475],[-86.8153160447684,36.2324740990113],[-86.8152731704838,36.2324762783129],[-86.8152302381081,36.2324750800877],[-86.8151876504786,36.2324705169384],[-86.8151458096073,36.2324626294131],[-86.8151051100807,36.2324514932591],[-86.8150659345542,36.2324372140462],[-86.8150286514999,36.232419924478],[-86.8147451863997,36.2322877813384],[-86.8147111578604,36.232274221646],[-86.8146755079736,36.2322637488619],[-86.8146386607276,36.232256486301],[-86.814601056416,36.2322525202174],[-86.8145631427388,36.2322518998641],[-86.8145253714007,36.2322546312075],[-86.814488192596,36.232260681471],[-86.8144520494473,36.2322699791719]]]},"properties":{"id":"216412","parcel":"05900023800","address":"3200 WHITES CREEK PIKE","owner":"ROCK NASHVILLE PROPERTIES, LLC","point":[-86.81608159422481,36.23027987380677]}},{"type":"Feature","id":"216760","geometry":{"type":"Polygon","coordinates":[[[-86.8108981573939,36.2371824046661],[-86.8109868236218,36.237171612684],[-86.8110117888561,36.2373062086033],[-86.8109231213687,36.2373170006108],[-86.8108981573939,36.2371824046661]]]},"properties":{"id":"216760","parcel":"049150L00100CO","address":"532 GREEN LN","owner":"PIERCE, JESSICA","point":[-86.81095497282472,36.237244306647966]}},{"type":"Feature","id":"216762","geometry":{"type":"Polygon","coordinates":[[[-86.8111256442353,36.2385678620211],[-86.8108240595971,36.237014383856],[-86.8111606707719,36.2369728132258],[-86.8114614962259,36.238528987755],[-86.8111256442353,36.2385678620211]],[[-86.8108981573939,36.2371824046661],[-86.8109231213687,36.2373170006108],[-86.8110117888561,36.2373062086033],[-86.8109868236218,36.237171612684],[-86.8108981573939,36.2371824046661]],[[-86.8110647248557,36.2371617608187],[-86.8110902925526,36.2372958587913],[-86.8111810212878,36.2372845057592],[-86.8111554534411,36.2371504078052],[-86.8110647248557,36.2371617608187]]]},"properties":{"id":"216762","parcel":"049150L90000CO","address":"532 C GREEN LN","owner":"O.I.C. FIVETHRITYTWO GREEN LANE","point":[-86.81117239431245,36.23792296308521]}},{"type":"Feature","id":"216773","geometry":{"type":"Polygon","coordinates":[[[-86.8110647248557,36.2371617608187],[-86.8111554534411,36.2371504078052],[-86.8111810212878,36.2372845057592],[-86.8110902925526,36.2372958587913],[-86.8110647248557,36.2371617608187]]]},"properties":{"id":"216773","parcel":"049150L00200CO","address":"534 GREEN LN","owner":"WILKIE, CRAIG & DENHAM, AARON ROBERT","point":[-86.81112287302672,36.23722313330326]}},{"type":"Feature","id":"220156","geometry":{"type":"Polygon","coordinates":[[[-86.8106583041038,36.2374587741327],[-86.8106515268142,36.2374246197518],[-86.8105950344314,36.2374319772293],[-86.8105647151602,36.2372791875058],[-86.8105942795324,36.2372753372559],[-86.8105905003331,36.2372562929943],[-86.810665679229,36.2372479476233],[-86.8107062760442,36.2374525273705],[-86.8106583041038,36.2374587741327]]]},"properties":{"id":"220156","parcel":"049150M00100CO","address":"528 GREEN LN","owner":"DARY, JASMINE & NATHANIEL & POLK-CONLEY, ANITA","point":[-86.81063273423878,36.23735194259626]}},{"type":"Feature","id":"220157","geometry":{"type":"Polygon","coordinates":[[[-86.8108294618275,36.2374405755556],[-86.8108234118739,36.2374067308393],[-86.810767314303,36.2374133115711],[-86.81074028847,36.2372621184363],[-86.8107669532424,36.2372589905811],[-86.8107631547885,36.2372377410869],[-86.8108396352993,36.2372304854996],[-86.810876209998,36.2374350912887],[-86.8108294618275,36.2374405755556]]]},"properties":{"id":"220157","parcel":"049150M00200CO","address":"530 GREEN LN","owner":"ZARADA, JESSICA","point":[-86.81080572091422,36.23733446239471]}},{"type":"Feature","id":"222715","geometry":{"type":"Polygon","coordinates":[[[-86.8107911551961,36.2386118912845],[-86.8104909102394,36.2370555247558],[-86.8108240595971,36.237014383856],[-86.8111256442353,36.2385678620211],[-86.8107952171121,36.2386113566177],[-86.8107911551961,36.2386118912845]],[[-86.8106583041038,36.2374587741327],[-86.8107062760442,36.2374525273705],[-86.810665679229,36.2372479476233],[-86.8105905003331,36.2372562929943],[-86.8105942795324,36.2372753372559],[-86.8105647151602,36.2372791875058],[-86.8105950344314,36.2374319772293],[-86.8106515268142,36.2374246197518],[-86.8106583041038,36.2374587741327]],[[-86.8108294618275,36.2374405755556],[-86.810876209998,36.2374350912887],[-86.8108396352993,36.2372304854996],[-86.8107631547885,36.2372377410869],[-86.8107669532424,36.2372589905811],[-86.81074028847,36.2372621184363],[-86.810767314303,36.2374133115711],[-86.8108234118739,36.2374067308393],[-86.8108294618275,36.2374405755556]]]},"properties":{"id":"222715","parcel":"049150M90000CO","address":"528 C GREEN LN","owner":"O.I.C. HOMES AT 530 & 528 GREEN LANE","point":[-86.81084681988226,36.23801324694931]}}]}