{"type":"FeatureCollection","features":[{"type":"Feature","id":"111318","geometry":{"type":"Polygon","coordinates":[[[-86.8230794296639,36.262848472049],[-86.8230546148662,36.2628434210353],[-86.822831783275,36.2628135678759],[-86.8226083171336,36.2627870009693],[-86.8223842932623,36.262763726098],[-86.8221597840674,36.2627437526798],[-86.8223560645682,36.2602151694772],[-86.8238672914697,36.2598038120637],[-86.8234959397414,36.2628456344635],[-86.8234884835623,36.2629116133346],[-86.8232842817287,36.2628789411275],[-86.8230794296639,36.262848472049]]]},"properties":{"id":"111318","parcel":"04000011400","address":"3944 KNIGHT DR","owner":"LYONS, CHRISTY B.","point":[-86.82296020032997,36.261480502759184]}},{"type":"Feature","id":"111557","geometry":{"type":"Polygon","coordinates":[[[-86.8295697332444,36.2650032050229],[-86.8297497435099,36.264526830595],[-86.8298847363494,36.2645764122657],[-86.829965769775,36.265089227991],[-86.8299176060808,36.2650895695765],[-86.8298695542804,36.2650868866892],[-86.8298219050134,36.2650811953585],[-86.8297749424305,36.2650725296837],[-86.8297289508804,36.2650609426894],[-86.8296842070914,36.2650465036755],[-86.8296630181244,36.2650387974787],[-86.8296424833331,36.2650300079941],[-86.8295697332444,36.2650032050229]]]},"properties":{"id":"111557","parcel":"04000017900","address":"4413 JUDY CREEK RD","owner":"KERNS, DAVID T.","point":[-86.82978445576268,36.26478989019742]}},{"type":"Feature","id":"111596","geometry":{"type":"Polygon","coordinates":[[[-86.8292916306648,36.2643585659921],[-86.8294048423245,36.2639783890109],[-86.8294612432842,36.2639991397658],[-86.8295674919579,36.2640302623515],[-86.8295933873968,36.2640364095427],[-86.8296950277944,36.2640582898127],[-86.8297465815513,36.2640657893226],[-86.8296839435897,36.2645026620835],[-86.8292916306648,36.2643585659921]]]},"properties":{"id":"111596","parcel":"04000018300","address":"4041 KNIGHT DR","owner":"KERNS, DAVID THOMAS & BELLOS, SARAH","point":[-86.8295304259279,36.26421219400973]}},{"type":"Feature","id":"112863","geometry":{"type":"Polygon","coordinates":[[[-86.8296839435897,36.2645026620835],[-86.8297465815513,36.2640657893226],[-86.8298204991604,36.264076203995],[-86.829997769751,36.2640957170982],[-86.8299999363257,36.2640820951794],[-86.8301100082161,36.2640942116548],[-86.8301735161591,36.2645785970805],[-86.8298847363494,36.2645764122657],[-86.8297497435099,36.264526830595],[-86.8296839435897,36.2645026620835]]]},"properties":{"id":"112863","parcel":"04000018400","address":"4047 KNIGHT DR","owner":"KRAFT, DEAN A.","point":[-86.8299250406246,36.264299309430314]}},{"type":"Feature","id":"113574","geometry":{"type":"Polygon","coordinates":[[[-86.8294461519961,36.2647498221909],[-86.8294496349725,36.2647481913609],[-86.8292916306648,36.2643585659921],[-86.8296839435897,36.2645026620835],[-86.8297497435099,36.264526830595],[-86.8295697332444,36.2650032050229],[-86.8294906999693,36.2649765244451],[-86.829477158457,36.2649711197826],[-86.8294649646951,36.264963910583],[-86.8294544826311,36.2649551124508],[-86.8294460232594,36.2649449855147],[-86.8294398401506,36.2649338326566],[-86.8294361148251,36.2649219842899],[-86.8294349600439,36.2649097938312],[-86.8294364096624,36.2648976251521],[-86.8294404195914,36.264885838153],[-86.8294468722115,36.2648747851273],[-86.8294570308277,36.2648548059444],[-86.8294631787467,36.2648337800017],[-86.8294651623284,36.2648122328805],[-86.8294629304442,36.2647907020754],[-86.8294565410113,36.264769723431],[-86.8294461519961,36.2647498221909]]]},"properties":{"id":"113574","parcel":"04000018000","address":"4415 JUDY CREEK RD","owner":"KERNS, DAVID T.","point":[-86.82955625002838,36.26463744917994]}},{"type":"Feature","id":"113577","geometry":{"type":"Polygon","coordinates":[[[-86.8284084724988,36.2634488141551],[-86.8285961129187,36.2633490709003],[-86.8288615015325,36.2636303022265],[-86.828938545966,36.2637043619344],[-86.8289879524223,36.2637448198053],[-86.8290384568497,36.2637843796906],[-86.8291288179776,36.2638454294341],[-86.8292260380827,36.2639003251905],[-86.8292778615173,36.2639249972261],[-86.8293192099514,36.2639442939842],[-86.8293615633498,36.2639621030811],[-86.8294048423245,36.2639783890109],[-86.8292916306648,36.2643585659921],[-86.8288574065614,36.2644196060674],[-86.8287996935742,36.26429128391],[-86.8286570544091,36.264021822907],[-86.8285684445555,36.2638714075084],[-86.8284084724988,36.2634488141551]]]},"properties":{"id":"113577","parcel":"04000018200","address":"4037 KNIGHT DR","owner":"KERNS, DAVID THOMAS","point":[-86.82888894691511,36.263885854935815]}},{"type":"Feature","id":"113721","geometry":{"type":"Polygon","coordinates":[[[-86.8297130525487,36.2652370285162],[-86.8295911344886,36.2652240547956],[-86.8293803912929,36.2651463916108],[-86.8292143594904,36.2650462145391],[-86.8291151401004,36.2648905541093],[-86.8290324483532,36.2647608244625],[-86.8289208577585,36.2645606937588],[-86.8288574065614,36.2644196060674],[-86.8292916306648,36.2643585659921],[-86.8294496349725,36.2647481913609],[-86.8294461519961,36.2647498221909],[-86.82943224557,36.2647318764649],[-86.8294150998334,36.2647158744294],[-86.8293951216231,36.2647021954198],[-86.8293727861942,36.2646911633259],[-86.829348623809,36.2646830412767],[-86.8293232062709,36.2646780209177],[-86.8292971391345,36.2646762224649],[-86.8292710404971,36.2646776885412],[-86.8292455287481,36.2646823833594],[-86.8292212114796,36.2646901964037],[-86.8290921799117,36.2647405466802],[-86.8292313688312,36.2649338781008],[-86.8294129312055,36.2651019323588],[-86.8296168014125,36.2651800545402],[-86.8299249252837,36.2652000663241],[-86.8302261954278,36.2651401242762],[-86.8304614593348,36.2650997334175],[-86.8307003542648,36.2650875739532],[-86.8307049271822,36.2651891870159],[-86.8304892775473,36.2651747369329],[-86.8301696367167,36.2651864313785],[-86.8298083560453,36.2652471674899],[-86.8297130525487,36.2652370285162]]]},"properties":{"id":"113721","parcel":"04000018100","address":"4419 JUDY CREEK RD","owner":"KERNS, DAVID T.","point":[-86.82911367723037,36.26482574628136]}},{"type":"Feature","id":"114133","geometry":{"type":"Polygon","coordinates":[[[-86.8289807007096,36.2649582588324],[-86.8291151401004,36.2648905541093],[-86.8292143594904,36.2650462145391],[-86.8293803912929,36.2651463916108],[-86.8295911344886,36.2652240547956],[-86.8297130525487,36.2652370285162],[-86.8294769707451,36.2657584471539],[-86.8293882676181,36.2657841746171],[-86.8289807007096,36.2649582588324]]]},"properties":{"id":"114133","parcel":"04000005000","address":"0 OLD HICKORY BLVD","owner":"JARRETT, LINDA","point":[-86.82942084237413,36.26549748963388]}},{"type":"Feature","id":"114163","geometry":{"type":"Polygon","coordinates":[[[-86.8249143416168,36.2625063191864],[-86.8249814905253,36.2624399327143],[-86.8251261091405,36.2623862025186],[-86.8252304716374,36.2623756004919],[-86.8254662401089,36.2623454215707],[-86.8256858543688,36.2623274392006],[-86.8260014160323,36.2622725398339],[-86.8262691492281,36.2621850026304],[-86.8265152093129,36.2621009098287],[-86.8266935144157,36.2620249713035],[-86.8268718306471,36.2619501319576],[-86.8270025351224,36.2618635306501],[-86.8270913208707,36.2617904022715],[-86.8271123018498,36.2618506927628],[-86.8271951252291,36.2619863774387],[-86.8272448719235,36.2620728424145],[-86.8272986755671,36.262158180973],[-86.8272255928907,36.2621472696737],[-86.8271518748039,36.2621396648522],[-86.8270777474263,36.2621353874911],[-86.8270034423562,36.2621344504247],[-86.826929187769,36.2621368583998],[-86.826855211699,36.2621426026461],[-86.8267817454344,36.2621516662605],[-86.8267090134742,36.2621640215719],[-86.826637242412,36.2621796282777],[-86.8265666509956,36.2621984407221],[-86.8264974589458,36.2622203997245],[-86.8264298814388,36.2622454371234],[-86.8260866227753,36.2623766184106],[-86.825640978429,36.2625455837263],[-86.8256442231359,36.2624988625005],[-86.8252201841055,36.2626580632194],[-86.8251396344896,36.262688783417],[-86.8250577680278,36.2627171260469],[-86.8249746889524,36.2627430543451],[-86.824890507079,36.2627665333122],[-86.8248053322707,36.2627875324548],[-86.824810653758,36.2627122284327],[-86.8248610111948,36.2625967845644],[-86.8249143416168,36.2625063191864]]]},"properties":{"id":"114163","parcel":"04000009500","address":"0 KNIGHT DR","owner":"JOHNSON, LYNN & JUDITH H.","point":[-86.8260645449429,36.26230031106479]}},{"type":"Feature","id":"114667","geometry":{"type":"Polygon","coordinates":[[[-86.8170270950618,36.2734289845001],[-86.8171744448115,36.2723074693905],[-86.8174305559828,36.2718783041844],[-86.8176040009449,36.2715914435999],[-86.8178553601947,36.2712282373819],[-86.8179694646997,36.2709769389158],[-86.8180694249107,36.2708015532967],[-86.8171893697667,36.2690175611688],[-86.8151210411377,36.2684513640437],[-86.8140910220798,36.2645437634613],[-86.81570043754,36.2645781543736],[-86.8159985200179,36.2645845217911],[-86.8163422120591,36.2645918628573],[-86.816721258382,36.2645999571915],[-86.817109548249,36.2646082482978],[-86.8174509385244,36.2646155359845],[-86.8183266777522,36.264634228396],[-86.818720044958,36.2646426223455],[-86.8188339397604,36.2646450519046],[-86.819442656371,36.2646580387326],[-86.8196836356139,36.2646631782341],[-86.8203371350457,36.2646771149388],[-86.8203868101622,36.2642216047832],[-86.8219403643359,36.2643505964715],[-86.8242444426897,36.2643678673712],[-86.8250165205164,36.2643713896759],[-86.8250162460169,36.2643450201533],[-86.8250130183141,36.2642955961574],[-86.8249997438372,36.2641934979533],[-86.8250031968652,36.2641341389598],[-86.8249982341315,36.2640484660192],[-86.8249972505438,36.2639539760459],[-86.8250007950545,36.2639034062894],[-86.8249709762614,36.2637761491363],[-86.8249541470666,36.2637235212191],[-86.8249506324053,36.2636466291492],[-86.824920974998,36.2635347533657],[-86.8248702808018,36.263357094009],[-86.824839868922,36.2631727026589],[-86.8248420787705,36.2631243401485],[-86.824833449882,36.2630774251194],[-86.8248742933845,36.2630581921951],[-86.824975939514,36.2630324409406],[-86.825076643295,36.2630043681113],[-86.8251763248053,36.2629739940825],[-86.8251809348663,36.2629280872944],[-86.8252228496325,36.2629140660606],[-86.8252746853234,36.262896172894],[-86.8253252320109,36.2628760083517],[-86.8254406712403,36.2628323664624],[-86.8259678625435,36.2626331772956],[-86.8259786520278,36.2626594740603],[-86.8265317479888,36.2624507657113],[-86.8265648549427,36.2624379028699],[-86.8266198261465,36.2625699327926],[-86.8266543211139,36.2625600805146],[-86.8267111352966,36.2625443309861],[-86.826769245562,36.2625320658003],[-86.8268283243238,36.2625233520866],[-86.8268880426953,36.262518238959],[-86.8269480649071,36.2625167557517],[-86.8270080571895,36.2625189101561],[-86.8270676822372,36.262524690962],[-86.8271266069607,36.2625340644],[-86.8271845025423,36.2625469795482],[-86.8272410432577,36.2625633620318],[-86.8272959132369,36.2625831220879],[-86.8273488064074,36.2626061491583],[-86.8274146645903,36.2624893327189],[-86.8274890596222,36.262561101601],[-86.8277190223246,36.2626418782313],[-86.8279821088497,36.2627914792923],[-86.8280057261614,36.2628148184141],[-86.8281602572962,36.2629675340214],[-86.8283625826805,36.2632163292051],[-86.8284084724988,36.2634488141551],[-86.8285684445555,36.2638714075084],[-86.8286570544091,36.264021822907],[-86.8287996935742,36.26429128391],[-86.8288574065614,36.2644196060674],[-86.8289208577585,36.2645606937588],[-86.8290324483532,36.2647608244625],[-86.8291151401004,36.2648905541093],[-86.8289807007096,36.2649582588324],[-86.8293882676181,36.2657841746171],[-86.8293475244717,36.2657968635031],[-86.8292382440374,36.2658333739954],[-86.8291306264533,36.2658729948996],[-86.8290248080593,36.2659156748146],[-86.8289209207353,36.2659613614695],[-86.8288190962963,36.2660099962852],[-86.8287194609851,36.2660615198199],[-86.8286221398662,36.2661158663316],[-86.828527254658,36.2661729692002],[-86.8284349247881,36.2662327555128],[-86.8283452652058,36.2662951496836],[-86.8282293208428,36.2663793908062],[-86.8281109016813,36.2664613433823],[-86.8279900762207,36.2665409591694],[-86.8278669140932,36.2666181917199],[-86.8277414882986,36.2666929972669],[-86.8276138707156,36.2667653311503],[-86.8274841354776,36.2668351513985],[-86.8273523589634,36.266902417827],[-86.8272186175624,36.2669670911528],[-86.8269460708085,36.2670824071475],[-86.8266441589331,36.2672119341639],[-86.8263432803911,36.2673431008275],[-86.8261933561625,36.2674092301133],[-86.8260614561225,36.2674700727691],[-86.8259315556097,36.267533672045],[-86.8258037420895,36.267599984991],[-86.8256780996894,36.26766896868],[-86.825554715811,36.2677405738544],[-86.8254336723209,36.267814753998],[-86.8253150532651,36.267891458074],[-86.8251989371175,36.2679706341824],[-86.8250854023342,36.2680522286211],[-86.8249745262592,36.2681361876956],[-86.8248663850596,36.268222451411],[-86.8247610493953,36.2683109652175],[-86.8247389618803,36.2683311695801],[-86.8246443243597,36.2684161260546],[-86.8245520873009,36.268502798269],[-86.8244623003163,36.2685911408275],[-86.8243750074448,36.2686811074719],[-86.8242902549614,36.2687726528294],[-86.8242270689045,36.2688436423265],[-86.8241669165706,36.2689163378871],[-86.8230780766868,36.2700346464562],[-86.8220482530008,36.2710965038024],[-86.8219892516515,36.2711573390016],[-86.8218743273645,36.2712623919444],[-86.8217560706421,36.2713649899082],[-86.8216345597979,36.2714650647574],[-86.8215098764765,36.2715625474329],[-86.821382106822,36.2716573733515],[-86.8212513358674,36.2717494779371],[-86.8211176531265,36.2718387992876],[-86.820981148124,36.271925276402],[-86.8208419126399,36.272008850968],[-86.8207000407,36.2720894664607],[-86.8205556296984,36.2721670690364],[-86.8204087759268,36.2722416057605],[-86.820095964072,36.2723698156034],[-86.8198230290467,36.2724831954305],[-86.8195504440522,36.2725976717769],[-86.8192427467106,36.2727285439249],[-86.8191238582532,36.2727793931494],[-86.8187759933974,36.2729300879158],[-86.8185446573857,36.2730313712803],[-86.8178611716199,36.2732376274296],[-86.8170269164982,36.2734303411784],[-86.8170270950618,36.2734289845001]]]},"properties":{"id":"114667","parcel":"04000005100","address":"7158 OLD HICKORY BLVD","owner":"JOHNSON, LYNN & JUDITH H.","point":[-86.82011840070227,36.26792342823681]}},{"type":"Feature","id":"114689","geometry":{"type":"Polygon","coordinates":[[[-86.8219403643359,36.2643505964715],[-86.8221476416765,36.2628811854037],[-86.8223183061873,36.262892557845],[-86.8224885545221,36.2629074675707],[-86.8226582753219,36.2629259054271],[-86.8228273571993,36.2629478595574],[-86.8229956887385,36.2629733154019],[-86.8231631596173,36.2630022565917],[-86.8233296594661,36.2630346622524],[-86.8234247055582,36.2630470358809],[-86.8235201839127,36.2630569884419],[-86.8235173045234,36.2630737649589],[-86.8239040732544,36.2631463963352],[-86.8240021783871,36.2631536944584],[-86.8241169835868,36.2631565300961],[-86.8242318407309,36.2631561198781],[-86.8243318715906,36.2631525445664],[-86.8245524082647,36.2631252174555],[-86.8246898861799,36.2631023033159],[-86.8248319961999,36.2630680954126],[-86.824833449882,36.2630774251194],[-86.8248420787705,36.2631243401485],[-86.824839868922,36.2631727026589],[-86.8248702808018,36.263357094009],[-86.824920974998,36.2635347533657],[-86.8249506324053,36.2636466291492],[-86.8249541470666,36.2637235212191],[-86.8249709762614,36.2637761491363],[-86.8250007950545,36.2639034062894],[-86.8249972505438,36.2639539760459],[-86.8249982341315,36.2640484660192],[-86.8250031968652,36.2641341389598],[-86.8249997438372,36.2641934979533],[-86.8250130183141,36.2642955961574],[-86.8250162460169,36.2643450201533],[-86.8250165205164,36.2643713896759],[-86.8242444426897,36.2643678673712],[-86.8219403643359,36.2643505964715]]]},"properties":{"id":"114689","parcel":"04000006900","address":"3961 KNIGHT DR","owner":"MACHEN, RICHARD A. JR. & EVONNE","point":[-86.82349198167469,36.26358856933337]}},{"type":"Feature","id":"115093","geometry":{"type":"Polygon","coordinates":[[[-86.8234884835623,36.2629116133346],[-86.8234959397414,36.2628456344635],[-86.8238672914697,36.2598038120637],[-86.8276215001452,36.2596803645864],[-86.8276326494994,36.2598385159555],[-86.827624769916,36.2599935008778],[-86.8276266629624,36.2601747911975],[-86.8275936867044,36.2603947774959],[-86.8275388720319,36.2606028275821],[-86.8274610995335,36.2608209233317],[-86.8274044974822,36.260987232531],[-86.8273340704703,36.261129457656],[-86.8272866294245,36.2612638368234],[-86.8272315747415,36.2614488127903],[-86.8270913208707,36.2617904022715],[-86.8270025351224,36.2618635306501],[-86.8268718306471,36.2619501319576],[-86.8266935144157,36.2620249713035],[-86.8265152093129,36.2621009098287],[-86.8262691492281,36.2621850026304],[-86.8260014160323,36.2622725398339],[-86.8256858543688,36.2623274392006],[-86.8254662401089,36.2623454215707],[-86.8252304716374,36.2623756004919],[-86.8251261091405,36.2623862025186],[-86.8249814905253,36.2624399327143],[-86.8249143416168,36.2625063191864],[-86.8248610111948,36.2625967845644],[-86.824810653758,36.2627122284327],[-86.8248053322707,36.2627875324548],[-86.8248050471915,36.2627927544272],[-86.8247162479039,36.262809812755],[-86.8246269524778,36.2628250755124],[-86.8245372153611,36.2628385342157],[-86.8244348210598,36.2628511914745],[-86.8243320023945,36.2628613559863],[-86.8242288549898,36.2628690189867],[-86.8241133877395,36.2628739666409],[-86.8239977703532,36.2628752858843],[-86.8238821775542,36.2628729755253],[-86.8237667807648,36.2628670380008],[-86.8236517559333,36.2628574829269],[-86.8236470425149,36.2629261901169],[-86.8235676448966,36.2629197420689],[-86.8234884835623,36.2629116133346]]]},"properties":{"id":"115093","parcel":"04000009600","address":"3956 KNIGHT DR","owner":"LANE, JUSTIN & MEGAN","point":[-86.82546875052853,36.26135372585104]}},{"type":"Feature","id":"115757","geometry":{"type":"Polygon","coordinates":[[[-86.8283461559149,36.2628124853738],[-86.828123805123,36.262577269486],[-86.8280555825686,36.2625109364811],[-86.8279956629436,36.2624608798657],[-86.8278892767376,36.2623906534951],[-86.8277490522718,36.2623127747005],[-86.8276896056353,36.2622824015552],[-86.827628221331,36.2622546705919],[-86.8275650793493,36.2622296607859],[-86.8275003629804,36.2622074474858],[-86.8274342620493,36.2621880924764],[-86.8273669674647,36.2621716548322],[-86.8272986755671,36.262158180973],[-86.8272448719235,36.2620728424145],[-86.8271951252291,36.2619863774387],[-86.8271123018498,36.2618506927628],[-86.8270913208707,36.2617904022715],[-86.8272315747415,36.2614488127903],[-86.8272866294245,36.2612638368234],[-86.8273340704703,36.261129457656],[-86.8274044974822,36.260987232531],[-86.8274610995335,36.2608209233317],[-86.8275388720319,36.2606028275821],[-86.8275936867044,36.2603947774959],[-86.8276266629624,36.2601747911975],[-86.827624769916,36.2599935008778],[-86.8276326494994,36.2598385159555],[-86.8276215001452,36.2596803645864],[-86.8279511976127,36.2599407200333],[-86.8303914197216,36.260298698972],[-86.8305467032522,36.261347326924],[-86.8305624134925,36.2615072770748],[-86.8305850380894,36.2617565501898],[-86.8306091174613,36.2620475681192],[-86.8306276757855,36.2622971413141],[-86.8306445412768,36.2625470055114],[-86.8306593686926,36.2627966070146],[-86.8306718614998,36.2630176549819],[-86.8306875516662,36.2633496606346],[-86.8306959780286,36.2635710113971],[-86.8307030439529,36.2637920975171],[-86.8307082667851,36.2640069001748],[-86.8298416521854,36.2639121425041],[-86.8297446813085,36.26389831539],[-86.8296789292272,36.2638845135995],[-86.829613853245,36.2638687451155],[-86.8295381757888,36.2638465766084],[-86.8294234217645,36.2638040872553],[-86.8293643982491,36.2637748620233],[-86.8293069574788,36.2637436341435],[-86.8292512046813,36.2637104623781],[-86.8291972406232,36.2636754046193],[-86.8291451605723,36.2636385251056],[-86.829114410605,36.2636141554501],[-86.8290845048935,36.2635891058612],[-86.8290412623639,36.2635475521833],[-86.8289993571606,36.2635051096978],[-86.8283461559149,36.2628124853738]]]},"properties":{"id":"115757","parcel":"04000009300","address":"4301 WHITES CREEK PIKE","owner":"JUMPER, S. BEN & KATIE H","point":[-86.82884627877442,36.261823056400026]}},{"type":"Feature","id":"118723","geometry":{"type":"Polygon","coordinates":[[[-86.8289750154713,36.2665377849394],[-86.8286661354698,36.2662599840977],[-86.8287574014601,36.2662064965096],[-86.8288509700974,36.266155684182],[-86.8289467207575,36.2661076119256],[-86.8290445316666,36.2660623409544],[-86.8291442776852,36.2660199298019],[-86.8292458313925,36.2659804316102],[-86.8293490631337,36.2659438986356],[-86.8294545224191,36.265910091877],[-86.8295614197346,36.2658793916672],[-86.8296696163748,36.2658518359056],[-86.8297789714088,36.265827462508],[-86.8298893415963,36.2658063012949],[-86.8300005825748,36.2657883811937],[-86.8301125499262,36.2657737257255],[-86.83011255368,36.2657737653546],[-86.8301125563304,36.2657738058925],[-86.8301474382581,36.2663844208303],[-86.8302273419825,36.2663807887612],[-86.830796627989,36.266354365141],[-86.8308233627361,36.26681842546],[-86.830832687859,36.2669429470401],[-86.830846296174,36.2670672102517],[-86.8308641799944,36.2671911169104],[-86.8308863249938,36.2673145724821],[-86.8309309841357,36.2675412624905],[-86.8302359005742,36.2676724340654],[-86.8289750154713,36.2665377849394]]]},"properties":{"id":"118723","parcel":"04000001500","address":"7129 OLD HICKORY BLVD","owner":"GARRETT, CALEB ALLAN","point":[-86.8299725416672,36.26667821306741]}},{"type":"Feature","id":"118729","geometry":{"type":"Polygon","coordinates":[[[-86.8273221948867,36.2670757123707],[-86.8274732813486,36.2670017707149],[-86.8276219925273,36.2669247358319],[-86.8277682309905,36.2668446570648],[-86.8278725718676,36.2667858560781],[-86.8279750351257,36.2667249274017],[-86.8280755521698,36.2666619102642],[-86.8281740611012,36.2665968456504],[-86.8296718670223,36.2677784954282],[-86.8287635233978,36.2679498237025],[-86.8288549532174,36.268518375318],[-86.828862852762,36.268560075888],[-86.8284268753979,36.2687803530055],[-86.8273221948867,36.2670757123707]]]},"properties":{"id":"118729","parcel":"04000001700","address":"7141 OLD HICKORY BLVD","owner":"THE TARPY 2023 TN BY THE ENTIRETY REVOCABLE TRUST","point":[-86.82838840602608,36.2674269538657]}},{"type":"Feature","id":"118732","geometry":{"type":"Polygon","coordinates":[[[-86.8257742529592,36.2677840389624],[-86.8258965371056,36.2677169166692],[-86.826020991221,36.267652459725],[-86.8261475234435,36.2675907165171],[-86.826276046308,36.2675317299959],[-86.8264571160352,36.2674494860298],[-86.8266394670499,36.2673691211352],[-86.8268230705586,36.2672906481211],[-86.8269498532711,36.2672400129133],[-86.8270753364736,36.2671872973743],[-86.8271994669589,36.2671325226009],[-86.8273221948867,36.2670757123707],[-86.8284268753979,36.2687803530055],[-86.828862852762,36.268560075888],[-86.8291393378782,36.27002068482],[-86.8266261617216,36.2687061526133],[-86.8265534180047,36.2687541341088],[-86.8257742529592,36.2677840389624]]]},"properties":{"id":"118732","parcel":"04000001800","address":"7159 OLD HICKORY BLVD","owner":"TEASLEY, FRANK O. ETUX","point":[-86.8270589067278,36.26817169224604]}},{"type":"Feature","id":"120179","geometry":{"type":"Polygon","coordinates":[[[-86.8285943533555,36.2663049771593],[-86.8286661354698,36.2662599840977],[-86.8289750154713,36.2665377849394],[-86.8302359005742,36.2676724340654],[-86.8296718670223,36.2677784954282],[-86.8281740611012,36.2665968456504],[-86.8284134961448,36.2664295581081],[-86.8285943533555,36.2663049771593]]]},"properties":{"id":"120179","parcel":"04000001600","address":"7135 OLD HICKORY BLVD","owner":"TARLETON FAMILY IRREVOCABLE TRUST, THE","point":[-86.82924703401989,36.26713470436027]}}]}