{"type":"FeatureCollection","features":[{"type":"Feature","id":"94076","geometry":{"type":"Polygon","coordinates":[[[-86.8058474990528,36.2553414887591],[-86.8059607320046,36.2544124729776],[-86.8062874366342,36.2546049603492],[-86.8063899065306,36.2546634038512],[-86.8064945447103,36.2547192714464],[-86.8065923827349,36.2547682212987],[-86.8066918848943,36.2548149194585],[-86.8067929740046,36.2548593267819],[-86.8064462498589,36.2559150824894],[-86.8066476088977,36.2564871340935],[-86.8064174482212,36.2569758002304],[-86.8058902885721,36.2575882559931],[-86.8054944014607,36.2573718608975],[-86.8054249685852,36.2565369048972],[-86.8057111524898,36.2564083437335],[-86.8056035758729,36.2561326148984],[-86.8055525920625,36.2556471190096],[-86.8058474990528,36.2553414887591]]]},"properties":{"id":"94076","parcel":"04900037900","address":"3695 KNIGHT DR","owner":"COOPER, JAYSON L.","point":[-86.80603843865542,36.25602387137034]}},{"type":"Feature","id":"123405","geometry":{"type":"Polygon","coordinates":[[[-86.8075229885114,36.2585835530825],[-86.8078337018521,36.2581742115271],[-86.8094751555756,36.2560116386232],[-86.8097423588992,36.2561698108826],[-86.8097771448225,36.2561899261524],[-86.8098603539107,36.2562350762036],[-86.8099458184757,36.2562773748508],[-86.8100333875154,36.2563167464956],[-86.8101229089965,36.2563531236579],[-86.8102142275929,36.2563864433862],[-86.8103071835724,36.2564166472652],[-86.8104016150322,36.2564436823022],[-86.8098872668466,36.2567689890367],[-86.8112417842403,36.2581737853992],[-86.8105818678051,36.2586792500088],[-86.8075229885114,36.2585835530825]]]},"properties":{"id":"123405","parcel":"04900038000","address":"3757 KNIGHT DR","owner":"GIERMAN, CORY J.","point":[-86.80946717427778,36.25746964629326]}},{"type":"Feature","id":"132209","geometry":{"type":"Polygon","coordinates":[[[-86.8037161967153,36.2537265748063],[-86.8041118979619,36.2528772145215],[-86.8041433474167,36.2529322229312],[-86.8041762954567,36.2529866535716],[-86.8042299903068,36.2530693805123],[-86.8042871425282,36.2531505739215],[-86.8043476877284,36.2532301377897],[-86.8044115526495,36.253307979771],[-86.8041316575002,36.2543896448493],[-86.8037596963751,36.2545222238702],[-86.8037161967153,36.2537265748063]]]},"properties":{"id":"132209","parcel":"04900023700","address":"3669 KNIGHT DR","owner":"OWENS, CALEB A. & ANTHONY D.","point":[-86.8040855832181,36.253517313354294]}},{"type":"Feature","id":"132333","geometry":{"type":"Polygon","coordinates":[[[-86.8079625824843,36.2564402141773],[-86.8080453627677,36.2552526193556],[-86.8080503190338,36.2552543706834],[-86.8081279739022,36.2552827534905],[-86.8082375515335,36.2553258618184],[-86.8083452986385,36.2553719005353],[-86.8084510934011,36.2554208172874],[-86.8085548184551,36.2554725596914],[-86.808656361923,36.2555270681178],[-86.8087556085886,36.2555842829593],[-86.808891258832,36.2556647766126],[-86.8097423588992,36.2561698108826],[-86.8094751555756,36.2560116386232],[-86.8078337018521,36.2581742115271],[-86.8078655445759,36.2577457996526],[-86.8079625824843,36.2564402141773]]]},"properties":{"id":"132333","parcel":"04900026500","address":"0 KNIGHT DR","owner":"GIERMAN, JACK L REVOCABLE","point":[-86.80828377227525,36.25709360007556]}},{"type":"Feature","id":"132870","geometry":{"type":"Polygon","coordinates":[[[-86.8039987063651,36.2520575212729],[-86.8061003027241,36.2517705133379],[-86.8061329549904,36.2528471240802],[-86.8044360351108,36.253084655889],[-86.8043776567274,36.253001834043],[-86.8043230713926,36.2529173331269],[-86.8042723503466,36.2528312662291],[-86.8042255637526,36.2527437500495],[-86.8041827750967,36.2526549013323],[-86.8041440401214,36.2525648413792],[-86.8041094123339,36.2524736906052],[-86.8040789385828,36.2523815712717],[-86.8040526579552,36.2522886083953],[-86.8039987063651,36.2520575212729]]]},"properties":{"id":"132870","parcel":"04900014200","address":"3666 A KNIGHT DR","owner":"THE FARM NASHVILLE, LLC","point":[-86.80510725383432,36.25242928573935]}},{"type":"Feature","id":"133150","geometry":{"type":"Polygon","coordinates":[[[-86.8034203594679,36.2539976162584],[-86.8037161967153,36.2537265748063],[-86.8037596963751,36.2545222238702],[-86.8038464128123,36.2574422165294],[-86.8025774111526,36.2551927332792],[-86.8032455190286,36.2541996263679],[-86.8034203594679,36.2539976162584]]]},"properties":{"id":"133150","parcel":"04900029400","address":"3667 KNIGHT DR","owner":"3667 KNIGHT DRIVE, LLC","point":[-86.8035124711962,36.25631797075731]}},{"type":"Feature","id":"133815","geometry":{"type":"Polygon","coordinates":[[[-86.8016828255853,36.2600535657427],[-86.8017099157919,36.2598479098865],[-86.79990770736,36.2596697603865],[-86.8002406693556,36.2575078590949],[-86.8002763295294,36.257320586188],[-86.8038464128123,36.2574422165294],[-86.8037596963751,36.2545222238702],[-86.8041316575002,36.2543896448493],[-86.8044115526495,36.253307979771],[-86.8044695246337,36.2533739761861],[-86.8045298846865,36.2534385525269],[-86.8046039866569,36.2535127347661],[-86.8046812372276,36.2535847780566],[-86.8047615442845,36.2536545964861],[-86.8048448079056,36.253722102392],[-86.8049309282406,36.253787215321],[-86.8050197998934,36.2538498566596],[-86.8051113152501,36.2539099487101],[-86.805205363413,36.2539674192046],[-86.8059607320046,36.2544124729776],[-86.8058474990528,36.2553414887591],[-86.8055525920625,36.2556471190096],[-86.8056035758729,36.2561326148984],[-86.8057111524898,36.2564083437335],[-86.8054249685852,36.2565369048972],[-86.8054944014607,36.2573718608975],[-86.8058902885721,36.2575882559931],[-86.8064174482212,36.2569758002304],[-86.8066476088977,36.2564871340935],[-86.8064462498589,36.2559150824894],[-86.8067929740046,36.2548593267819],[-86.806893009973,36.2549003965207],[-86.8069944019149,36.2549392238273],[-86.8070970749533,36.2549757776549],[-86.8072009487023,36.2550100324008],[-86.8071444403088,36.2551981480306],[-86.8068300227564,36.2561624826469],[-86.8079625824843,36.2564402141773],[-86.8078655445759,36.2577457996526],[-86.8078337018521,36.2581742115271],[-86.8075229885114,36.2585835530825],[-86.8072870691743,36.2585761683204],[-86.8072746083005,36.2585559843144],[-86.8061725468331,36.2593407900917],[-86.8056865789477,36.2599165078565],[-86.8052127756273,36.2602212871494],[-86.8050180182153,36.2602819201301],[-86.8047496689029,36.2603100789036],[-86.8042667679641,36.2602539584685],[-86.8039752163231,36.2602020571791],[-86.8038496178173,36.2601924536011],[-86.8022006495398,36.260075401136],[-86.8016828255853,36.2600535657427]]]},"properties":{"id":"133815","parcel":"04900023600","address":"3679 KNIGHT DR","owner":"COOPER, TIMOTHY J. & VICKI","point":[-86.80463454749514,36.25675425910042]}},{"type":"Feature","id":"133818","geometry":{"type":"Polygon","coordinates":[[[-86.7977003958898,36.2561093980089],[-86.7976328552261,36.255329693388],[-86.7982638505805,36.2552090528326],[-86.79869688585,36.2502527824069],[-86.8033513159065,36.2501164395451],[-86.8033858969775,36.2502183193704],[-86.8034167907444,36.25032097264],[-86.8034439718488,36.2504243139065],[-86.8038102787582,36.251990146631],[-86.8038866965663,36.2523168006067],[-86.8039075635056,36.2523920854899],[-86.8039310446709,36.2524668626952],[-86.8039571194567,36.2525410746781],[-86.8039857694458,36.2526146602747],[-86.8038128319273,36.2530032225466],[-86.8010454406118,36.2556536652828],[-86.8008785152503,36.2555141248426],[-86.7996207937932,36.2565099702961],[-86.7990629640894,36.2564234428508],[-86.7977003958898,36.2561093980089]]]},"properties":{"id":"133818","parcel":"04900023900","address":"3631 KNIGHT DR","owner":"DIXIE RIDGE, LLC","point":[-86.8005095269385,36.25410528930558]}},{"type":"Feature","id":"133954","geometry":{"type":"Polygon","coordinates":[[[-86.8071444403088,36.2551981480306],[-86.8072009487023,36.2550100324008],[-86.8072053236649,36.2550114154308],[-86.8072676152327,36.2550306122531],[-86.8072681822442,36.2550307824059],[-86.8073483778783,36.2550541143643],[-86.8074291594587,36.2550760841729],[-86.8077124969275,36.2551504803009],[-86.807824501587,36.2551815203838],[-86.8079356450589,36.2552156168473],[-86.8080453627677,36.2552526193556],[-86.8079625824843,36.2564402141773],[-86.8068300227564,36.2561624826469],[-86.8071444403088,36.2551981480306]]]},"properties":{"id":"133954","parcel":"04900028300","address":"3717 KNIGHT DR","owner":"GIERMAN, CORY J. & HENDON, JOHN T","point":[-86.80749609050095,36.25570764656017]}},{"type":"Feature","id":"135950","geometry":{"type":"Polygon","coordinates":[[[-86.8068239782659,36.2547170721946],[-86.8067114249343,36.2546656927711],[-86.8066010301659,36.2546113301213],[-86.8064929124985,36.2545540411397],[-86.8063871916734,36.2544938917257],[-86.8053051191753,36.2538563523546],[-86.8052109624073,36.2537987006078],[-86.8051194871835,36.2537382821118],[-86.8050308178454,36.2536751780576],[-86.80494507545,36.253609475066],[-86.8048623766208,36.25354126159],[-86.8047828313403,36.2534706297314],[-86.8047065485231,36.2533976761062],[-86.8046336315279,36.2533224982679],[-86.8045641782043,36.2532451992147],[-86.8044982830621,36.2531658819666],[-86.8044360351108,36.253084655889],[-86.8061329549904,36.2528471240802],[-86.8061003027241,36.2517705133379],[-86.8039987063651,36.2520575212729],[-86.8039827082533,36.2519889994184],[-86.8036215728792,36.2504421374424],[-86.8035933791454,36.2503277256936],[-86.8035609369856,36.2502140550778],[-86.8035242763954,36.250101229036],[-86.8034834318021,36.249989349177],[-86.8034384398758,36.2498785188963],[-86.8032140833562,36.2492470981587],[-86.8030278992697,36.2487231045342],[-86.8070327736655,36.248219541095],[-86.8078425228773,36.2502051639438],[-86.8089512177864,36.2501076463285],[-86.8081612684826,36.2551440179417],[-86.8080627516569,36.2551092883855],[-86.8079630705635,36.2550768106428],[-86.8078623044619,36.2550466103172],[-86.8077647924666,36.2550198282196],[-86.8074814554158,36.2549454322113],[-86.8074076895976,36.2549254037123],[-86.8073344314026,36.25490419024],[-86.8072297729174,36.2548715423693],[-86.807126312819,36.2548364773663],[-86.8070241393101,36.2547990234847],[-86.8069233328134,36.2547592099321],[-86.8068239782659,36.2547170721946]]]},"properties":{"id":"135950","parcel":"04900031800","address":"0 KNIGHT DR","owner":"THE FARM NASHVILLE, LLC","point":[-86.80628490433575,36.25110864618593]}}]}