{"type":"FeatureCollection","features":[{"type":"Feature","id":"108314","geometry":{"type":"Polygon","coordinates":[[[-86.8289838208498,36.2722764909812],[-86.8303647553043,36.2719736286882],[-86.8317682119631,36.2718375801433],[-86.8318121844959,36.2720219130255],[-86.8318592783349,36.2722057404304],[-86.831909486445,36.2723890263533],[-86.8297915519223,36.2725676244899],[-86.8300610246447,36.2732909818669],[-86.8289112098562,36.2733779872031],[-86.8289838208498,36.2722764909812]]]},"properties":{"id":"108314","parcel":"04000013500","address":"0 WHITES CREEK PIKE","owner":"EWING, GEORGE H.","point":[-86.82943358389733,36.27292860160222]}},{"type":"Feature","id":"113445","geometry":{"type":"Polygon","coordinates":[[[-86.828171911685,36.2764926450117],[-86.8283731395768,36.2756474038951],[-86.8307303181303,36.2753782884425],[-86.8322848292296,36.2752007870004],[-86.8326355184008,36.2751118755202],[-86.8328961173457,36.2750458094808],[-86.8329562079046,36.2751979662325],[-86.8330311237209,36.2753916691004],[-86.8327140423161,36.2754967041637],[-86.8305182832009,36.2757469550631],[-86.8304976268387,36.2761064069899],[-86.8304679733906,36.2763846050114],[-86.8314253886135,36.2763219834495],[-86.8315000393604,36.2768422116714],[-86.8315000547653,36.2768423007886],[-86.8282740896487,36.2769468613683],[-86.8282740519123,36.2769467651938],[-86.8281647940794,36.2766972717106],[-86.8281378534436,36.2766356976429],[-86.828171911685,36.2764926450117]]]},"properties":{"id":"113445","parcel":"04000013000","address":"4643 WHITES CREEK PIKE","owner":"HARBISON, DAVID & SHAUNA","point":[-86.82940767718495,36.27592511662523]}},{"type":"Feature","id":"120706","geometry":{"type":"Polygon","coordinates":[[[-86.8234300220901,36.2794852188929],[-86.8234100668889,36.2793282267108],[-86.8231069804458,36.2763448544397],[-86.8214320252056,36.2761782456587],[-86.8194105239662,36.2738625139868],[-86.818745838052,36.2730978596809],[-86.8189883320389,36.2729929286917],[-86.8192443463586,36.2728832785732],[-86.8194750340903,36.2727849786674],[-86.8199323774191,36.2725923342957],[-86.8202076751732,36.2724778413776],[-86.8204833200537,36.272364164698],[-86.8206235642056,36.272293634638],[-86.8207616708671,36.2722203899586],[-86.8208975581221,36.272144474483],[-86.8210311473759,36.2720659302095],[-86.8211623622978,36.2719848027266],[-86.8212911265862,36.2719011403261],[-86.8214173639314,36.271814990399],[-86.8215410025138,36.271726403911],[-86.8216619694019,36.2716354318354],[-86.821780196145,36.2715421278189],[-86.8218956131621,36.2714465437134],[-86.822008154268,36.2713487367555],[-86.8221177532785,36.2712487641816],[-86.8222669804377,36.2710950158678],[-86.8226061200651,36.2707454870418],[-86.8232441928583,36.2700895535749],[-86.8238384446874,36.2694733393591],[-86.8254456660475,36.2704876352854],[-86.8259061188759,36.2700120556114],[-86.8243007531238,36.2689989336651],[-86.8243887978262,36.2688975341582],[-86.8244799563368,36.2687979536841],[-86.824574171456,36.2687002575161],[-86.8246713826093,36.2686045073451],[-86.8247715314114,36.2685107612424],[-86.8248745539419,36.2684190800205],[-86.8249803829146,36.2683295218113],[-86.8250719170338,36.2682542872698],[-86.8251659766557,36.2681811235999],[-86.8252624889232,36.268110088072],[-86.8253613831402,36.268041231633],[-86.8254617833846,36.2679740159071],[-86.825564099912,36.2679087210795],[-86.8256682752416,36.2678453844894],[-86.8257742529592,36.2677840389624],[-86.8265534180047,36.2687541341088],[-86.8266261617216,36.2687061526133],[-86.8291393378782,36.27002068482],[-86.8289838208498,36.2722764909812],[-86.8289112098562,36.2733779872031],[-86.8288097618405,36.2737984243048],[-86.8287849321442,36.2738897951589],[-86.8283731395768,36.2756474038951],[-86.828171911685,36.2764926450117],[-86.8281378534436,36.2766356976429],[-86.8281647940794,36.2766972717106],[-86.8282740519123,36.2769467651938],[-86.8282740896487,36.2769468613683],[-86.8278196137812,36.2792981069899],[-86.8277644571098,36.2794742929922],[-86.8255796357388,36.2797441567877],[-86.8234300220901,36.2794852188929]]]},"properties":{"id":"120706","parcel":"04000002000","address":"7203 OLD HICKORY BLVD","owner":"WILLIAMS, MARK S & WALLACE C., JR & PHILIP D ETAL","point":[-86.82401007578497,36.27358116663963]}}]}