{"type":"FeatureCollection","features":[{"type":"Feature","id":"65808","geometry":{"type":"Polygon","coordinates":[[[-86.8439493748907,36.3272957251533],[-86.8432610362232,36.3328354222977],[-86.8431516580635,36.3328349726507],[-86.843042330748,36.3328377291254],[-86.842933199015,36.3328436871083],[-86.8428244053464,36.3328528392983],[-86.84271609329,36.3328651738813],[-86.8426084041185,36.3328806745535],[-86.842501479057,36.3328993205056],[-86.8423954593021,36.3329210882255],[-86.8422904826331,36.3329459470152],[-86.8421866879532,36.332973867071],[-86.8420842118522,36.3330048104942],[-86.8421698780654,36.3322999725111],[-86.8428050637927,36.3271886084278],[-86.8439493748907,36.3272957251533]]]},"properties":{"id":"65808","parcel":"01500030600","address":"2759 UNION HILL RD","owner":"NICHOLS, DAVID E.","point":[-86.84305965477925,36.32979785273761]}},{"type":"Feature","id":"74411","geometry":{"type":"Polygon","coordinates":[[[-86.8407533246094,36.3328428370168],[-86.8405234823181,36.3321993343461],[-86.8404226591653,36.3319161394925],[-86.8384480251534,36.3264867750903],[-86.8421151179281,36.3268591422676],[-86.8439800950042,36.3270484733664],[-86.8439493748907,36.3272957251533],[-86.8428050637927,36.3271886084278],[-86.8421698780654,36.3322999725111],[-86.8420842118522,36.3330048104942],[-86.8419789367093,36.3330402722519],[-86.8418753963756,36.3330789365276],[-86.841773742853,36.3331207481941],[-86.8416741203,36.3331656476729],[-86.8415766728094,36.3332135690777],[-86.8413699050254,36.3327153641332],[-86.8407533246094,36.3328428370168]]]},"properties":{"id":"74411","parcel":"01500021800","address":"2741 UNION HILL RD","owner":"NICHOLS, DAVID E.","point":[-86.84104288886435,36.329604431045816]}},{"type":"Feature","id":"78597","geometry":{"type":"Polygon","coordinates":[[[-86.8457719625198,36.3315637921678],[-86.8459202549474,36.3305011435969],[-86.8464858744116,36.3270151701716],[-86.847038887442,36.323302348708],[-86.8470694874121,36.3231164425979],[-86.8473558432594,36.3207547938663],[-86.8492110023883,36.3211087760133],[-86.8489798282171,36.3231030472687],[-86.8485468039847,36.3265999469192],[-86.8484868306683,36.3270857548918],[-86.8483122889215,36.3286022026196],[-86.848157259479,36.3299124893158],[-86.848003317795,36.3300865059172],[-86.8478528628901,36.3302625085121],[-86.8477059354827,36.3304404499637],[-86.8475625729898,36.3306202867635],[-86.8474228127717,36.3308019699957],[-86.8472866911052,36.3309854534556],[-86.8471542442391,36.3311706882351],[-86.8470255051113,36.3313576281525],[-86.8469025934908,36.3315429526643],[-86.8467833424304,36.3317298357716],[-86.8466677781781,36.3319182304374],[-86.8465559336462,36.3321080877752],[-86.8457719625198,36.3315637921678]]]},"properties":{"id":"78597","parcel":"01500010000","address":"2837 UNION HILL RD","owner":"MIDGETT, JAMES C., JR.","point":[-86.84777216534587,36.324951124066295]}},{"type":"Feature","id":"78598","geometry":{"type":"Polygon","coordinates":[[[-86.8432610362232,36.3328354222977],[-86.8439493748907,36.3272957251533],[-86.8439800950042,36.3270484733664],[-86.844013880939,36.326776542464],[-86.8448022947951,36.3268456418803],[-86.8452644997719,36.3268940557525],[-86.8464858744116,36.3270151701716],[-86.8459202549474,36.3305011435969],[-86.8443434728899,36.3303734898131],[-86.8439837935023,36.3329164252643],[-86.8438822834951,36.3328964340861],[-86.8437799978327,36.3328792213175],[-86.8436770536904,36.3328648086701],[-86.8435735681665,36.3328532106464],[-86.843469657226,36.3328444399547],[-86.8433654412791,36.3328385083715],[-86.8432610362232,36.3328354222977]]]},"properties":{"id":"78598","parcel":"01500010100","address":"2767 UNION HILL RD","owner":"HUNTER, JERRY & DIANA L.","point":[-86.84497423494065,36.32883568438323]}}]}