{"type":"FeatureCollection","features":[{"type":"Feature","id":"80474","geometry":{"type":"Polygon","coordinates":[[[-86.8833047598545,36.3205978954249],[-86.8836514002556,36.3182688861715],[-86.8841395721869,36.3183955252134],[-86.8839775756622,36.3194947206678],[-86.8837925206958,36.3207503313627],[-86.8833047598545,36.3205978954249]]]},"properties":{"id":"80474","parcel":"02100000900","address":"3828 OLD CLARKSVILLE PIKE","owner":"SAUNDERS, PHILIP R FAMILY TRUST FBO GEORGE LEWIS","point":[-86.88364157005361,36.3200463089388]}}]}