{"type":"FeatureCollection","features":[{"type":"Feature","id":"101267","geometry":{"type":"Polygon","coordinates":[[[-86.8702494045054,36.2414268105892],[-86.8703343190408,36.2413996496586],[-86.8703719795371,36.241467147461],[-86.8703720283335,36.2414672345313],[-86.8703914567069,36.2415020561206],[-86.8703053729171,36.2415311560055],[-86.8702853303293,36.241493790974],[-86.8702852803612,36.2414936985045],[-86.8702494045054,36.2414268105892]]]},"properties":{"id":"101267","parcel":"04800031300","address":"4817 B MCCOOL RD","owner":"CEMETERY","point":[-86.87031047472144,36.241446978805264]}},{"type":"Feature","id":"131371","geometry":{"type":"Polygon","coordinates":[[[-86.8689015260843,36.2415394007446],[-86.8687775423226,36.2412556313194],[-86.8687775252207,36.2412555935896],[-86.8695150546807,36.2410396980896],[-86.8701782341215,36.2408455627116],[-86.8700945234932,36.2406285850386],[-86.8701177805298,36.2406205901164],[-86.8701572500328,36.2406067428164],[-86.8701573642016,36.2406067041413],[-86.8702443366603,36.2405751330074],[-86.8702512624867,36.2405725127319],[-86.8703601090501,36.2405409614896],[-86.8706785335551,36.2404485638219],[-86.870956310674,36.2412881987732],[-86.8709563313025,36.2412882536012],[-86.8703720283335,36.2414672345313],[-86.8703719795371,36.241467147461],[-86.8703343190408,36.2413996496586],[-86.8702494045054,36.2414268105892],[-86.8702852803612,36.2414936985045],[-86.8702853303293,36.241493790974],[-86.8702803826921,36.2414953073803],[-86.8690475634776,36.2418733456762],[-86.8689015260843,36.2415394007446]]]},"properties":{"id":"131371","parcel":"04800019100","address":"4817 MCCOOL RD","owner":"BRAASTAD, JULIE & SCHOENING, KELSEY K. & MARSHALL T.","point":[-86.87002836782484,36.24114860791499]}},{"type":"Feature","id":"132471","geometry":{"type":"Polygon","coordinates":[[[-86.8707040479391,36.2420306737068],[-86.8727617578053,36.2414114772983],[-86.8728175027266,36.2415157366689],[-86.8729033141869,36.2416711486289],[-86.8729472343887,36.2417485728212],[-86.872649708999,36.2418298364303],[-86.8724146240894,36.2419150447489],[-86.8709625903333,36.2423518610974],[-86.8708633304934,36.2424536679097],[-86.8707040479391,36.2420306737068]]]},"properties":{"id":"132471","parcel":"04800005400","address":"4826 EATONS CREEK RD","owner":"ADKINS, JIMMY","point":[-86.87155931003993,36.24197286225805]}},{"type":"Feature","id":"132941","geometry":{"type":"Polygon","coordinates":[[[-86.8725140096143,36.2398529496739],[-86.8729546669661,36.2397135132886],[-86.8734007239913,36.239571838074],[-86.8736351446784,36.2404118383873],[-86.8727425618727,36.2406534341799],[-86.8727087658115,36.2405539938455],[-86.8726779689439,36.2404539162757],[-86.8726450270289,36.2403610038655],[-86.8726150551413,36.2402674337039],[-86.8725880717649,36.2401732687474],[-86.8725650339648,36.2401218994375],[-86.8725461849751,36.2400694210636],[-86.8725316051398,36.2400160583618],[-86.8725213570233,36.2399620379984],[-86.8725154832142,36.2399075912903],[-86.8725140096143,36.2398529496739]]]},"properties":{"id":"132941","parcel":"04800004000","address":"4805 EATONS CREEK RD","owner":"BROWN, DONALD R., II","point":[-86.87305140532345,36.24009618735715]}},{"type":"Feature","id":"132943","geometry":{"type":"Polygon","coordinates":[[[-86.8739250934043,36.2419028525253],[-86.8734747282727,36.2421674966096],[-86.8734543589253,36.2421438443837],[-86.8734366491818,36.2421188264481],[-86.8734217391534,36.242092638265],[-86.8734097445857,36.2420654853866],[-86.8734007601557,36.2420375798258],[-86.8733804348183,36.2419815613242],[-86.8733560193661,36.2419266250546],[-86.8733276016221,36.2418729659525],[-86.8732952805136,36.2418207770703],[-86.8732460091972,36.2417637222407],[-86.8731938242243,36.2417083936284],[-86.8731388178929,36.2416548878982],[-86.8731385345562,36.2416263336129],[-86.8731345817053,36.2415979581603],[-86.87312700392,36.2415700712505],[-86.8731158824027,36.241542974217],[-86.8731181376323,36.2415312605012],[-86.8731179959422,36.2415194054869],[-86.8731154608568,36.2415077290949],[-86.8731106014874,36.2414965462657],[-86.8731035491048,36.2414861588727],[-86.8730944925907,36.2414768467427],[-86.8730836761226,36.2414688595614],[-86.8730713935821,36.2414624142101],[-86.8730579728708,36.2414576849652],[-86.8730422685803,36.2414369397565],[-86.8730294984957,36.2414149133846],[-86.8730198213495,36.2413918759815],[-86.8730133548607,36.2413681114946],[-86.8730101790228,36.2413439131561],[-86.8730103327169,36.2413195790014],[-86.8730012097921,36.2412894825497],[-86.8729879749182,36.2412604044896],[-86.8729657752523,36.2412439790668],[-86.8729463796971,36.2412253703608],[-86.8729301109665,36.2412048878761],[-86.8729172420988,36.2411828766252],[-86.8729079885209,36.2411597036667],[-86.8729025058132,36.2411357572204],[-86.8728745401753,36.2410565161539],[-86.8728437973046,36.2409779521613],[-86.8728319247394,36.2409557840933],[-86.8728162172775,36.2409352416593],[-86.8727970045352,36.2409167559811],[-86.8727425618727,36.2406534341799],[-86.8736351446784,36.2404118383873],[-86.8734007239913,36.239571838074],[-86.8729546669661,36.2397135132886],[-86.8730206190173,36.239543819267],[-86.873063876192,36.2395303203596],[-86.8732598895594,36.239100365478],[-86.873485641343,36.2389075396663],[-86.8748433870973,36.2387834381586],[-86.8755213159663,36.2387587479129],[-86.8775172520475,36.2399221971716],[-86.8780265573812,36.2402644292115],[-86.8782680265189,36.2405585416517],[-86.8762757752906,36.2409948620511],[-86.8774375545809,36.2422314818329],[-86.8766608556181,36.2423701224982],[-86.876186658459,36.2424547648921],[-86.8756732420888,36.2417036293959],[-86.8739250934043,36.2419028525253]]]},"properties":{"id":"132943","parcel":"04800004300","address":"4831 EATONS CREEK RD","owner":"WORLEY, KEVIN JAMES","point":[-86.87548354043196,36.24060599717773]}},{"type":"Feature","id":"133237","geometry":{"type":"Polygon","coordinates":[[[-86.870956310674,36.2412881987732],[-86.8706785335551,36.2404485638219],[-86.8711949381643,36.2402976250945],[-86.8711950302216,36.2402975991954],[-86.8713069643469,36.2406342064681],[-86.8713549409934,36.2407777272357],[-86.8723774801597,36.2405198405547],[-86.8723775677967,36.2405198173904],[-86.8723800332542,36.240526392285],[-86.8724893624069,36.2408178877301],[-86.8724892482884,36.2408179309133],[-86.8722201305877,36.2409004961488],[-86.8709563313025,36.2412882536012],[-86.870956310674,36.2412881987732]]]},"properties":{"id":"133237","parcel":"04800016800","address":"4808 EATONS CREEK RD","owner":"VAN BRINDLEY, ROY, III","point":[-86.8716378640999,36.2407975041522]}},{"type":"Feature","id":"133273","geometry":{"type":"Polygon","coordinates":[[[-86.8713069643469,36.2406342064681],[-86.8711950302216,36.2402975991954],[-86.872217192003,36.2399979387237],[-86.8722664185831,36.2401727399979],[-86.8723198840949,36.2403467220367],[-86.8723775677967,36.2405198173904],[-86.8723774801597,36.2405198405547],[-86.8713549409934,36.2407777272357],[-86.8713069643469,36.2406342064681]]]},"properties":{"id":"133273","parcel":"04800018600","address":"4800 EATONS CREEK RD","owner":"LEVY, LUCY","point":[-86.87179423809653,36.24043267681811]}},{"type":"Feature","id":"133630","geometry":{"type":"Polygon","coordinates":[[[-86.8727380043887,36.2409787164588],[-86.8728437973046,36.2409779521613],[-86.8728745401753,36.2410565161539],[-86.8729025058132,36.2411357572204],[-86.8729079885209,36.2411597036667],[-86.8729172420988,36.2411828766252],[-86.8729301109665,36.2412048878761],[-86.8729463796971,36.2412253703608],[-86.8729657752523,36.2412439790668],[-86.8729879749182,36.2412604044896],[-86.8730012097921,36.2412894825497],[-86.8730103327169,36.2413195790014],[-86.8729129938945,36.2413488513099],[-86.8728234831823,36.2411644095367],[-86.8727380043887,36.2409787164588]]]},"properties":{"id":"133630","parcel":"04800004201","address":"0 EATONS CREEK RD","owner":"METRO GOV'T","point":[-86.87286566265335,36.24116205653137]}},{"type":"Feature","id":"133642","geometry":{"type":"Polygon","coordinates":[[[-86.8705755241878,36.2416909671752],[-86.8725979399353,36.2410698305025],[-86.8726854207406,36.2412540744098],[-86.8727617578053,36.2414114772983],[-86.8707040479391,36.2420306737068],[-86.8705755241878,36.2416909671752]]]},"properties":{"id":"133642","parcel":"04800005401","address":"4820 EATONS CREEK RD","owner":"SHADOWENS, EARNEST W. ETUX","point":[-86.87166394112384,36.241551222192584]}},{"type":"Feature","id":"135197","geometry":{"type":"Polygon","coordinates":[[[-86.8706916234311,36.2426285182041],[-86.8702803826921,36.2414953073803],[-86.8702853303293,36.241493790974],[-86.8703053729171,36.2415311560055],[-86.8703914567069,36.2415020561206],[-86.8703720283335,36.2414672345313],[-86.8709563313025,36.2412882536012],[-86.8722201305877,36.2409004961488],[-86.8724892482884,36.2408179309133],[-86.8724893624069,36.2408178877301],[-86.8725979399353,36.2410698305025],[-86.8705755241878,36.2416909671752],[-86.8707040479391,36.2420306737068],[-86.8708633304934,36.2424536679097],[-86.8706916234311,36.2426285182041]]]},"properties":{"id":"135197","parcel":"04800011300","address":"4816 EATONS CREEK RD","owner":"COTHRON, ROBERT DEAN, ETUX","point":[-86.87052636119664,36.24186069776527]}},{"type":"Feature","id":"135222","geometry":{"type":"Polygon","coordinates":[[[-86.8727736786475,36.2430732648747],[-86.8735111367195,36.2426363556594],[-86.8736751983739,36.2428770126166],[-86.8737610217346,36.2430010159425],[-86.8731292239319,36.2433679285179],[-86.8717931995438,36.2446651187765],[-86.8714376533978,36.2443704504122],[-86.8727736786475,36.2430732648747]]]},"properties":{"id":"135222","parcel":"04800013300","address":"4848 EATONS CREEK RD","owner":"LABUZ, MARY SUE","point":[-86.87228344422844,36.24386919248675]}},{"type":"Feature","id":"135300","geometry":{"type":"Polygon","coordinates":[[[-86.8739250934043,36.2419028525253],[-86.8756732420888,36.2417036293959],[-86.876186658459,36.2424547648921],[-86.8742757986871,36.2427958266488],[-86.8739466507995,36.2429513595956],[-86.873713785713,36.2426242806846],[-86.8734237859775,36.2421974306498],[-86.8734747282727,36.2421674966096],[-86.8739250934043,36.2419028525253]]]},"properties":{"id":"135300","parcel":"04800014000","address":"4833 EATONS CREEK RD","owner":"KOENIG, KEVIN T","point":[-86.87480495944965,36.242326105470916]}},{"type":"Feature","id":"135560","geometry":{"type":"Polygon","coordinates":[[[-86.8730901592994,36.2416706231163],[-86.8731388178929,36.2416548878982],[-86.8731938242243,36.2417083936284],[-86.8732460091972,36.2417637222407],[-86.8732952805136,36.2418207770703],[-86.8733276016221,36.2418729659525],[-86.8733560193661,36.2419266250546],[-86.8733804348183,36.2419815613242],[-86.8734007601557,36.2420375798258],[-86.8734097445857,36.2420654853866],[-86.8734217391534,36.242092638265],[-86.8734366491818,36.2421188264481],[-86.8734543589253,36.2421438443837],[-86.8734747282727,36.2421674966096],[-86.8734237859775,36.2421974306498],[-86.8733357722656,36.2420676730515],[-86.87325080937,36.2419365883142],[-86.8731689289358,36.2418042221793],[-86.8730901592994,36.2416706231163]]]},"properties":{"id":"135560","parcel":"04800004100","address":"0 EATONS CREEK RD","owner":"WORLEY, KEVIN JAMES","point":[-86.87328489278117,36.24189973523366]}},{"type":"Feature","id":"135563","geometry":{"type":"Polygon","coordinates":[[[-86.8729129938945,36.2413488513099],[-86.8730103327169,36.2413195790014],[-86.8730101790228,36.2413439131561],[-86.8730133548607,36.2413681114946],[-86.8730198213495,36.2413918759815],[-86.8730294984957,36.2414149133846],[-86.8730422685803,36.2414369397565],[-86.8730579728708,36.2414576849652],[-86.8730713935821,36.2414624142101],[-86.8730836761226,36.2414688595614],[-86.8730944925907,36.2414768467427],[-86.8731035491048,36.2414861588727],[-86.8731106014874,36.2414965462657],[-86.8731154608568,36.2415077290949],[-86.8731179959422,36.2415194054869],[-86.8731181376323,36.2415312605012],[-86.8731158824027,36.241542974217],[-86.87312700392,36.2415700712505],[-86.8731345817053,36.2415979581603],[-86.8731385345562,36.2416263336129],[-86.8731388178929,36.2416548878982],[-86.8730901592994,36.2416706231163],[-86.8730597303861,36.2416172749971],[-86.8729853469675,36.2414834828383],[-86.8729129938945,36.2413488513099]]]},"properties":{"id":"135563","parcel":"04800004200","address":"0 EATONS CREEK RD","owner":"WORLEY, KEVIN JAMES","point":[-86.87304836412902,36.241491290284]}},{"type":"Feature","id":"135566","geometry":{"type":"Polygon","coordinates":[[[-86.876186658459,36.2424547648921],[-86.8766608556181,36.2423701224982],[-86.8768335551116,36.2426148646629],[-86.8769961474788,36.2428547500636],[-86.8746961736477,36.2433226273694],[-86.8743144987744,36.2434593060453],[-86.8741680839638,36.2432605046346],[-86.874121615038,36.2431971093837],[-86.8739466507995,36.2429513595956],[-86.8742757986871,36.2427958266488],[-86.876186658459,36.2424547648921]]]},"properties":{"id":"135566","parcel":"04800004301","address":"4853 EATONS CREEK RD","owner":"MARKS, HERMAN F.","point":[-86.87540206867773,36.242902992361884]}},{"type":"Feature","id":"138793","geometry":{"type":"Polygon","coordinates":[[[-86.8725566741702,36.2405251166124],[-86.872502755203,36.2403701391684],[-86.8724528752881,36.2402142772325],[-86.8724070585088,36.24005759823],[-86.8723653234252,36.2399001732305],[-86.8725140096143,36.2398529496739],[-86.8725154832142,36.2399075912903],[-86.8725213570233,36.2399620379984],[-86.8725316051398,36.2400160583618],[-86.8725461849751,36.2400694210636],[-86.8725650339648,36.2401218994375],[-86.8725880717649,36.2401732687474],[-86.8726150551413,36.2402674337039],[-86.8726450270289,36.2403610038655],[-86.8726779689439,36.2404539162757],[-86.8727087658115,36.2405539938455],[-86.8727425618727,36.2406534341799],[-86.8727970045352,36.2409167559811],[-86.8728162172775,36.2409352416593],[-86.8728319247394,36.2409557840933],[-86.8728437973046,36.2409779521613],[-86.8727380043887,36.2409787164588],[-86.8726739258799,36.2408284810124],[-86.8726134748552,36.2406772621905],[-86.8725566741702,36.2405251166124]]]},"properties":{"id":"138793","parcel":"04800011200","address":"0 EATONS CREEK RD","owner":"BROWN, DONALD R., II","point":[-86.87259022334044,36.240412027606475]}}]}