{"type":"FeatureCollection","features":[{"type":"Feature","id":"149118","geometry":{"type":"Polygon","coordinates":[[[-86.8708717293639,36.3709599271817],[-86.8704609084039,36.3709213970549],[-86.8702970152257,36.3705712529718],[-86.8703038668279,36.3702076719473],[-86.8703703581408,36.3700616213244],[-86.8703792621752,36.3699704366364],[-86.8703368340707,36.3698202081512],[-86.8703183643168,36.3694313532561],[-86.8702330096988,36.3693212187411],[-86.8701572923303,36.369290751307],[-86.8701591015093,36.3693446241111],[-86.8700153902876,36.3692465654492],[-86.8699954597613,36.3691929265652],[-86.8701562038715,36.369050251142],[-86.870083002041,36.3689927307383],[-86.8699946285751,36.3688373043467],[-86.8700442125667,36.3687871779119],[-86.8701711452379,36.3687073587898],[-86.8701229266862,36.3685686659901],[-86.8700199496161,36.3684949114471],[-86.8697309229247,36.3684245381199],[-86.8692221761266,36.3672239723874],[-86.8699825036932,36.3653754400216],[-86.870879362187,36.3643241157294],[-86.8708280037515,36.363771476151],[-86.8711437905516,36.3635528735489],[-86.8711865365388,36.3631184358685],[-86.8710315414117,36.3625700191916],[-86.871350576277,36.3625285297784],[-86.8716693797654,36.3624858912271],[-86.8713001713787,36.3649800495232],[-86.8714922664259,36.3649968501435],[-86.8722325822406,36.3650674629352],[-86.8723074701981,36.3660543807865],[-86.8719002300308,36.3659999953737],[-86.8717979704775,36.3675599489775],[-86.8724410740384,36.3682642069668],[-86.873957447987,36.3686205676906],[-86.8751022141664,36.368831910569],[-86.8752614957652,36.3684539848238],[-86.8764423210171,36.3685733035322],[-86.8762805293741,36.369684643365],[-86.8760249682661,36.371443120771],[-86.8708717293639,36.3709599271817]]]},"properties":{"id":"149118","parcel":"00500004700","address":"8190 JACKMAN RD","owner":"GUPTON, KELLY B. & SUSAN","point":[-86.87066077266907,36.36663907399155]}}]}