{"type":"FeatureCollection","features":[{"type":"Feature","id":"74559","geometry":{"type":"Polygon","coordinates":[[[-86.8493602033265,36.3555937657799],[-86.8479714289149,36.3553260637077],[-86.8478002555471,36.355292926666],[-86.8466452770499,36.3550702723248],[-86.8461147509656,36.3549679519892],[-86.8470344228254,36.3529090067403],[-86.8465319752242,36.3526685953733],[-86.845536324257,36.3524156970758],[-86.8450105695751,36.3522814740166],[-86.8443542824196,36.3523893408232],[-86.8443555595253,36.3523816408643],[-86.8444806700138,36.3515673993104],[-86.844570865131,36.3509819471709],[-86.8429579416245,36.3508300276502],[-86.8430537431919,36.3500847134391],[-86.8426385781093,36.3498295635534],[-86.8418091939759,36.3484039581166],[-86.8418545538046,36.3483644049441],[-86.8419020683622,36.3483265436792],[-86.8419516415466,36.3482904515922],[-86.8420031749901,36.3482562023644],[-86.8426029241797,36.3479119556433],[-86.843612218411,36.3495467681673],[-86.8436230229201,36.3495409240854],[-86.8441540581511,36.3492806555805],[-86.8444146009146,36.3497666937924],[-86.8445743529453,36.3497809616645],[-86.8448198589097,36.3497484815075],[-86.8451031119573,36.3496893664346],[-86.845142086722,36.3496822268385],[-86.8453328865292,36.3496465571349],[-86.8455048250977,36.3495937136256],[-86.8456794782498,36.3495408499926],[-86.8458868439425,36.3494981962747],[-86.8460331943233,36.3494658580464],[-86.846460367373,36.3494013388622],[-86.8468590201287,36.3494007461414],[-86.8472070135983,36.3493625995451],[-86.8475149497597,36.3492621019242],[-86.8482540171389,36.3490866122348],[-86.8486895800894,36.3489181889306],[-86.849037133718,36.3489025680613],[-86.8490883492482,36.3488969887201],[-86.8492637028942,36.3488779028012],[-86.849788642246,36.3487478576047],[-86.8500719894771,36.3486348909495],[-86.8503105298824,36.3485865166751],[-86.8505018647482,36.3485697886882],[-86.8506766085454,36.348462525473],[-86.850747216803,36.3484287935594],[-86.8507907962246,36.3484078850716],[-86.8511177797015,36.3483742692997],[-86.8519975686931,36.3493492842024],[-86.852727652121,36.3488134311338],[-86.8528308466441,36.3490308111614],[-86.8529504295812,36.3491618210405],[-86.8530280444095,36.3493057637087],[-86.853138262176,36.3494500243597],[-86.853184219554,36.3495551833136],[-86.8532298750882,36.3496323243721],[-86.8532633791757,36.3497793248977],[-86.8532993517448,36.3499032321187],[-86.85334581181,36.3500550853518],[-86.8534014485053,36.350176107796],[-86.8534281428564,36.3502583275426],[-86.8534865764666,36.3503870212687],[-86.8535292600182,36.3505031909017],[-86.8535547964134,36.3505409180789],[-86.8535921132026,36.3506005385132],[-86.8536169265034,36.3506657401254],[-86.8536221678748,36.350679437817],[-86.8536264874628,36.3507651120602],[-86.8536256262275,36.350779677431],[-86.853095253164,36.3509419169472],[-86.8529311813197,36.3510941551532],[-86.8527990950559,36.3511269509086],[-86.8522996502387,36.3512919906833],[-86.8518594465456,36.3514714445233],[-86.8510570004336,36.3516281733223],[-86.8511960607219,36.3519914367286],[-86.8510158990465,36.352606372307],[-86.8517679029616,36.3528103969414],[-86.853339071197,36.353147088057],[-86.8533888477798,36.353154350507],[-86.8534391862182,36.3531583357256],[-86.853489758664,36.3531590171858],[-86.8535402341791,36.3531563918145],[-86.8535902809152,36.3531504754716],[-86.8536395750759,36.3531413073923],[-86.8536877908696,36.3531289484558],[-86.8537346149547,36.3531134774785],[-86.8537797409368,36.3530949975614],[-86.8538228726241,36.3530736279557],[-86.8538709206451,36.3530451012587],[-86.8539163617136,36.3530139036877],[-86.853958970234,36.3529801918485],[-86.8539985329928,36.3529441339756],[-86.8540348547097,36.3529059080904],[-86.8540677525154,36.3528657065464],[-86.854097064777,36.3528237278555],[-86.8541226433577,36.3527801821501],[-86.8541443624609,36.3527352848124],[-86.8541621131087,36.3526892610187],[-86.8541758064155,36.352642339408],[-86.8541826321455,36.3526139972655],[-86.8543178108985,36.3527105571184],[-86.8543273815488,36.3527162600784],[-86.8543036947032,36.3527718670799],[-86.8542763638355,36.3528263696702],[-86.8542454663444,36.3528796104871],[-86.8542110897145,36.3529314375047],[-86.8541733348487,36.352981703108],[-86.8541323082401,36.3530302614447],[-86.8540881276109,36.3530769746947],[-86.8540532586486,36.3531080724662],[-86.8540156882728,36.3531370380728],[-86.853975613142,36.353163717817],[-86.8539332456387,36.3531879696064],[-86.853888811661,36.3532096647715],[-86.853842543967,36.3532286908169],[-86.8537687614185,36.3532517385136],[-86.8537169189642,36.3532648134103],[-86.8536644930227,36.3532762665927],[-86.8536115625394,36.3532860830834],[-86.8535813878749,36.3532906912474],[-86.8535528825236,36.3532925406947],[-86.8534999590902,36.3532969163942],[-86.8534467755757,36.3532979404487],[-86.8533936561376,36.3532956069666],[-86.8533409218052,36.3532899299057],[-86.8532888960492,36.3532809430342],[-86.8524129347997,36.3531085663385],[-86.8523763935999,36.3545402527081],[-86.8508346021312,36.355079807972],[-86.8493636078714,36.3555945628942],[-86.8493602033265,36.3555937657799]]]},"properties":{"id":"74559","parcel":"00900008200","address":"0 WILKINSON RD","owner":"WILLIAMS, EDWARD K.","point":[-86.84778563073371,36.35180559610954]}},{"type":"Feature","id":"75507","geometry":{"type":"Polygon","coordinates":[[[-86.8496449805995,36.3588581383643],[-86.8496450269579,36.3588580974837],[-86.8496593010742,36.35886576849],[-86.8496664211497,36.3588696306978],[-86.8496805787295,36.3588774476167],[-86.8497086220922,36.3588933987863],[-86.849769224472,36.3589303585954],[-86.8497727232629,36.3589325519315],[-86.8498227611943,36.3589661342272],[-86.8498380933391,36.3589770782313],[-86.8498581987457,36.3589916494725],[-86.8498709409754,36.3590010958073],[-86.8498835695458,36.3590106447772],[-86.8498960810754,36.3590202928013],[-86.8499358632387,36.359052366344],[-86.8499743328235,36.3590854719818],[-86.8500069868702,36.3591110644151],[-86.8500321767751,36.3591319877731],[-86.8500871016939,36.3591813196372],[-86.850099538146,36.3591933095436],[-86.8501361133987,36.3592307452944],[-86.8501707659326,36.3592693589234],[-86.85021151823,36.3593192201958],[-86.8502115837793,36.3593193062525],[-86.850215648561,36.3593246057174],[-86.8502196790179,36.3593299252501],[-86.8502236673414,36.3593352640045],[-86.8502579724982,36.3593840593564],[-86.8502615971604,36.3593895655887],[-86.8502651852114,36.3593950864977],[-86.8502687366704,36.3594006238857],[-86.8502929679155,36.3594400596271],[-86.8503071627866,36.3594652319521],[-86.8503206843353,36.3594906838801],[-86.8503389798685,36.3595283300416],[-86.8503414786416,36.3595335792244],[-86.8503415196606,36.359533663651],[-86.8492713997327,36.3597630352594],[-86.8484204377375,36.3599454257065],[-86.8496449805995,36.3588581383643]]]},"properties":{"id":"75507","parcel":"00900006900","address":"7954 RIDGEWOOD RD","owner":"WRIGHT, LESLIE M.","point":[-86.84964723037817,36.35941954613461]}}]}