{"type":"FeatureCollection","features":[{"type":"Feature","id":"50974","geometry":{"type":"Polygon","coordinates":[[[-86.7907037488235,36.2799902438941],[-86.7907681032281,36.2797676554008],[-86.7908282595164,36.2797754595136],[-86.7909518307943,36.2797882308503],[-86.790910220776,36.2800420310839],[-86.7907210658336,36.2800216361736],[-86.7907288337715,36.2799950483326],[-86.7907037488235,36.2799902438941]]]},"properties":{"id":"50974","parcel":"041010A12600CO","address":"5333 RYAN ALLEN CIR","owner":"FREO PROGRESS, LLC","point":[-86.7908341199168,36.27988924850941]}},{"type":"Feature","id":"50977","geometry":{"type":"Polygon","coordinates":[[[-86.7903414773524,36.2798109997469],[-86.7903686356847,36.2796223871993],[-86.7904118701248,36.2796476708754],[-86.7904557475596,36.2796704593022],[-86.7905010957794,36.2796912751924],[-86.7905477805897,36.2797100563351],[-86.7905956600669,36.279726746879],[-86.7904836708592,36.2799722913812],[-86.7904344675687,36.2799454254336],[-86.7904017387542,36.2799029918593],[-86.7903414773524,36.2798109997469]]]},"properties":{"id":"50977","parcel":"041010A12800CO","address":"5341 RYAN ALLEN CIR","owner":"JOYCE, RICKETTA DANIELLE","point":[-86.79046196720401,36.27976886181408]}},{"type":"Feature","id":"51588","geometry":{"type":"Polygon","coordinates":[[[-86.7920475583579,36.2793744691222],[-86.7922542678508,36.2779025046338],[-86.7922396238712,36.2780179153194],[-86.7932019588029,36.2786886125037],[-86.7932058853367,36.2786925729248],[-86.7932090580782,36.2786969546658],[-86.7932114115163,36.2787016626253],[-86.7932128945641,36.2787065971007],[-86.7932134772368,36.2787116537449],[-86.7932131451046,36.2787167254049],[-86.7932115395286,36.2787378015479],[-86.7932132742627,36.278758871992],[-86.7932176398906,36.2787774521655],[-86.7932246059766,36.2787955051706],[-86.7932340788645,36.2788127927926],[-86.7932459349639,36.2788290887293],[-86.7932580594434,36.2788422835359],[-86.7932717485017,36.2788544352508],[-86.7932868640023,36.2788654213101],[-86.7932884549286,36.2788664545056],[-86.7933081395913,36.2788776566128],[-86.7933098533261,36.2788785042477],[-86.7933213693759,36.2788837351701],[-86.793327055757,36.2788860320618],[-86.7933311540893,36.2788875832354],[-86.7933391514985,36.2788903507269],[-86.7933430317535,36.2788915770822],[-86.793343207074,36.2788916336109],[-86.7933471122156,36.2788927886047],[-86.7933493491644,36.2788934201119],[-86.79336710036,36.278897613332],[-86.7933852490229,36.2789004818202],[-86.7934063628988,36.2789021222775],[-86.7934107151137,36.2789022379075],[-86.7934155796248,36.2789022699641],[-86.7934329630515,36.2789016376411],[-86.7934394546239,36.2789010867281],[-86.7934672142346,36.2788967849275],[-86.7934776502255,36.2788943083029],[-86.7934817752743,36.2788931916228],[-86.7935068096058,36.2788846223031],[-86.7935302103521,36.2788734284744],[-86.7935515632392,36.2788598120317],[-86.7935704855645,36.2788440152188],[-86.7935866406388,36.2788263178295],[-86.7935997411162,36.2788070362846],[-86.793610051133,36.2787852036219],[-86.7936164445892,36.2787624098149],[-86.7936187925118,36.2787391135415],[-86.7936170483901,36.2787157828516],[-86.7936112469632,36.2786928852607],[-86.7936015052788,36.2786708823366],[-86.793588018105,36.2786502162102],[-86.7935845985062,36.278643193661],[-86.7935826734818,36.2786358080125],[-86.7935822962965,36.2786282652992],[-86.7935834768709,36.2786207781488],[-86.7935861827771,36.2786135540596],[-86.7935903381349,36.2786067963091],[-86.793595825747,36.278600694927],[-86.7936024937059,36.2785954194427],[-86.7938976806979,36.279709369493],[-86.7919501005249,36.2800100839865],[-86.7920475583579,36.2793744691222]]]},"properties":{"id":"51588","parcel":"04100018600","address":"7532 HICKORY HILLS CT","owner":"WAREHOUSE VENTURES, GP","point":[-86.79291385410296,36.2791386872976]}},{"type":"Feature","id":"52269","geometry":{"type":"Polygon","coordinates":[[[-86.7914359433714,36.2797053283211],[-86.7914642821504,36.2793759538149],[-86.7918014913467,36.2794111287569],[-86.7915388124844,36.2797462154246],[-86.791515874185,36.2797318845028],[-86.7914907791577,36.2797201614698],[-86.7914639758482,36.2797112560804],[-86.7914359433714,36.2797053283211]]]},"properties":{"id":"52269","parcel":"041010A13600CO","address":"5340 RYAN ALLEN CIR","owner":"SMITH, CHRISTOPHER & CHARLES, KAMALA KISHA","point":[-86.79156735559852,36.27955813917339]}},{"type":"Feature","id":"52270","geometry":{"type":"Polygon","coordinates":[[[-86.7915388124844,36.2797462154246],[-86.7918014913467,36.2794111287569],[-86.7920045042764,36.2794323044714],[-86.7919771739205,36.2796105488757],[-86.7915963875218,36.2798124003974],[-86.7915856752478,36.2797939239232],[-86.7915723829988,36.2797765800796],[-86.7915566912366,36.2797606056117],[-86.7915388124844,36.2797462154246]]]},"properties":{"id":"52270","parcel":"041010A13700CO","address":"5336 RYAN ALLEN CIR","owner":"WILSON, SHARON D.","point":[-86.79172056223351,36.27967831716681]}},{"type":"Feature","id":"52271","geometry":{"type":"Polygon","coordinates":[[[-86.7915963875218,36.2798124003974],[-86.7919771739205,36.2796105488757],[-86.7919329816203,36.2798987712748],[-86.7916065132113,36.2799163372406],[-86.7916107492308,36.2798954574962],[-86.7916118481533,36.2798743171101],[-86.7916097930166,36.2798532235162],[-86.7916046147191,36.2798324838353],[-86.7915963875218,36.2798124003974]]]},"properties":{"id":"52271","parcel":"041010A13800CO","address":"5332 RYAN ALLEN CIR","owner":"BARNETT, AKELA M.","point":[-86.79187421679234,36.27971162698989]}},{"type":"Feature","id":"52277","geometry":{"type":"Polygon","coordinates":[[[-86.7914206321753,36.2797948775999],[-86.7914234738221,36.2797948680063],[-86.7914321916076,36.279795312916],[-86.7914408085045,36.2797964668608],[-86.7914548742184,36.2797999806241],[-86.7914680014175,36.2798053715065],[-86.7914798123151,36.2798124833638],[-86.791489964264,36.279821112056],[-86.7914981664879,36.2798310089428],[-86.791504180135,36.2798418862903],[-86.7915078317698,36.2798534307017],[-86.7915090178972,36.279865310297],[-86.7915077016776,36.2798771801426],[-86.7915039176672,36.2798887110593],[-86.7914977748151,36.2798995553556],[-86.7914894503076,36.2799093991407],[-86.7914873738316,36.2799111277985],[-86.7914849636266,36.2799125423062],[-86.7914822894083,36.2799136016513],[-86.7914794298957,36.2799142746763],[-86.791476470603,36.2799145418951],[-86.7914734993784,36.2799143946214],[-86.7914706019791,36.279913837701],[-86.7914678665055,36.2799128876806],[-86.7914653722616,36.2799115719794],[-86.7914631919904,36.2799099297757],[-86.7914613918555,36.2799080102045],[-86.7914364460578,36.2798786912648],[-86.7914087066349,36.2798510678197],[-86.79137834674,36.2798253135744],[-86.7913763928973,36.279823495046],[-86.7913748529148,36.2798214322754],[-86.7913737708125,36.2798191862589],[-86.791373180647,36.2798168234652],[-86.7913730987029,36.2798144140846],[-86.791373526795,36.2798120284018],[-86.7913744533911,36.2798097376904],[-86.7913758513316,36.27980760882],[-86.7913776778472,36.2798057060587],[-86.7913798800528,36.2798040838272],[-86.7913823927659,36.2798027912191],[-86.7913945880778,36.2797985755793],[-86.7914074356378,36.2797959175175],[-86.7914206321753,36.2797948775999]]]},"properties":{"id":"52277","parcel":"041010A90300CO","address":"0 RYAN ALLEN CIR","owner":"COBBLESTONE CREEK HOMEOWNERS ASSOCIATION, INC.","point":[-86.79146265435308,36.27985929069421]}},{"type":"Feature","id":"52367","geometry":{"type":"Polygon","coordinates":[[[-86.7907885406211,36.2796308918283],[-86.7909108936732,36.2793182277933],[-86.7910830758547,36.2793361892835],[-86.7910095335744,36.2796557358896],[-86.7908459587338,36.2796388219951],[-86.7907885406211,36.2796308918283]]]},"properties":{"id":"52367","parcel":"041010A13300CO","address":"5352 RYAN ALLEN CIR","owner":"RAMSEY, MICHIEAL DALE & DANIELS, ASHLEE RHEA","point":[-86.79094769109838,36.27948356142164]}},{"type":"Feature","id":"52368","geometry":{"type":"Polygon","coordinates":[[[-86.7910095335744,36.2796557358896],[-86.7910830758547,36.2793361892835],[-86.7913288189234,36.2793618233812],[-86.7911743481942,36.2796883401571],[-86.7911466776335,36.2796801956139],[-86.7911185744416,36.2796730903226],[-86.7910668831605,36.2796629300865],[-86.7910229223605,36.2796571190941],[-86.7910095335744,36.2796557358896]]]},"properties":{"id":"52368","parcel":"041010A13400CO","address":"5348 RYAN ALLEN CIR","owner":"GILROY-CARNEIRO REVOCABLE LIVING TRUST","point":[-86.79115131358388,36.2795087485505]}},{"type":"Feature","id":"52369","geometry":{"type":"Polygon","coordinates":[[[-86.7911743481942,36.2796883401571],[-86.7913288189234,36.2793618233812],[-86.7914642821504,36.2793759538149],[-86.7914359433714,36.2797053283211],[-86.7914222782244,36.2797035810681],[-86.7913943592896,36.2797022227466],[-86.7913664584401,36.2797037897272],[-86.7913390384664,36.2797082564488],[-86.7913125583161,36.2797155469068],[-86.7913062047124,36.2797174378476],[-86.7912930452867,36.2797199636555],[-86.7912795580836,36.2797207648309],[-86.7912660846047,36.2797198193108],[-86.7912529679329,36.2797171518865],[-86.7912405426783,36.2797128306645],[-86.7912078758164,36.2796998224017],[-86.7911743481942,36.2796883401571]]]},"properties":{"id":"52369","parcel":"041010A13500CO","address":"5344 RYAN ALLEN CIR","owner":"GRANT, DOMONIQUE Q","point":[-86.79134956186303,36.27953219985234]}},{"type":"Feature","id":"52819","geometry":{"type":"Polygon","coordinates":[[[-86.7905378691546,36.2800018833369],[-86.7904836708592,36.2799722913812],[-86.7905956600669,36.279726746879],[-86.7906435398176,36.279741008559],[-86.7906707912923,36.2797480960996],[-86.7907191297783,36.2797589111091],[-86.7907681032281,36.2797676554008],[-86.7907037488235,36.2799902438941],[-86.7906786649916,36.2799854394432],[-86.7906697076773,36.280016097853],[-86.7905378691546,36.2800018833369]]]},"properties":{"id":"52819","parcel":"041010A12700CO","address":"5337 RYAN ALLEN CIR","owner":"PARKER, ANDRIETTE CHARMANE","point":[-86.79063443858149,36.2798699884483]}},{"type":"Feature","id":"52822","geometry":{"type":"Polygon","coordinates":[[[-86.7903870176229,36.2794524588639],[-86.7904003110742,36.2792649643648],[-86.7907604406056,36.2793025329202],[-86.7905506540793,36.2795563733294],[-86.7905066359036,36.2795337552902],[-86.790464568173,36.2795088218099],[-86.7904246367657,36.279481683429],[-86.7903870176229,36.2794524588639]]]},"properties":{"id":"52822","parcel":"041010A13100CO","address":"5360 RYAN ALLEN CIR","owner":"PLUMMER, NICHOLAS","point":[-86.79054533114407,36.27937744630437]}},{"type":"Feature","id":"53593","geometry":{"type":"Polygon","coordinates":[[[-86.790910220776,36.2800420310839],[-86.7909518307943,36.2797882308503],[-86.7910014438298,36.2797933577892],[-86.7910328822524,36.2797974879155],[-86.7910639047866,36.2798033313099],[-86.7910943664621,36.2798108609832],[-86.7911344490875,36.2798236729351],[-86.7911729167852,36.2798394001426],[-86.7912094443538,36.2798579131547],[-86.7910592475551,36.280058099212],[-86.790910220776,36.2800420310839]]]},"properties":{"id":"53593","parcel":"041010A12500CO","address":"5329 RYAN ALLEN CIR","owner":"PARRA-ESQUIVEL, FERNANDO ET AL","point":[-86.79103281031144,36.279949924998725]}},{"type":"Feature","id":"53597","geometry":{"type":"Polygon","coordinates":[[[-86.7905506540793,36.2795563733294],[-86.7907604406056,36.2793025329202],[-86.7909108936732,36.2793182277933],[-86.7907885406211,36.2796308918283],[-86.7907614280661,36.2796258987896],[-86.7907065294203,36.279613223292],[-86.7906529134683,36.2795973516914],[-86.790600862674,36.2795783686608],[-86.7905506540793,36.2795563733294]]]},"properties":{"id":"53597","parcel":"041010A13200CO","address":"5356 RYAN ALLEN CIR","owner":"POPE, ARNITA P. & LEONARD M.","point":[-86.79075669313451,36.27943734605183]}},{"type":"Feature","id":"53599","geometry":{"type":"Polygon","coordinates":[[[-86.7916065132113,36.2799163372406],[-86.7919329816203,36.2798987712748],[-86.7919105927363,36.2800447891478],[-86.791572120667,36.2800810280525],[-86.791566549751,36.2800584253748],[-86.7915597421876,36.2800360461916],[-86.7915573941327,36.2800261884789],[-86.791556845358,36.2800161585623],[-86.7915581091447,36.2800061717515],[-86.7915611575559,36.2799964400206],[-86.7915659258976,36.2799871728812],[-86.7915723126203,36.2799785674685],[-86.7915870291458,36.2799590890129],[-86.7915984938374,36.2799382277192],[-86.7916065132113,36.2799163372406]]]},"properties":{"id":"53599","parcel":"041010A13900CO","address":"5328 RYAN ALLEN CIR","owner":"ADAMS, RACHELLE","point":[-86.79174108174072,36.2799921157615]}},{"type":"Feature","id":"54597","geometry":{"type":"Polygon","coordinates":[[[-86.7918833570476,36.2802224128214],[-86.7919105927363,36.2800447891478],[-86.7919329816203,36.2798987712748],[-86.7919771739205,36.2796105488757],[-86.7920045042764,36.2794323044714],[-86.7918014913467,36.2794111287569],[-86.7914642821504,36.2793759538149],[-86.7913288189234,36.2793618233812],[-86.7910830758547,36.2793361892835],[-86.7909108936732,36.2793182277933],[-86.7907604406056,36.2793025329202],[-86.7904003110742,36.2792649643648],[-86.7903870176229,36.2794524588639],[-86.790357247678,36.2794263219835],[-86.7903293302689,36.2793988788011],[-86.790298952609,36.2793693932648],[-86.7902661580977,36.2793416584105],[-86.790231098296,36.2793158039253],[-86.7901939380217,36.279291949496],[-86.7901548498204,36.2792702084504],[-86.7901140183448,36.2792506805183],[-86.7900691702792,36.2792325460089],[-86.7900228194699,36.2792170817672],[-86.7899937100144,36.2792089418593],[-86.7900922150515,36.2789223613868],[-86.7904478540979,36.2789345199968],[-86.7904095998985,36.2792087310977],[-86.7920475583579,36.2793744691222],[-86.7919501005249,36.2800100839865],[-86.7919011552124,36.2803292968897],[-86.7918661271465,36.2803347842093],[-86.7918833570476,36.2802224128214]]]},"properties":{"id":"54597","parcel":"041010A90500CO","address":"0 RYAN ALLEN CIR","owner":"COBBLESTONE CREEK HOMEOWNERS ASSOCIATION, INC.","point":[-86.79197216658235,36.279754689806694]}},{"type":"Feature","id":"95915","geometry":{"type":"Polygon","coordinates":[[[-86.7957940749156,36.2797484390351],[-86.7952951204378,36.2795109934768],[-86.7951059854947,36.2795378438356],[-86.7949524855349,36.2789089076819],[-86.7949169915713,36.2787781069763],[-86.7949844652225,36.2787128234179],[-86.7951121751454,36.278766419241],[-86.7961866471503,36.2792164774445],[-86.7961787918561,36.2792313014298],[-86.7961634539117,36.2792580458493],[-86.7961477721031,36.2792842454782],[-86.7961393634771,36.2792971750917],[-86.7961194350797,36.2793271293191],[-86.7961034397147,36.2793500414771],[-86.7960815009024,36.2793796493437],[-86.7960762432481,36.2793865784653],[-86.796068189376,36.2794001429142],[-86.7960657219658,36.2794041633785],[-86.7960632165315,36.2794081660684],[-86.7960606708834,36.2794121546032],[-86.7960501070371,36.2794279409182],[-86.796047371305,36.2794318441854],[-86.7960445975669,36.2794357314806],[-86.7960417857866,36.2794395991989],[-86.7960401618899,36.2794417151925],[-86.7960116230717,36.2794771542815],[-86.7960082610926,36.2794807678674],[-86.7959894730713,36.2795009261829],[-86.7959790664959,36.2795119826442],[-86.7959626752794,36.2795351650571],[-86.7959498029008,36.2795518443734],[-86.7959439165492,36.2795594607693],[-86.7958996020167,36.2796163171595],[-86.7958666420221,36.2796582012575],[-86.795833391755,36.279699780835],[-86.7958255251876,36.2797095038453],[-86.7957941319605,36.279748466598],[-86.7957940749156,36.2797484390351]]]},"properties":{"id":"95915","parcel":"03100011300","address":"528 HICKORY HILLS BLVD","owner":"DAVENPORT, DWAIN & MARCIA FAMILY LIVING TRUST 2026","point":[-86.79560254086242,36.279243703196066]}},{"type":"Feature","id":"108313","geometry":{"type":"Polygon","coordinates":[[[-86.7947681267061,36.2762900401084],[-86.79610384558,36.2758576649629],[-86.7961359481187,36.2760831253899],[-86.7961359672392,36.276083255944],[-86.7961358210419,36.2760833281052],[-86.7955059572448,36.2763865515365],[-86.7955646239773,36.2768242481786],[-86.7955646335055,36.2768243103016],[-86.7954721726113,36.2768400272733],[-86.7949589601612,36.2769312045934],[-86.794919934701,36.2769381466729],[-86.7949198223889,36.2769381573253],[-86.7947681267061,36.2762900401084]]]},"properties":{"id":"108313","parcel":"04000013400","address":"7548 OLD HICKORY BLVD","owner":"MIDGETT, ERNIE & WALLER, RONALD","point":[-86.79518847534992,36.27660480642272]}},{"type":"Feature","id":"108336","geometry":{"type":"Polygon","coordinates":[[[-86.7942197176221,36.2764611488663],[-86.7942892289382,36.2764396120408],[-86.7944727590276,36.2772187332081],[-86.7944727765718,36.2772188178095],[-86.7944548254895,36.2772213006598],[-86.794402452624,36.2772303049214],[-86.7943255064933,36.2772442913954],[-86.7942451899429,36.2772584964387],[-86.7942299572035,36.2772618932763],[-86.794216187524,36.2772621189433],[-86.7942021418679,36.2772623509284],[-86.7941903321103,36.2772611145179],[-86.7941749724179,36.2772595075891],[-86.7941484433564,36.2772528144389],[-86.7941345114656,36.2772467387811],[-86.7941322734685,36.2772457765397],[-86.7941300585282,36.2772447826032],[-86.7941278644188,36.2772437569864],[-86.7941258130521,36.2772427583702],[-86.794125693366,36.2772426996747],[-86.7941235453791,36.2772416115691],[-86.7941111909281,36.2772344476597],[-86.79409983477,36.2772262714049],[-86.7940980493001,36.2772248159143],[-86.7940962969581,36.2772233340702],[-86.7940962015141,36.2772232508818],[-86.794094576649,36.2772218276819],[-86.7940928894859,36.2772202967424],[-86.7940912354777,36.2772187421528],[-86.7940896168595,36.2772171647996],[-86.7940838500915,36.2772119457453],[-86.7940694732404,36.2771928996328],[-86.7940594318783,36.2771720865411],[-86.7940541070852,36.2771501032931],[-86.7938935995924,36.2765622242645],[-86.7942197176221,36.2764611488663]]]},"properties":{"id":"108336","parcel":"04000014400","address":"7560 OLD HICKORY BLVD","owner":"SARAYLOO, AYOUB, & MITRA","point":[-86.79418068615738,36.276856519950854]}},{"type":"Feature","id":"108337","geometry":{"type":"Polygon","coordinates":[[[-86.7951121751454,36.278766419241],[-86.7952638796107,36.2787028543344],[-86.7963047061012,36.2789127664505],[-86.7962877500662,36.2789703268723],[-86.7962783350108,36.2789989600439],[-86.7962588054567,36.2790530847591],[-86.7962343229573,36.2791141104561],[-86.7962289468098,36.2791270786809],[-86.796223402115,36.2791400002498],[-86.7962176910989,36.2791528751484],[-86.7962118137252,36.2791656997716],[-86.7961866471503,36.2792164774445],[-86.7951121751454,36.278766419241]]]},"properties":{"id":"108337","parcel":"04000015100","address":"524 HICKORY HILLS BLVD","owner":"AND-TEX, INC.","point":[-86.7959116829683,36.278940891028654]}},{"type":"Feature","id":"108338","geometry":{"type":"Polygon","coordinates":[[[-86.794327435986,36.2775365990702],[-86.7947114934127,36.2774771133279],[-86.7948506803193,36.2780282859221],[-86.7948506931318,36.2780283426161],[-86.794798844541,36.2780385070987],[-86.7947706516192,36.2780438493866],[-86.7947211887701,36.278053059055],[-86.7947029862196,36.2780564565512],[-86.7946603456218,36.2780642460444],[-86.7945401512203,36.2780847751967],[-86.7944361639782,36.278101390862],[-86.7943806441989,36.2781114278855],[-86.7943352533348,36.2781204592245],[-86.7942904850202,36.2781304138324],[-86.7942498976907,36.2781400633676],[-86.7942213005402,36.2781473936173],[-86.7941734303081,36.2781603724009],[-86.794160885472,36.2781639912969],[-86.7941051597522,36.278181031289],[-86.7940500110187,36.2781992255595],[-86.7939955465309,36.2782187257144],[-86.7939638820125,36.2782308652479],[-86.7939314764774,36.2782438126462],[-86.7938960399793,36.2782586446118],[-86.793861421526,36.2782746932769],[-86.7938550705702,36.2782777199001],[-86.793786184217,36.2783100375007],[-86.7937861298719,36.278309945931],[-86.7934190260794,36.2776894904582],[-86.7934189972198,36.2776894428818],[-86.7938483891543,36.2776107948077],[-86.794327435986,36.2775365990702]]]},"properties":{"id":"108338","parcel":"04000015200","address":"7518 HICKORY HILLS CT","owner":"SHIV ENTERPRISE INC.","point":[-86.7941634102217,36.277858939487345]}},{"type":"Feature","id":"108339","geometry":{"type":"Polygon","coordinates":[[[-86.7949169915713,36.2787781069763],[-86.7947740875896,36.2781975415988],[-86.7954374326281,36.2780817764193],[-86.7955605441945,36.2785785504644],[-86.7952638796107,36.2787028543344],[-86.7951121751454,36.278766419241],[-86.7949844652225,36.2787128234179],[-86.7949169915713,36.2787781069763]]]},"properties":{"id":"108339","parcel":"04000015400","address":"7515 HICKORY HILLS CT","owner":"WALLER BROTHERS PARTNERSHIP","point":[-86.79516715651495,36.27838804640675]}},{"type":"Feature","id":"111523","geometry":{"type":"Polygon","coordinates":[[[-86.7946352654814,36.2763321337721],[-86.7947681267061,36.2762900401084],[-86.7949198223889,36.2769381573253],[-86.7949399517791,36.2770245603492],[-86.7949417979723,36.2770325115772],[-86.794900820279,36.2770386896196],[-86.7948410458281,36.2770477039968],[-86.7948683184335,36.2771474975654],[-86.7948596309732,36.2771486064459],[-86.7948215088842,36.2771536301171],[-86.7948010939618,36.2771567132257],[-86.794769894909,36.2771619382959],[-86.7947394924659,36.2771676844452],[-86.7947286825372,36.2771698067488],[-86.7946793434699,36.2771806504443],[-86.7946627640342,36.2771836109777],[-86.7945570110419,36.2772022832856],[-86.7944788576516,36.2772163057325],[-86.7944727765718,36.2772188178095],[-86.7944727590276,36.2772187332081],[-86.7942892289382,36.2764396120408],[-86.7942892811037,36.2764395972781],[-86.7946352654814,36.2763321337721]]]},"properties":{"id":"111523","parcel":"04000014500","address":"7556 OLD HICKORY BLVD","owner":"RODGERS, ABNER & MARY H","point":[-86.79460471259662,36.27668888542344]}},{"type":"Feature","id":"111996","geometry":{"type":"Polygon","coordinates":[[[-86.7946523836421,36.2782169569389],[-86.7947740875896,36.2781975415988],[-86.7949169915713,36.2787781069763],[-86.7949524855349,36.2789089076819],[-86.7951059854947,36.2795378438356],[-86.7938976806979,36.279709369493],[-86.7936024937059,36.2785954194427],[-86.7936200787422,36.2785850280319],[-86.7936520745434,36.2785671599302],[-86.7936953245685,36.278543388692],[-86.7937021004485,36.2785396653317],[-86.7938568427638,36.2784546146803],[-86.7939148540996,36.2784245981435],[-86.7939165840391,36.2784237306016],[-86.7939469701884,36.2784089723611],[-86.793971522387,36.2783977402383],[-86.7939860818264,36.2783912214534],[-86.7940091157057,36.2783810934034],[-86.794040877847,36.2783682493483],[-86.7940726404974,36.2783556792587],[-86.7940964399145,36.278346860172],[-86.7941525128471,36.2783274692698],[-86.7941882641365,36.2783160607786],[-86.7942215727109,36.2783062572156],[-86.7942593425372,36.2782959025089],[-86.7943259507325,36.2782794037739],[-86.7943459530344,36.278274879672],[-86.7943962800442,36.2782646938427],[-86.7944770189816,36.2782511086912],[-86.7945152477281,36.278242236133],[-86.7945700264809,36.2782311098131],[-86.7945936151892,36.2782267062922],[-86.7946022630075,36.2782251840229],[-86.7946334113369,36.2782199638401],[-86.7946523836421,36.2782169569389]]]},"properties":{"id":"111996","parcel":"04000015500","address":"7525 HICKORY HILLS CT","owner":"TEMPHIS CORP.","point":[-86.79439877815372,36.27922229355719]}},{"type":"Feature","id":"112448","geometry":{"type":"Polygon","coordinates":[[[-86.7935496627067,36.2766739458715],[-86.793640577799,36.2766441207695],[-86.7937248433334,36.2769463196953],[-86.7937947103104,36.2771969016719],[-86.7937945968654,36.2772139106451],[-86.7937945744643,36.2772172300643],[-86.7937940883769,36.2772207066411],[-86.7937917296174,36.2772375780503],[-86.7937910072446,36.277240134209],[-86.7937904053482,36.2772426057609],[-86.7937897577379,36.2772450695018],[-86.7937883398536,36.277249974357],[-86.7937859074082,36.2772572678562],[-86.7937788104501,36.2772739288499],[-86.7937751725243,36.2772808859914],[-86.7937725547336,36.2772854553535],[-86.7937711894108,36.2772877183248],[-86.7937697827359,36.2772899644439],[-86.7937684358761,36.2772920704778],[-86.793767056595,36.2772941623047],[-86.7937641895852,36.2772982980038],[-86.7937530571316,36.2773122295014],[-86.7937495735761,36.277316041197],[-86.7937477814068,36.2773179167336],[-86.793745962345,36.2773197744219],[-86.7937380098304,36.2773280306466],[-86.7937261194085,36.2773376321481],[-86.7937240550597,36.2773392264818],[-86.7937219671303,36.2773408002418],[-86.7937177081697,36.2773438744056],[-86.7937043063424,36.2773524899583],[-86.7936996447861,36.2773551530954],[-86.7936972779634,36.2773564420916],[-86.793694893107,36.2773577086752],[-86.7936830657412,36.2773638273616],[-86.7936809528016,36.2773642377825],[-86.7935766454906,36.2773833818995],[-86.7932807634565,36.2774376160226],[-86.7932807269599,36.2774374170878],[-86.7931637867336,36.2768005328133],[-86.7935496627067,36.2766739458715]]]},"properties":{"id":"112448","parcel":"04100002100","address":"7566 OLD HICKORY BLVD","owner":"SARAYLOO, AYOUB, & MITRA","point":[-86.79348658171976,36.277071139246225]}},{"type":"Feature","id":"112557","geometry":{"type":"Polygon","coordinates":[[[-86.7904095998985,36.2792087310977],[-86.7904478540979,36.2789345199968],[-86.7905506817515,36.278114780013],[-86.790556694173,36.2780713387271],[-86.7922721314379,36.2777572120152],[-86.7922542678508,36.2779025046338],[-86.7920475583579,36.2793744691222],[-86.7904095998985,36.2792087310977]],[[-86.7915492981827,36.2789455260037],[-86.7915645492952,36.2784344865533],[-86.7911794358928,36.2784639289845],[-86.7911516675028,36.2789448334978],[-86.7915492981827,36.2789455260037]]]},"properties":{"id":"112557","parcel":"04100000200","address":"7585 OLD HICKORY BLVD","owner":"MOUNT ZION BAPTIST CHURCH","point":[-86.7908216286596,36.278699239021044]}},{"type":"Feature","id":"112945","geometry":{"type":"Polygon","coordinates":[[[-86.7973990263041,36.2784098710936],[-86.7977905885143,36.2783471284808],[-86.7979015411236,36.2789548538592],[-86.7965091023899,36.2791401078277],[-86.7965090034582,36.279140121097],[-86.7965165847256,36.2791219615993],[-86.7965383194861,36.2790638838865],[-86.7965611445324,36.2789944613697],[-86.7965697463454,36.2789645519699],[-86.7965822216979,36.2789171482837],[-86.7965932713369,36.2788688752815],[-86.7965979152913,36.2788461928795],[-86.7966083058851,36.2787877257728],[-86.7966132501799,36.2787537317144],[-86.7966142166345,36.2787461215727],[-86.796615142975,36.2787385071892],[-86.7966160292199,36.2787308903662],[-86.7966205380146,36.2786851325716],[-86.7966211535975,36.278677497705],[-86.7966217302068,36.2786698612927],[-86.7966222656075,36.2786622224483],[-86.7966222702484,36.2786621304911],[-86.7966250934173,36.2786062565569],[-86.7966250947282,36.2786061655229],[-86.7966256948418,36.2785308935025],[-86.7966260337838,36.2785308389967],[-86.7973990263041,36.2784098710936]]]},"properties":{"id":"112945","parcel":"04000022100","address":"517 HICKORY HILLS BLVD","owner":"517 HICKORY HILLS ASSOCIATES, GP","point":[-86.79723890187373,36.27874337435587]}},{"type":"Feature","id":"113021","geometry":{"type":"Polygon","coordinates":[[[-86.7908912126111,36.277867521067],[-86.7912361854512,36.2749056566429],[-86.7883433211449,36.2745927238849],[-86.7872898505222,36.2744806465843],[-86.7867003526807,36.274417740015],[-86.7867002880579,36.2744177332258],[-86.7867427663934,36.2741174856375],[-86.786746438642,36.2740924135217],[-86.7867769820586,36.2738947697489],[-86.7867848225275,36.2738442500696],[-86.7867937725237,36.2738290284133],[-86.786812191492,36.2737978327881],[-86.7869729405435,36.2736565845159],[-86.7870503009633,36.2735886083958],[-86.7871015709452,36.2735591580933],[-86.7880304725003,36.2730174420062],[-86.7880666659583,36.2729969289675],[-86.7882834787892,36.2728740474402],[-86.788444253829,36.27276449907],[-86.7884870026137,36.2727353705218],[-86.7883079495042,36.2723105023667],[-86.7882667228195,36.272212680944],[-86.7881155611994,36.2718543918734],[-86.7880367243582,36.271667529517],[-86.7880236429705,36.2716100632671],[-86.7879898989602,36.2714618098821],[-86.7880126746415,36.2712276176976],[-86.7880571584159,36.2707889082347],[-86.788057166862,36.2707888622163],[-86.7881015415799,36.2703403550747],[-86.7881015478002,36.2703403090708],[-86.7882921373769,36.2703341218763],[-86.7880778972634,36.2685757941574],[-86.788035834956,36.2682348910369],[-86.7882252471501,36.2679696194098],[-86.7896108999731,36.2676912580553],[-86.7898677574209,36.2673338235021],[-86.7911882628228,36.2675376809798],[-86.7911053865248,36.2678681445409],[-86.7921314233288,36.2685492935063],[-86.7918393743977,36.269541224248],[-86.7914417739694,36.2704898942786],[-86.7937995588071,36.2727363057833],[-86.7951037423106,36.2738314748822],[-86.7951687015743,36.2740167440176],[-86.7951757470014,36.2740232902528],[-86.7973554825371,36.2756335010539],[-86.797149676438,36.2756557124379],[-86.7969162844635,36.2756808992098],[-86.79610384558,36.2758576649629],[-86.7947681267061,36.2762900401084],[-86.7946352654814,36.2763321337721],[-86.7942892811037,36.2764395972781],[-86.7942892289382,36.2764396120408],[-86.7942197176221,36.2764611488663],[-86.7938935995924,36.2765622242645],[-86.7940541070852,36.2771501032931],[-86.7940594318783,36.2771720865411],[-86.7940694732404,36.2771928996328],[-86.7940838500915,36.2772119457453],[-86.7940896168595,36.2772171647996],[-86.7940912354777,36.2772187421528],[-86.7940928894859,36.2772202967424],[-86.794094576649,36.2772218276819],[-86.7940962015141,36.2772232508818],[-86.7940962969581,36.2772233340702],[-86.7940980493001,36.2772248159143],[-86.79409983477,36.2772262714049],[-86.7941111909281,36.2772344476597],[-86.7941235453791,36.2772416115691],[-86.794125693366,36.2772426996747],[-86.7941258130521,36.2772427583702],[-86.7941278644188,36.2772437569864],[-86.7941300585282,36.2772447826032],[-86.7941322734685,36.2772457765397],[-86.7941345114656,36.2772467387811],[-86.7941484433564,36.2772528144389],[-86.7941749724179,36.2772595075891],[-86.7941903321103,36.2772611145179],[-86.7942021418679,36.2772623509284],[-86.794216187524,36.2772621189433],[-86.7942299572035,36.2772618932763],[-86.7940454008148,36.2772960696756],[-86.7938456153547,36.277333916534],[-86.7936830657412,36.2773638273616],[-86.793694893107,36.2773577086752],[-86.7936972779634,36.2773564420916],[-86.7936996447861,36.2773551530954],[-86.7937043063424,36.2773524899583],[-86.7937177081697,36.2773438744056],[-86.7937219671303,36.2773408002418],[-86.7937240550597,36.2773392264818],[-86.7937261194085,36.2773376321481],[-86.7937380098304,36.2773280306466],[-86.793745962345,36.2773197744219],[-86.7937477814068,36.2773179167336],[-86.7937495735761,36.277316041197],[-86.7937530571316,36.2773122295014],[-86.7937641895852,36.2772982980038],[-86.793767056595,36.2772941623047],[-86.7937684358761,36.2772920704778],[-86.7937697827359,36.2772899644439],[-86.7937711894108,36.2772877183248],[-86.7937725547336,36.2772854553535],[-86.7937751725243,36.2772808859914],[-86.7937788104501,36.2772739288499],[-86.7937859074082,36.2772572678562],[-86.7937883398536,36.277249974357],[-86.7937897577379,36.2772450695018],[-86.7937904053482,36.2772426057609],[-86.7937910072446,36.277240134209],[-86.7937917296174,36.2772375780503],[-86.7937940883769,36.2772207066411],[-86.7937945744643,36.2772172300643],[-86.7937945968654,36.2772139106451],[-86.7937947103104,36.2771969016719],[-86.7937248433334,36.2769463196953],[-86.793640577799,36.2766441207695],[-86.7935496627067,36.2766739458715],[-86.7931637867336,36.2768005328133],[-86.7932807269599,36.2774374170878],[-86.7932807634565,36.2774376160226],[-86.7926696366031,36.2775486658542],[-86.792396220742,36.2775983460969],[-86.7924478949122,36.2772024426105],[-86.7922818697601,36.2772914353856],[-86.7911513004749,36.2778207703941],[-86.7908912126111,36.277867521067]]]},"properties":{"id":"113021","parcel":"04100002000","address":"7594 OLD HICKORY BLVD","owner":"MOUNT ZION BAPTIST CHURCH","point":[-86.79098822443098,36.27252332108509]}},{"type":"Feature","id":"113448","geometry":{"type":"Polygon","coordinates":[[[-86.7900922150515,36.2789223613868],[-86.7900288098156,36.2789201937767],[-86.7900353289248,36.2786584822353],[-86.7898656376093,36.2786527211033],[-86.7898325002809,36.2785276777996],[-86.7898000875732,36.2784067565295],[-86.7897799626709,36.278396439946],[-86.7894111724739,36.2784636780697],[-86.7893925191913,36.2783964988399],[-86.7893905933546,36.2783858632577],[-86.7893907567667,36.2783751157955],[-86.789393004284,36.2783645223528],[-86.7893972839899,36.278354346431],[-86.7894034848798,36.2783448420034],[-86.7894114545884,36.2783362452886],[-86.7894209949022,36.2783287711751],[-86.7894318683472,36.2783226041653],[-86.7894438037457,36.2783178974385],[-86.7894565050926,36.278314770089],[-86.7905506817515,36.278114780013],[-86.7904478540979,36.2789345199968],[-86.7900922150515,36.2789223613868]]]},"properties":{"id":"113448","parcel":"041010A02800CO","address":"5001 COBBLESTONE CREEK DR","owner":"COBBLESTONE CREEK HOMEOWNERS ASSOCIATION, INC.","point":[-86.79016336327174,36.27849662952241]}},{"type":"Feature","id":"113515","geometry":{"type":"Polygon","coordinates":[[[-86.7957659931694,36.2773487609919],[-86.7961088377672,36.2773108015097],[-86.7961110948466,36.277319643144],[-86.7961246618283,36.2773772359458],[-86.7961336488043,36.2774160193599],[-86.7961468683816,36.277474704047],[-86.7961472570808,36.2774765003648],[-86.7961574332754,36.2775228607913],[-86.7961627152845,36.277547061284],[-86.7961754123563,36.2776068020578],[-86.7961817916873,36.2776372995051],[-86.7961882110886,36.277670122792],[-86.7961997702385,36.2777301558493],[-86.7962004113305,36.2777362449198],[-86.7961999540149,36.2777414670215],[-86.7961998134257,36.2777429838358],[-86.7961996316284,36.2777444982177],[-86.7961994086049,36.277746008365],[-86.7961984743151,36.2777505081094],[-86.7961976492966,36.2777534759247],[-86.796196111725,36.2777578651854],[-86.7961955140279,36.2777593075039],[-86.7961948772583,36.2777607383637],[-86.7961942025289,36.2777621577575],[-86.7961929526778,36.277764829159],[-86.796191899942,36.2777670675675],[-86.7961912953548,36.2777679349394],[-86.7961855456456,36.2777761741113],[-86.7961847648152,36.2777770038907],[-86.7961811195656,36.2777809978711],[-86.7961771628921,36.2777847938274],[-86.7961676244757,36.2777922765787],[-86.7961568969338,36.2777986153754],[-86.7961516039013,36.2778011259506],[-86.7961461243807,36.2778033547641],[-86.7961426731962,36.2778042859479],[-86.7961336050987,36.2778067330664],[-86.7960781673887,36.27781692084],[-86.7960337053491,36.2778249715592],[-86.7959919599556,36.2778324329842],[-86.79594480085,36.277840697903],[-86.7958006979456,36.2778655134403],[-86.7957004409073,36.2778821047371],[-86.7956923020507,36.2778834281656],[-86.7956577576915,36.2778889566721],[-86.7955811552968,36.2779010806138],[-86.7955582302882,36.2779046129663],[-86.7955043706821,36.277912906494],[-86.7954996863724,36.2779136330822],[-86.7954995752353,36.277913650036],[-86.7954611602813,36.2776577934889],[-86.7954210551181,36.2773906554788],[-86.7954210491552,36.2773906158633],[-86.7954210432917,36.277390586161],[-86.7955897734735,36.2773701277906],[-86.7957659931694,36.2773487609919]]]},"properties":{"id":"113515","parcel":"04000014800","address":"500 HICKORY HILLS BLVD","owner":"500 HICKORY HILLS BLVD TRUST","point":[-86.7958171054703,36.27762143413332]}},{"type":"Feature","id":"113518","geometry":{"type":"Polygon","coordinates":[[[-86.7961844000667,36.2779532873126],[-86.7961878143002,36.2779534414656],[-86.7961895174539,36.2779535672353],[-86.7961912164545,36.2779537227732],[-86.7962019320877,36.2779551698767],[-86.7962066362503,36.2779563087001],[-86.7962151954457,36.2779583792469],[-86.7962249111373,36.2779626664384],[-86.796226442079,36.2779633773464],[-86.7962294424586,36.2779648815805],[-86.7962392142405,36.2779709844028],[-86.7962417729347,36.2779729520805],[-86.7962430108884,36.2779739704392],[-86.7962483066605,36.2779784886239],[-86.7962512476867,36.2779819507447],[-86.796256202638,36.2779877761717],[-86.7962575323927,36.2779900655771],[-86.7962620723377,36.2779979017037],[-86.796265911875,36.2780085894658],[-86.7962917760299,36.278116991622],[-86.7963009788804,36.278158410626],[-86.796312394971,36.2782118349032],[-86.7963228489895,36.2782632269093],[-86.7963402761628,36.2783554586845],[-86.7963406641309,36.2783575136623],[-86.7963408502337,36.2783590860035],[-86.7963466096229,36.2784078502738],[-86.7963485125811,36.2784292962911],[-86.7963504889351,36.2784579346312],[-86.7963526274311,36.2785013774942],[-86.7963532071368,36.2785590603248],[-86.7963520372243,36.2786039101918],[-86.7955605441945,36.2785785504644],[-86.7954374326281,36.2780817764193],[-86.7955041442147,36.2780700745595],[-86.7955823466311,36.2780564341625],[-86.7955996980501,36.2780534098426],[-86.795744973014,36.2780278883706],[-86.7959271424068,36.2779959944344],[-86.7959607276035,36.277990272092],[-86.7961690868987,36.2779542236331],[-86.7961707719887,36.2779539917292],[-86.7961724640737,36.2779537913225],[-86.7961758614101,36.2779534823492],[-86.7961844000667,36.2779532873126]]]},"properties":{"id":"113518","parcel":"04000014900","address":"7501 HICKORY HILLS CT","owner":"AND-TEX, INC.","point":[-86.79591251825583,36.27830862841286]}},{"type":"Feature","id":"113521","geometry":{"type":"Polygon","coordinates":[[[-86.7952638796107,36.2787028543344],[-86.7955605441945,36.2785785504644],[-86.7963520372243,36.2786039101918],[-86.7963505225225,36.2786312872625],[-86.7963490793765,36.2786522722588],[-86.7963444762808,36.2787030604912],[-86.7963444700556,36.2787031055942],[-86.7963390097106,36.2787456810551],[-86.7963270835328,36.2788165088641],[-86.7963265067179,36.2788193650926],[-86.7963182097182,36.2788585687703],[-86.7963098843494,36.2788931781064],[-86.7963068161395,36.2789049757395],[-86.7963047061012,36.2789127664505],[-86.7952638796107,36.2787028543344]]]},"properties":{"id":"113521","parcel":"04000015000","address":"520 HICKORY HILLS BLVD","owner":"AND-TEX, INC.","point":[-86.79598952833773,36.278780509441454]}},{"type":"Feature","id":"113524","geometry":{"type":"Polygon","coordinates":[[[-86.7947114704479,36.2774770431821],[-86.7946964302243,36.2774357102007],[-86.7946947579853,36.2774311185555],[-86.7947537208365,36.2774252747502],[-86.7947664883903,36.2774240110728],[-86.7947786118145,36.2774738294875],[-86.7952702099948,36.2774101550781],[-86.7954210432917,36.277390586161],[-86.7954210491552,36.2773906158633],[-86.7954210551181,36.2773906554788],[-86.7954611602813,36.2776577934889],[-86.7954995752353,36.277913650036],[-86.7954244357399,36.2779274739047],[-86.795378730232,36.277935853407],[-86.795329238891,36.2779449833024],[-86.7952870580853,36.2779524374342],[-86.7952168350803,36.2779650527038],[-86.7951406223477,36.2779786410223],[-86.7950293103469,36.2779979316035],[-86.7949535974386,36.2780108658196],[-86.7949533151793,36.2780109118368],[-86.7948966795082,36.2780206554231],[-86.7948506931318,36.2780283426161],[-86.7948506803193,36.2780282859221],[-86.7947114934127,36.2774771133279],[-86.7947114704479,36.2774770431821]]]},"properties":{"id":"113524","parcel":"04000015300","address":"7541 OLD HICKORY BLVD","owner":"SCOTT, KARREN L. & CROWDER, ZINA","point":[-86.79513474717555,36.27778513020265]}},{"type":"Feature","id":"113812","geometry":{"type":"Polygon","coordinates":[[[-86.7985979916263,36.2782176505499],[-86.798598096067,36.278217631835],[-86.7986307200477,36.2786044697433],[-86.7983684583423,36.2786147082357],[-86.7983952096166,36.2788906114997],[-86.7984518584444,36.2794956731302],[-86.7984755068851,36.2797551076966],[-86.7968929853446,36.2799424569414],[-86.7962214790098,36.2795966419982],[-86.7962597281781,36.2795540884844],[-86.7962855090589,36.2795252240343],[-86.7962986396397,36.2795098777185],[-86.7963150291035,36.2794864203922],[-86.7963407861312,36.2794498703034],[-86.7963654574198,36.2794128325806],[-86.7963655177393,36.2794127429604],[-86.7963928703827,36.2793692752353],[-86.796419970467,36.2793229423196],[-86.7964402458835,36.2792864391403],[-86.7964623065202,36.2792430540331],[-86.7964675161445,36.2792325689133],[-86.7964873286508,36.2791905468711],[-86.7965058436785,36.2791480115564],[-86.7965090034582,36.279140121097],[-86.7965091023899,36.2791401078277],[-86.7979015411236,36.2789548538592],[-86.7977905885143,36.2783471284808],[-86.7985979916263,36.2782176505499]]]},"properties":{"id":"113812","parcel":"04000020900","address":"529 HICKORY HILLS BLVD","owner":"TAS ANGEL, LLC","point":[-86.79780770492168,36.2790485028461]}},{"type":"Feature","id":"114673","geometry":{"type":"Polygon","coordinates":[[[-86.7911794358928,36.2784639289845],[-86.7915645492952,36.2784344865533],[-86.7915492981827,36.2789455260037],[-86.7911516675028,36.2789448334978],[-86.7911794358928,36.2784639289845]]]},"properties":{"id":"114673","parcel":"04100012500","address":"7583 OLD HICKORY BLVD","owner":"MOUNT ZION BAPTIST CHURCH","point":[-86.79136101310456,36.2787047217898]}},{"type":"Feature","id":"115056","geometry":{"type":"Polygon","coordinates":[[[-86.7922542678508,36.2779025046338],[-86.7934189972198,36.2776894428818],[-86.7934190260794,36.2776894904582],[-86.7937861298719,36.278309945931],[-86.793786184217,36.2783100375007],[-86.7936964616229,36.2783574227472],[-86.7936086766695,36.2784071294178],[-86.7935229223579,36.2784591082392],[-86.793439287175,36.2785133036589],[-86.7933578584865,36.2785696592307],[-86.7932787214057,36.2786281158199],[-86.7932019588029,36.2786886125037],[-86.7922396238712,36.2780179153194],[-86.7922542678508,36.2779025046338]]]},"properties":{"id":"115056","parcel":"04100012800","address":"7528 HICKORY HILLS CT","owner":"RJJ, LLC","point":[-86.79307408378989,36.27816403904541]}},{"type":"Feature","id":"118759","geometry":{"type":"Polygon","coordinates":[[[-86.7922818697601,36.2772914353856],[-86.7924478949122,36.2772024426105],[-86.792396220742,36.2775983460969],[-86.7911513004749,36.2778207703941],[-86.7922818697601,36.2772914353856]]]},"properties":{"id":"118759","parcel":"04100009300","address":"0 OLD HICKORY BLVD","owner":"TRUE, LAURA K. P.","point":[-86.79218588771137,36.277444624714136]}}]}