{"type":"FeatureCollection","features":[{"type":"Feature","id":"38907","geometry":{"type":"Polygon","coordinates":[[[-86.824593753337,36.2309750297642],[-86.8253853094769,36.230795088242],[-86.8254705548322,36.2309733059444],[-86.8254899073885,36.2310083362025],[-86.825502868862,36.2310350077226],[-86.8246765664239,36.2312263997338],[-86.8246534724074,36.231161782323],[-86.8246443819548,36.2311363496514],[-86.8246349867215,36.2311100628664],[-86.824593753337,36.2309750297642]]]},"properties":{"id":"38907","parcel":"05900021600","address":"4937 BUENA VISTA PIKE","owner":"HAWKINS, DONNETTA FAYE","point":[-86.82505199358003,36.23102102302432]}},{"type":"Feature","id":"62218","geometry":{"type":"Polygon","coordinates":[[[-86.8251210803091,36.2391676279],[-86.8248638888048,36.2383953124652],[-86.8248760872224,36.2383510082376],[-86.8249478634457,36.2380903161198],[-86.826582698042,36.2384303582925],[-86.8275877052606,36.238384790417],[-86.8276987219295,36.2390569180142],[-86.8251210803091,36.2391676279]]]},"properties":{"id":"62218","parcel":"04900037600","address":"5214 BUENA VISTA PIKE","owner":"RASBACH, DANIEL A. & ALANA M.","point":[-86.8263129682438,36.23874244067742]}},{"type":"Feature","id":"132370","geometry":{"type":"Polygon","coordinates":[[[-86.8230673468583,36.2386434537375],[-86.8229865799878,36.2383029838915],[-86.8232535491799,36.2383253797809],[-86.8233370986848,36.238670899142],[-86.8230673468583,36.2386434537375]]]},"properties":{"id":"132370","parcel":"04900031100","address":"650 W GREEN LN","owner":"KELLY, ASHLEIGH MONIQUE","point":[-86.82316081321805,36.23848441733756]}},{"type":"Feature","id":"132488","geometry":{"type":"Polygon","coordinates":[[[-86.8289230317955,36.2384435674199],[-86.8289309196569,36.2379007003108],[-86.8290558515705,36.2379145163303],[-86.8292676925283,36.237937945982],[-86.8292568868532,36.238461054221],[-86.8289230317955,36.2384435674199]]]},"properties":{"id":"132488","parcel":"04900007102","address":"3508 STEVENS LN","owner":"VENSON, RANDALL & JAMILA","point":[-86.8290945870197,36.23819075572384]}},{"type":"Feature","id":"132523","geometry":{"type":"Polygon","coordinates":[[[-86.8296466467957,36.237080468783],[-86.8297635108803,36.2365830025669],[-86.829934675201,36.2366081983951],[-86.8298573708497,36.2369977065934],[-86.830876483249,36.2371731065715],[-86.8308588539831,36.2373028877626],[-86.8296466467957,36.237080468783]]]},"properties":{"id":"132523","parcel":"04900008101","address":"0 CLARKSVILLE PIKE","owner":"HAYES, WILMA","point":[-86.82980396268992,36.236802821582714]}},{"type":"Feature","id":"132690","geometry":{"type":"Polygon","coordinates":[[[-86.8222047190636,36.2389399956847],[-86.8223083473515,36.2382460828036],[-86.8226528695255,36.2382749863917],[-86.8228234127733,36.2390033305039],[-86.8222047190636,36.2389399956847]]]},"properties":{"id":"132690","parcel":"04900012600","address":"646 W GREEN LN","owner":"TURNER, CONSTANCE K. & LANIER, PATRICK E. II","point":[-86.82249262227397,36.238607585973625]}},{"type":"Feature","id":"132768","geometry":{"type":"Polygon","coordinates":[[[-86.8209926867034,36.2364674989951],[-86.8210245384103,36.2364367642486],[-86.8209903250666,36.2364158416259],[-86.8209828361765,36.2364112618757],[-86.820952859358,36.2363929303973],[-86.8209246361703,36.236358836673],[-86.8209075736298,36.2363300178489],[-86.8208943699903,36.2363365154908],[-86.8208801439219,36.2363413969197],[-86.8208651969567,36.2363445591458],[-86.8208498421434,36.2363459369538],[-86.8208344029154,36.2363455011085],[-86.8207900471355,36.2363387690993],[-86.8207451121179,36.2363354035893],[-86.820731488993,36.2363315783919],[-86.820718616405,36.2363263178034],[-86.8207067244912,36.2363197148919],[-86.8206960225046,36.236311887202],[-86.8206408216532,36.2363641095655],[-86.8205664638598,36.2363966867061],[-86.8205282428214,36.2363908592471],[-86.820465473988,36.2363331528645],[-86.8204685228207,36.2362856955356],[-86.8204380371581,36.2362157029788],[-86.8203805741257,36.2361839202473],[-86.8201584294361,36.2362502252211],[-86.8199171184718,36.2364703705919],[-86.8198904639688,36.2364916453541],[-86.8198613275272,36.2365106657938],[-86.8198299997749,36.2365272424759],[-86.8197967905034,36.2365412101694],[-86.81976203093,36.2365524314371],[-86.8190660109037,36.2367006222982],[-86.8190108944399,36.2367117118935],[-86.8189548654373,36.2367192206583],[-86.8188982760653,36.2367231002403],[-86.8188414865229,36.2367233256657],[-86.8186717329461,36.236713535856],[-86.8186326652662,36.2367071673753],[-86.8185944985958,36.2366978781207],[-86.8185575664356,36.2366857514526],[-86.8185221880202,36.2366708897544],[-86.8184886728785,36.2366534252172],[-86.8184573095792,36.2366335072983],[-86.8184283735927,36.2366113098774],[-86.8184021138854,36.2365870259406],[-86.8181994023777,36.2363413103286],[-86.8181736569161,36.2363064727769],[-86.8181508714728,36.236270308354],[-86.8181311489667,36.2362329803926],[-86.8181145801636,36.2361946604194],[-86.8181012391611,36.2361555218756],[-86.8180911878661,36.2361157427915],[-86.8180447757536,36.2357478406446],[-86.817779221168,36.2358211495438],[-86.8176173146125,36.2359429405366],[-86.817109474507,36.2361875215995],[-86.8170148515359,36.2360614119101],[-86.8215404438913,36.2337718362494],[-86.821359003355,36.2335340788363],[-86.8221080685179,36.2333966006604],[-86.8239141541134,36.2333276932351],[-86.8239221720625,36.2334968843951],[-86.8239342299498,36.2336659173095],[-86.8239503216022,36.2338347307339],[-86.8239704408093,36.234003259819],[-86.8239945813883,36.2341714424185],[-86.8240227338004,36.2343392146061],[-86.8240548863004,36.2345065142729],[-86.8240910282458,36.2346732784006],[-86.8241311467786,36.234839444887],[-86.8241752245997,36.235004952561],[-86.8238020108115,36.2356985282183],[-86.8231818010822,36.2358910435201],[-86.8227045490439,36.2358623091692],[-86.8223982419534,36.2359182069383],[-86.8222325559714,36.2359913594386],[-86.8211697964649,36.2367500587447],[-86.8209924794014,36.23658703557],[-86.8209849902937,36.2365774944165],[-86.8209795081621,36.2365670969504],[-86.8209761771289,36.236556117075],[-86.820975083639,36.2365448453083],[-86.8209762596936,36.2365335788467],[-86.8209859219134,36.2365123264953],[-86.8209914402653,36.2364901244441],[-86.8209926867034,36.2364674989951]]]},"properties":{"id":"132768","parcel":"04900012900","address":"633 W GREEN LN","owner":"HP-246001 WHITES CREEK, LLC","point":[-86.82121134126389,36.235347622691314]}},{"type":"Feature","id":"132774","geometry":{"type":"Polygon","coordinates":[[[-86.8255613101498,36.239429145568],[-86.8277300745317,36.2392467344481],[-86.8278199421111,36.2397908078089],[-86.8277227326612,36.2398003926888],[-86.8277229072109,36.2398014468613],[-86.8277229143091,36.2398014873691],[-86.827625586998,36.2398110810895],[-86.8275513933964,36.2398183929112],[-86.827228164272,36.2398502515725],[-86.8272280697221,36.2398502531212],[-86.8272279430424,36.2398502675074],[-86.826792862583,36.2398930632942],[-86.8264497706387,36.2399269493379],[-86.8262400152075,36.2399476655087],[-86.8261399529702,36.2399574777137],[-86.8258961785285,36.2399814460182],[-86.8258956452307,36.239980661067],[-86.8260118355658,36.2399688786048],[-86.8259644820006,36.2399134201625],[-86.825914362897,36.2398595803334],[-86.8258615615278,36.2398074495718],[-86.8258061666993,36.2397571155899],[-86.8257701447205,36.2397275149935],[-86.8257372605774,36.239695607359],[-86.8257077379388,36.2396616110664],[-86.8256817794668,36.2396257572562],[-86.8256595612642,36.2395882907695],[-86.825641235062,36.2395494665274],[-86.825637019711,36.2395262898504],[-86.825628882135,36.2395038096102],[-86.8256169792673,36.2394824591379],[-86.8256015412375,36.2394626496339],[-86.8255828646307,36.2394447639055],[-86.8255613101498,36.239429145568]]]},"properties":{"id":"132774","parcel":"04900013600","address":"5224 BUENA VISTA PIKE","owner":"SMITH, ADAM & PHYLLIS","point":[-86.82673038133676,36.23960856342331]}},{"type":"Feature","id":"132920","geometry":{"type":"Polygon","coordinates":[[[-86.827625586998,36.2398110810895],[-86.8277229161142,36.2398015004249],[-86.8277870019578,36.2397951729802],[-86.8278367480188,36.2401058476461],[-86.8278356643337,36.2401059479011],[-86.8272775805599,36.240157570635],[-86.8272774894411,36.2401575811728],[-86.8272555293614,36.2400207265363],[-86.8272516541694,36.2399966111834],[-86.827228164272,36.2398502515725],[-86.8275513933964,36.2398183929112],[-86.827625586998,36.2398110810895]]]},"properties":{"id":"132920","parcel":"04900033400","address":"5232 BUENA VISTA PIKE","owner":"JONES, LAVERNE","point":[-86.82752378962607,36.239923840961794]}},{"type":"Feature","id":"132963","geometry":{"type":"Polygon","coordinates":[[[-86.8278801755371,36.2391198665026],[-86.8295992947818,36.2390366787049],[-86.8295929737609,36.2392103343389],[-86.8295996868687,36.2393333527109],[-86.8279222943861,36.2393748617089],[-86.8278801755371,36.2391198665026]]]},"properties":{"id":"132963","parcel":"04900006800","address":"5227 BUENA VISTA PIKE","owner":"JUMPER, JOHN L.","point":[-86.82874101089051,36.23916510983564]}},{"type":"Feature","id":"133211","geometry":{"type":"Polygon","coordinates":[[[-86.8257192417563,36.2363491965861],[-86.8271159553326,36.2363292682155],[-86.8271721079119,36.2365007908906],[-86.8271721274623,36.236500852042],[-86.8254578555464,36.2367883095596],[-86.8254091351334,36.2367951828622],[-86.8254797304011,36.2366936211787],[-86.8257191294026,36.2363491973541],[-86.8257192417563,36.2363491965861]]]},"properties":{"id":"133211","parcel":"04900032200","address":"5132 BUENA VISTA PIKE","owner":"ARMSTRONG, CARL STEVEN","point":[-86.82607125699137,36.23659686965871]}},{"type":"Feature","id":"133657","geometry":{"type":"Polygon","coordinates":[[[-86.8296122950507,36.2387289246115],[-86.8296123517571,36.2387289215183],[-86.8296059157972,36.2388915880621],[-86.8296059084253,36.238891734116],[-86.8295992947818,36.2390366787049],[-86.8278801755371,36.2391198665026],[-86.8278369466015,36.2388581537122],[-86.8292518292997,36.2387555711224],[-86.8296122950507,36.2387289246115]]]},"properties":{"id":"133657","parcel":"04900006900","address":"5223 BUENA VISTA PIKE","owner":"OTEY, ALAN AMECHE","point":[-86.82872832606586,36.238962958052525]}},{"type":"Feature","id":"133660","geometry":{"type":"Polygon","coordinates":[[[-86.8282260351356,36.2384615332464],[-86.8285756150728,36.2384261700093],[-86.8289230317955,36.2384435674199],[-86.8292568868532,36.238461054221],[-86.8292518292997,36.2387555711224],[-86.8278369466015,36.2388581537122],[-86.82777888602,36.2385066405939],[-86.8282260351356,36.2384615332464]]]},"properties":{"id":"133660","parcel":"04900007000","address":"5219 BUENA VISTA PIKE","owner":"DAVIS, JIMMY F. ET UX","point":[-86.82852661162171,36.23863112425455]}},{"type":"Feature","id":"133663","geometry":{"type":"Polygon","coordinates":[[[-86.82777888602,36.2385066405939],[-86.8276552620967,36.2377581774602],[-86.8282166427821,36.2378220890877],[-86.8282260351356,36.2384615332464],[-86.82777888602,36.2385066405939]]]},"properties":{"id":"133663","parcel":"04900007100","address":"3500 STEVENS LN","owner":"PATTON, MARILYN E.","point":[-86.8279699231195,36.23814144993972]}},{"type":"Feature","id":"133678","geometry":{"type":"Polygon","coordinates":[[[-86.8292568868532,36.238461054221],[-86.8292676925283,36.237937945982],[-86.829639773701,36.2379793436591],[-86.8296228585764,36.2384365653283],[-86.8296151787864,36.2386502568387],[-86.8296123517571,36.2387289215183],[-86.8296122950507,36.2387289246115],[-86.8292518292997,36.2387555711224],[-86.8292568868532,36.238461054221]]]},"properties":{"id":"133678","parcel":"04900007200","address":"3510 STEVENS LN","owner":"BASS, DYMETRA L.","point":[-86.82944672105226,36.23820769149774]}},{"type":"Feature","id":"133681","geometry":{"type":"Polygon","coordinates":[[[-86.8296228585764,36.2384365653283],[-86.829639773701,36.2379793436591],[-86.8300607513432,36.2380269969116],[-86.8299403433773,36.2384453727253],[-86.82962301215,36.2384365696811],[-86.8296228585764,36.2384365653283]]]},"properties":{"id":"133681","parcel":"04900007300","address":"3512 STEVENS LN","owner":"ORTIZ, LUIS AMALDO & CARRILLO, MARIELA ARACELY","point":[-86.82981609760779,36.2382317447604]}},{"type":"Feature","id":"133687","geometry":{"type":"Polygon","coordinates":[[[-86.8275331438681,36.2371221956483],[-86.8275061493739,36.2370231082576],[-86.8284533562007,36.2371106342143],[-86.8283508013018,36.2376805212638],[-86.8276254575202,36.2375988172359],[-86.8275331438681,36.2371221956483]]]},"properties":{"id":"133687","parcel":"04900008300","address":"5143 BUENA VISTA PIKE","owner":"SCHIRATTI, ERNEST","point":[-86.82799373817427,36.237361102987784]}},{"type":"Feature","id":"133690","geometry":{"type":"Polygon","coordinates":[[[-86.8270152732704,36.2356720495215],[-86.8270165388372,36.2356612357108],[-86.8270199067899,36.235650722045],[-86.8270252920115,36.2356407740757],[-86.8270325569612,36.2356316441943],[-86.8270415171617,36.2356235643848],[-86.8270519466852,36.2356167389761],[-86.8270635825568,36.2356113401053],[-86.8270761269599,36.2356075059006],[-86.8285639585264,36.2354289675093],[-86.828617647282,36.2354194325871],[-86.8286703753717,36.2354068615931],[-86.8287218808944,36.2353913167094],[-86.8287719087754,36.2353728744916],[-86.8288291996583,36.2353389682524],[-86.8288921702525,36.235310542301],[-86.8289533822824,36.2352796985994],[-86.8290126940833,36.2352465075191],[-86.8291486682388,36.2353763329325],[-86.8290023294009,36.2359091625537],[-86.8291983643433,36.2364967800915],[-86.8287973709319,36.2365434851527],[-86.8284126287264,36.2365878783756],[-86.8274144391981,36.2367052348062],[-86.8272492356785,36.2362006162366],[-86.8272484886431,36.2362007763681],[-86.827134333563,36.2359402481793],[-86.8270152732704,36.2356720495215]]]},"properties":{"id":"133690","parcel":"04900008500","address":"5121 BUENA VISTA PIKE","owner":"KY-TENN. CON. 7 DAY ADV.","point":[-86.82812419986824,36.23607177530379]}},{"type":"Feature","id":"133795","geometry":{"type":"Polygon","coordinates":[[[-86.8228234127733,36.2390033305039],[-86.8226528695255,36.2382749863917],[-86.8229865799878,36.2383029838915],[-86.8230673468583,36.2386434537375],[-86.8231364684023,36.2389348412515],[-86.8231635976132,36.2390381527897],[-86.8228234127733,36.2390033305039]]]},"properties":{"id":"133795","parcel":"04900012700","address":"648 W GREEN LN","owner":"ELLIS, DAVID A.","point":[-86.82293752734789,36.23878890434284]}},{"type":"Feature","id":"133840","geometry":{"type":"Polygon","coordinates":[[[-86.8253442357564,36.2370791726827],[-86.8272776534889,36.2368231860181],[-86.8272800953555,36.2368306425004],[-86.8273675884955,36.2371517966481],[-86.8273725372149,36.2371774106606],[-86.8252870051264,36.2373147090826],[-86.8253039523271,36.2372653721935],[-86.8253179116298,36.2372154239346],[-86.825328853149,36.2371649852792],[-86.8253282553252,36.2371431447566],[-86.8253306454118,36.2371213847611],[-86.8253359939323,36.2370999731666],[-86.8253442357564,36.2370791726827]]]},"properties":{"id":"133840","parcel":"04900013300","address":"5138 BUENA VISTA PIKE","owner":"KUMARZ, DANIEL","point":[-86.8267987257792,36.23695561685753]}},{"type":"Feature","id":"133843","geometry":{"type":"Polygon","coordinates":[[[-86.8251210803091,36.2391676279],[-86.8276987219295,36.2390569180142],[-86.8277300745317,36.2392467344481],[-86.8255613101498,36.239429145568],[-86.8255231282778,36.2394096275645],[-86.8254250784844,36.2393689335807],[-86.825328817333,36.2393255280425],[-86.8252344588357,36.2392794615467],[-86.8251421148349,36.2392307901129],[-86.8251210803091,36.2391676279]]]},"properties":{"id":"133843","parcel":"04900013500","address":"5222 BUENA VISTA PIKE","owner":"INMAN, THOMAS E. ET UX","point":[-86.82644138920794,36.239238776958494]}},{"type":"Feature","id":"133975","geometry":{"type":"Polygon","coordinates":[[[-86.8284126287264,36.2365878783756],[-86.8287973709319,36.2365434851527],[-86.8286033912302,36.2377095560484],[-86.8283508013018,36.2376805212638],[-86.8284533562007,36.2371106342143],[-86.8284126287264,36.2365878783756]]]},"properties":{"id":"133975","parcel":"04900029500","address":"3503 STEVENS LN","owner":"TULE RIVER HOMEBUYER EARNED EQUITY AGENCY","point":[-86.82852882081552,36.23739575946765]}},{"type":"Feature","id":"134931","geometry":{"type":"Polygon","coordinates":[[[-86.8285756150728,36.2384261700093],[-86.8285724249849,36.2378614045282],[-86.8289309196569,36.2379007003108],[-86.8289230317955,36.2384435674199],[-86.8285756150728,36.2384261700093]]]},"properties":{"id":"134931","parcel":"04900007104","address":"3506 STEVENS LN","owner":"DERRICK, DANIEL ET UX","point":[-86.82875061403745,36.2381634315007]}},{"type":"Feature","id":"135233","geometry":{"type":"Polygon","coordinates":[[[-86.8262760040698,36.2355446301313],[-86.826704444806,36.2354208369689],[-86.826704476611,36.2354208998391],[-86.8268644443216,36.2357276647119],[-86.8269112468307,36.2358374515751],[-86.825995907689,36.2360967761854],[-86.8260484569477,36.2360307622526],[-86.8261354354469,36.235884575144],[-86.8261943792606,36.2357814334744],[-86.8262066377771,36.2356887745288],[-86.8261867557509,36.2355705135411],[-86.8262760040698,36.2355446301313]]]},"properties":{"id":"135233","parcel":"04900013000","address":"5122 BUENA VISTA PIKE","owner":"FRAZIER, KERRY SR., & TONYA D.","point":[-86.82653705952025,36.23575456065032]}},{"type":"Feature","id":"135238","geometry":{"type":"Polygon","coordinates":[[[-86.825995907689,36.2360967761854],[-86.8269112468307,36.2358374515751],[-86.8269112799176,36.2358375306591],[-86.8269746263895,36.23598614387],[-86.8270895625929,36.236248650517],[-86.8271159553326,36.2363292682155],[-86.8257192417563,36.2363491965861],[-86.8257191294026,36.2363491973541],[-86.8258292018204,36.2361912507783],[-86.8258714764773,36.2361305912211],[-86.8259545178957,36.2361080238489],[-86.825995907689,36.2360967761854]]]},"properties":{"id":"135238","parcel":"04900013100","address":"5130 BUENA VISTA PIKE","owner":"HORTON, MINNIE E.","point":[-86.82659591390154,36.23604162144174]}},{"type":"Feature","id":"135244","geometry":{"type":"Polygon","coordinates":[[[-86.8254578555464,36.2367883095596],[-86.8271721274623,36.236500852042],[-86.8272776534889,36.2368231860181],[-86.8253442357564,36.2370791726827],[-86.825350324884,36.2370638223716],[-86.8253583381314,36.2370490645573],[-86.8253681914738,36.2370350566318],[-86.8253839135444,36.2370031232114],[-86.8253966551564,36.2369703296269],[-86.8254063459007,36.2369368584137],[-86.8254129320928,36.2369028955979],[-86.8254147598562,36.2368785249016],[-86.8254202771585,36.2368545219426],[-86.8254294010183,36.2368312513942],[-86.8254419905052,36.2368090684118],[-86.8254578555464,36.2367883095596]]]},"properties":{"id":"135244","parcel":"04900013200","address":"5134 BUENA VISTA PIKE","owner":"BIGGS, KYLE","point":[-86.82636021078281,36.23680001354076]}},{"type":"Feature","id":"135578","geometry":{"type":"Polygon","coordinates":[[[-86.8279798681659,36.239723423704],[-86.8296138720578,36.2396519126611],[-86.8296240562908,36.2398474311014],[-86.8296276423113,36.2399309166834],[-86.8280224280172,36.2399814881873],[-86.8279798681659,36.239723423704]]]},"properties":{"id":"135578","parcel":"04900006600","address":"5235 BUENA VISTA PIKE","owner":"BROWN, DANNY F., SR","point":[-86.82880539486938,36.23978543513848]}},{"type":"Feature","id":"135581","geometry":{"type":"Polygon","coordinates":[[[-86.8279222943861,36.2393748617089],[-86.8295996868687,36.2393333527109],[-86.8296101239948,36.2395530455779],[-86.8296138720578,36.2396519126611],[-86.8279798681659,36.239723423704],[-86.8279222943861,36.2393748617089]]]},"properties":{"id":"135581","parcel":"04900006700","address":"5231 BUENA VISTA PIKE","owner":"BLAIR, BILLY W. & DIANE E.","point":[-86.82877138126624,36.23946396402154]}},{"type":"Feature","id":"138740","geometry":{"type":"Polygon","coordinates":[[[-86.8282260351356,36.2384615332464],[-86.8282166427821,36.2378220890877],[-86.8285724249849,36.2378614045282],[-86.8285756150728,36.2384261700093],[-86.8282260351356,36.2384615332464]]]},"properties":{"id":"138740","parcel":"04900007103","address":"3504 STEVENS LN","owner":"STEVENSON, PRECIOUS","point":[-86.8283976902807,36.238143534498775]}},{"type":"Feature","id":"138744","geometry":{"type":"Polygon","coordinates":[[[-86.8287973709319,36.2365434851527],[-86.8291983643433,36.2364967800915],[-86.8297635108803,36.2365830025669],[-86.8296466467957,36.237080468783],[-86.8295458216324,36.2378151673915],[-86.8290542366173,36.2377600803091],[-86.8286033912302,36.2377095560484],[-86.8287973709319,36.2365434851527]]]},"properties":{"id":"138744","parcel":"04900008200","address":"3507 STEVENS LN","owner":"GIBSON, DONALD D.","point":[-86.82912960798038,36.23739502011752]}},{"type":"Feature","id":"138745","geometry":{"type":"Polygon","coordinates":[[[-86.8274144391981,36.2367052348062],[-86.8284126287264,36.2365878783756],[-86.8284533562007,36.2371106342143],[-86.8275061493739,36.2370231082576],[-86.8274448819763,36.2367982232478],[-86.8274144391981,36.2367052348062]]]},"properties":{"id":"138745","parcel":"04900008400","address":"5133 BUENA VISTA PIKE","owner":"BRICKEY, ALLAN A. & CRYSTAL A.","point":[-86.82795670009496,36.236911358643695]}},{"type":"Feature","id":"138799","geometry":{"type":"Polygon","coordinates":[[[-86.8249478634457,36.2380903161198],[-86.8250073657583,36.2379093606135],[-86.8251505911217,36.2375656209655],[-86.8251619010496,36.237538592602],[-86.8251756016359,36.2375123013561],[-86.8251916219869,36.2374868838009],[-86.825209876748,36.2374624766077],[-86.8252382209709,36.2374141415807],[-86.8252639464225,36.2373648546862],[-86.8252870051264,36.2373147090826],[-86.8273725372149,36.2371774106606],[-86.8274810748141,36.2377391970326],[-86.8275877052606,36.238384790417],[-86.826582698042,36.2384303582925],[-86.8249478634457,36.2380903161198]]]},"properties":{"id":"138799","parcel":"04900013400","address":"5210 BUENA VISTA PIKE","owner":"JOHNSON, JEREMY A. & NIKKI E.","point":[-86.82626948526224,36.237824321907645]}},{"type":"Feature","id":"163133","geometry":{"type":"Polygon","coordinates":[[[-86.8282984668105,36.2339624971559],[-86.82944791315,36.2339018695958],[-86.8294670839159,36.2341786388467],[-86.8294680034946,36.234266537399],[-86.8282797319942,36.2342483218191],[-86.8282796785715,36.2342483194816],[-86.828284991977,36.2339779748831],[-86.8282983934122,36.2339624994617],[-86.8282984668105,36.2339624971559]]]},"properties":{"id":"163133","parcel":"05901000400","address":"6132 BEALS LN","owner":"JACKSON, JAMES A. & JOANNE, TRUSTEES","point":[-86.8288716144179,36.234078301997954]}},{"type":"Feature","id":"163136","geometry":{"type":"Polygon","coordinates":[[[-86.828751669505,36.2334693201999],[-86.8294132231351,36.2334384080984],[-86.82944791315,36.2339018695958],[-86.8282984668105,36.2339624971559],[-86.8282983934122,36.2339624994617],[-86.8284217036786,36.233827680438],[-86.8284217651243,36.2338275989036],[-86.828751669505,36.2334693201999]]]},"properties":{"id":"163136","parcel":"05901000500","address":"6128 BEALS LN","owner":"SCOTT, MACK T & TERESA A, ET AL","point":[-86.82900787659521,36.23364906229355]}},{"type":"Feature","id":"163441","geometry":{"type":"Polygon","coordinates":[[[-86.8282690786076,36.2349117089375],[-86.8282768016501,36.2344922757173],[-86.8282769135181,36.2344924416825],[-86.8287563256711,36.2352120054924],[-86.8287375402727,36.2352201897873],[-86.8286860946948,36.2352415653897],[-86.8286336256141,36.2352612383093],[-86.8286274242586,36.235263434847],[-86.8286212070182,36.2352656017521],[-86.828614975015,36.2352677399179],[-86.8285899027668,36.235276010573],[-86.8285835991928,36.2352780068296],[-86.8285772830806,36.2352799743319],[-86.8285709521962,36.2352819121937],[-86.8285279674618,36.2352946091887],[-86.8282614402713,36.2353263729836],[-86.8282690786076,36.2349117089375]]]},"properties":{"id":"163441","parcel":"05901000100","address":"6146 BEALS LN","owner":"DAVIS, RACQUEL M","point":[-86.82834482884003,36.23470217839164]}},{"type":"Feature","id":"163444","geometry":{"type":"Polygon","coordinates":[[[-86.8282786732824,36.2342905249594],[-86.8282796785715,36.2342483194816],[-86.8282797319942,36.2342483218191],[-86.8294680034946,36.234266537399],[-86.8294639441077,36.2343247025664],[-86.8294561007844,36.234382613424],[-86.8294444974139,36.2344401084824],[-86.8294291656911,36.2344970280003],[-86.8294101473132,36.2345532112667],[-86.8293874951775,36.2346085047032],[-86.8293612743896,36.2346627519436],[-86.8293520765467,36.2346799858105],[-86.8293502148393,36.2346832304942],[-86.8293299859964,36.2347178243687],[-86.8293159286024,36.2347405631165],[-86.8292902590785,36.2347788155789],[-86.8292797137363,36.2347933648376],[-86.8292702018227,36.2348063135814],[-86.8282777929914,36.2343274446175],[-86.8282786732824,36.2342905249594]]]},"properties":{"id":"163444","parcel":"05901000300","address":"6138 BEALS LN","owner":"MARTIN - EARL,  MARQUETTA","point":[-86.82905246676216,36.234524595574015]}},{"type":"Feature","id":"163504","geometry":{"type":"Polygon","coordinates":[[[-86.8286532035193,36.2328722413806],[-86.8287402434644,36.232863629402],[-86.8288276451155,36.2328579079104],[-86.8289152617442,36.2328550869242],[-86.8290029487809,36.2328551701391],[-86.8290841084561,36.2328578504472],[-86.8291650828275,36.2328630221429],[-86.8292457572537,36.2328706788034],[-86.8293260148215,36.232880809516],[-86.8293390979041,36.2328835388234],[-86.829351493791,36.2328878915031],[-86.8293628965639,36.2328937615048],[-86.8293730265859,36.232901002943],[-86.8293816350457,36.2329094390774],[-86.8293885083975,36.2329188613819],[-86.8293934795879,36.2329290393811],[-86.8293964247196,36.232939720673],[-86.8293972732036,36.232950644378],[-86.8293954670925,36.2330726697054],[-86.8293975244779,36.2331946919346],[-86.8294034445481,36.2333166317606],[-86.8294132231351,36.2334384080984],[-86.828751669505,36.2334693201999],[-86.8286532035193,36.2328722413806]]]},"properties":{"id":"163504","parcel":"05901000600","address":"6122 BEALS LN","owner":"BROWN, KELVIN JR & CARLA","point":[-86.8290463244113,36.23313318101401]}},{"type":"Feature","id":"163507","geometry":{"type":"Polygon","coordinates":[[[-86.8290015220998,36.2327187207681],[-86.8289146491415,36.2327188140207],[-86.8288278360353,36.2327214402305],[-86.8287411961868,36.2327265941135],[-86.8286727712594,36.2321490898536],[-86.8286728536678,36.2321490983008],[-86.8289755880575,36.2321827144956],[-86.8294929181558,36.2322401547908],[-86.8294340981782,36.2325877838073],[-86.829418833578,36.2326779907866],[-86.8294165889049,36.2326890727213],[-86.8294121391526,36.2326997083532],[-86.8294056048135,36.232709612058],[-86.829397159981,36.2327185176705],[-86.8293870335374,36.2327261856874],[-86.8293754958714,36.2327324096667],[-86.8293628578323,36.232737022544],[-86.8293494585402,36.2327399012224],[-86.829335659825,36.2327409666107],[-86.8293218318402,36.2327401909324],[-86.8292421278602,36.2327316029727],[-86.829162115909,36.2327251575574],[-86.8290818850539,36.2327208621858],[-86.8290015220998,36.2327187207681]]]},"properties":{"id":"163507","parcel":"05901001000","address":"3025 VISTA DR","owner":"SWETT, LILLIE Y.","point":[-86.82908376737662,36.23241342746399]}},{"type":"Feature","id":"163513","geometry":{"type":"Polygon","coordinates":[[[-86.8284193821805,36.2315223017288],[-86.8286051990367,36.2313935679883],[-86.8296154560003,36.2315075031404],[-86.8295593248971,36.2318463229787],[-86.8284465654074,36.231717988017],[-86.8284465141735,36.2317179820596],[-86.8284463368673,36.2317163438905],[-86.8284462883903,36.2317159629917],[-86.8284193821805,36.2315223017288]]]},"properties":{"id":"163513","parcel":"05901002600","address":"6108 BEALS LN","owner":"DIXON, SHARON D.","point":[-86.82901476127233,36.23161996536227]}},{"type":"Feature","id":"163568","geometry":{"type":"Polygon","coordinates":[[[-86.8255387838085,36.2341585740885],[-86.8259217646564,36.2340096247933],[-86.8260650158657,36.2342575296562],[-86.8256965039756,36.2344044545086],[-86.8256357599744,36.2343096917272],[-86.8255386425359,36.2341585750539],[-86.8255387838085,36.2341585740885]]]},"properties":{"id":"163568","parcel":"05901003200","address":"5022 BUENA VISTA PIKE","owner":"EQUITY TRUST COMPANY","point":[-86.8258034230902,36.23420805496507]}},{"type":"Feature","id":"163572","geometry":{"type":"Polygon","coordinates":[[[-86.8253590243231,36.2339394905525],[-86.8257846840066,36.2337723989018],[-86.8259217646564,36.2340096247933],[-86.8255387838085,36.2341585740885],[-86.8255386425359,36.2341585750539],[-86.8255318266371,36.2341479057074],[-86.8255262332965,36.2341391557908],[-86.8253691051679,36.2339587013296],[-86.825363071843,36.2339472227065],[-86.8253590243231,36.2339394905525]]]},"properties":{"id":"163572","parcel":"05901003300","address":"5018 BUENA VISTA PIKE","owner":"EQUITY TRUST COMPANY","point":[-86.82564911238688,36.23398416873932]}},{"type":"Feature","id":"163631","geometry":{"type":"Polygon","coordinates":[[[-86.8190745314168,36.2319313613016],[-86.8187458216928,36.2312713102462],[-86.8173697768153,36.2318395075208],[-86.817762976771,36.2315995088088],[-86.8182615565987,36.2312951861851],[-86.8185851433383,36.2311613762414],[-86.8191364417028,36.2309373108825],[-86.8191368677937,36.2309332226011],[-86.8193264675573,36.2291141891885],[-86.8193859068882,36.2291166510939],[-86.8198433098646,36.2290913891827],[-86.8201034720792,36.229340339976],[-86.821375888268,36.2295584423473],[-86.8215672076908,36.2295612816205],[-86.8216553717164,36.2295488187097],[-86.8217855561314,36.229530417187],[-86.821823457252,36.2295980951225],[-86.8218646102712,36.229664513495],[-86.8219089518498,36.2297295708902],[-86.8219564131138,36.2297931686352],[-86.8220069207117,36.2298552053837],[-86.8220603969253,36.2299155879302],[-86.8221167595682,36.2299742212971],[-86.8221759209564,36.230031016853],[-86.822191829079,36.2300650959227],[-86.8222116198534,36.2300978138016],[-86.8222351156389,36.2301288814927],[-86.8222621111072,36.2301580219033],[-86.8222923644553,36.2301849807205],[-86.8223256117636,36.2302095163994],[-86.8223615549001,36.2302314137647],[-86.8223998792615,36.230250478482],[-86.8224402449213,36.2302665416248],[-86.8224822944355,36.230279461424],[-86.8225065800455,36.2302998987759],[-86.8225066339328,36.2302999461755],[-86.8225241907491,36.2303144999773],[-86.8225418623192,36.2303289628695],[-86.8225955929586,36.2303717671475],[-86.8226137388267,36.2303858383578],[-86.8226319960742,36.2303998150763],[-86.8226320532705,36.2303998597496],[-86.8226576885654,36.2304194641312],[-86.8227035570576,36.2304533931613],[-86.822721558235,36.2304664883792],[-86.8227387016206,36.2304788206656],[-86.8227891475276,36.2305141217415],[-86.8227892080518,36.2305141654907],[-86.8228701336711,36.230568829692],[-86.8228719730057,36.2305710234369],[-86.8228922338948,36.2306074115194],[-86.8228984466287,36.2306144774024],[-86.8228994394633,36.2306156035177],[-86.822900654317,36.2306242950661],[-86.8229011435249,36.2306281292816],[-86.8229016683089,36.2306319614522],[-86.8229022342118,36.2306357897377],[-86.822902843449,36.2306396132216],[-86.8229087580127,36.230668111201],[-86.8229168903208,36.2306962479891],[-86.8229207385854,36.2307074361012],[-86.8229329292897,36.2307371026102],[-86.8229476107039,36.2307660194281],[-86.8229495547913,36.2307695165756],[-86.8229515376704,36.2307729999399],[-86.822955612017,36.2307799253721],[-86.8229620082533,36.2307902002752],[-86.8229832056766,36.2308201370788],[-86.8229909237633,36.2308297973305],[-86.8229962468918,36.2308361419556],[-86.8229989571186,36.2308392868988],[-86.8230017016222,36.2308424117809],[-86.8230138257466,36.2308560138468],[-86.8230284540405,36.2308702702852],[-86.8230367746099,36.2308783861825],[-86.8230610151806,36.2308995970061],[-86.8230610690779,36.2308996453067],[-86.8230873837857,36.2309195189486],[-86.8231006357034,36.2309284916804],[-86.8231300750415,36.230947063337],[-86.8231610538903,36.230963912109],[-86.823193418979,36.2309789543218],[-86.8232057128693,36.2309843663998],[-86.8232058126065,36.2309844369193],[-86.823439245234,36.2312020619655],[-86.8236798300933,36.2314263539453],[-86.8237089247483,36.2314534771239],[-86.823745714614,36.2314940378174],[-86.8207390547808,36.2326341712961],[-86.8207253182832,36.232619117227],[-86.820017234783,36.2321097075685],[-86.8190745314168,36.2319313613016]]]},"properties":{"id":"163631","parcel":"05900018900","address":"3210 WHITES CREEK PIKE","owner":"BALTZ, W. J.& L. J.(LE) BALTZ, S. T.","point":[-86.82108295815809,36.23086025959826]}},{"type":"Feature","id":"163692","geometry":{"type":"Polygon","coordinates":[[[-86.8245085047611,36.2306958626816],[-86.8252587777955,36.2305305580443],[-86.8253853094769,36.230795088242],[-86.824593753337,36.2309750297642],[-86.8245085047611,36.2306958626816]]]},"properties":{"id":"163692","parcel":"05900003903","address":"4935 BUENA VISTA PIKE","owner":"FENING, ROBERT J.","point":[-86.8249426672152,36.23074547006172]}},{"type":"Feature","id":"163695","geometry":{"type":"Polygon","coordinates":[[[-86.8267246169484,36.2326063548541],[-86.8275580881324,36.2321655169321],[-86.8279536182111,36.2328968146413],[-86.8279536637127,36.2328969107638],[-86.8279895390186,36.2329603016407],[-86.8279830982675,36.2329626746325],[-86.8279652188351,36.2329692591858],[-86.8279984103236,36.2330305649231],[-86.8284217651243,36.2338275989036],[-86.8284217036786,36.233827680438],[-86.8282983934122,36.2339624994617],[-86.828284991977,36.2339779748831],[-86.8277627085541,36.2340980295398],[-86.8263498759922,36.2344265459002],[-86.8255516865516,36.2330452344383],[-86.8256058440685,36.2330249645828],[-86.8261984393287,36.2328846602548],[-86.8267246169484,36.2326063548541]]]},"properties":{"id":"163695","parcel":"05900004000","address":"5101 BUENA VISTA PIKE","owner":"MITCHELL, WALLACE","point":[-86.82699582249873,36.23343643843398]}},{"type":"Feature","id":"163698","geometry":{"type":"Polygon","coordinates":[[[-86.8264881207159,36.2346657828736],[-86.8278148589228,36.2344163272688],[-86.8278875115444,36.2348795288696],[-86.8266822714169,36.2350253764636],[-86.8265561110179,36.2347834388988],[-86.8264881207159,36.2346657828736]]]},"properties":{"id":"163698","parcel":"05900004101","address":"5109 BUENA VISTA PIKE","owner":"BATTLE WAYMAN & PATRICIA W","point":[-86.82719281621706,36.23472558146282]}},{"type":"Feature","id":"163701","geometry":{"type":"Polygon","coordinates":[[[-86.823439245234,36.2312020619655],[-86.8244174303578,36.2309926424524],[-86.824509443765,36.2312639125601],[-86.8236798300933,36.2314263539453],[-86.823439245234,36.2312020619655]]]},"properties":{"id":"163701","parcel":"05900005002","address":"4938 BUENA VISTA PIKE","owner":"WILLIAMS, JOEL A.","point":[-86.82398541983592,36.23123300475201]}},{"type":"Feature","id":"163703","geometry":{"type":"Polygon","coordinates":[[[-86.8238697249389,36.2308346173179],[-86.8243287169178,36.2307311013291],[-86.8244174303578,36.2309926424524],[-86.823439245234,36.2312020619655],[-86.8232058126065,36.2309844369193],[-86.8232057128693,36.2309843663998],[-86.8238697249389,36.2308346173179]]]},"properties":{"id":"163703","parcel":"05900005100","address":"4936 BUENA VISTA PIKE","owner":"HUNTER, HARVEY A. & CONNIE STEIMLE","point":[-86.82396368526548,36.23091011977148]}},{"type":"Feature","id":"163805","geometry":{"type":"Polygon","coordinates":[[[-86.8275580881324,36.2321655169321],[-86.8280931776544,36.2319750547146],[-86.828343026481,36.2327820711267],[-86.8282438793766,36.2328066099106],[-86.8281458504234,36.2328339375437],[-86.8280490571461,36.232864017173],[-86.8279536182111,36.2328968146413],[-86.8275580881324,36.2321655169321]]]},"properties":{"id":"163805","parcel":"05901000800","address":"3017 VISTA DR","owner":"SPIDER TRUST","point":[-86.82798618178208,36.232473845899314]}},{"type":"Feature","id":"163810","geometry":{"type":"Polygon","coordinates":[[[-86.8280931776544,36.2319750547146],[-86.8283694795841,36.2319374236686],[-86.8284669856314,36.2319241500081],[-86.8286727712594,36.2321490898536],[-86.8287411961868,36.2327265941135],[-86.828640683136,36.2327354805704],[-86.8285407044142,36.232747703333],[-86.8284414300029,36.2327632423104],[-86.828343026481,36.2327820711267],[-86.8280931776544,36.2319750547146]]]},"properties":{"id":"163810","parcel":"05901000900","address":"3019 VISTA DR","owner":"REYNOLDS, ELLEN W. & HUTCHINSON, PATRICIA W. & TENNIES E.","point":[-86.82847161431793,36.232437504807095]}},{"type":"Feature","id":"163818","geometry":{"type":"Polygon","coordinates":[[[-86.8297188835352,36.2306661998973],[-86.829909992163,36.2306220332032],[-86.829877130701,36.2306522482832],[-86.8298467293004,36.2306841092719],[-86.8298189145132,36.2307174846194],[-86.8297938017214,36.2307522383465],[-86.8297714928748,36.2307882264547],[-86.8297520809687,36.2308252995994],[-86.8295343871587,36.2307586651797],[-86.8295344225366,36.2307586442078],[-86.8296159692408,36.2307159089742],[-86.8297043386786,36.2306695965992],[-86.8297083835524,36.2306686531394],[-86.8297188835352,36.2306661998973]]]},"properties":{"id":"163818","parcel":"05901002300","address":"0 BEALS LN","owner":"THOMPSON, KENNETH S. ET UX","point":[-86.82969338807649,36.2307347007425]}},{"type":"Feature","id":"163821","geometry":{"type":"Polygon","coordinates":[[[-86.8260103697462,36.2349129779958],[-86.8263624092521,36.2347721753745],[-86.8264011988193,36.2348393031819],[-86.8265042695026,36.2350369615937],[-86.8261267866002,36.235184690817],[-86.8260473282904,36.234999251178],[-86.8260103697462,36.2349129779958]]]},"properties":{"id":"163821","parcel":"05901002900","address":"5110 BUENA VISTA PIKE","owner":"REEDER, ALEXANDER H","point":[-86.8262456442085,36.234956429618926]}},{"type":"Feature","id":"163887","geometry":{"type":"Polygon","coordinates":[[[-86.8258553958286,36.2346519741962],[-86.8262129128198,36.2345134696992],[-86.8263624092521,36.2347721753745],[-86.8260103697462,36.2349129779958],[-86.8260102944786,36.2349128009632],[-86.8259853352733,36.2348540917249],[-86.82595810913,36.2348117440457],[-86.8258553958286,36.2346519741962]]]},"properties":{"id":"163887","parcel":"05901003000","address":"5106 BUENA VISTA PIKE","owner":"KRAMER, KODY","point":[-86.82611084784534,36.234712077881184]}},{"type":"Feature","id":"164206","geometry":{"type":"Polygon","coordinates":[[[-86.8257143882352,36.2314661054723],[-86.8274416557699,36.2311466189462],[-86.8261958838142,36.2318583861753],[-86.8259914610822,36.232024605849],[-86.8257421066805,36.2315230547271],[-86.8257143882352,36.2314661054723]]]},"properties":{"id":"164206","parcel":"05900015800","address":"4941 BUENA VISTA PIKE","owner":"BURTON, AUSTIN T. & ANNA","point":[-86.82615669285615,36.231690993523095]}},{"type":"Feature","id":"164370","geometry":{"type":"Polygon","coordinates":[[[-86.8282774746958,36.2343803568052],[-86.8282777929914,36.2343274446175],[-86.8292702018227,36.2348063135814],[-86.8292415997556,36.2348438191952],[-86.8292371886598,36.2348493363183],[-86.8292327395253,36.2348548329733],[-86.8292240260441,36.2348654122394],[-86.8292103126566,36.2348815856702],[-86.8291942093206,36.2348999592462],[-86.8291758629658,36.2349194774888],[-86.8291689817127,36.2349266527503],[-86.8291467136412,36.2349492333346],[-86.8291039658874,36.2349889278185],[-86.8290592853203,36.2350272007529],[-86.8290592290971,36.2350272498065],[-86.8290259297,36.2350530253197],[-86.8290091089208,36.235065777256],[-86.828984573661,36.2350833686968],[-86.8289831900721,36.235084357856],[-86.8289526591806,36.2351048816613],[-86.828913616801,36.2351292437277],[-86.8288841946224,36.2351466442678],[-86.8288526307923,36.2351643524031],[-86.8288204359888,36.2351812978907],[-86.8288159358943,36.2351836269668],[-86.8287801262346,36.2352009595494],[-86.8287563256711,36.2352120054924],[-86.8282769135181,36.2344924416825],[-86.8282768016501,36.2344922757173],[-86.8282774746958,36.2343803568052]]]},"properties":{"id":"164370","parcel":"05901000200","address":"6142 BEALS LN","owner":"SPIDER TRUST","point":[-86.82866328696902,36.23464922080588]}},{"type":"Feature","id":"164400","geometry":{"type":"Polygon","coordinates":[[[-86.8289849067942,36.2311295795014],[-86.8290010673722,36.2311183452887],[-86.8296691725479,36.2311972687507],[-86.8296154560003,36.2315075031404],[-86.8286051990367,36.2313935679883],[-86.828607457524,36.2313919969277],[-86.8289849067942,36.2311295795014]]]},"properties":{"id":"164400","parcel":"05901002500","address":"6104 BEALS LN","owner":"HATHAWAY, MCKINLEY JR. & JACQUELINE","point":[-86.82920024473147,36.23129472243708]}},{"type":"Feature","id":"164401","geometry":{"type":"Polygon","coordinates":[[[-86.8261267866002,36.235184690817],[-86.8265042695026,36.2350369615937],[-86.826704444806,36.2354208369689],[-86.8262760040698,36.2355446301313],[-86.8261867557509,36.2355705135411],[-86.826186749109,36.2355704099422],[-86.8261816888566,36.2355061823644],[-86.8261656999588,36.2353017050174],[-86.8261632807878,36.2352701487945],[-86.8261525035431,36.235244674622],[-86.8261267866002,36.235184690817]]]},"properties":{"id":"164401","parcel":"05901002800","address":"5116 BUENA VISTA PIKE","owner":"HODGKINS, STEVEN D & ATKIN, RACHEL","point":[-86.82642194575276,36.23536125225366]}},{"type":"Feature","id":"164442","geometry":{"type":"Polygon","coordinates":[[[-86.8250085803406,36.2330427802874],[-86.8253240760652,36.2329752796181],[-86.8253888855456,36.233087438779],[-86.8257846840066,36.2337723989018],[-86.8253590243231,36.2339394905525],[-86.8251531984928,36.2335480709915],[-86.8251304431403,36.2335126773065],[-86.8250149920009,36.2333331002996],[-86.8249663020448,36.2330529585025],[-86.8249663730675,36.2330529417948],[-86.8250085803406,36.2330427802874]]]},"properties":{"id":"164442","parcel":"05901003400","address":"5014 BUENA VISTA PIKE","owner":"MATTHEWS, ROGER & MARY","point":[-86.8253279348324,36.233423261672385]}},{"type":"Feature","id":"164853","geometry":{"type":"Polygon","coordinates":[[[-86.8284519954385,36.2303603594929],[-86.8284813102564,36.2303428525093],[-86.8285100245142,36.2304300089532],[-86.8282721648812,36.2306728317143],[-86.8274416557699,36.2311466189462],[-86.8257143882352,36.2314661054723],[-86.8256229590735,36.2312821297416],[-86.825502868862,36.2310350077226],[-86.8254899073885,36.2310083362025],[-86.8254705548322,36.2309733059444],[-86.8284519954385,36.2303603594929]]]},"properties":{"id":"164853","parcel":"05900015700","address":"0 SUNNYVIEW DR","owner":"BURTON, AUSTIN T. & ANNA","point":[-86.82710597312077,36.230823416271974]}},{"type":"Feature","id":"164949","geometry":{"type":"Polygon","coordinates":[[[-86.8247657941984,36.2314760513006],[-86.8256229590735,36.2312821297416],[-86.8257143882352,36.2314661054723],[-86.8257421066805,36.2315230547271],[-86.8248581448676,36.2317331636891],[-86.8247657941984,36.2314760513006]]]},"properties":{"id":"164949","parcel":"05900003901","address":"4945 BUENA VISTA PIKE","owner":"BURTON, AUSTIN T. & ANNA","point":[-86.82525249542024,36.231499551884504]}},{"type":"Feature","id":"164952","geometry":{"type":"Polygon","coordinates":[[[-86.8263498759922,36.2344265459002],[-86.8277627085541,36.2340980295398],[-86.8278148589228,36.2344163272688],[-86.8264881207159,36.2346657828736],[-86.8263498759922,36.2344265459002]]]},"properties":{"id":"164952","parcel":"05900004100","address":"5105 BUENA VISTA PIKE","owner":"NEELY, CHAUNTE CORLEY","point":[-86.82743571980255,36.234256669719684]}},{"type":"Feature","id":"164955","geometry":{"type":"Polygon","coordinates":[[[-86.8279664666655,36.2353616405704],[-86.8278961087307,36.2349234223688],[-86.8267153208649,36.2350887563751],[-86.8266822714169,36.2350253764636],[-86.8278875115444,36.2348795288696],[-86.8278148589228,36.2344163272688],[-86.8277627085541,36.2340980295398],[-86.828284991977,36.2339779748831],[-86.8282796785715,36.2342483194816],[-86.8282786732824,36.2342905249594],[-86.8282777929914,36.2343274446175],[-86.8282774746958,36.2343803568052],[-86.8282768016501,36.2344922757173],[-86.8282690786076,36.2349117089375],[-86.8282614402713,36.2353263729836],[-86.8282613280415,36.2353263854694],[-86.828114121749,36.2353438723279],[-86.8279664666655,36.2353616405704]]]},"properties":{"id":"164955","parcel":"05900004400","address":"6150 BEALS LN","owner":"OSBORNE, LAURANN & STOKES, AUSTIN","point":[-86.82806516097924,36.2346858780339]}},{"type":"Feature","id":"164958","geometry":{"type":"Polygon","coordinates":[[[-86.8241653258181,36.2319454752651],[-86.8247222574517,36.231797554354],[-86.8248945688734,36.2321983739456],[-86.8243935119569,36.2321872635595],[-86.8241653258181,36.2319454752651]]]},"properties":{"id":"164958","parcel":"05900005000","address":"4946 BUENA VISTA PIKE","owner":"MOSAIC PROPERTIES, LLC","point":[-86.8245587955804,36.23206677943583]}},{"type":"Feature","id":"165026","geometry":{"type":"Polygon","coordinates":[[[-86.8279984103236,36.2330305649231],[-86.8280878720483,36.2329981761087],[-86.8281789843745,36.2329689636527],[-86.8282715754408,36.2329429810028],[-86.8283654711241,36.2329202780177],[-86.8284604927773,36.2329008973774],[-86.828556463913,36.2328848754389],[-86.8286532035193,36.2328722413806],[-86.828751669505,36.2334693201999],[-86.8284217651243,36.2338275989036],[-86.8279984103236,36.2330305649231]]]},"properties":{"id":"165026","parcel":"05901000700","address":"3018 VISTA DR","owner":"BANKS, NICHOLE M. & GORDON","point":[-86.82841515408325,36.233250000689814]}},{"type":"Feature","id":"165034","geometry":{"type":"Polygon","coordinates":[[[-86.8283587528093,36.2299709197844],[-86.8283959670618,36.2299305577555],[-86.8287436359965,36.2302350174922],[-86.8286628802508,36.2302943577767],[-86.8285916106171,36.230352809187],[-86.8285100245142,36.2304300089532],[-86.8284813102564,36.2303428525093],[-86.8283587528093,36.2299709197844]]]},"properties":{"id":"165034","parcel":"05901001800","address":"0 SUNNYVIEW DR","owner":"WEBB, MITCHELL","point":[-86.82849755452129,36.23010289192295]}},{"type":"Feature","id":"165041","geometry":{"type":"Polygon","coordinates":[[[-86.8290010673722,36.2311183452887],[-86.8294750333908,36.2307898425637],[-86.8295343317919,36.2307586894433],[-86.8295343871587,36.2307586651797],[-86.8297520809687,36.2308252995994],[-86.8297354512843,36.2308633378016],[-86.829722004982,36.2309021941059],[-86.8297118036302,36.2309416923455],[-86.8297048921035,36.2309816555666],[-86.8296691725479,36.2311972687507],[-86.8290010673722,36.2311183452887]]]},"properties":{"id":"165041","parcel":"05901002400","address":"6100 BEALS LN","owner":"CUMMINGS, CHARLES MARTIN JR & SEQUOYA S T","point":[-86.82946822505102,36.230961331968636]}},{"type":"Feature","id":"165044","geometry":{"type":"Polygon","coordinates":[[[-86.8284669856314,36.2319241500081],[-86.8284465141735,36.2317179820596],[-86.8284465654074,36.231717988017],[-86.8295593248971,36.2318463229787],[-86.8294929265267,36.232240104263],[-86.8294929181558,36.2322401547908],[-86.8289755880575,36.2321827144956],[-86.8286728536678,36.2321490983008],[-86.8286727712594,36.2321490898536],[-86.8284669856314,36.2319241500081]]]},"properties":{"id":"165044","parcel":"05901002700","address":"6112 BEALS LN","owner":"BILES, ERNEST LEE GRAFTON III","point":[-86.8290484426496,36.23203730468049]}},{"type":"Feature","id":"165169","geometry":{"type":"Polygon","coordinates":[[[-86.8256965039756,36.2344044545086],[-86.8260650158657,36.2342575296562],[-86.8262129128198,36.2345134696992],[-86.8258553958286,36.2346519741962],[-86.8256965039756,36.2344044545086]]]},"properties":{"id":"165169","parcel":"05901003100","address":"5102 BUENA VISTA PIKE","owner":"SOUTHERLAND, CALLIE","point":[-86.82595644577084,36.23445896490978]}},{"type":"Feature","id":"165818","geometry":{"type":"Polygon","coordinates":[[[-86.8248581448676,36.2317331636891],[-86.8257421066805,36.2315230547271],[-86.8259914610822,36.232024605849],[-86.8260164222155,36.2320771784635],[-86.825129649186,36.2323133521525],[-86.8248911302989,36.2318248791612],[-86.8248581448676,36.2317331636891]]]},"properties":{"id":"165818","parcel":"05900003900","address":"4949 BUENA VISTA PIKE","owner":"BURTON, AUSTIN T. & ANNA","point":[-86.82544085547799,36.231924743127685]}},{"type":"Feature","id":"167276","geometry":{"type":"Polygon","coordinates":[[[-86.8246765664239,36.2312263997338],[-86.825502868862,36.2310350077226],[-86.8256229590735,36.2312821297416],[-86.8247657941984,36.2314760513006],[-86.8246765664239,36.2312263997338]]]},"properties":{"id":"167276","parcel":"05900003902","address":"4941 BUENA VISTA PIKE","owner":"SMYTHE, GAGE & HAGOOD, SARAH","point":[-86.82514801404973,36.23125426311783]}},{"type":"Feature","id":"167281","geometry":{"type":"Polygon","coordinates":[[[-86.8269038662333,36.2354503283416],[-86.8267153208649,36.2350887563751],[-86.8278961087307,36.2349234223688],[-86.8279664666655,36.2353616405704],[-86.8269807293804,36.2354785603289],[-86.8269749926711,36.2354792340844],[-86.826963003594,36.235479459457],[-86.8269511271155,36.2354781077623],[-86.8269396773468,36.2354752165057],[-86.8269289565388,36.2354708593235],[-86.826919249595,36.2354651532315],[-86.8269108117314,36.2354582487949],[-86.8269038662333,36.2354503283416]]]},"properties":{"id":"167281","parcel":"05900004200","address":"5115 BUENA VISTA PIKE","owner":"FLYNN, MATTHEW & LUCIA","point":[-86.82736537624525,36.23522523543576]}},{"type":"Feature","id":"167285","geometry":{"type":"Polygon","coordinates":[[[-86.8236798300933,36.2314263539453],[-86.824509443765,36.2312639125601],[-86.8246158657736,36.2315316378185],[-86.823916422009,36.2316817308529],[-86.8239045237374,36.2316691223249],[-86.823745714614,36.2314940378174],[-86.8237089247483,36.2314534771239],[-86.8236798300933,36.2314263539453]]]},"properties":{"id":"167285","parcel":"05900005001","address":"4940 BUENA VISTA PIKE","owner":"WALDER, JONATHAN & SAVANNAH","point":[-86.8241603417941,36.23147439462137]}},{"type":"Feature","id":"167289","geometry":{"type":"Polygon","coordinates":[[[-86.823916422009,36.2316817308529],[-86.8246158657736,36.2315316378185],[-86.824713105444,36.2317762660863],[-86.8247222574517,36.231797554354],[-86.8241653258181,36.2319454752651],[-86.823916422009,36.2316817308529]]]},"properties":{"id":"167289","parcel":"05900005003","address":"4944 BUENA VISTA PIKE","owner":"BUGGS, LEROY & TERRI N.","point":[-86.82432753862929,36.23172901788933]}},{"type":"Feature","id":"168782","geometry":{"type":"Polygon","coordinates":[[[-86.8253457127884,36.2305110088582],[-86.8274551339858,36.229968872007],[-86.8274817455244,36.2300497279954],[-86.8279959578567,36.2299385204151],[-86.828185742443,36.2298973874234],[-86.8281858212673,36.2298973724629],[-86.8283261891877,36.2298719751186],[-86.8283587528093,36.2299709197844],[-86.8284813102564,36.2303428525093],[-86.8284519954385,36.2303603594929],[-86.8254705548322,36.2309733059444],[-86.8253853094769,36.230795088242],[-86.8252587777955,36.2305305580443],[-86.8253457127884,36.2305110088582]]]},"properties":{"id":"168782","parcel":"05900014600","address":"0 BUENA VISTA PIKE","owner":"4927 BV, LLC","point":[-86.8268615815626,36.23043564033058]}},{"type":"Feature","id":"241033","geometry":{"type":"Polygon","coordinates":[[[-86.8203756086575,36.2366913448285],[-86.8204143544025,36.2366636862758],[-86.8205608758138,36.236533521551],[-86.8205762256037,36.2365019878449],[-86.8205840330385,36.2364499594746],[-86.820570966265,36.2364025052638],[-86.8205664638598,36.2363966867061],[-86.8206408216532,36.2363641095655],[-86.8206960225046,36.236311887202],[-86.8207067244912,36.2363197148919],[-86.820718616405,36.2363263178034],[-86.820731488993,36.2363315783919],[-86.8207451121179,36.2363354035893],[-86.8207900471355,36.2363387690993],[-86.8208344029154,36.2363455011085],[-86.8208498421434,36.2363459369538],[-86.8208651969567,36.2363445591458],[-86.8208801439219,36.2363413969197],[-86.8208943699903,36.2363365154908],[-86.8209075736298,36.2363300178489],[-86.8209246361703,36.236358836673],[-86.820952859358,36.2363929303973],[-86.8209828361765,36.2364112618757],[-86.8209903250666,36.2364158416259],[-86.8210245384103,36.2364367642486],[-86.8209926867034,36.2364674989951],[-86.8209914402653,36.2364901244441],[-86.8209859219134,36.2365123264953],[-86.8209762596936,36.2365335788467],[-86.820975083639,36.2365448453083],[-86.8209761771289,36.236556117075],[-86.8209795081621,36.2365670969504],[-86.8209849902937,36.2365774944165],[-86.8209924794014,36.23658703557],[-86.8211697964649,36.2367500587447],[-86.8222325559714,36.2359913594386],[-86.8223982419534,36.2359182069383],[-86.8227045490439,36.2358623091692],[-86.8231818010822,36.2358910435201],[-86.8238020108115,36.2356985282183],[-86.8241752245997,36.235004952561],[-86.8241311467786,36.234839444887],[-86.8240910282458,36.2346732784006],[-86.8240548863004,36.2345065142729],[-86.8240227338004,36.2343392146061],[-86.8239945813883,36.2341714424185],[-86.8239704408093,36.234003259819],[-86.8239503216022,36.2338347307339],[-86.8239342299498,36.2336659173095],[-86.8239221720625,36.2334968843951],[-86.8239141541134,36.2333276932351],[-86.8249663020448,36.2330529585025],[-86.8250149920009,36.2333331002996],[-86.8251304431403,36.2335126773065],[-86.8251531984928,36.2335480709915],[-86.8253590243231,36.2339394905525],[-86.825363071843,36.2339472227065],[-86.8253691051679,36.2339587013296],[-86.8255262332965,36.2341391557908],[-86.8255318266371,36.2341479057074],[-86.8255386425359,36.2341585750539],[-86.8256357599744,36.2343096917272],[-86.8256965039756,36.2344044545086],[-86.8258553958286,36.2346519741962],[-86.82595810913,36.2348117440457],[-86.8259853352733,36.2348540917249],[-86.8260102944786,36.2349128009632],[-86.8260103697462,36.2349129779958],[-86.8260473282904,36.234999251178],[-86.8261267866002,36.235184690817],[-86.8261525035431,36.235244674622],[-86.8261632807878,36.2352701487945],[-86.8261656999588,36.2353017050174],[-86.8261816888566,36.2355061823644],[-86.826186749109,36.2355704099422],[-86.8261867557509,36.2355705135411],[-86.8262066377771,36.2356887745288],[-86.8261943792606,36.2357814334744],[-86.8261354354469,36.235884575144],[-86.8260484569477,36.2360307622526],[-86.825995907689,36.2360967761854],[-86.8259545178957,36.2361080238489],[-86.8258714764773,36.2361305912211],[-86.8258292018204,36.2361912507783],[-86.8257191294026,36.2363491973541],[-86.8254797304011,36.2366936211787],[-86.8254091351334,36.2367951828622],[-86.8254578555464,36.2367883095596],[-86.8254419905052,36.2368090684118],[-86.8254294010183,36.2368312513942],[-86.8254202771585,36.2368545219426],[-86.8254147598562,36.2368785249016],[-86.8254129320928,36.2369028955979],[-86.8254063459007,36.2369368584137],[-86.8253966551564,36.2369703296269],[-86.8253839135444,36.2370031232114],[-86.8253681914738,36.2370350566318],[-86.8253583381314,36.2370490645573],[-86.825350324884,36.2370638223716],[-86.8253442357564,36.2370791726827],[-86.8253359939323,36.2370999731666],[-86.8253306454118,36.2371213847611],[-86.8253282553252,36.2371431447566],[-86.825328853149,36.2371649852792],[-86.8253179116298,36.2372154239346],[-86.8253039523271,36.2372653721935],[-86.8252870051264,36.2373147090826],[-86.8252639464225,36.2373648546862],[-86.8252382209709,36.2374141415807],[-86.825209876748,36.2374624766077],[-86.8251916219869,36.2374868838009],[-86.8251756016359,36.2375123013561],[-86.8251619010496,36.237538592602],[-86.8251505911217,36.2375656209655],[-86.8250073657583,36.2379093606135],[-86.8249478634457,36.2380903161198],[-86.8248760872224,36.2383510082376],[-86.8229598455294,36.2381902830446],[-86.8213669472119,36.2380566554109],[-86.8197346456382,36.237883729868],[-86.8197894179291,36.2375544933368],[-86.8198065084618,36.2374708058783],[-86.819848798834,36.2373781286274],[-86.8198727564938,36.2373125962772],[-86.8199006262609,36.2372480882316],[-86.819932342947,36.2371847563411],[-86.8199678313435,36.2371227516226],[-86.8200070061935,36.237062221556],[-86.82004977552,36.2370033091601],[-86.8200960373167,36.2369461557193],[-86.8201456806041,36.2368908953689],[-86.8201985899357,36.2368376604715],[-86.8202546375642,36.2367865771647],[-86.8203136901256,36.2367377662166],[-86.8203756086575,36.2366913448285]]]},"properties":{"id":"241033","parcel":"04900040300","address":"0 W GREEN LN","owner":"HP-266017 WHITES CREEK, LLC","point":[-86.82493716953849,36.23573989755029]}}]}