{"type":"FeatureCollection","features":[{"type":"Feature","id":"49905","geometry":{"type":"Polygon","coordinates":[[[-86.8228983443015,36.3212659581249],[-86.8229341551362,36.3198120234217],[-86.8229473678356,36.3192543008062],[-86.823626198411,36.3179432244693],[-86.823126979012,36.3177889483748],[-86.8221087785785,36.3174728314463],[-86.8205649135753,36.3174675013791],[-86.8201642495594,36.3169146971004],[-86.8207891723564,36.3164207724691],[-86.8284270480197,36.3188121800693],[-86.8318072226168,36.3162372512672],[-86.8319179209872,36.3161673309193],[-86.8324654003305,36.3164583559084],[-86.8290917786522,36.3191436644683],[-86.8289167412669,36.3192829818356],[-86.8278806352234,36.3200369393636],[-86.8278885332145,36.3200310660404],[-86.8263196352247,36.3207659477111],[-86.8243152399201,36.3209678208837],[-86.8233959555215,36.3217058841444],[-86.8233961842552,36.321706139438],[-86.8233320041147,36.3217591343948],[-86.8228983443015,36.3212659581249]]]},"properties":{"id":"49905","parcel":"02300019400","address":"0 CLAY LICK RD","owner":"GAINES GARLAND TRUST, THE","point":[-86.82619689209568,36.31897422441549]}},{"type":"Feature","id":"51056","geometry":{"type":"Polygon","coordinates":[[[-86.8197663437305,36.3117843932726],[-86.8193443422285,36.3107311776051],[-86.8193540466115,36.310721588508],[-86.8193577276649,36.3107347999899],[-86.8206380294592,36.3105150658993],[-86.8205360588505,36.3101263931453],[-86.8208031279438,36.3100803389659],[-86.8214758589052,36.3101535506911],[-86.821429047638,36.3107133252207],[-86.8219107217473,36.3107502841613],[-86.8226222499468,36.310804873988],[-86.8242095717223,36.3109266428448],[-86.8252893144055,36.3110093386878],[-86.8255531981202,36.3111647928702],[-86.8231225983396,36.3109872576152],[-86.8225943875781,36.3116884352464],[-86.8207200794413,36.3117520385776],[-86.8197663437305,36.3117843932726]]]},"properties":{"id":"51056","parcel":"02300019200","address":"0 CLAY LICK RD","owner":"FYE, JOSEPH & LIN, YU CHUN","point":[-86.82202797663155,36.310954524039516]}},{"type":"Feature","id":"51390","geometry":{"type":"Polygon","coordinates":[[[-86.8207891723564,36.3164207724691],[-86.8216322597872,36.3157544003173],[-86.8227338070432,36.3161941504333],[-86.8277992459291,36.3161381485485],[-86.8293324976688,36.3133015328079],[-86.8293885028754,36.3132460445351],[-86.8294196096748,36.3132651031671],[-86.829640917882,36.313395439162],[-86.8295710829171,36.313468438775],[-86.8298496188968,36.3137479082196],[-86.8300485740615,36.3139475296183],[-86.8300445292208,36.314468382266],[-86.8301893734662,36.314945359997],[-86.8302434522454,36.314992235898],[-86.8310936752635,36.3157291752049],[-86.8319179209872,36.3161673309193],[-86.8318072226168,36.3162372512672],[-86.8284270480197,36.3188121800693],[-86.8207891723564,36.3164207724691]]]},"properties":{"id":"51390","parcel":"02300019300","address":"0 CLAY LICK RD","owner":"GAINES GARLAND TRUST, THE","point":[-86.82971049646056,36.315953533614625]}},{"type":"Feature","id":"52920","geometry":{"type":"Polygon","coordinates":[[[-86.8225943875781,36.3116884352464],[-86.8231225983396,36.3109872576152],[-86.8255531981202,36.3111647928702],[-86.8259284164759,36.3113858340499],[-86.8275832418188,36.3129257782817],[-86.8276432998246,36.312959979132],[-86.8282522440819,36.3133067322825],[-86.8248639969186,36.3146302541933],[-86.8221579146922,36.3145063086369],[-86.8220598826819,36.3142748381489],[-86.821691084575,36.3136908698202],[-86.8213582913098,36.3133943547152],[-86.8211647740615,36.3131396610079],[-86.8208961979124,36.3127665497604],[-86.8207801676574,36.3124192367893],[-86.8207221948441,36.312092995228],[-86.8207105239029,36.3119422412463],[-86.8207104602757,36.3119361006708],[-86.8207314200339,36.3117882723191],[-86.8207200794413,36.3117520385776],[-86.8225943875781,36.3116884352464]]]},"properties":{"id":"52920","parcel":"02300019500","address":"0 CLAY LICK RD","owner":"BUSH, JOSEPH & SANDY","point":[-86.82422643453786,36.31284619124104]}}]}