{"type":"FeatureCollection","features":[{"type":"Feature","id":"12624","geometry":{"type":"Polygon","coordinates":[[[-86.8478705141745,36.2576762177046],[-86.8488263902685,36.2572884615418],[-86.8488556248902,36.2573261267451],[-86.8478914417843,36.2577147444365],[-86.8471737045948,36.2580033219538],[-86.847349124648,36.2583550064282],[-86.8484335670887,36.2583935474804],[-86.8473895954784,36.2599831541763],[-86.8450937566504,36.2598052927899],[-86.8466796575235,36.2589341002715],[-86.8464120211342,36.2582970192613],[-86.8467307880515,36.2581400521062],[-86.8475870725254,36.2577940493647],[-86.8478705141745,36.2576762177046]]]},"properties":{"id":"12624","parcel":"03900032000","address":"5012 CLARKSVILLE PIKE","owner":"CASTRO FAMILY TRUST","point":[-86.8474105323265,36.25866364084178]}},{"type":"Feature","id":"21268","geometry":{"type":"Polygon","coordinates":[[[-86.8438799459358,36.2557514824818],[-86.8441284475889,36.2554278549831],[-86.8444597200845,36.2546526343881],[-86.845314194995,36.2536389378214],[-86.845438805224,36.2537249358518],[-86.8459319617283,36.2541135080452],[-86.8448451915922,36.2550008041979],[-86.8453077001087,36.2553737491123],[-86.844477734143,36.2560950971436],[-86.8444006939662,36.2564612415043],[-86.8436369433137,36.2563322546985],[-86.8437395470882,36.2559343200559],[-86.8438799459358,36.2557514824818]]]},"properties":{"id":"21268","parcel":"04800029900","address":"4952 CLARKSVILLE PIKE","owner":"SLAUGHTER, JEREMY & KIMBERLY","point":[-86.84465408393278,36.255186729126805]}},{"type":"Feature","id":"42047","geometry":{"type":"Polygon","coordinates":[[[-86.843953590757,36.254971288538],[-86.8444348527214,36.2532668265393],[-86.8445563092159,36.2531371833744],[-86.8448113425543,36.2533020419714],[-86.8450639823577,36.2534693014817],[-86.845314194995,36.2536389378214],[-86.8444597200845,36.2546526343881],[-86.8441284475889,36.2554278549831],[-86.843953590757,36.254971288538]]]},"properties":{"id":"42047","parcel":"04800030100","address":"4932 CLARKSVILLE PIKE","owner":"DOSS, JACQUELINE F.","point":[-86.84453694723902,36.254145332526356]}},{"type":"Feature","id":"48176","geometry":{"type":"Polygon","coordinates":[[[-86.8435696186655,36.2540222077742],[-86.8435697147387,36.2540216158825],[-86.8437408444508,36.2526356703346],[-86.8440151784236,36.2528001488938],[-86.8442870141912,36.252967328214],[-86.8445563092159,36.2531371833744],[-86.8444348527214,36.2532668265393],[-86.843953590757,36.254971288538],[-86.8435696186655,36.2540222077742]]]},"properties":{"id":"48176","parcel":"04800030200","address":"4924 CLARKSVILLE PIKE","owner":"SUTTON, BARBARA","point":[-86.84397227591604,36.253644182871064]}},{"type":"Feature","id":"53901","geometry":{"type":"Polygon","coordinates":[[[-86.8419159095408,36.2522197213613],[-86.8419863272706,36.2521627870771],[-86.8420543190052,36.2521039508918],[-86.8421198053345,36.2520432791542],[-86.8421827124506,36.2519808417793],[-86.8422429654626,36.2519167113929],[-86.842300498391,36.2518509614607],[-86.8423124006755,36.2518397200874],[-86.8423263356634,36.251830133661],[-86.8423419576013,36.2518224398179],[-86.8423588779586,36.2518168296278],[-86.8423766764963,36.251813442109],[-86.8423949112513,36.2518123614553],[-86.8424131285314,36.2518136151633],[-86.8429332192451,36.2521356328318],[-86.8428679431126,36.252595880775],[-86.8422674224032,36.252488013011],[-86.8419159095408,36.2522197213613]]]},"properties":{"id":"53901","parcel":"04800030400","address":"4900 CLARKSVILLE PIKE","owner":"ROBERTSON, DARREN & BARBARA","point":[-86.8424381335272,36.25219189667835]}},{"type":"Feature","id":"54853","geometry":{"type":"Polygon","coordinates":[[[-86.8425999355262,36.2555865673489],[-86.842892165447,36.2535940066729],[-86.8435696186655,36.2540222077742],[-86.843953590757,36.254971288538],[-86.8441284475889,36.2554278549831],[-86.8438799459358,36.2557514824818],[-86.8425999355262,36.2555865673489]]]},"properties":{"id":"54853","parcel":"04800030600","address":"0 CLARKSVILLE PIKE","owner":"HAMBRICK, HAYWOOD","point":[-86.84326078341206,36.25449609315669]}},{"type":"Feature","id":"109748","geometry":{"type":"Polygon","coordinates":[[[-86.8489783466897,36.2589366524032],[-86.8495382366891,36.2582037507095],[-86.8495733784671,36.2582501109295],[-86.8496055562791,36.2582912232662],[-86.8493965694042,36.2585256694012],[-86.8496662387376,36.2588575093874],[-86.8492246522408,36.2591521834584],[-86.8489783466897,36.2589366524032]]]},"properties":{"id":"109748","parcel":"03900017800","address":"5046 CLARKSVILLE PIKE","owner":"EDWARDS, DAVID","point":[-86.84934865796335,36.258691359452065]}},{"type":"Feature","id":"112780","geometry":{"type":"Polygon","coordinates":[[[-86.847349124648,36.2583550064282],[-86.8471737045948,36.2580033219538],[-86.8478914417843,36.2577147444365],[-86.8480055904966,36.2579248883885],[-86.8480651990795,36.2580119824092],[-86.8490708871793,36.2576046168366],[-86.8491151227734,36.2576614209805],[-86.8481918029283,36.2580750663894],[-86.8486949999499,36.2583979725975],[-86.8484953449451,36.2585216636007],[-86.8489386273703,36.2589017691607],[-86.8489783466897,36.2589366524032],[-86.8492246522408,36.2591521834584],[-86.8495644420842,36.2594412810894],[-86.8495647832923,36.2594415526707],[-86.8484732195965,36.2600381828142],[-86.8479111948711,36.260007790097],[-86.8475012459976,36.2599884176655],[-86.8473895954784,36.2599831541763],[-86.8484335670887,36.2583935474804],[-86.847349124648,36.2583550064282]]]},"properties":{"id":"112780","parcel":"03900007300","address":"5026 CLARKSVILLE PIKE","owner":"TODD, SARAH E.","point":[-86.84847100442492,36.258711405234514]}},{"type":"Feature","id":"112796","geometry":{"type":"Polygon","coordinates":[[[-86.8486949999499,36.2583979725975],[-86.8494241187472,36.2580569136405],[-86.849492186594,36.2581429984838],[-86.8495382366891,36.2582037507095],[-86.8489783466897,36.2589366524032],[-86.8489386273703,36.2589017691607],[-86.8484953449451,36.2585216636007],[-86.8486949999499,36.2583979725975]]]},"properties":{"id":"112796","parcel":"03900007400","address":"5038 CLARKSVILLE PIKE","owner":"KNOPH, ROBERT MICHAEL","point":[-86.84896853561868,36.25846029014188]}},{"type":"Feature","id":"113974","geometry":{"type":"Polygon","coordinates":[[[-86.8427697477492,36.259624837308],[-86.8434124457261,36.2593956472795],[-86.8437653644769,36.2593154425943],[-86.8438870998055,36.2593123979663],[-86.8440492039447,36.2592461585836],[-86.8444142820592,36.2591609227993],[-86.8444836598738,36.2591488542032],[-86.8445537258002,36.2591397485747],[-86.8446242842838,36.2591336334159],[-86.8446639189855,36.2591300451826],[-86.8447030259061,36.2591237136149],[-86.8447413184277,36.2591146848782],[-86.8447785112664,36.2591030258577],[-86.8448143293648,36.2590888231948],[-86.844848510098,36.2590721814694],[-86.8449305481615,36.2590393313941],[-86.8450107191394,36.2590035850827],[-86.8450888680024,36.2589650148218],[-86.8451704257571,36.2589334765556],[-86.8452503212748,36.2588992596285],[-86.8453284194023,36.258862421768],[-86.8454045894959,36.2588230260777],[-86.8454787042701,36.2587811374404],[-86.8455506387233,36.2587368261307],[-86.8456202734572,36.2586901659894],[-86.845687491367,36.2586412371499],[-86.8457521775647,36.2585901188289],[-86.8458142261613,36.2585368991929],[-86.8459151421383,36.2584821637166],[-86.8460179504302,36.2584297860955],[-86.8461225635897,36.2583798092963],[-86.8462676504132,36.2583084696112],[-86.8468384714907,36.2578935165216],[-86.847010452094,36.2577362803],[-86.8473346053179,36.2574727666228],[-86.8475500892884,36.2577363421209],[-86.8475699434668,36.2577683648987],[-86.8475870725254,36.2577940493647],[-86.8467307880515,36.2581400521062],[-86.8464120211342,36.2582970192613],[-86.8466796575235,36.2589341002715],[-86.8450937566504,36.2598052927899],[-86.8427697477492,36.259624837308]]]},"properties":{"id":"113974","parcel":"03900027700","address":"5010 CLARKSVILLE PIKE","owner":"GARCIA, RODRIGO","point":[-86.84613308475745,36.258616210285034]}},{"type":"Feature","id":"114115","geometry":{"type":"Polygon","coordinates":[[[-86.8474728008609,36.2573526845572],[-86.8485184714329,36.2568822186305],[-86.8487369977729,36.2571769594054],[-86.8487466381122,36.2571900778967],[-86.8487864825738,36.2572370470124],[-86.8488263902685,36.2572884615418],[-86.8478705141745,36.2576762177046],[-86.8475870725254,36.2577940493647],[-86.8475699434668,36.2577683648987],[-86.8475500892884,36.2577363421209],[-86.8473346053179,36.2574727666228],[-86.8474728008609,36.2573526845572]]]},"properties":{"id":"114115","parcel":"03900007100","address":"5004 CLARKSVILLE PIKE","owner":"MATTHEWS, TALATHIA C. & KIRBY, TAMMY R. ETAL","point":[-86.84814562133931,36.25732056991936]}},{"type":"Feature","id":"114116","geometry":{"type":"Polygon","coordinates":[[[-86.8478914417843,36.2577147444365],[-86.8488556248902,36.2573261267451],[-86.8490010920043,36.2575135374356],[-86.8490708871793,36.2576046168366],[-86.8480651990795,36.2580119824092],[-86.8480055904966,36.2579248883885],[-86.8478914417843,36.2577147444365]]]},"properties":{"id":"114116","parcel":"03900007200","address":"5020 CLARKSVILLE PIKE","owner":"SCD PROPERTIES, LLC","point":[-86.84848150582825,36.25765968252333]}},{"type":"Feature","id":"114660","geometry":{"type":"Polygon","coordinates":[[[-86.8481918029283,36.2580750663894],[-86.8491151227734,36.2576614209805],[-86.849357400213,36.2579725325515],[-86.8494241187472,36.2580569136405],[-86.8486949999499,36.2583979725975],[-86.8481918029283,36.2580750663894]]]},"properties":{"id":"114660","parcel":"03900007301","address":"5030 CLARKSVILLE PIKE","owner":"HEMMEN, RICHARD W. & VANESSA D.","point":[-86.84886012631875,36.2580140538089]}},{"type":"Feature","id":"114661","geometry":{"type":"Polygon","coordinates":[[[-86.8492246522408,36.2591521834584],[-86.8496662387376,36.2588575093874],[-86.8493965694042,36.2585256694012],[-86.8496055562791,36.2582912232662],[-86.8496201480044,36.2583098666888],[-86.8499736751663,36.2587615378945],[-86.8500624119371,36.2588839938976],[-86.8501487672463,36.2590075616071],[-86.8502327185128,36.2591322114457],[-86.8495644420842,36.2594412810894],[-86.8492246522408,36.2591521834584]]]},"properties":{"id":"114661","parcel":"03900007500","address":"0 CLARKSVILLE PIKE","owner":"EDWARDS, DAVID","point":[-86.84984989568764,36.25887073369436]}},{"type":"Feature","id":"132006","geometry":{"type":"Polygon","coordinates":[[[-86.8487461036834,36.2567920386861],[-86.8494238575473,36.256451315907],[-86.8495931314934,36.2568017436355],[-86.8490811391073,36.2572286582291],[-86.8490395218185,36.2571748341326],[-86.8487461036834,36.2567920386861]]]},"properties":{"id":"132006","parcel":"04800001200","address":"0 CLARKSVILLE PIKE","owner":"TANKSLEY, ISSAC E. JR. & LISA ANN","point":[-86.84913272842267,36.2569880577887]}},{"type":"Feature","id":"132007","geometry":{"type":"Polygon","coordinates":[[[-86.8483292026224,36.2562483096517],[-86.8493563778351,36.2555935753774],[-86.8495697088373,36.255805213528],[-86.8496229336873,36.2559025935409],[-86.8497519307448,36.2562851193695],[-86.8494238575473,36.256451315907],[-86.8487461036834,36.2567920386861],[-86.8483292026224,36.2562483096517]]]},"properties":{"id":"132007","parcel":"04800001300","address":"4999 CLARKSVILLE PIKE","owner":"HIGGINS, JERRY W. ETUX","point":[-86.84914132965208,36.25607566188287]}},{"type":"Feature","id":"132008","geometry":{"type":"Polygon","coordinates":[[[-86.8467956573617,36.2527841699209],[-86.8468483606233,36.2527522080627],[-86.8468613004759,36.2528095929207],[-86.8468771206354,36.2528589058027],[-86.8468970828697,36.2529072226067],[-86.8469210912875,36.252954315986],[-86.846949032252,36.2529999641257],[-86.8469807744001,36.2530439525446],[-86.8470161697261,36.2530860713845],[-86.8474231507706,36.2534703595671],[-86.8475135638034,36.2535644371012],[-86.8467942692946,36.2540746561264],[-86.8467234258097,36.2541249061846],[-86.8466047006381,36.2529001527046],[-86.8467956573617,36.2527841699209]]]},"properties":{"id":"132008","parcel":"04800001500","address":"4134 DRY FORK RD","owner":"ROSAS, AGUSTIN & MARIA","point":[-86.84693046846013,36.253277845953455]}},{"type":"Feature","id":"132184","geometry":{"type":"Polygon","coordinates":[[[-86.846736203549,36.2544439769017],[-86.8466457478402,36.2543624751745],[-86.8465310475764,36.2542613643669],[-86.8467234258097,36.2541249061846],[-86.8467942692946,36.2540746561264],[-86.8472354845764,36.2545459632215],[-86.8478019545916,36.2547419732172],[-86.8483100408404,36.2548065328435],[-86.8484930234725,36.2547025035674],[-86.8485824347883,36.254806390235],[-86.8476870077677,36.2554108549109],[-86.8475593111951,36.2552676216447],[-86.8474288496654,36.2551260334897],[-86.8472956536128,36.254986126274],[-86.8471597567702,36.2548479321973],[-86.8470211940113,36.2547114861551],[-86.8468799979931,36.2545768239597],[-86.846736203549,36.2544439769017]]]},"properties":{"id":"132184","parcel":"04800020100","address":"0 CLARKSVILLE PIKE","owner":"HIGGINS, JERRY W. & HARRIETT C.","point":[-86.84756874383137,36.25477338953805]}},{"type":"Feature","id":"132186","geometry":{"type":"Polygon","coordinates":[[[-86.8490434562056,36.2531092188994],[-86.8502798829423,36.2512611158285],[-86.8510700557545,36.251319282938],[-86.8508567413475,36.251668009123],[-86.8498593829348,36.2532902781358],[-86.8481794556908,36.2540994973781],[-86.8478966501324,36.2537712482098],[-86.8490434562056,36.2531092188994]]]},"properties":{"id":"132186","parcel":"04800020300","address":"0 DRY FORK RD","owner":"SWANSON, WILLIE C. ET UX","point":[-86.84996964341995,36.252388642013464]}},{"type":"Feature","id":"132344","geometry":{"type":"Polygon","coordinates":[[[-86.8409637542362,36.2506161771212],[-86.8413898262364,36.2501751824078],[-86.8415799972158,36.2502961579064],[-86.8416846235982,36.2503627148064],[-86.8412574003549,36.2508034788218],[-86.8409637542362,36.2506161771212]]]},"properties":{"id":"132344","parcel":"04808000400","address":"4881 CLARKSVILLE PIKE","owner":"PRIESTER, RICHARD B. & DONNA","point":[-86.84132399147612,36.25048944624691]}},{"type":"Feature","id":"132345","geometry":{"type":"Polygon","coordinates":[[[-86.8407573690597,36.2505133295237],[-86.8412004613084,36.2500547201193],[-86.8413880383213,36.2501740457616],[-86.8413898262364,36.2501751824078],[-86.8409637542362,36.2506161771212],[-86.8409470337803,36.2506334830798],[-86.8407573690597,36.2505133295237]]]},"properties":{"id":"132345","parcel":"04808000500","address":"4877 CLARKSVILLE PIKE","owner":"HARDY, FRANK E.","point":[-86.84107359840121,36.25034425638789]}},{"type":"Feature","id":"132363","geometry":{"type":"Polygon","coordinates":[[[-86.8494238575473,36.256451315907],[-86.8497519307448,36.2562851193695],[-86.8497703979468,36.2563398847217],[-86.8498632013697,36.2565990465858],[-86.8499219165748,36.2567582875759],[-86.8500033757744,36.2569402134599],[-86.8501699581789,36.2571896984288],[-86.8502373174539,36.2572526689654],[-86.8494426250702,36.2576961326646],[-86.8490811391073,36.2572286582291],[-86.8495931314934,36.2568017436355],[-86.8494238575473,36.256451315907]]]},"properties":{"id":"132363","parcel":"04800001100","address":"5019 CLARKSVILLE PIKE","owner":"TANKSLEY, ISSAC E. JR. & LISA ANN","point":[-86.84968267515363,36.2570644489858]}},{"type":"Feature","id":"132375","geometry":{"type":"Polygon","coordinates":[[[-86.8429255287408,36.2518962779066],[-86.8429247697885,36.2518947006028],[-86.8429256425168,36.2518952577969],[-86.8430978049206,36.250352922518],[-86.8431891851102,36.2504151003403],[-86.8432319225614,36.2504452319729],[-86.8432909152092,36.2504834019678],[-86.8433523040556,36.2505190055656],[-86.8434159211514,36.2505519447972],[-86.8434815874971,36.250582128981],[-86.8435491230467,36.2506094737518],[-86.8436183422763,36.250633902894],[-86.8436890508755,36.250655351069],[-86.8437610534589,36.2506737565509],[-86.8438341525397,36.2506890693453],[-86.8439081451443,36.2507012467063],[-86.8439828250664,36.2507102558252],[-86.8446110268278,36.250812521242],[-86.8452383590232,36.2509182322684],[-86.8448338056193,36.2517102720749],[-86.8447540740846,36.2518668606247],[-86.8443233249222,36.2527127682487],[-86.8429255287408,36.2518962779066]]]},"properties":{"id":"132375","parcel":"04800001800","address":"4913 CLARKSVILLE PIKE","owner":"BROADY, TERRELL & BYRETTIA","point":[-86.84401343937547,36.25131292325345]}},{"type":"Feature","id":"132378","geometry":{"type":"Polygon","coordinates":[[[-86.841866281405,36.2579128764124],[-86.8407035428634,36.2577825224035],[-86.8407818264238,36.2572325737173],[-86.841215873156,36.254155090504],[-86.8365563503724,36.2535693610095],[-86.8366449304806,36.252836117021],[-86.836844681123,36.252866874166],[-86.8370487909038,36.2528929304994],[-86.8372875277685,36.2529220433223],[-86.8375602072513,36.2529536665099],[-86.8377992577164,36.2529803040175],[-86.838141170203,36.2530161161174],[-86.838414815016,36.2530427864191],[-86.8385245806979,36.2530634609876],[-86.8386351745411,36.2530810023665],[-86.8387464605418,36.2530953880649],[-86.8388583027632,36.2531066019011],[-86.8389705608267,36.2531146286253],[-86.8390830966457,36.2531194592817],[-86.8391850753761,36.253128013223],[-86.8392873814489,36.2531334311535],[-86.8393898667935,36.253135706891],[-86.8394999873371,36.2531345867525],[-86.8396099590848,36.2531298192818],[-86.8397195974076,36.2531214138736],[-86.8398287210534,36.2531093835046],[-86.8399371455085,36.2530937483852],[-86.840044689674,36.2530745359122],[-86.8401511724803,36.2530517761871],[-86.8402564185268,36.2530255091859],[-86.8403602502169,36.2529957776046],[-86.8404624933788,36.2529626322269],[-86.8405763803697,36.2529325619423],[-86.8406888147873,36.2528990985301],[-86.8407996435428,36.2528622872207],[-86.8409087147276,36.2528221795458],[-86.8410158775754,36.252778829733],[-86.8411209869418,36.252732297379],[-86.8412238966089,36.2526826456934],[-86.8413244682061,36.2526299432389],[-86.8414225622897,36.252574262191],[-86.8415180450185,36.2525156782918],[-86.8416107837228,36.2524542726826],[-86.8417006546642,36.2523901291468],[-86.8417875330409,36.2523233359815],[-86.8418712985218,36.2522539832553],[-86.8419159095408,36.2522197213613],[-86.8422674224032,36.252488013011],[-86.8428679431126,36.252595880775],[-86.8422116956469,36.2572226161661],[-86.8421039714421,36.2579375916888],[-86.841866281405,36.2579128764124]]]},"properties":{"id":"132378","parcel":"04800003401","address":"0 LLOYD RD","owner":"THOMPSON, WILLIAM H.,JR. ET UX","point":[-86.84171440304507,36.25568885537569]}},{"type":"Feature","id":"132379","geometry":{"type":"Polygon","coordinates":[[[-86.8417801423938,36.2586167148492],[-86.841866281405,36.2579128764124],[-86.8421039714421,36.2579375916888],[-86.8422116956469,36.2572226161661],[-86.8428679431126,36.252595880775],[-86.8429332192451,36.2521356328318],[-86.8430916562769,36.2522337300272],[-86.842892165447,36.2535940066729],[-86.8425999355262,36.2555865673489],[-86.8438799459358,36.2557514824818],[-86.8437395470882,36.2559343200559],[-86.8436369433137,36.2563322546985],[-86.8444006939662,36.2564612415043],[-86.844172855942,36.2575440675679],[-86.843998195016,36.2575771531536],[-86.8428459307226,36.2576665075184],[-86.8429438813427,36.2583295032486],[-86.8417801423938,36.2586167148492]]]},"properties":{"id":"132379","parcel":"04800003500","address":"4912 CLARKSVILLE PIKE","owner":"HAMBRICK, HAYWOOD","point":[-86.84266557619088,36.25459018136749]}},{"type":"Feature","id":"132732","geometry":{"type":"Polygon","coordinates":[[[-86.8448451915922,36.2550008041979],[-86.8459319617283,36.2541135080452],[-86.8463650499862,36.2544547479645],[-86.8453077001087,36.2553737491123],[-86.8448451915922,36.2550008041979]]]},"properties":{"id":"132732","parcel":"04800011400","address":"4960 CLARKSVILLE PIKE","owner":"HERNANDEZ, NORMA","point":[-86.84561526667815,36.25472779159903]}},{"type":"Feature","id":"132750","geometry":{"type":"Polygon","coordinates":[[[-86.8476870077677,36.2554108549109],[-86.8485824347883,36.254806390235],[-86.8486208779452,36.2548510575598],[-86.8486730914428,36.2549117254121],[-86.8487017452787,36.2549450173724],[-86.8493563778351,36.2555935753774],[-86.8483292026224,36.2562483096517],[-86.8476870077677,36.2554108549109]]]},"properties":{"id":"132750","parcel":"04800012700","address":"0 DRY FORK RD","owner":"HIGGINS, JERRY W. & HARRIETT C.","point":[-86.84851071736634,36.255502204156976]}},{"type":"Feature","id":"132939","geometry":{"type":"Polygon","coordinates":[[[-86.8461054216095,36.2569646655676],[-86.8475549228175,36.2556514485463],[-86.8478248572546,36.2559944195932],[-86.8479333772467,36.2561333214294],[-86.8464219587069,36.2570253253933],[-86.8461054216095,36.2569646655676]]]},"properties":{"id":"132939","parcel":"04800003700","address":"4990 CLARKSVILLE PIKE","owner":"BURTON, KENNETH L.","point":[-86.84689674315713,36.25654884008279]}},{"type":"Feature","id":"133164","geometry":{"type":"Polygon","coordinates":[[[-86.8469320678968,36.2523280661894],[-86.8479404626912,36.2515301294471],[-86.8491677806106,36.2501021487357],[-86.8508646701129,36.2503845439581],[-86.8510878188671,36.2499412528367],[-86.8512379433282,36.2498984384037],[-86.8514340410971,36.2498421162909],[-86.852207608523,36.2496190982269],[-86.8522914531742,36.2495943324976],[-86.8522192781179,36.2504519136121],[-86.8520720135199,36.2513913359492],[-86.852028578723,36.2513894440883],[-86.8510700557545,36.251319282938],[-86.8502798829423,36.2512611158285],[-86.8500409258974,36.2512430182858],[-86.8495352161478,36.2513982107695],[-86.8492142263336,36.2515740791251],[-86.8490892000987,36.2516804430927],[-86.8480526120684,36.2525557822952],[-86.8478117743065,36.2528695345824],[-86.8472822663768,36.25312434301],[-86.8472534003298,36.2530923166486],[-86.8472113232603,36.2530529349648],[-86.8471724396246,36.2530114579964],[-86.8471369047763,36.2529680540925],[-86.8471048652535,36.2529228997753],[-86.8470764532156,36.2528761797789],[-86.8470517841985,36.2528280852626],[-86.8470309571057,36.2527788129093],[-86.8470140597612,36.2527285639858],[-86.8470011588869,36.2526775435116],[-86.8469923078813,36.2526259593025],[-86.8469875434915,36.2525740228962],[-86.8469719014746,36.2525198266927],[-86.8469552112325,36.2524661452391],[-86.8469468798959,36.252407477144],[-86.8469360700512,36.2523490751658],[-86.8469320678968,36.2523280661894]]]},"properties":{"id":"133164","parcel":"04800000301","address":"4129 DRY FORK RD","owner":"PROCTOR, LISA JAYNE","point":[-86.84889046832113,36.25135103541444]}},{"type":"Feature","id":"133166","geometry":{"type":"Polygon","coordinates":[[[-86.8495352161478,36.2513982107695],[-86.8500409258974,36.2512430182858],[-86.8502798829423,36.2512611158285],[-86.8490434562056,36.2531092188994],[-86.8478966501324,36.2537712482098],[-86.8476757556924,36.2535148561706],[-86.8472822663768,36.25312434301],[-86.8478117743065,36.2528695345824],[-86.8480526120684,36.2525557822952],[-86.8490892000987,36.2516804430927],[-86.8492142263336,36.2515740791251],[-86.8495352161478,36.2513982107695]]]},"properties":{"id":"133166","parcel":"04800000400","address":"4137 DRY FORK RD","owner":"POWELL, WARREN D. & PATRICIA A","point":[-86.84913824501481,36.25211883066382]}},{"type":"Feature","id":"133194","geometry":{"type":"Polygon","coordinates":[[[-86.8429247697885,36.2518947006028],[-86.8426593223038,36.2517254566564],[-86.8418719500977,36.251223437643],[-86.8418806827932,36.2512010365593],[-86.8423600101814,36.2499713095103],[-86.8427640008559,36.2501494538958],[-86.8428775808391,36.2502147639743],[-86.8429888768628,36.2502826043756],[-86.8430978049206,36.250352922518],[-86.8429256425168,36.2518952577969],[-86.8429247697885,36.2518947006028]]]},"properties":{"id":"133194","parcel":"04800001900","address":"4899 CLARKSVILLE PIKE","owner":"BROADY, TERRELL & BYRETTIA","point":[-86.84254829504137,36.25077705884251]}},{"type":"Feature","id":"133195","geometry":{"type":"Polygon","coordinates":[[[-86.8400548905762,36.2516249206541],[-86.8408509951388,36.2508173886523],[-86.8411191039258,36.2509879951553],[-86.8405263753925,36.2515667014062],[-86.8403363694972,36.2517516458793],[-86.8403087496768,36.2517791341823],[-86.8401899590643,36.2517073428015],[-86.8401723202902,36.2516966251967],[-86.8401721948258,36.2516965458577],[-86.8400548905762,36.2516249206541]]]},"properties":{"id":"133195","parcel":"04800003300","address":"4896 CLARKSVILLE PIKE","owner":"GOTTLIEB-MEADE, ELIZABETH & MEADE, JAMES","point":[-86.84061042262701,36.25127706595416]}},{"type":"Feature","id":"133228","geometry":{"type":"Polygon","coordinates":[[[-86.8416325849801,36.2595418366498],[-86.8415390724687,36.2594238167399],[-86.8417801423938,36.2586167148492],[-86.8429438813427,36.2583295032486],[-86.8457073110896,36.2576717881346],[-86.8480733187173,36.2563124426833],[-86.8485184714329,36.2568822186305],[-86.8474728008609,36.2573526845572],[-86.8473346053179,36.2574727666228],[-86.847010452094,36.2577362803],[-86.8468384714907,36.2578935165216],[-86.8462676504132,36.2583084696112],[-86.8461225635897,36.2583798092963],[-86.8460179504302,36.2584297860955],[-86.8459151421383,36.2584821637166],[-86.8458142261613,36.2585368991929],[-86.8457521775647,36.2585901188289],[-86.845687491367,36.2586412371499],[-86.8456202734572,36.2586901659894],[-86.8455506387233,36.2587368261307],[-86.8454787042701,36.2587811374404],[-86.8454045894959,36.2588230260777],[-86.8453284194023,36.258862421768],[-86.8452503212748,36.2588992596285],[-86.8451704257571,36.2589334765556],[-86.8450888680024,36.2589650148218],[-86.8450107191394,36.2590035850827],[-86.8449305481615,36.2590393313941],[-86.844848510098,36.2590721814694],[-86.8448143293648,36.2590888231948],[-86.8447785112664,36.2591030258577],[-86.8447413184277,36.2591146848782],[-86.8447030259061,36.2591237136149],[-86.8446639189855,36.2591300451826],[-86.8446242842838,36.2591336334159],[-86.8445537258002,36.2591397485747],[-86.8444836598738,36.2591488542032],[-86.8444142820592,36.2591609227993],[-86.8440492039447,36.2592461585836],[-86.8438870998055,36.2593123979663],[-86.8437653644769,36.2593154425943],[-86.8434124457261,36.2593956472795],[-86.8427697477492,36.259624837308],[-86.8418935826176,36.2595570503724],[-86.8416325849801,36.2595418366498]]]},"properties":{"id":"133228","parcel":"04800015900","address":"5000 CLARKSVILLE PIKE","owner":"WHITES CREEK ESTATES, LLC","point":[-86.84523569969208,36.25809929622716]}},{"type":"Feature","id":"133270","geometry":{"type":"Polygon","coordinates":[[[-86.8402058160897,36.2523904029981],[-86.8399842233473,36.2518693474706],[-86.8401212613547,36.2517431306268],[-86.8401723202902,36.2516966251967],[-86.8401899590643,36.2517073428015],[-86.8403087496768,36.2517791341823],[-86.8403363694972,36.2517516458793],[-86.8405263753925,36.2515667014062],[-86.8406757561303,36.2516620465416],[-86.8407954505073,36.2517384410627],[-86.8410837548246,36.2519209108573],[-86.841250051045,36.2517506602711],[-86.8412500847395,36.2517506897778],[-86.841250119537,36.2517507183756],[-86.8417234407767,36.2521406174689],[-86.841723580016,36.2521407363654],[-86.8417083085259,36.2521536756752],[-86.8416257268723,36.2522199828257],[-86.8416256683619,36.2522200264934],[-86.8415895013063,36.2522478648255],[-86.841549683747,36.2522770984745],[-86.8414978451886,36.2523142720416],[-86.8414910067156,36.2523189115451],[-86.8414671853303,36.2523350241924],[-86.8414249996669,36.2523631954923],[-86.8414057082071,36.2523757508846],[-86.8413806037124,36.2523916435314],[-86.8413148389975,36.2524318277374],[-86.8412892150336,36.2524469011389],[-86.8412799408262,36.2524522776896],[-86.8412487193195,36.2524702353073],[-86.8412040915251,36.2524949879593],[-86.8411205364674,36.2525388441395],[-86.8410918961416,36.2525531066405],[-86.8410591312208,36.252569177817],[-86.8410331552393,36.2525814957831],[-86.840995038635,36.2525991903954],[-86.8409880993852,36.2526024120011],[-86.8409822172312,36.2526050052864],[-86.8409324443345,36.2526269529011],[-86.8408810288864,36.2526485721542],[-86.8408553274593,36.2526590847662],[-86.8408038521327,36.2526794687866],[-86.8408037368769,36.2526795128487],[-86.8407504209339,36.2526994635346],[-86.8407338665377,36.252705509859],[-86.8406674168784,36.2527285891103],[-86.8406003763736,36.2527505188329],[-86.8405487074896,36.2527664077456],[-86.8405485932506,36.2527664427878],[-86.8405105851634,36.2527775997123],[-86.8404601953347,36.2527917582989],[-86.8404182359179,36.2528030183837],[-86.8404180672739,36.2528030646193],[-86.8403849188828,36.2528115362203],[-86.8402058160897,36.2523904029981]]]},"properties":{"id":"133270","parcel":"04800018000","address":"4060 LLOYD RD","owner":"BELLSOUTH TELECOMMUNICATIONS, INC.","point":[-86.84089269112985,36.25218580187102]}},{"type":"Feature","id":"133376","geometry":{"type":"Polygon","coordinates":[[[-86.842892165447,36.2535940066729],[-86.8430916562769,36.2522337300272],[-86.8437408444508,36.2526356703346],[-86.8435697147387,36.2540216158825],[-86.8435696186655,36.2540222077742],[-86.842892165447,36.2535940066729]]]},"properties":{"id":"133376","parcel":"04800019200","address":"4916 CLARKSVILLE PIKE","owner":"TARKINGTON, PHYLLIS DENISE","point":[-86.84332206359291,36.25311484655913]}},{"type":"Feature","id":"133411","geometry":{"type":"Polygon","coordinates":[[[-86.8513960731548,36.2542062320654],[-86.851404579887,36.2542041407031],[-86.8514451993896,36.2543436612076],[-86.8509261774151,36.2544876594672],[-86.8498368902137,36.2545169340013],[-86.8487719796979,36.2547872249777],[-86.8487308688291,36.2547395076758],[-86.8497236778038,36.2544130191497],[-86.8510630954967,36.2543224438052],[-86.8513960731548,36.2542062320654]]]},"properties":{"id":"133411","parcel":"04800023900","address":"0 BURTON HOLLOW RD","owner":"MONTGOMERY, DANIEL RAY","point":[-86.84991863092316,36.254501718098524]}},{"type":"Feature","id":"133627","geometry":{"type":"Polygon","coordinates":[[[-86.8453183398502,36.2572009232989],[-86.8456739270386,36.2569588953748],[-86.8457407021513,36.2568595355682],[-86.8459260453405,36.256937352697],[-86.8461054216095,36.2569646655676],[-86.8464219587069,36.2570253253933],[-86.8479333772467,36.2561333214294],[-86.8480733187173,36.2563124426833],[-86.8457073110896,36.2576717881346],[-86.8429438813427,36.2583295032486],[-86.8428459307226,36.2576665075184],[-86.843998195016,36.2575771531536],[-86.844172855942,36.2575440675679],[-86.8445220669649,36.2574669083616],[-86.8450364449682,36.2573567285796],[-86.8453183398502,36.2572009232989]]]},"properties":{"id":"133627","parcel":"04800003800","address":"4998 CLARKSVILLE PIKE","owner":"BURTON, KENNETH L.","point":[-86.84578298622428,36.25727960831217]}},{"type":"Feature","id":"133734","geometry":{"type":"Polygon","coordinates":[[[-86.844477734143,36.2560950971436],[-86.8453077001087,36.2553737491123],[-86.8463650499862,36.2544547479645],[-86.8464954115748,36.2545656918163],[-86.8466232490882,36.2546785476425],[-86.8467485175944,36.2547932761107],[-86.8468711766499,36.2549098414619],[-86.8469911835174,36.2550282016448],[-86.845138695821,36.2565714980482],[-86.844477734143,36.2560950971436]]]},"properties":{"id":"133734","parcel":"04800020000","address":"4970 CLARKSVILLE PIKE","owner":"KLINE, DAVID ANTHONY & WOODWARD, BEVERLY OWEN","point":[-86.84551713495584,36.25573523188967]}},{"type":"Feature","id":"133894","geometry":{"type":"Polygon","coordinates":[[[-86.8462247097284,36.2526026606776],[-86.8468058384019,36.2525636306723],[-86.8468483501281,36.2527521630737],[-86.8468483606233,36.2527522080627],[-86.8467956573617,36.2527841699209],[-86.8466047006381,36.2529001527046],[-86.8467234258097,36.2541249061846],[-86.8465310475764,36.2542613643669],[-86.8465098966909,36.2542430440966],[-86.8465077694533,36.2542411997172],[-86.8465035650766,36.2542380342346],[-86.8464905964628,36.2542282807156],[-86.8464767566116,36.2542178014823],[-86.8464360847122,36.2541867543856],[-86.8463839710199,36.2541456483404],[-86.8463596836592,36.254126312673],[-86.8463114425135,36.2540870937297],[-86.8462639281866,36.2540473676794],[-86.8462161173194,36.2540065432587],[-86.8461818318474,36.2539765562843],[-86.8461573489505,36.2539547380955],[-86.8461309295216,36.2539310083888],[-86.846101027595,36.2539054365697],[-86.8460776403247,36.2538854510487],[-86.8460300781859,36.2538462272377],[-86.8460300209498,36.2538461816747],[-86.8459582289544,36.2537876694599],[-86.8459581695123,36.2537876257147],[-86.8458688103936,36.2537173948893],[-86.845857345769,36.2537085239139],[-86.845814613458,36.253675692132],[-86.8458058915336,36.2536690956385],[-86.8457797582889,36.2536494339042],[-86.8457414105266,36.2536208018814],[-86.8456987469362,36.2535892917137],[-86.8456508007393,36.2535546073422],[-86.8456111296622,36.2535262540137],[-86.8456087404582,36.2535245700719],[-86.8455431009105,36.2534787402276],[-86.8455073104474,36.2534537655397],[-86.8454629747535,36.2534239388111],[-86.8454161123728,36.2533925750855],[-86.845414113419,36.2533912777503],[-86.845414055119,36.2533912367006],[-86.8457611571674,36.2530535887876],[-86.8462247097284,36.2526026606776]]]},"properties":{"id":"133894","parcel":"04800029300","address":"4955 CLARKSVILLE PIKE","owner":"HARPER, PAUL W. ET UX","point":[-86.84604682493499,36.253409040051565]}},{"type":"Feature","id":"134136","geometry":{"type":"Polygon","coordinates":[[[-86.8397763688801,36.2514576404183],[-86.8405806666024,36.2506454207845],[-86.8408509951388,36.2508173886523],[-86.8400548905762,36.2516249206541],[-86.8397763688801,36.2514576404183]]]},"properties":{"id":"134136","parcel":"04800003200","address":"4892 CLARKSVILLE PIKE","owner":"LEWIS, ROBERT H. JR.","point":[-86.84031438725125,36.251137516694534]}},{"type":"Feature","id":"134137","geometry":{"type":"Polygon","coordinates":[[[-86.8405263753925,36.2515667014062],[-86.8411191039258,36.2509879951553],[-86.8416629235567,36.2513348592472],[-86.8412648059091,36.2517351740717],[-86.841250051045,36.2517506602711],[-86.8410837548246,36.2519209108573],[-86.8407954505073,36.2517384410627],[-86.8406757561303,36.2516620465416],[-86.8405263753925,36.2515667014062]]]},"properties":{"id":"134137","parcel":"04800003400","address":"4898 CLARKSVILLE PIKE","owner":"MCFALL, CARL JR.. & TWANDA","point":[-86.84109637882261,36.25145078397573]}},{"type":"Feature","id":"134483","geometry":{"type":"Polygon","coordinates":[[[-86.8417234407767,36.2521406174689],[-86.841250119537,36.2517507183756],[-86.8412500847395,36.2517506897778],[-86.841250051045,36.2517506602711],[-86.8412648059091,36.2517351740717],[-86.8416629235567,36.2513348592472],[-86.8421931530951,36.2516729454937],[-86.8421914406997,36.2516773501318],[-86.8421854389717,36.2516870065214],[-86.8421506133763,36.2517290033603],[-86.8420860554587,36.2518019419011],[-86.8420187650012,36.2518732420451],[-86.8419488047027,36.2519428357571],[-86.8418762417516,36.2520106585755],[-86.8418011433372,36.2520766460387],[-86.841723580016,36.2521407363654],[-86.8417234407767,36.2521406174689]]]},"properties":{"id":"134483","parcel":"04800018100","address":"4070 LLOYD RD","owner":"YOUNG, DAVID E. & BATTLE, PATRICIA B.","point":[-86.84169734810457,36.25174350013352]}},{"type":"Feature","id":"134555","geometry":{"type":"Polygon","coordinates":[[[-86.8444006939662,36.2564612415043],[-86.844477734143,36.2560950971436],[-86.845138695821,36.2565714980482],[-86.8469911835174,36.2550282016448],[-86.8471095723761,36.2551494381285],[-86.8472251794836,36.2552724244017],[-86.8473379654092,36.2553971156859],[-86.8474478918821,36.255523471701],[-86.8475549228175,36.2556514485463],[-86.8461054216095,36.2569646655676],[-86.8459260453405,36.256937352697],[-86.8457407021513,36.2568595355682],[-86.8456739270386,36.2569588953748],[-86.8453183398502,36.2572009232989],[-86.8450364449682,36.2573567285796],[-86.8445220669649,36.2574669083616],[-86.844172855942,36.2575440675679],[-86.8444006939662,36.2564612415043]]]},"properties":{"id":"134555","parcel":"04800003600","address":"4978 CLARKSVILLE PIKE","owner":"MOONEYHAM, DOROTHY & COLEMAN, MARIE LOKEY REV LV TR","point":[-86.84617444448585,36.25628041334575]}},{"type":"Feature","id":"135036","geometry":{"type":"Polygon","coordinates":[[[-86.8450018046945,36.2507601921259],[-86.8459406102304,36.2501663955177],[-86.8464227035604,36.2505440238184],[-86.8460651846954,36.2508992744797],[-86.8459855980438,36.2509648760413],[-86.845963157914,36.2509744386289],[-86.8459393890819,36.2509815906518],[-86.845914444196,36.2509862472242],[-86.8458889646777,36.2509882470371],[-86.845863379692,36.2509875582456],[-86.8458381199684,36.2509841913529],[-86.8458136122861,36.2509782037558],[-86.8457549870912,36.2509466737446],[-86.8456945179289,36.2509175169917],[-86.8456323513365,36.2508908063714],[-86.8455686370928,36.2508666057233],[-86.8455035293682,36.2508449734487],[-86.8454371867256,36.2508259625111],[-86.8453697698756,36.250809618649],[-86.8450018046945,36.2507601921259]]]},"properties":{"id":"135036","parcel":"04800008001","address":"4103 VESTER RD","owner":"NOYOLA, MIGUEL A. & GERARDA","point":[-86.84574346791973,36.250652150337444]}},{"type":"Feature","id":"135887","geometry":{"type":"Polygon","coordinates":[[[-86.8467942692946,36.2540746561264],[-86.8475135638034,36.2535644371012],[-86.8484930234725,36.2547025035674],[-86.8483100408404,36.2548065328435],[-86.8478019545916,36.2547419732172],[-86.8472354845764,36.2545459632215],[-86.8467942692946,36.2540746561264]]]},"properties":{"id":"135887","parcel":"04800001400","address":"4156 DRY FORK RD","owner":"PERRY, MARTHA L.","point":[-86.84758580614663,36.25431103868068]}},{"type":"Feature","id":"135890","geometry":{"type":"Polygon","coordinates":[[[-86.8448338056193,36.2517102720749],[-86.8452383590232,36.2509182322684],[-86.8454118736841,36.2509481061254],[-86.8454569493259,36.2509534442826],[-86.8455097838122,36.2509627450113],[-86.8455616139525,36.2509752134378],[-86.8456121519281,36.2509907794777],[-86.8456611141975,36.2510093567944],[-86.8457082281613,36.2510308418512],[-86.8457532321728,36.2510551148126],[-86.8457958733213,36.251082040461],[-86.8458359163336,36.2511114681343],[-86.8458731347018,36.2511432344912],[-86.8459073240056,36.2511771607153],[-86.8463119123,36.251680809734],[-86.8463279068048,36.2516998159683],[-86.8464228381908,36.2518126150527],[-86.8465885418073,36.252001265995],[-86.8466805061348,36.25212175712],[-86.8467165861291,36.2521920876626],[-86.8467457537804,36.2522767740131],[-86.8468031056863,36.2524642759587],[-86.8468057776565,36.2525633607224],[-86.8468058384019,36.2525636306723],[-86.8462247097284,36.2526026606776],[-86.8457611571674,36.2530535887876],[-86.845414055119,36.2533912367006],[-86.8452954241993,36.2533142165387],[-86.8451749961766,36.2532390491867],[-86.8450528147289,36.2531657613716],[-86.8449674395082,36.2531108683588],[-86.8448807197994,36.2530570833128],[-86.8454528819042,36.2522619396582],[-86.8447540740846,36.2518668606247],[-86.8448338056193,36.2517102720749]]]},"properties":{"id":"135890","parcel":"04800001600","address":"4945 CLARKSVILLE PIKE","owner":"RIDLEY, KEITH & LOVE, TARRICK & TANISHA HART-","point":[-86.84598120346129,36.2521560009564]}},{"type":"Feature","id":"135962","geometry":{"type":"Polygon","coordinates":[[[-86.8443233249222,36.2527127682487],[-86.8447540740846,36.2518668606247],[-86.8454528819042,36.2522619396582],[-86.8448807197994,36.2530570833128],[-86.8444737085093,36.2528006104901],[-86.8443233249222,36.2527127682487]]]},"properties":{"id":"135962","parcel":"04800001700","address":"4935 CLARKSVILLE PIKE","owner":"MINERO, HORACIO HERNANDEZ","point":[-86.84486435651077,36.25248732449889]}},{"type":"Feature","id":"135965","geometry":{"type":"Polygon","coordinates":[[[-86.8415799972158,36.2502961579064],[-86.8420323046838,36.2498266877936],[-86.8423600101814,36.2499713095103],[-86.8418806827932,36.2512010365593],[-86.8412574003549,36.2508034788218],[-86.8416846235982,36.2503627148064],[-86.8415799972158,36.2502961579064]]]},"properties":{"id":"135965","parcel":"04800002000","address":"4891 CLARKSVILLE PIKE","owner":"STEWART, MICHAEL G. & RUTH CARR","point":[-86.84179611243516,36.25058352738835]}},{"type":"Feature","id":"135980","geometry":{"type":"Polygon","coordinates":[[[-86.8395251170518,36.251303355383],[-86.8403404626739,36.2504926143129],[-86.8405806666024,36.2506454207845],[-86.8397763688801,36.2514576404183],[-86.8395251170518,36.251303355383]]]},"properties":{"id":"135980","parcel":"04800003100","address":"4888 CLARKSVILLE PIKE","owner":"PHILLIPS, BETSY T.","point":[-86.84005543063469,36.25097439265411]}},{"type":"Feature","id":"138798","geometry":{"type":"Polygon","coordinates":[[[-86.846427670744,36.2497893863166],[-86.8466437426558,36.2496021737923],[-86.8470763999613,36.2499086432472],[-86.8468540169403,36.2501200074739],[-86.8465940292563,36.2503787666748],[-86.8464227035604,36.2505440238184],[-86.8459406102304,36.2501663955177],[-86.8461346312218,36.2500419681823],[-86.846427670744,36.2497893863166]]]},"properties":{"id":"138798","parcel":"04800012800","address":"4111 VESTER RD","owner":"GALE, ROBERT & MELTZER, BRYANT K","point":[-86.84648457915533,36.25008097586376]}},{"type":"Feature","id":"154492","geometry":{"type":"Polygon","coordinates":[[[-86.8465316588196,36.2516983886273],[-86.8463814079783,36.2515224361477],[-86.846023086189,36.2510665407064],[-86.8465587906171,36.2505398700586],[-86.8471688361671,36.2499483009911],[-86.8472986556685,36.2498034209413],[-86.8473206281385,36.2497520270204],[-86.8478778120417,36.2497997916357],[-86.8485495202506,36.2499582064919],[-86.849073687495,36.2500852373635],[-86.8491677806106,36.2501021487357],[-86.8479404626912,36.2515301294471],[-86.8469320678968,36.2523280661894],[-86.8469033964975,36.2522289221219],[-86.8468883513739,36.2521842362392],[-86.846870060144,36.2521403526891],[-86.8468485878792,36.2520974251281],[-86.8468240085223,36.2520556044469],[-86.8467964104509,36.2520150387307],[-86.846765889763,36.2519758697021],[-86.8467244766134,36.2519241874037],[-86.8465316588196,36.2516983886273]]]},"properties":{"id":"154492","parcel":"04800031800","address":"4115 DRY FORK RD","owner":"WORRALL, WILLIAM E, II & GREGORY, JIM E.","point":[-86.84742684675163,36.250804659829]}}]}