{"type":"FeatureCollection","features":[{"type":"Feature","id":"129535","geometry":{"type":"Polygon","coordinates":[[[-86.9321588812554,36.2424404952566],[-86.932215587858,36.2419282616414],[-86.9320039035597,36.2414590484898],[-86.9320328130084,36.2411489579813],[-86.9311812230636,36.240940155638],[-86.9294720502865,36.2409357366253],[-86.928412301338,36.2405570997056],[-86.9277428583619,36.2399161357515],[-86.927540094792,36.2392803767737],[-86.9273694981384,36.2390751081132],[-86.9271118429337,36.2388485309708],[-86.9261999129099,36.2383478682873],[-86.9263776646478,36.2377729229123],[-86.9263279133239,36.236997536168],[-86.9265448632326,36.2367269030881],[-86.932654323033,36.2409284290543],[-86.9336939379446,36.2427504171554],[-86.9324954863178,36.2424961263563],[-86.9323949795572,36.2424755169365],[-86.9323167026135,36.2424620225894],[-86.9322379820087,36.2424503458556],[-86.9321588812554,36.2424404952566]]]},"properties":{"id":"129535","parcel":"04600005900","address":"4857 BULL RUN RD","owner":"WILCZEK, NEIL","point":[-86.92918206011497,36.23959917812954]}},{"type":"Feature","id":"130329","geometry":{"type":"Polygon","coordinates":[[[-86.9257568950031,36.2429230672081],[-86.925685573715,36.2429151066972],[-86.9256147503547,36.2429046233042],[-86.9255445631415,36.2428916385026],[-86.9254751447418,36.2428761747099],[-86.9254066279379,36.2428582642573],[-86.9253295609221,36.2428348287303],[-86.9252540377114,36.2428082981163],[-86.9251802493172,36.2427787367473],[-86.9251083813138,36.2427462198129],[-86.9250386126732,36.2427108288619],[-86.9247605553139,36.2425617971305],[-86.9246763745223,36.242514674616],[-86.9245946076771,36.2424648406],[-86.9245153881455,36.2424123778839],[-86.9244388437312,36.242357369312],[-86.924365098994,36.242299905865],[-86.9242942740738,36.2422400812612],[-86.924226485814,36.2421779928491],[-86.9241618410654,36.2421137398564],[-86.92373444108,36.2416709869042],[-86.9236931412841,36.2416277465173],[-86.9236495018548,36.2415860399253],[-86.9236036105638,36.2415459520745],[-86.9235555595377,36.2415075597667],[-86.9238084706498,36.2407830378173],[-86.9221475402982,36.238453591058],[-86.9222221910369,36.2381953476445],[-86.9235983275885,36.2372409468119],[-86.924065920991,36.2369775017881],[-86.9270210213102,36.2428438263047],[-86.9261177134977,36.2429245449551],[-86.9260456573264,36.2429293972129],[-86.9259734075467,36.2429316769095],[-86.9259011043191,36.2429313811676],[-86.925828886723,36.2429285098228],[-86.9257568950031,36.2429230672081]]]},"properties":{"id":"130329","parcel":"04600009000","address":"4863 BULL RUN RD","owner":"KILBOURNE, JOHN L.","point":[-86.92418745517394,36.23961908992339]}}]}