{"type":"FeatureCollection","features":[{"type":"Feature","id":"160202","geometry":{"type":"Polygon","coordinates":[[[-86.9707920614646,36.0342659344968],[-86.9712231246532,36.0336278650555],[-86.9713082600592,36.033007373693],[-86.970774909543,36.0329590939479],[-86.9708817402278,36.0321805113857],[-86.9735116687641,36.0324378536203],[-86.9736525401257,36.0315661307538],[-86.9736605040403,36.0315168491899],[-86.9737743944534,36.030918110818],[-86.9738162708261,36.0309684668267],[-86.974023915478,36.0312179569327],[-86.9746199559576,36.0319341970921],[-86.9748577327812,36.0324909706578],[-86.974927568656,36.0325892951605],[-86.9742339860093,36.0325332815598],[-86.9740691793836,36.0335920049256],[-86.9740743043545,36.0336421234536],[-86.9740726851551,36.0336520690307],[-86.9740753004899,36.0336518748349],[-86.9740904146768,36.0337996953212],[-86.9735158786321,36.0338632622378],[-86.9734701749061,36.0338700019946],[-86.9734299580922,36.0341637741725],[-86.9733749600657,36.0341723708782],[-86.9734047632465,36.0339498605571],[-86.9729116289068,36.0340262749197],[-86.9728820167259,36.0342477326288],[-86.972881880552,36.0342487558189],[-86.9712264827527,36.0344864065077],[-86.9710952794983,36.0345095741614],[-86.9709649432168,36.0345357712124],[-86.9708355790837,36.0345649787893],[-86.9707072944059,36.0345971707942],[-86.9705801920638,36.0346323220658],[-86.9705438535326,36.0346429807913],[-86.9705844467784,36.0343471552736],[-86.9707920614646,36.0342659344968]]]},"properties":{"id":"160202","parcel":"169030A00300CO","address":"0 HIGHWAY 100","owner":"STEPHENS, W.E, JR TRS OF S. CHRISTIAN TR","point":[-86.97249838963616,36.03277413212987]}},{"type":"Feature","id":"160207","geometry":{"type":"Polygon","coordinates":[[[-86.9700259267598,36.032469941399],[-86.9700325807093,36.0324102370339],[-86.9699855261525,36.0321654610202],[-86.9701024808941,36.0321506274441],[-86.9701443602436,36.0323684795591],[-86.9701018417285,36.0324953249999],[-86.9700644509312,36.0324815141675],[-86.9700259267598,36.032469941399]]]},"properties":{"id":"160207","parcel":"169030A02100CO","address":"2111 GILDRIDGE DR","owner":"WU, JIAN & NIU, LAN","point":[-86.97006494304837,36.03226697031674]}},{"type":"Feature","id":"160215","geometry":{"type":"Polygon","coordinates":[[[-86.9693236027713,36.0346378455257],[-86.9691943540206,36.0340243053617],[-86.9691462307399,36.0337958605186],[-86.9692999912991,36.0337760115126],[-86.9692785541558,36.0320179829308],[-86.9704320805012,36.0321349275637],[-86.9708817402278,36.0321805113857],[-86.970774909543,36.0329590939479],[-86.9713082600592,36.033007373693],[-86.9712231246532,36.0336278650555],[-86.9707920614646,36.0342659344968],[-86.9705844467784,36.0343471552736],[-86.9705438535326,36.0346429807913],[-86.9704203051197,36.0346812930163],[-86.9702981302143,36.0347224097575],[-86.9701710227396,36.0347687180009],[-86.9700456588658,36.0348180621176],[-86.9699221479025,36.0348703979699],[-86.9698005980283,36.0349256796269],[-86.9696811151817,36.0349838593734],[-86.9695638041489,36.0350448858986],[-86.9694487696842,36.0351087051883],[-86.9694256078704,36.035122052528],[-86.9693236027713,36.0346378455257]],[[-86.97052162615,36.0339506693636],[-86.9704677892818,36.0339462259904],[-86.9703702093431,36.0339381718131],[-86.9703435395016,36.0341513455067],[-86.9704411186006,36.0341594006153],[-86.9704949556117,36.0341638440003],[-86.9705925358401,36.0341718980761],[-86.9706192050098,36.0339587234272],[-86.97052162615,36.0339506693636]],[[-86.9707643848827,36.0339621730501],[-86.9708145704898,36.0339843871798],[-86.9708615053914,36.0339144347526],[-86.9708873987601,36.033875840937],[-86.9709132932021,36.0338372462054],[-86.9709391887396,36.0337986523602],[-86.9709650831314,36.0337600576169],[-86.9710120166586,36.0336901051364],[-86.970804360932,36.0335981895805],[-86.9707589679288,36.0335977576524],[-86.9707222045611,36.0336525509128],[-86.9706963100863,36.033691145605],[-86.9706704155866,36.0337297402912],[-86.9706445210506,36.0337683340703],[-86.9706186265005,36.0338069287447],[-86.9705862691834,36.0338551564439],[-86.9705829288077,36.0338818541415],[-86.9707643848827,36.0339621730501]],[[-86.9704238964019,36.0338487211273],[-86.9704341541886,36.0337667315792],[-86.9704444119541,36.0336847420285],[-86.9704546696874,36.0336027515744],[-86.9701669808396,36.0335790050786],[-86.9701567228126,36.0336609955087],[-86.9701464636438,36.0337429850441],[-86.9701362055745,36.0338249754695],[-86.970125947473,36.0339069649911],[-86.9704136374955,36.0339307115832],[-86.9704238964019,36.0338487211273]],[[-86.9698502022047,36.0336311114164],[-86.969853427042,36.0335707325571],[-86.9698566518743,36.0335103536969],[-86.9698598778113,36.0334499748268],[-86.96945440619,36.0334356848724],[-86.9694511799455,36.0334960637317],[-86.9694479548058,36.0335564425813],[-86.9694447296722,36.0336168223312],[-86.9694415045117,36.0336772002776],[-86.9698469773626,36.0336914902748],[-86.9698502022047,36.0336311114164]],[[-86.9701729795579,36.0334513423939],[-86.9702120515974,36.0335273988401],[-86.970477870349,36.0334373051247],[-86.9704557320924,36.0334001897547],[-86.9704353137362,36.033362429608],[-86.9704166436553,36.0333240767332],[-86.9703997469182,36.0332851850079],[-86.9701339064836,36.0333752859426],[-86.9701729795579,36.0334513423939]],[[-86.9698660348877,36.0333347057568],[-86.9698692608104,36.0332743268841],[-86.9698724856187,36.0332139480194],[-86.9698757104221,36.0331535691538],[-86.9694702403097,36.0331392792516],[-86.96946701521,36.0331996590078],[-86.9694637900943,36.0332600378619],[-86.9694605638641,36.0333204167239],[-86.9694573376181,36.0333807946839],[-86.96986280896,36.0333950846286],[-86.9698660348877,36.0333347057568]],[[-86.9700694376029,36.0331515562089],[-86.9700857724385,36.0332328926916],[-86.9701021095376,36.0333142300539],[-86.9703955400585,36.0332747221829],[-86.9703809516818,36.0332353044234],[-86.9703681803469,36.0331954736471],[-86.9703572212937,36.0331552037546],[-86.9703481194428,36.033114629582],[-86.9703408865799,36.0330738078175],[-86.9703355333922,36.0330327960593],[-86.9703320715351,36.0329917312138],[-86.9703304951719,36.0329505898937],[-86.9700367669005,36.0329888814388],[-86.9700531016692,36.0330702179289],[-86.9700694376029,36.0331515562089]],[[-86.9698599632388,36.0329865931362],[-86.9698495679487,36.032926750224],[-86.9698391726743,36.0328669073102],[-86.9698287774155,36.0328070643946],[-86.9694269079364,36.0328531190171],[-86.9694373028986,36.0329129619667],[-86.9694476978766,36.0329728049146],[-86.9694580928701,36.0330326478608],[-86.9694684878793,36.0330924908053],[-86.9698703585445,36.0330464360467],[-86.9698599632388,36.0329865931362]],[[-86.9699302862897,36.0328178444932],[-86.9699900529155,36.0328844409705],[-86.9700498196524,36.0329510383183],[-86.9703110875117,36.0327963483276],[-86.9703000373249,36.0327695141538],[-86.9702866301236,36.0327433983801],[-86.9702709341656,36.0327181383572],[-86.9702535515327,36.0326945142807],[-86.9702341676975,36.0326719401242],[-86.970212879468,36.032650528673],[-86.9701893463744,36.0326300230889],[-86.9701640673814,36.0326109376089],[-86.970137170198,36.0325933712495],[-86.970101032016,36.0325734574568],[-86.9700628233665,36.0325562822928],[-86.9700228577778,36.0325419865403],[-86.9699814629269,36.0325306883357],[-86.9699389794853,36.0325224795732],[-86.9698957544956,36.0325174286616],[-86.9698521446448,36.0325155759923],[-86.9698085074323,36.0325169376147],[-86.9697652011263,36.0325215016321],[-86.9697225803476,36.0325292300392],[-86.9696809972124,36.0325400614176],[-86.9698705208626,36.0327512470752],[-86.9699302862897,36.0328178444932]],[[-86.9695527558145,36.0325147074638],[-86.9695875538532,36.032498726542],[-86.9696236516671,36.0324847784298],[-86.9696608714462,36.0324729321554],[-86.969643085265,36.0324318527785],[-86.9695934986842,36.0321738954463],[-86.9694765438025,36.0321887276271],[-86.9694796741127,36.0322050126261],[-86.9693526945468,36.0322211159848],[-86.9693991890924,36.0324629854872],[-86.969488953835,36.032551633963],[-86.9695200676906,36.0325322739346],[-86.9695527558145,36.0325147074638]],[[-86.9696120108472,36.0321811624864],[-86.9696598320155,36.032429930697],[-86.969675302082,36.0324689863333],[-86.969710827923,36.0324607300919],[-86.9697469395275,36.0324543736029],[-86.969783485187,36.0324499424222],[-86.9698187537339,36.0324475206256],[-86.9698541384935,36.0324468933015],[-86.9698895029942,36.0324480615487],[-86.9698937423658,36.0324002649665],[-86.9698459204834,36.0321514968469],[-86.9697289656926,36.032166330174],[-86.9696120108472,36.0321811624864]],[[-86.9699855261525,36.0321654610202],[-86.9699844787632,36.0321600146968],[-86.9698675239748,36.0321748472572],[-86.9699104500804,36.0323981457765],[-86.9699042794229,36.032449084566],[-86.9699454207425,36.0324536141635],[-86.9699860425015,36.032460578775],[-86.9700259267598,36.032469941399],[-86.9700644509312,36.0324815141675],[-86.9701018417285,36.0324953249999],[-86.9701443602436,36.0323684795591],[-86.9701024808941,36.0321506274441],[-86.9699855261525,36.0321654610202]],[[-86.970810966587,36.0332480018726],[-86.97081033155,36.0332919523743],[-86.9708091794332,36.0333716126101],[-86.9710831104465,36.0333742244729],[-86.9710842622888,36.0332945642345],[-86.9710848982949,36.0332506146237],[-86.9710860490351,36.0331709552934],[-86.9708121176016,36.0331683425448],[-86.970810966587,36.0332480018726]]]},"properties":{"id":"160215","parcel":"169030A90000CO","address":"0 GILDRIDGE DR","owner":"STEPHENS VALLEY WEST LLC","point":[-86.97054284820163,36.03356381021912]}},{"type":"Feature","id":"271551","geometry":{"type":"Polygon","coordinates":[[[-86.9681052358094,36.0311177862896],[-86.968214533968,36.0303169191497],[-86.9706063411974,36.0305350340594],[-86.9706057867102,36.0309328347477],[-86.9715919811274,36.0312611449842],[-86.9721108782852,36.0314327816533],[-86.9736525401257,36.0315661307538],[-86.9735116687641,36.0324378536203],[-86.9708817402278,36.0321805113857],[-86.9704320805012,36.0321349275637],[-86.9705325072111,36.0313575946107],[-86.9681052358094,36.0311177862896]]]},"properties":{"id":"271551","parcel":"16900010000","address":"0 PASQUO RD","owner":"MCDONALD, KAY CLAXTON & SLATE, NATALIE MARIE","point":[-86.97126269471813,36.03139517660495]}},{"type":"Feature","id":"272460","geometry":{"type":"Polygon","coordinates":[[[-86.9706063411974,36.0305350340594],[-86.9706103136325,36.0299573213494],[-86.9699096705679,36.0298721481216],[-86.9695070712522,36.0298232050335],[-86.9695691748144,36.0298289775276],[-86.9696316206777,36.0298312456264],[-86.9696941102114,36.0298299982129],[-86.9697563438837,36.0298252413033],[-86.9698180234816,36.0298169980285],[-86.9698788510013,36.0298053086434],[-86.9699385396996,36.0297902268327],[-86.9699967986486,36.0297718270454],[-86.9700533503896,36.029750196241],[-86.9701079254511,36.0297254393416],[-86.9701602589547,36.0296976738509],[-86.970210102864,36.029667033361],[-86.9702572170751,36.0296336649205],[-86.9703156715953,36.0295916678744],[-86.9703768817157,36.0295523471425],[-86.9704406635814,36.0295158213725],[-86.9705068232762,36.0294822029842],[-86.9705751600744,36.0294515918343],[-86.9706454676375,36.0294240824168],[-86.9707175305982,36.0293997566807],[-86.9707682491497,36.0293854353306],[-86.9708199830822,36.0293737574464],[-86.9708725266054,36.0293647715537],[-86.9709256659977,36.0293585127223],[-86.9714835732474,36.0303609331366],[-86.9715919811274,36.0312611449842],[-86.9706057867102,36.0309328347477],[-86.9706063411974,36.0305350340594]]]},"properties":{"id":"272460","parcel":"16900011000","address":"8324 NUNAHI TRL","owner":"PITTS, PAMELA IRENE","point":[-86.9709901126877,36.03015911430646]}},{"type":"Feature","id":"273143","geometry":{"type":"Polygon","coordinates":[[[-86.9715919811274,36.0312611449842],[-86.9714835732474,36.0303609331366],[-86.9709256659977,36.0293585127223],[-86.9709837646793,36.0293548340228],[-86.9710420363365,36.0293544157609],[-86.9711002057981,36.0293572583516],[-86.9711579955086,36.0293633487099],[-86.9711894598007,36.0293660865486],[-86.9712211037843,36.0293659125837],[-86.9712525191373,36.0293628283041],[-86.9712833035476,36.0293568730059],[-86.9713130584945,36.0293481238102],[-86.9719998298455,36.0303172097079],[-86.9730047831206,36.0308519475047],[-86.9736605040403,36.0315168491899],[-86.9736525401257,36.0315661307538],[-86.9721108782852,36.0314327816533],[-86.9715919811274,36.0312611449842]]]},"properties":{"id":"273143","parcel":"16900010900","address":"8328 NUNAHI TRL","owner":"PITTS, KEVIN WAYNE","point":[-86.9720283201201,36.03060639258142]}},{"type":"Feature","id":"273862","geometry":{"type":"Polygon","coordinates":[[[-86.9713130584945,36.0293481238102],[-86.9713422532089,36.0293362975271],[-86.971369548729,36.0293217853071],[-86.9713945712671,36.0293047812441],[-86.9714169786198,36.0292855215391],[-86.9714364644194,36.029264269144],[-86.9714527614509,36.029241312833],[-86.9714656472109,36.0292169680591],[-86.9731758538329,36.0300176100238],[-86.9737920361268,36.0307940743551],[-86.9737743944534,36.030918110818],[-86.9736605040403,36.0315168491899],[-86.9730047831206,36.0308519475047],[-86.9719998298455,36.0303172097079],[-86.9713130584945,36.0293481238102]]]},"properties":{"id":"273862","parcel":"16900010800","address":"8332 NUNAHI TRL","owner":"PITTS, STEVEN LOREN LIV TRUST, THE","point":[-86.9730253420693,36.030555674563125]}}]}