{"type":"FeatureCollection","features":[{"type":"Feature","id":"272243","geometry":{"type":"Polygon","coordinates":[[[-86.8891752970887,36.1560747824664],[-86.8891990994309,36.1560224121595],[-86.88921862313,36.1559527976395],[-86.8892342430969,36.1558825377228],[-86.8892459276085,36.1558117759481],[-86.8892536516404,36.1557406585083],[-86.8892574001597,36.1556693306213],[-86.8892571648115,36.1555979383562],[-86.8892529472322,36.1555266268073],[-86.8892447557562,36.1554555437228],[-86.8892326064662,36.1553848340894],[-86.889214642181,36.1553511900874],[-86.8892002861654,36.1553164244398],[-86.8891896446209,36.1552807914277],[-86.8891827938146,36.1552445518614],[-86.8891797984097,36.1552073276286],[-86.8891808109017,36.1551700333064],[-86.8891858222314,36.1551329519636],[-86.8891947955377,36.1550963650706],[-86.8892076616928,36.1550605507301],[-86.889224323707,36.1550257800397],[-86.8892446545264,36.1549923189104],[-86.8892685002658,36.1549604190301],[-86.8893103157726,36.1548767676966],[-86.8893480427353,36.1547918468312],[-86.8893816237527,36.1547057893493],[-86.8894110069708,36.1546187272233],[-86.8894190237945,36.1545548187346],[-86.8894302682278,36.1544912307445],[-86.8894447203512,36.1544280706512],[-86.88946235578,36.1543654440832],[-86.8894831456947,36.1543034576024],[-86.8895070545788,36.1542422151163],[-86.8895775683285,36.1539604075045],[-86.8896442706323,36.1536779907205],[-86.889707153003,36.1533949972794],[-86.8897662092068,36.1531114623833],[-86.8898214307775,36.1528274203491],[-86.8898728103403,36.1525429036827],[-86.8898728235635,36.1524621109658],[-86.8898772551897,36.1523813983247],[-86.8898860947705,36.1523009253625],[-86.889899326271,36.1522208490194],[-86.8899169225445,36.1521413263168],[-86.8899388497874,36.1520625152263],[-86.8899650641551,36.1519845701879],[-86.8899955129037,36.1519076448056],[-86.8900301388153,36.151831890012],[-86.8900587276059,36.151775225607],[-86.8900834835974,36.1517173862551],[-86.8901043331439,36.1516585428438],[-86.8901212148546,36.1515988688741],[-86.8901340795827,36.1515385395586],[-86.8901428893343,36.1514777336328],[-86.8901476183293,36.15141662884],[-86.8901482519403,36.1513554064462],[-86.8901447888648,36.1512942467175],[-86.8901372389019,36.151233328936],[-86.8901319039376,36.1511519131988],[-86.8901309384908,36.151070385915],[-86.8901343442866,36.1509889020924],[-86.8901421152614,36.1509076158942],[-86.8901542353306,36.1508266797548],[-86.8901706839852,36.1507462479432],[-86.8901914284631,36.1506664721144],[-86.8902164304365,36.150587503063],[-86.8902456415572,36.1505094898544],[-86.8902858779696,36.1504080133505],[-86.890322595007,36.1503056624164],[-86.8903557624782,36.1502025183932],[-86.8903853579605,36.1500986616636],[-86.8904113545871,36.1499941726424],[-86.8904337321991,36.1498891353],[-86.8904524761536,36.1497836299604],[-86.8904675696258,36.1496777405691],[-86.8904790002262,36.1495715501365],[-86.890478174538,36.149526876996],[-86.8904812012651,36.1494822673566],[-86.8904880639373,36.1494379376469],[-86.8904987316492,36.1493941053033],[-86.8905131490196,36.1493509852384],[-86.8905312483939,36.1493087879488],[-86.8905529387326,36.149267719597],[-86.8905781156019,36.1492279810364],[-86.8906120046806,36.1491584160429],[-86.8906424481883,36.149087811155],[-86.8906693984948,36.1490162784856],[-86.8906928135468,36.1489439319091],[-86.8907126557363,36.1488708852666],[-86.890728894163,36.1487972559547],[-86.8907415012608,36.148723161345],[-86.8907504583329,36.1486487169408],[-86.89078906198,36.1485095291073],[-86.8908315443889,36.1483710859199],[-86.890877883015,36.1482334596436],[-86.8909280563953,36.1480967198309],[-86.8909820364104,36.1479609369846],[-86.8910397960626,36.1478261825003],[-86.8911013071835,36.1476925223743],[-86.8911665349986,36.1475600280587],[-86.8912354491387,36.1474287673682],[-86.8913080125378,36.1472988054624],[-86.8913841881716,36.1471702111059],[-86.8914038059019,36.1469868336919],[-86.8914349543328,36.1469491516942],[-86.8914633979935,36.1469100872754],[-86.8914890427547,36.1468697682137],[-86.8915118056597,36.1468283276123],[-86.8915316126519,36.1467858994097],[-86.8915418577405,36.1467516164418],[-86.8915555767617,36.1467181423922],[-86.8915726744916,36.1466857059876],[-86.8915930334633,36.1466545343166],[-86.8916165127144,36.1466248402203],[-86.891639498408,36.1465952317829],[-86.8916595215354,36.1465642401339],[-86.8916764553724,36.1465320590856],[-86.8916901955296,36.1464988921991],[-86.8917006543364,36.1464649474186],[-86.8917077652846,36.1464304370377],[-86.8917114852615,36.1463955785847],[-86.8917087208363,36.1463787927997],[-86.8917085305903,36.1463618582067],[-86.8917109174274,36.1463450334521],[-86.8917058283113,36.1463240946125],[-86.8917048186362,36.1463027678163],[-86.8917079131501,36.1462815747232],[-86.8917150353859,36.1462610287277],[-86.8917260131969,36.1462416331157],[-86.8917533873445,36.1461717977243],[-86.8917778944055,36.1461012651925],[-86.8917995074794,36.1460301132313],[-86.8918021752421,36.1460139641615],[-86.8918020355309,36.1459976718078],[-86.8917990896993,36.145981554313],[-86.8917933990925,36.145965928475],[-86.8917850716118,36.1459511008334],[-86.8917777777688,36.1459378725387],[-86.8917730425204,36.1459239007027],[-86.8917709761491,36.1459095062685],[-86.8917716246536,36.1458950250746],[-86.8917749751215,36.1458807915924],[-86.8917809467905,36.1458671344853],[-86.8917894043109,36.1458543702022],[-86.8918111479645,36.1458000892793],[-86.8918342534029,36.1457463525751],[-86.8918495199172,36.1457183044814],[-86.8918607053941,36.1456890166429],[-86.8918693744706,36.1456541396223],[-86.8918820553573,36.1456200792516],[-86.8918986347829,36.1455871391977],[-86.8919189671423,36.1455556134522],[-86.8919428699817,36.1455257800558],[-86.8919633017189,36.1454708634788],[-86.8919822760968,36.1454156043679],[-86.892000314596,36.14538643259],[-86.8920145998916,36.1453559231122],[-86.8920249822163,36.1453243942944],[-86.8920313552081,36.1452921704845],[-86.8920414959388,36.1452423095567],[-86.8920556443183,36.1451930949606],[-86.8920573757606,36.1451674010083],[-86.8920622304819,36.1451419714742],[-86.8920701590515,36.1451170554776],[-86.8920810864326,36.1450928978201],[-86.8920949030322,36.1450697336448],[-86.8921154216176,36.1450332422178],[-86.8921324267044,36.1449955816636],[-86.8921458174336,36.1449569726425],[-86.8921555141596,36.1449176446703],[-86.8921824675029,36.1448524619809],[-86.8922133865313,36.1447884477651],[-86.8922481930085,36.1447257603231],[-86.8922722633655,36.1446795258694],[-86.8922997918204,36.1446345790064],[-86.8923306769494,36.1445910908242],[-86.892353823103,36.1445374798768],[-86.8923739990446,36.1444830860453],[-86.8923911637426,36.1444280150849],[-86.8923940610577,36.1443943451572],[-86.8924006303137,36.1443610166964],[-86.8924108200097,36.1443282923559],[-86.8924245485943,36.144296430505],[-86.8924417099913,36.1442656824838],[-86.8924621669021,36.1442362899488],[-86.8924824866913,36.1442010283678],[-86.8924989950087,36.144164480905],[-86.8925115693228,36.1441269170508],[-86.8925201172139,36.1440886159865],[-86.8925227251436,36.1440709198305],[-86.8925286348664,36.1440537535398],[-86.8925377053337,36.1440375192283],[-86.8925497241532,36.1440225988079],[-86.8925644096694,36.1440093413552],[-86.8925814186807,36.143998057647],[-86.8926066690932,36.143989801666],[-86.8926300437578,36.143978479872],[-86.8926509823691,36.1439643658948],[-86.8926689797869,36.1439477969475],[-86.8926836071373,36.1439291727691],[-86.8926610031128,36.1440875737697],[-86.8926578781611,36.1441273732151],[-86.8926591610131,36.1441672400929],[-86.8926648380672,36.1442068536469],[-86.8926748668633,36.1442458960376],[-86.8926891649711,36.1442840524249],[-86.8927076178484,36.1443210181197],[-86.8927300776902,36.1443564949878],[-86.8927563623871,36.1443901977666],[-86.8927862633445,36.1444218576121],[-86.8928195387646,36.1444512176426],[-86.8927444433004,36.1445199021687],[-86.8928972049327,36.1446110749107],[-86.8930206183524,36.1446704195559],[-86.8931458772974,36.1447271619297],[-86.8932729002112,36.1447812638753],[-86.8934016011224,36.1448326899721],[-86.8935318951802,36.1448814056932],[-86.8936636964422,36.1449273783224],[-86.8937969167731,36.1449705778642],[-86.8939314658152,36.1450109743396],[-86.8940672554827,36.1450485422598],[-86.8941324991136,36.1450674354866],[-86.8944085036527,36.1451487666886],[-86.8946831216923,36.1452331304455],[-86.8949563019544,36.1453205100228],[-86.8952279953827,36.1454108886699],[-86.8954981507176,36.1455042514552],[-86.895766719992,36.1456005798185],[-86.8960336519246,36.1456998570265],[-86.8962427945065,36.1457706497439],[-86.8964533122926,36.1458387082061],[-86.8966651517266,36.1459040147781],[-86.8968782581299,36.1459665509325],[-86.8970925768642,36.146026301747],[-86.897308049947,36.1460832514233],[-86.8975246260721,36.1461373850149],[-86.8977422450642,36.1461886894443],[-86.8979608534039,36.1462371506835],[-86.8982582078955,36.1462942752071],[-86.8985185424183,36.1463426095705],[-86.8987422041541,36.1463827003082],[-86.8989288622956,36.1464153738603],[-86.8992288526281,36.1464659979398],[-86.8994901383261,36.1465084386476],[-86.8997524214043,36.1465493382716],[-86.8999777069897,36.1465833706127],[-86.9002033194255,36.1466160265404],[-86.9002589507519,36.1466233039445],[-86.90128855995,36.1500780822283],[-86.9013319957929,36.1502037273296],[-86.9013713178422,36.1503302602608],[-86.9014064972964,36.1504575929152],[-86.901437510889,36.1505856353418],[-86.9014643364847,36.1507142993833],[-86.9014869541291,36.1508434932604],[-86.9015053494442,36.1509731269548],[-86.9015195091726,36.15110311134],[-86.9015294233396,36.1512333527586],[-86.9015350842436,36.1513637620421],[-86.9015364885972,36.1514942472848],[-86.9015336353352,36.1516247165636],[-86.9015265267364,36.1517550788318],[-86.9015151661908,36.1518852430336],[-86.9014995637561,36.152015118063],[-86.901479730591,36.1521446119042],[-86.9014556778954,36.1522736361456],[-86.9014274234961,36.1524020987208],[-86.9013949885745,36.1525299093403],[-86.9013705336862,36.1526197253879],[-86.9013417170811,36.1527086871458],[-86.9013085871646,36.1527966545506],[-86.9012711934953,36.152883491135],[-86.9012295945325,36.1529690612662],[-86.901183855404,36.1530532292612],[-86.9011340490993,36.1531358665884],[-86.9010802530024,36.1532168401763],[-86.9010225501574,36.1532960259242],[-86.9009610313879,36.1533732996727],[-86.9008957931062,36.1534485399246],[-86.9008269362113,36.1535216287542],[-86.900754570545,36.1535924526753],[-86.9006788082036,36.1536609008886],[-86.9005997679932,36.15372686615],[-86.9005175720959,36.1537902447953],[-86.9004323505253,36.1538509376085],[-86.9003442366913,36.1539088507559],[-86.9002533673597,36.1539638921816],[-86.9001598860467,36.1540159769898],[-86.9000928448392,36.1540512223547],[-86.9000281296945,36.1540892181682],[-86.8999659106284,36.1541298649263],[-86.8999063531107,36.1541730541463],[-86.8998496158835,36.1542186719883],[-86.8997958475969,36.154266596576],[-86.8997451913049,36.1543167024699],[-86.8996977821819,36.1543688552765],[-86.8995266529951,36.1545723181289],[-86.8993452315023,36.154824206651],[-86.8991824623847,36.1555264819227],[-86.8994903258152,36.1566274274282],[-86.899826273947,36.1580534192676],[-86.8999013451098,36.1586989792374],[-86.9001980418938,36.1597692366434],[-86.9005058202812,36.1603822929796],[-86.9017007909617,36.1625117180594],[-86.9038713711435,36.1681274763889],[-86.894913323489,36.1689731189887],[-86.8948811798962,36.1689648708848],[-86.8948243006752,36.1689383687281],[-86.8946692509982,36.1688367193351],[-86.8945169238226,36.1687323998107],[-86.8943673874802,36.1686254565251],[-86.8942207136762,36.1685159394286],[-86.8940769674564,36.1684038994226],[-86.8939362160978,36.1682893882931],[-86.893798523522,36.1681724560486],[-86.8936639537199,36.1680531590058],[-86.8935325673166,36.1679315508028],[-86.8934044249663,36.1678076877814],[-86.8932795873318,36.1676816271844],[-86.8931581095076,36.1675534253944],[-86.8930400466272,36.1674231423992],[-86.892925456046,36.1672908381697],[-86.8928143884494,36.1671565727261],[-86.8927068934404,36.1670204088005],[-86.8926030239353,36.1668824072977],[-86.8924203669259,36.1666857193652],[-86.8922411079865,36.1664869871699],[-86.8920652797828,36.1662862501417],[-86.8918929171914,36.1660835467921],[-86.8917240528754,36.1658789165506],[-86.8915587206081,36.1656723988381],[-86.8913969530602,36.165464033985],[-86.8912387784657,36.1652538632554],[-86.8910842305842,36.1650419251686],[-86.8909333387894,36.1648282636841],[-86.8907861312815,36.1646129173618],[-86.8906426374421,36.164395931062],[-86.8905276314911,36.1642111064951],[-86.89041643026,36.1640247576218],[-86.8903090632006,36.1638369356077],[-86.8902055631085,36.163647692495],[-86.8901059550083,36.1634570812841],[-86.8900102683492,36.1632651531399],[-86.889918530387,36.1630719619472],[-86.8898307639311,36.162877561623],[-86.889746995104,36.1626820042573],[-86.8896672456222,36.1624853455771],[-86.8895915393941,36.1622876385894],[-86.8895198959117,36.1620889390368],[-86.8894523346467,36.1618893008596],[-86.8893888762011,36.1616887797915],[-86.8893295345086,36.1614874316156],[-86.88927433016,36.1612853111635],[-86.8892131767673,36.1610976937251],[-86.8891559778915,36.1609092575933],[-86.8891027519038,36.1607200576161],[-86.8890535127394,36.1605301495749],[-86.8890082754241,36.1603395874404],[-86.8889670527909,36.1601484279029],[-86.8889298565409,36.1599567258581],[-86.8888966983848,36.1597645371023],[-86.888867586699,36.1595719174563],[-86.8888693591177,36.1593201401907],[-86.8888748462661,36.159068397736],[-86.8888840473914,36.158816725247],[-86.8888969617809,36.1585651614827],[-86.8888775833702,36.1584881682223],[-86.8888621140017,36.1584105963858],[-86.8888505795467,36.1583325737656],[-86.8888430003899,36.1582542345033],[-86.8888393890861,36.1581757082913],[-86.8888397515627,36.1580971284754],[-86.888844087059,36.158018626648],[-86.8888523870449,36.1579403353595],[-86.8888646396368,36.1578623853821],[-86.8888808240707,36.1577849084543],[-86.8889009117939,36.1577080354702],[-86.8889416654653,36.1575715915976],[-86.8889780198685,36.1574343329093],[-86.8890099493936,36.1572963524297],[-86.8890374339882,36.1571577431419],[-86.8890604525291,36.1570186016417],[-86.8890789905009,36.1568790190679],[-86.8890930367932,36.1567390928427],[-86.889102579144,36.1565989167913],[-86.8890961756886,36.1565326757384],[-86.8890942201328,36.1564662495981],[-86.8890967191315,36.1563998366031],[-86.8891036626303,36.1563336315038],[-86.889115033907,36.1562678290988],[-86.8891307962568,36.1562026261363],[-86.8891509029031,36.1561382131293],[-86.8891752970887,36.1560747824664]]]},"properties":{"id":"272243","parcel":"09000000300","address":"3886 OLD HICKORY BLVD","owner":"H.T.P.C. PARTNERSHP, 2","point":[-86.8942669953142,36.156437720925275]}}]}