{"type":"FeatureCollection","features":[{"type":"Feature","id":"107111","geometry":{"type":"Polygon","coordinates":[[[-86.8887288683028,36.2731387741177],[-86.888465834475,36.2730991216305],[-86.8882838168676,36.2731010417441],[-86.8881947568428,36.27307542844],[-86.8879230117558,36.2729240080853],[-86.8879124740515,36.2729220477758],[-86.8881134425828,36.2709037856434],[-86.8893129145604,36.2708971626599],[-86.889412522995,36.2662308912203],[-86.8880069287669,36.2657577520541],[-86.8878170464766,36.265038328482],[-86.8878390581082,36.2650156381697],[-86.8878626867755,36.2649940409081],[-86.8882634402623,36.2645831612152],[-86.8886870277861,36.2641517880521],[-86.8890271237253,36.2638075568291],[-86.8894399883661,36.2638418784266],[-86.8894251573678,36.2649385991361],[-86.8897941655358,36.2649336854608],[-86.8904015896978,36.2648940491427],[-86.8912298375678,36.264703343851],[-86.8918997242087,36.2649093731922],[-86.8924744705239,36.2651007180127],[-86.8930569625473,36.2652568414032],[-86.8933867677079,36.2656257990678],[-86.8933759521589,36.2659302508914],[-86.8933630991721,36.2662344419641],[-86.8933426746837,36.2666493933894],[-86.8933386901014,36.2668201722757],[-86.8933389394237,36.266990981141],[-86.8933434207932,36.2671617515038],[-86.8933521356807,36.2673324139568],[-86.8933650766746,36.2675029009599],[-86.8933822408043,36.2676731440391],[-86.8934036217401,36.2678430729417],[-86.8934153671524,36.2679220998033],[-86.8937121119251,36.2697200287692],[-86.893718395034,36.2697658569025],[-86.8930445068345,36.2699312647314],[-86.8932756834763,36.2704569837981],[-86.8939116347502,36.2702962507447],[-86.8939539490801,36.2703707506246],[-86.8940000143095,36.2704437780369],[-86.894049751131,36.27051520829],[-86.8941030769383,36.2705849203218],[-86.8941392809001,36.2706286046949],[-86.8941599061195,36.2706526254595],[-86.8942399159737,36.2707685075734],[-86.8943021577233,36.2708705237805],[-86.894360488874,36.2709740433394],[-86.8944148559992,36.2710789684147],[-86.8944652056609,36.2711852002694],[-86.8945114910674,36.2712926374132],[-86.8945536687543,36.2714011774296],[-86.8945916974927,36.2715107187865],[-86.8946255415763,36.2716211563057],[-86.8946551697503,36.2717323847753],[-86.8947330298279,36.2721383671642],[-86.8947420087893,36.2721833515158],[-86.8947533755993,36.2722279811206],[-86.8947671081602,36.2722721714237],[-86.894900112556,36.2727546599168],[-86.8949618488771,36.2729344069428],[-86.8950028482564,36.2730452131179],[-86.8950413678414,36.2731566009222],[-86.8950779122221,36.2732684089021],[-86.8950863739372,36.2732966400948],[-86.8950958486649,36.2733245898042],[-86.8951126341127,36.273380756696],[-86.8949232309929,36.2733640468634],[-86.8942615205097,36.273307086514],[-86.8938263268543,36.273269771137],[-86.8934805563911,36.2732401225102],[-86.892402107574,36.2731476405404],[-86.8909107910333,36.2730021055788],[-86.8891187424341,36.2728781130277],[-86.8890907823061,36.2734284805112],[-86.8889745467757,36.2733155112504],[-86.8888650035982,36.2732057678006],[-86.8887288683028,36.2731387741177]]]},"properties":{"id":"107111","parcel":"03800008900","address":"0 EATONS CREEK RD","owner":"EATON CREEK FARM, L.P.","point":[-86.89146052631847,36.26881917428517]}}]}