{"type":"FeatureCollection","features":[{"type":"Feature","id":"28372","geometry":{"type":"Polygon","coordinates":[[[-86.8921387323874,36.1390850888894],[-86.8923295031353,36.1389430254988],[-86.8926798108389,36.1392547047561],[-86.8926449119144,36.1392835327697],[-86.8924863312334,36.1393967887261],[-86.8921387323874,36.1390850888894]]]},"properties":{"id":"28372","parcel":"10207009700","address":"6648 BEACON LN","owner":"GRAGG, LINDA K.","point":[-86.8924089000796,36.13916989679492]}},{"type":"Feature","id":"28373","geometry":{"type":"Polygon","coordinates":[[[-86.8919479362591,36.1392249539236],[-86.8921387323874,36.1390850888894],[-86.8924863312334,36.1393967887261],[-86.8924487481412,36.1394278338669],[-86.8922955596757,36.1395388523479],[-86.8919479362591,36.1392249539236]]]},"properties":{"id":"28373","parcel":"10207009800","address":"6644 BEACON LN","owner":"NGUYEN, TU V. & BICH T.","point":[-86.89221680164758,36.13931087132892]}},{"type":"Feature","id":"28374","geometry":{"type":"Polygon","coordinates":[[[-86.891198242787,36.1397799184342],[-86.8913809882428,36.1396467060953],[-86.8917476241349,36.1399648602567],[-86.8916111584996,36.1401175098227],[-86.8915950754116,36.1401330153926],[-86.891198242787,36.1397799184342]]]},"properties":{"id":"28374","parcel":"10207010200","address":"6628 BEACON LN","owner":"RABY, SARAH & BRADLEY","point":[-86.89147161535406,36.139872388466536]}},{"type":"Feature","id":"28379","geometry":{"type":"Polygon","coordinates":[[[-86.8931374354082,36.1397128341201],[-86.8932080815347,36.13965324548],[-86.8932773108755,36.1395925731272],[-86.8933118522867,36.1395620991306],[-86.8937382959999,36.1398973867255],[-86.8936945272591,36.1399454943171],[-86.8936526922246,36.1399947195822],[-86.8936165870859,36.140020332011],[-86.8935828438191,36.1400479809626],[-86.8931374354082,36.1397128341201]]]},"properties":{"id":"28379","parcel":"10207011900","address":"6640 UPTON LN","owner":"6640 UPTON LANE, LLC","point":[-86.89344049932578,36.13980511314314]}},{"type":"Feature","id":"28397","geometry":{"type":"Polygon","coordinates":[[[-86.8933118522867,36.1395620991306],[-86.8934998133024,36.139411264478],[-86.8938826156475,36.1397205013773],[-86.8938554056142,36.1397604387843],[-86.8938257993445,36.1397992393913],[-86.8937938713222,36.1398368080101],[-86.8937596971836,36.1398730530489],[-86.8937382959999,36.1398973867255],[-86.8933118522867,36.1395620991306]]]},"properties":{"id":"28397","parcel":"10207012000","address":"6644 UPTON LN","owner":"MILUKOFF, ANDREW","point":[-86.89359857809656,36.13964130178831]}},{"type":"Feature","id":"28398","geometry":{"type":"Polygon","coordinates":[[[-86.8929344293364,36.137562792402],[-86.8932702994633,36.1373141634818],[-86.8934290576284,36.1374580362102],[-86.8930931401544,36.1377022694463],[-86.8929344293364,36.137562792402]]]},"properties":{"id":"28398","parcel":"10207012700","address":"6708 UPTON LN","owner":"WURR FAMILY TRUST","point":[-86.8931811006401,36.13751041398847]}},{"type":"Feature","id":"28710","geometry":{"type":"Polygon","coordinates":[[[-86.8926798108389,36.1392547047561],[-86.8928383673589,36.1391392513849],[-86.893218431245,36.1394463133183],[-86.8931161118955,36.1395333299778],[-86.8930466479003,36.1395904348899],[-86.8926449119144,36.1392835327697],[-86.8926798108389,36.1392547047561]]]},"properties":{"id":"28710","parcel":"10207008600","address":"6641 UPTON LN","owner":"EDENS, TAMMY ANDREA","point":[-86.89293456878441,36.139364925977446]}},{"type":"Feature","id":"28712","geometry":{"type":"Polygon","coordinates":[[[-86.8930345544283,36.1389971467916],[-86.8930587148633,36.1389771883736],[-86.8932280320785,36.1388550619277],[-86.8935809785519,36.1391601261683],[-86.8934857045987,36.1392300657126],[-86.8933929182538,36.1393021714723],[-86.8930345544283,36.1389971467916]]]},"properties":{"id":"28712","parcel":"10207008800","address":"6649 UPTON LN","owner":"YOUNG, WILLIAM H & DEBORAH E ETAL","point":[-86.89330849539884,36.13907863744119]}},{"type":"Feature","id":"28742","geometry":{"type":"Polygon","coordinates":[[[-86.8899997307665,36.130512283439],[-86.8906421763562,36.1303053530232],[-86.8907334529637,36.1305090655742],[-86.890856135151,36.1307828725891],[-86.8908590208688,36.1307945914317],[-86.8908595248515,36.1308065342566],[-86.8908576346713,36.1308183857056],[-86.8908534001222,36.1308298308619],[-86.8908469322513,36.1308405678759],[-86.8908384033994,36.1308503115694],[-86.8908280384243,36.1308588034151],[-86.8908161136815,36.1308658196554],[-86.890802943713,36.1308711732037],[-86.8902222808903,36.1310314963742],[-86.8899997307665,36.130512283439]]]},"properties":{"id":"28742","parcel":"10211003500","address":"812 TEMPLETON DR","owner":"SUN, ZEXI & CHEN, SHENGJIE","point":[-86.89042662113387,36.13064757758036]}},{"type":"Feature","id":"28745","geometry":{"type":"Polygon","coordinates":[[[-86.8903159699815,36.1324350208622],[-86.8914295954706,36.131976045393],[-86.8916492075251,36.1323485002226],[-86.8906224294221,36.1327292025033],[-86.8906003158876,36.1327079755406],[-86.8903159699815,36.1324350208622]]]},"properties":{"id":"28745","parcel":"10211004000","address":"824 TEMPLETON DR","owner":"FANT, GEORGE & CHASTITY LIVING TRUST","point":[-86.89097667840063,36.132391757018475]}},{"type":"Feature","id":"28777","geometry":{"type":"Polygon","coordinates":[[[-86.8933525188795,36.1386014047702],[-86.8936373148479,36.1383883176006],[-86.8936726850035,36.1384265828243],[-86.8937047561591,36.1384667147],[-86.8937333795447,36.1385085268651],[-86.8937584218526,36.1385518247306],[-86.8937797674695,36.1385964063664],[-86.8937973162852,36.1386420652203],[-86.8932943762743,36.138731497651],[-86.8933525188795,36.1386014047702]]]},"properties":{"id":"28777","parcel":"10207009100","address":"6681 UPTON LN","owner":"NGUYEN, TOI H. ET UX","point":[-86.89357926859849,36.13857394703713]}},{"type":"Feature","id":"28780","geometry":{"type":"Polygon","coordinates":[[[-86.8927056981863,36.1386655302358],[-86.8928884127329,36.1385301193361],[-86.8932441393524,36.138841756888],[-86.8932280320785,36.1388550619277],[-86.8930587148633,36.1389771883736],[-86.8927056981863,36.1386655302358]]]},"properties":{"id":"28780","parcel":"10207009400","address":"6660 BEACON LN","owner":"CRAIG FAMILY LIVING TRUST","point":[-86.89297453243682,36.138753643519664]}},{"type":"Feature","id":"28912","geometry":{"type":"Polygon","coordinates":[[[-86.893977629582,36.1387747881582],[-86.8939795097598,36.138750627915],[-86.8939797949364,36.1387264209064],[-86.8939777630315,36.138701095448],[-86.8939738072317,36.1386759203386],[-86.8939732479993,36.1386653334884],[-86.893974745029,36.1386548062087],[-86.8939782590336,36.1386445992619],[-86.8939837050925,36.1386349665378],[-86.8939909470048,36.1386261469845],[-86.8939998049958,36.1386183582421],[-86.8940100601207,36.138611793005],[-86.894021457547,36.1386066144909],[-86.8940338018759,36.1386032315281],[-86.8940466383585,36.1386014203624],[-86.8940596663612,36.1386012237792],[-86.8940728874667,36.1386023876045],[-86.8940895333916,36.1386069338053],[-86.8941123556373,36.1386165697521],[-86.8941366771966,36.1386233798717],[-86.8941619664073,36.1386272175891],[-86.8941876778635,36.1386279986199],[-86.8942132513662,36.1386257063861],[-86.8942381319013,36.1386203900659],[-86.8942617796602,36.1386121663211],[-86.8942836799679,36.1386012129152],[-86.894303358828,36.1385877676965],[-86.8944566071424,36.1387228869669],[-86.8950261504924,36.1387736073801],[-86.8949873411471,36.1388014241076],[-86.8949509384356,36.1388313058392],[-86.8949075118429,36.1388672647447],[-86.8948619809353,36.1389014682174],[-86.894795143865,36.1389511371041],[-86.893977629582,36.1387747881582]]]},"properties":{"id":"28912","parcel":"10206000500","address":"6664 UPTON LN","owner":"HESTER, SHERIDAN THOMAS","point":[-86.89443986227033,36.13876206331208]}},{"type":"Feature","id":"28915","geometry":{"type":"Polygon","coordinates":[[[-86.8938406874061,36.1391252370376],[-86.8938681208735,36.139088583152],[-86.893892402532,36.1390504943328],[-86.8939134166032,36.1390111480916],[-86.8939310673796,36.1389707280998],[-86.8945644581234,36.1391572329041],[-86.8945301468165,36.1391845023966],[-86.8944942869603,36.1392104269267],[-86.8944569579204,36.139234950025],[-86.8944333996037,36.1392564517652],[-86.8944086634409,36.1392770636516],[-86.8943911059825,36.1392847249381],[-86.89437504576,36.1392943074769],[-86.8943608017634,36.1393056223381],[-86.8943486537008,36.1393184457332],[-86.89433884316,36.1393325235121],[-86.894298626367,36.1393701825539],[-86.8938406874061,36.1391252370376]]]},"properties":{"id":"28915","parcel":"10206000700","address":"6656 UPTON LN","owner":"MADDEN, CHARLES E. JR. & WANDA SUE","point":[-86.89423613546627,36.13917059328557]}},{"type":"Feature","id":"29114","geometry":{"type":"Polygon","coordinates":[[[-86.8922149263033,36.1395965882622],[-86.8922955596757,36.1395388523479],[-86.8924487481412,36.1394278338669],[-86.8928857528008,36.1397388711922],[-86.8928233775847,36.1397960758269],[-86.8927626083421,36.1398544077676],[-86.8927034791923,36.1399138379232],[-86.8922149263033,36.1395965882622]]]},"properties":{"id":"29114","parcel":"10207008400","address":"6633 UPTON LN","owner":"HUYNH, KHANHD. & DANG, GAI THI","point":[-86.89255513277577,36.13966773449699]}},{"type":"Feature","id":"29119","geometry":{"type":"Polygon","coordinates":[[[-86.8924863312334,36.1393967887261],[-86.8926449119144,36.1392835327697],[-86.8930466479003,36.1395904348899],[-86.8929819462967,36.1396494278533],[-86.8928857528008,36.1397388711922],[-86.8924487481412,36.1394278338669],[-86.8924863312334,36.1393967887261]]]},"properties":{"id":"29119","parcel":"10207008500","address":"6637 UPTON LN","owner":"DEMARDES, WILLIAM STEPHEN","point":[-86.89275159634575,36.13950913824252]}},{"type":"Feature","id":"29192","geometry":{"type":"Polygon","coordinates":[[[-86.8930899458865,36.1383813821582],[-86.8933237106023,36.1382082308319],[-86.8933343077834,36.1382011565969],[-86.8933461964856,36.1381955986727],[-86.8933590539616,36.1381917081607],[-86.8933725280806,36.138189592217],[-86.893386247267,36.1381893085711],[-86.8933998349528,36.1381908663205],[-86.8934129206384,36.1381942213419],[-86.8934251432853,36.138199281674],[-86.8934361691034,36.1382059082874],[-86.8934456960554,36.1382139204581],[-86.8936373148479,36.1383883176006],[-86.8933525188795,36.1386014047702],[-86.8930899458865,36.1383813821582]]]},"properties":{"id":"29192","parcel":"10207009200","address":"6668 BEACON LN","owner":"TRAN, OANH VAN & LE, TRANG","point":[-86.89336000045712,36.138494741225706]}},{"type":"Feature","id":"29195","geometry":{"type":"Polygon","coordinates":[[[-86.8926101641128,36.1387365615752],[-86.8927056981863,36.1386655302358],[-86.8930587148633,36.1389771883736],[-86.8930345544283,36.1389971467916],[-86.8928706293511,36.1391170357221],[-86.8925176127907,36.1388053770454],[-86.8926101641128,36.1387365615752]]]},"properties":{"id":"29195","parcel":"10207009500","address":"6656 BEACON LN","owner":"WEST, LAWRENCE & RHONDA","point":[-86.89278816353315,36.13889128301519]}},{"type":"Feature","id":"29198","geometry":{"type":"Polygon","coordinates":[[[-86.8923295031353,36.1389430254988],[-86.8925176127907,36.1388053770454],[-86.8928706293511,36.1391170357221],[-86.8928383673589,36.1391392513849],[-86.8926798108389,36.1392547047561],[-86.8923295031353,36.1389430254988]]]},"properties":{"id":"29198","parcel":"10207009600","address":"6652 BEACON LN","owner":"ELLIOT, MARY M.","point":[-86.89259968500038,36.13903003057458]}},{"type":"Feature","id":"29201","geometry":{"type":"Polygon","coordinates":[[[-86.8917598493141,36.1393647995233],[-86.8919479362591,36.1392249539236],[-86.8922955596757,36.1395388523479],[-86.8922149263033,36.1395965882622],[-86.89211013194,36.1396742823511],[-86.8917598493141,36.1393647995233]]]},"properties":{"id":"29201","parcel":"10207009900","address":"6640 BEACON LN","owner":"GARLAND, STANLEY E. ETUX","point":[-86.89202876491314,36.13945182719144]}},{"type":"Feature","id":"29204","geometry":{"type":"Polygon","coordinates":[[[-86.8915663677938,36.139506882014],[-86.8917598493141,36.1393647995233],[-86.89211013194,36.1396742823511],[-86.8919945742459,36.1397586497146],[-86.8919247282689,36.1398119101138],[-86.8915663677938,36.139506882014]]]},"properties":{"id":"29204","parcel":"10207010000","address":"6636 BEACON LN","owner":"COLEMAN, REBECCA L.","point":[-86.89184004819757,36.13959058411546]}},{"type":"Feature","id":"29627","geometry":{"type":"Polygon","coordinates":[[[-86.8937335334733,36.1382711264805],[-86.8940882197459,36.1380091701536],[-86.8941571749921,36.1383580934857],[-86.8941347212917,36.138361737948],[-86.894113111256,36.1383678772185],[-86.8940927624635,36.1383763946413],[-86.8940740708159,36.1383871232495],[-86.8940573984069,36.1383998539664],[-86.8940426413636,36.1384149336558],[-86.8940306617136,36.1384315546887],[-86.8940244009146,36.1384423443932],[-86.8940159607522,36.1384521083613],[-86.8940055902439,36.1384605617442],[-86.8939935943553,36.1384674544283],[-86.8939803230519,36.1384725855375],[-86.8939624082993,36.1384757393839],[-86.8939492763764,36.1384757835084],[-86.8939363000096,36.1384741500897],[-86.8939238007861,36.1384708809081],[-86.8939120940632,36.1384660565454],[-86.8939014689695,36.1384597965331],[-86.8938921906167,36.1384522584347],[-86.8938844911101,36.1384436288992],[-86.8938580686772,36.1384050613103],[-86.8938290580194,36.1383677377357],[-86.8937975459775,36.1383317719934],[-86.8937636304811,36.1382972760166],[-86.8937335334733,36.1382711264805]]]},"properties":{"id":"29627","parcel":"10206000100","address":"6680 UPTON LN","owner":"BABCOCK, KAYLA & BAMARNI, DARYVON","point":[-86.89401250821771,36.13814023842574]}},{"type":"Feature","id":"29865","geometry":{"type":"Polygon","coordinates":[[[-86.8978456708883,36.136434812824],[-86.8971329986719,36.1343647611585],[-86.8966265457938,36.1339004163688],[-86.8968121198264,36.1337300387292],[-86.8969948930316,36.1335576798591],[-86.8971748324417,36.1333833715612],[-86.8973519072812,36.1332071429182],[-86.8974627094268,36.133094513273],[-86.8976099882208,36.1329414994905],[-86.8976665186511,36.1329001469664],[-86.8977258490458,36.1328614630176],[-86.8977877919508,36.1328255734126],[-86.8978521453382,36.1327925923119],[-86.8979187015555,36.1327626276088],[-86.8979872472638,36.1327357755229],[-86.8980575612368,36.1327121224187],[-86.8981294154608,36.1326917438961],[-86.8982025818214,36.1326747065434],[-86.8982768198517,36.1326610653247],[-86.8983518945076,36.1326508634476],[-86.898427560635,36.1326441342812],[-86.8985035762803,36.1326408994549],[-86.8985796949136,36.1326411689158],[-86.8986556732159,36.1326449417726],[-86.8987312633117,36.132652207254],[-86.8988062249491,36.1326629410134],[-86.8988803144205,36.1326771079152],[-86.8989442130637,36.1326835924352],[-86.8990084263145,36.1326875410611],[-86.8990728007327,36.1326889441206],[-86.899147013477,36.1326874041252],[-86.899221000096,36.1326824778343],[-86.8992945296551,36.1326741804891],[-86.8993673658183,36.1326625408906],[-86.8994392789769,36.1326475931982],[-86.8995100407974,36.1326293859828],[-86.8995794274924,36.1326079767947],[-86.8996472187207,36.1325834330734],[-86.8997131998297,36.1325558339327],[-86.8997771606928,36.1325252656637],[-86.899838900195,36.1324918253058],[-86.8998982206573,36.1324556188863],[-86.8999549356238,36.1324167622627],[-86.9000088653769,36.1323753775519],[-86.9000598369683,36.1323315958331],[-86.9001076908842,36.132285557098],[-86.900152274319,36.1322374048939],[-86.9001934457205,36.1321872953018],[-86.9002310757583,36.1321353843115],[-86.9002650452139,36.1320818377513],[-86.9002952437984,36.1320268249879],[-86.9003215790604,36.1319705206625],[-86.9003439652556,36.1319131029709],[-86.9003623333561,36.1318547544903],[-86.9003766232424,36.1317956595338],[-86.9005241535464,36.1316657185519],[-86.9013547658379,36.1325534305596],[-86.9018278144504,36.1333844721758],[-86.9028036375833,36.1353460317371],[-86.9028311446756,36.1354013252851],[-86.9028267554223,36.1354024567988],[-86.9028139379066,36.1354069482868],[-86.902801809497,36.135412535087],[-86.9027411179239,36.1354263453875],[-86.902679482246,36.1354370586922],[-86.9026171431048,36.1354446335428],[-86.9025543423859,36.1354490401889],[-86.9024913254519,36.1354502614726],[-86.9024283378088,36.1354482928532],[-86.9023697614239,36.1354626693753],[-86.9023102128567,36.13547411675],[-86.9022499127398,36.1354825927683],[-86.9022130531132,36.1354803060608],[-86.9021760910152,36.1354797568863],[-86.9021391520371,36.135480948812],[-86.9020942291746,36.1354856947092],[-86.9020499320642,36.1354933930299],[-86.9020065556723,36.1355039929002],[-86.9019643869634,36.1355174236779],[-86.901923708254,36.1355335967301],[-86.9018640562553,36.1355599113673],[-86.9018024813191,36.1355831309118],[-86.9017392290677,36.1356031633963],[-86.9016739111849,36.1356205470843],[-86.9016075246948,36.1356350212603],[-86.9015402657998,36.1356465447999],[-86.9014723341075,36.1356550828626],[-86.9014039293486,36.135660611423],[-86.9013101966321,36.1356699955947],[-86.9012171202879,36.1356829781309],[-86.9011249077631,36.1356995313464],[-86.901033768615,36.1357196176263],[-86.9009439078551,36.1357431903779],[-86.9008555271013,36.1357701976264],[-86.900822800939,36.1357811555683],[-86.9006987107386,36.1358291192393],[-86.9005736955033,36.1358754754833],[-86.9004477873252,36.1359202123413],[-86.9003972364959,36.1359341719918],[-86.9003455658088,36.1359451071518],[-86.9002930512645,36.1359529589794],[-86.9002531335704,36.1359568286423],[-86.9002435396636,36.1359612714659],[-86.9002204224287,36.1359696150155],[-86.900196073936,36.1359752008007],[-86.9001709928807,36.1359779142417],[-86.9001456908436,36.1359776992467],[-86.9001260068369,36.135975358559],[-86.9000684938399,36.1359842254758],[-86.9000116698015,36.1359956486793],[-86.8999557087755,36.1360095944258],[-86.8998841465578,36.1360289046996],[-86.8998136916786,36.1360507293701],[-86.8997444769824,36.1360750259894],[-86.8996766341726,36.1361017494144],[-86.8996102937706,36.1361308482021],[-86.8995452132247,36.1361593517236],[-86.8994816889173,36.1361900787951],[-86.8994198357871,36.1362229753863],[-86.8993597686911,36.1362579802572],[-86.8993297253414,36.1362849174107],[-86.8992976237705,36.1363102457819],[-86.8992635961147,36.1363338598349],[-86.8992277801986,36.1363556657088],[-86.8991625818464,36.1363894919886],[-86.8990956021018,36.1364209422],[-86.8990269714144,36.1364499576861],[-86.8989568235468,36.1364764779623],[-86.8988852968392,36.1365004542276],[-86.8988125318442,36.1365218367629],[-86.8987722505127,36.1365326782814],[-86.8987181915326,36.1365471527532],[-86.8986651211389,36.1365638604323],[-86.898613177714,36.1365827570275],[-86.8985624995797,36.1366037928408],[-86.8985132194215,36.1366269110057],[-86.8984559873117,36.1366577078342],[-86.8983969871379,36.1366862240295],[-86.8983363548029,36.1367123918823],[-86.8983187147473,36.1367194459999],[-86.8982790666587,36.1367344186352],[-86.8982652549585,36.1367408394785],[-86.8982612064235,36.1367422431799],[-86.8982266636625,36.1367595571801],[-86.8981941414488,36.1367792787826],[-86.8981638958225,36.136801254667],[-86.8981361626227,36.1368253136377],[-86.898095523238,36.1368555983159],[-86.8980533803843,36.1368844980803],[-86.8980098046268,36.136911964636],[-86.8978456708883,36.136434812824]]]},"properties":{"id":"29865","parcel":"10200001800","address":"7600 CABOT DR","owner":"BELLS BLUFF, LLC","point":[-86.89954098404753,36.1341348505402]}},{"type":"Feature","id":"29867","geometry":{"type":"Polygon","coordinates":[[[-86.8933150661405,36.1323837617031],[-86.8953284795489,36.1317073281756],[-86.8953382787861,36.1317127397771],[-86.8953468255887,36.1317194053491],[-86.8953538756271,36.1317271365339],[-86.8953592320271,36.1317357166817],[-86.8953627431676,36.1317449026693],[-86.8953643094589,36.1317544347643],[-86.8953638889987,36.1317640455958],[-86.8953614909472,36.1317734638087],[-86.8953571845268,36.1317824239108],[-86.8953510902158,36.1317906735491],[-86.8917385824935,36.133140445569],[-86.8914241370694,36.1332579257578],[-86.8914171712716,36.1332416450326],[-86.8914133976904,36.1332246854854],[-86.8914129097947,36.1332074556097],[-86.8914157178325,36.1331903735262],[-86.8914217542038,36.1331738507204],[-86.8914308722687,36.1331582848409],[-86.8914428540531,36.1331440533337],[-86.8916035423678,36.1330606623275],[-86.8917663545198,36.1329800268572],[-86.8919312175909,36.1329021826038],[-86.8920980586442,36.132827163446],[-86.8922668047437,36.1327550032628],[-86.8924373818129,36.1326857332383],[-86.8926097135442,36.1326193836719],[-86.8927837258529,36.132555984847],[-86.892959340181,36.1324955643767],[-86.8931364790618,36.1324381480637],[-86.8933150661405,36.1323837617031]]]},"properties":{"id":"29867","parcel":"10200002201","address":"0 CHARLOTTE PIKE","owner":"CGM PARTNERS","point":[-86.89329407689317,36.13246707579935]}},{"type":"Feature","id":"29919","geometry":{"type":"Polygon","coordinates":[[[-86.8946300967803,36.1380095488751],[-86.8942521159457,36.1378870823857],[-86.8940046689562,36.137807601394],[-86.8939230982777,36.1377818360111],[-86.8937869245355,36.1377191114335],[-86.8936425732609,36.1376520499056],[-86.8935878466566,36.1376041058321],[-86.8934290576284,36.1374580362102],[-86.8932702994633,36.1373141634818],[-86.8930595223678,36.1371223270865],[-86.8932555320461,36.1369648365984],[-86.8932856284317,36.1369909889663],[-86.8933310101606,36.1369447514154],[-86.8933733464418,36.1368966509094],[-86.8934125232034,36.1368468189826],[-86.893448429768,36.1367953925516],[-86.8934809688321,36.1367425120391],[-86.8935100520419,36.1366883232088],[-86.8935355999528,36.1366329735613],[-86.8935575420598,36.1365766150367],[-86.8935758178879,36.1365194022047],[-86.8936107843289,36.1364312679378],[-86.8936334133266,36.1363802696575],[-86.8936590462185,36.1363302152992],[-86.8936876243146,36.1362812215615],[-86.8937190799862,36.1362334007027],[-86.893753340071,36.1361868668243],[-86.8937903257605,36.1361417259583],[-86.8938092775789,36.1361202999069],[-86.8938121639709,36.1361181082288],[-86.8938510224606,36.1360777636267],[-86.8938921276773,36.1360389111163],[-86.8938953235368,36.136037067743],[-86.8947119459451,36.1354156583855],[-86.8947573134292,36.135384279863],[-86.8948033603243,36.1353534451666],[-86.8948794066627,36.135427602184],[-86.8949588506466,36.1354993761869],[-86.8950415800205,36.1355686652551],[-86.8951274770026,36.135635370213],[-86.8952164183059,36.1356993964327],[-86.895308276228,36.1357606520229],[-86.8954029219951,36.1358190487054],[-86.8955002191361,36.1358745054697],[-86.8956000300677,36.135926941314],[-86.8957022094994,36.1359762816028],[-86.895806614412,36.1360224561905],[-86.8959130940593,36.1360653994956],[-86.8960214977343,36.1361050495421],[-86.8961316703562,36.1361413506957],[-86.896711490515,36.1375831275237],[-86.896669999474,36.1375953463741],[-86.89662775543,36.1376057267772],[-86.8965721338751,36.1376289264115],[-86.8965180581617,36.1376544164149],[-86.8964656697547,36.1376821299442],[-86.8964151089273,36.1377119929554],[-86.8963665092261,36.1377439260466],[-86.8963404793571,36.1377763268481],[-86.8963114208962,36.1378069863287],[-86.8962795117626,36.1378357202035],[-86.8962449444314,36.137862353994],[-86.896207927086,36.1378867266238],[-86.8961686847185,36.1379086895104],[-86.8961274558372,36.1379281101937],[-86.8960484918426,36.1379848097642],[-86.8959715491839,36.1380433094582],[-86.8958966917609,36.1381035610367],[-86.8958239768182,36.1381655172118],[-86.8958129260432,36.1381765859239],[-86.8958011913836,36.1381871144354],[-86.8957971830234,36.1381920886446],[-86.8957884350146,36.1381970989453],[-86.8957643930555,36.1382125082571],[-86.8957382670606,36.1382254950612],[-86.8957104249303,36.1382358727628],[-86.8956812605977,36.1382434969348],[-86.8956748138861,36.1382434014892],[-86.895668440458,36.138244187857],[-86.8956623211877,36.1382458348672],[-86.8951984132933,36.1381921382009],[-86.8946300967803,36.1380095488751]]]},"properties":{"id":"29919","parcel":"10200005700","address":"6700 CABOT DR","owner":"CUMBERLAND VIEW APARTMENTS PARTNERSHIP","point":[-86.89491828091869,36.136822420279444]}},{"type":"Feature","id":"29935","geometry":{"type":"Polygon","coordinates":[[[-86.8900797831146,36.1326737233489],[-86.8903159699815,36.1324350208622],[-86.8906003158876,36.1327079755406],[-86.8906224294221,36.1327292025033],[-86.8911029955673,36.1331905107927],[-86.8905686650809,36.1335401957342],[-86.8900797831146,36.1326737233489]]]},"properties":{"id":"29935","parcel":"10211001400","address":"6821 OLD CHARLOTTE PIKE","owner":"RAYMOND, CHARLES & SANDY","point":[-86.8905518077931,36.13295957321361]}},{"type":"Feature","id":"30118","geometry":{"type":"Polygon","coordinates":[[[-86.8930756125297,36.1329554563183],[-86.8937951315818,36.132759315685],[-86.8939782208654,36.1332016062225],[-86.8940107302604,36.1332801367922],[-86.8936539434608,36.1333773268679],[-86.8933399841271,36.1334629002408],[-86.8930472543738,36.1329631865693],[-86.8930756125297,36.1329554563183]]]},"properties":{"id":"30118","parcel":"10200005100","address":"6830 CHARLOTTE PIKE","owner":"HALL, NORRIS R. ET UX","point":[-86.89352295333953,36.13308240638245]}},{"type":"Feature","id":"30127","geometry":{"type":"Polygon","coordinates":[[[-86.8906224294221,36.1327292025033],[-86.8916492075251,36.1323485002226],[-86.8917932020495,36.1325961781325],[-86.8918387848266,36.1326746991653],[-86.8918418846981,36.132684198333],[-86.8918431987988,36.1326939657657],[-86.891842698005,36.1327037826665],[-86.8918403931772,36.1327134290411],[-86.8918363363219,36.1327226881966],[-86.8918306195208,36.1327313503538],[-86.8918232435931,36.132739092846],[-86.8918145659926,36.132745888696],[-86.8918047684478,36.1327515959595],[-86.8917168233005,36.1327967839643],[-86.8916307494862,36.1328442851928],[-86.891546640855,36.132894047582],[-86.8914645856934,36.132946018209],[-86.8913846744797,36.133000141431],[-86.8913069909972,36.1330563589508],[-86.8911029955673,36.1331905107927],[-86.8906224294221,36.1327292025033]]]},"properties":{"id":"30127","parcel":"10211001300","address":"828 TEMPLETON DR","owner":"BROOKS, ELAINE M.","point":[-86.89121452841492,36.13277369509836]}},{"type":"Feature","id":"30142","geometry":{"type":"Polygon","coordinates":[[[-86.8948033603243,36.1353534451666],[-86.8949632757445,36.1352393522856],[-86.8950879650154,36.1351486159772],[-86.8951537305178,36.1351005834277],[-86.8952793336011,36.1350070731887],[-86.8954348025428,36.1348891668732],[-86.8955765919302,36.1347797726941],[-86.8957926708647,36.1346087520474],[-86.8960057478774,36.1344352711533],[-86.8962157811378,36.1342593645872],[-86.8964227266049,36.1340810678417],[-86.8966265457938,36.1339004163688],[-86.8971329986719,36.1343647611585],[-86.8978456708883,36.136434812824],[-86.8980098046268,36.136911964636],[-86.8979706036771,36.13693563665],[-86.8979301915347,36.1369579278835],[-86.8978886410689,36.1369787972352],[-86.8978016169084,36.1370178972851],[-86.8977161531248,36.1370592001187],[-86.8976260389495,36.1371003770608],[-86.8975343276709,36.1371391647921],[-86.8974411166261,36.1371755238298],[-86.8973835378464,36.1372073745175],[-86.8973275213948,36.1372410080159],[-86.8972731522681,36.1372763750256],[-86.8972205098572,36.1373134217826],[-86.8971652253535,36.1373563834685],[-86.8971072155221,36.1373969129962],[-86.8970466412697,36.137434893801],[-86.8969836747567,36.1374702218527],[-86.8969184892864,36.1375027958167],[-86.8968512705167,36.1375325259835],[-86.8967822063895,36.1375593280345],[-86.896711490515,36.1375831275237],[-86.8961316703562,36.1361413506957],[-86.8960214977343,36.1361050495421],[-86.8959130940593,36.1360653994956],[-86.895806614412,36.1360224561905],[-86.8957022094994,36.1359762816028],[-86.8956000300677,36.135926941314],[-86.8955002191361,36.1358745054697],[-86.8954029219951,36.1358190487054],[-86.895308276228,36.1357606520229],[-86.8952164183059,36.1356993964327],[-86.8951274770026,36.135635370213],[-86.8950415800205,36.1355686652551],[-86.8949588506466,36.1354993761869],[-86.8948794066627,36.135427602184],[-86.8948033603243,36.1353534451666]]]},"properties":{"id":"30142","parcel":"10200007300","address":"7388 CABOT DR","owner":"RIVERVIEW PARTNERSHIP, GP","point":[-86.8964330339181,36.135731042199325]}},{"type":"Feature","id":"30151","geometry":{"type":"Polygon","coordinates":[[[-86.8897965287364,36.1313587956132],[-86.88989034372,36.1313184362382],[-86.8899861273181,36.1312812456079],[-86.8900837168987,36.1312472844026],[-86.8901829475891,36.1312166115169],[-86.8902836510937,36.1311892777595],[-86.8903466854318,36.1311718692947],[-86.8906134999201,36.1317582331313],[-86.8903412393833,36.132191398021],[-86.8897965287364,36.1313587956132]]]},"properties":{"id":"30151","parcel":"10211003700","address":"733 ADKISSON LN","owner":"ACE REAL ESTATE TRUST","point":[-86.8902248880038,36.131558533286025]}},{"type":"Feature","id":"30187","geometry":{"type":"Polygon","coordinates":[[[-86.8941571749921,36.1383580934857],[-86.8940882197459,36.1380091701536],[-86.8942521159457,36.1378870823857],[-86.8946300967803,36.1380095488751],[-86.8942848020533,36.138383520046],[-86.8942660858399,36.1383733255449],[-86.894245797959,36.1383653517384],[-86.8942243346434,36.1383597570188],[-86.8942021182318,36.1383566500148],[-86.8941795838571,36.1383560914921],[-86.8941571749921,36.1383580934857]]]},"properties":{"id":"30187","parcel":"10206000200","address":"6676 S UPTON CT","owner":"HALL, NORRIS RONALD ETUX","point":[-86.89429625552083,36.13818277422439]}},{"type":"Feature","id":"30259","geometry":{"type":"Polygon","coordinates":[[[-86.8894713510301,36.1302612470952],[-86.8904400172372,36.129913457363],[-86.8906421763562,36.1303053530232],[-86.8899997307665,36.130512283439],[-86.8894778276643,36.1303557000859],[-86.8894713510301,36.1302612470952]]]},"properties":{"id":"30259","parcel":"10215001100","address":"808 TEMPLETON DR","owner":"MCNEILLY, ROBERT THOMAS & EMILY R.","point":[-86.89024283883793,36.130087616669904]}},{"type":"Feature","id":"30459","geometry":{"type":"Polygon","coordinates":[[[-86.8919945742459,36.1397586497146],[-86.89211013194,36.1396742823511],[-86.8922149263033,36.1395965882622],[-86.8927034791923,36.1399138379232],[-86.892617602005,36.1400003097831],[-86.8925347519087,36.1400887041566],[-86.8919945742459,36.1397586497146]]]},"properties":{"id":"30459","parcel":"10207008300","address":"6629 UPTON LN","owner":"SALDANA, JUAN F.","point":[-86.8923527722319,36.13983624771]}},{"type":"Feature","id":"30460","geometry":{"type":"Polygon","coordinates":[[[-86.8928383673589,36.1391392513849],[-86.8928706293511,36.1391170357221],[-86.8930345544283,36.1389971467916],[-86.8933929182538,36.1393021714723],[-86.8933043215531,36.139373164597],[-86.893218431245,36.1394463133183],[-86.8928383673589,36.1391392513849]]]},"properties":{"id":"30460","parcel":"10207008700","address":"6645 UPTON LN","owner":"MCDOW, ROBERT S., III","point":[-86.89311820124824,36.139220714032966]}},{"type":"Feature","id":"30489","geometry":{"type":"Polygon","coordinates":[[[-86.8932280320785,36.1388550619277],[-86.8932441393524,36.138841756888],[-86.8932679029231,36.1387866377545],[-86.8937707561108,36.1389301601657],[-86.8937536071532,36.1389676878001],[-86.8937328923266,36.1390040115929],[-86.8937087369111,36.1390389097994],[-86.8936812907221,36.1390721686049],[-86.893650721454,36.1391035830747],[-86.8936172158624,36.1391329634549],[-86.8935809785519,36.1391601261683],[-86.8932280320785,36.1388550619277]]]},"properties":{"id":"30489","parcel":"10207008900","address":"6655 UPTON LN","owner":"BROCK, SUZANNE B. & CHARLES R.","point":[-86.89356111137215,36.1389856879754]}},{"type":"Feature","id":"30490","geometry":{"type":"Polygon","coordinates":[[[-86.8932679029231,36.1387866377545],[-86.8932943762743,36.138731497651],[-86.8937973162852,36.1386420652203],[-86.8938053642007,36.1386846967414],[-86.8938096993636,36.1387276811301],[-86.8938095056903,36.1387689010064],[-86.8938054804867,36.1388099915421],[-86.8937976466728,36.1388507191344],[-86.8937860505108,36.1388908509084],[-86.8937707561108,36.1389301601657],[-86.8932679029231,36.1387866377545]]]},"properties":{"id":"30490","parcel":"10207009000","address":"6661 UPTON LN","owner":"BASIE, JENNIFER","point":[-86.89354044393279,36.138777771232874]}},{"type":"Feature","id":"30491","geometry":{"type":"Polygon","coordinates":[[[-86.8928884127329,36.1385301193361],[-86.8930899458865,36.1383813821582],[-86.8933525188795,36.1386014047702],[-86.8932943762743,36.138731497651],[-86.8932679029231,36.1387866377545],[-86.8932441393524,36.138841756888],[-86.8928884127329,36.1385301193361]]]},"properties":{"id":"30491","parcel":"10207009300","address":"6664 BEACON LN","owner":"HALEY, STEVEN R. & JILL A.","point":[-86.89318359730035,36.138666326575695]}},{"type":"Feature","id":"30492","geometry":{"type":"Polygon","coordinates":[[[-86.8913809882428,36.1396467060953],[-86.8915663677938,36.139506882014],[-86.8919247282689,36.1398119101138],[-86.8918172245951,36.1398896248695],[-86.8917797644434,36.13993165734],[-86.8917476241349,36.1399648602567],[-86.8913809882428,36.1396467060953]]]},"properties":{"id":"30492","parcel":"10207010100","address":"6632 BEACON LN","owner":"LE, BE VAN & TRAN, PHUNG KIM LIVING TRUST","point":[-86.89165193126166,36.13972930757489]}},{"type":"Feature","id":"30497","geometry":{"type":"Polygon","coordinates":[[[-86.8929470855989,36.1398922565714],[-86.8930410298046,36.1398016870085],[-86.8931374354082,36.1397128341201],[-86.8935828438191,36.1400479809626],[-86.8935425126332,36.1400812666555],[-86.893505044421,36.1401166861026],[-86.8934762664314,36.1401425245254],[-86.8934450330615,36.1401664136202],[-86.8934115448202,36.1401882004845],[-86.893376015712,36.1402077465368],[-86.8929470855989,36.1398922565714]]]},"properties":{"id":"30497","parcel":"10207011800","address":"6636 UPTON LN","owner":"TOMLINSON, JULIA B","point":[-86.89326615326587,36.139970120248265]}},{"type":"Feature","id":"30525","geometry":{"type":"Polygon","coordinates":[[[-86.8936905576525,36.1392670008983],[-86.8937147416402,36.1392492404078],[-86.8937502990061,36.1392210975879],[-86.8937832558507,36.1391909425267],[-86.8938134372738,36.1391589324443],[-86.8938406874061,36.1391252370376],[-86.894298626367,36.1393701825539],[-86.8942395193181,36.1394145744869],[-86.8942201259109,36.1394216175551],[-86.8942023867488,36.1394311052609],[-86.8941867645888,36.1394427881248],[-86.8941736693297,36.1394563602783],[-86.8941634425493,36.1394714676898],[-86.8941563520296,36.1394877154156],[-86.8941373033983,36.1395102769318],[-86.8941161156999,36.1395315465333],[-86.894092921889,36.1395513916462],[-86.8940678649908,36.1395696859309],[-86.8936905576525,36.1392670008983]]]},"properties":{"id":"30525","parcel":"10207012200","address":"6652 UPTON LN","owner":"WARRICK, ROGER E. & LYNN M.","point":[-86.89397856046612,36.139318577922275]}},{"type":"Feature","id":"30526","geometry":{"type":"Polygon","coordinates":[[[-86.8934187906982,36.1379899549032],[-86.8937869245355,36.1377191114335],[-86.8939230982777,36.1377818360111],[-86.8940046689562,36.137807601394],[-86.8935720611053,36.1381272742691],[-86.8934187906982,36.1379899549032]]]},"properties":{"id":"30526","parcel":"10207012400","address":"6688 UPTON LN","owner":"HAMILTON, RICHIE L. & EUTOLA C. ET AL","point":[-86.89371200045736,36.137898778747946]}},{"type":"Feature","id":"31046","geometry":{"type":"Polygon","coordinates":[[[-86.8934998133024,36.139411264478],[-86.8936905576525,36.1392670008983],[-86.8940678649908,36.1395696859309],[-86.8940628056499,36.1395740982557],[-86.8940569899594,36.1395778501359],[-86.8940505503016,36.139580856771],[-86.894043630372,36.1395830513023],[-86.8940198289568,36.1395988712611],[-86.893998268904,36.1396166817672],[-86.8939792034208,36.1396362736505],[-86.8939518565319,36.1396547768515],[-86.8939265255188,36.1396750802969],[-86.8939033909904,36.1396970402467],[-86.8938826156475,36.1397205013773],[-86.8934998133024,36.139411264478]]]},"properties":{"id":"31046","parcel":"10207012100","address":"6650 UPTON LN","owner":"CARSON, JEFFREY D. & CARA C.","point":[-86.89378349706253,36.139490475238155]}},{"type":"Feature","id":"31047","geometry":{"type":"Polygon","coordinates":[[[-86.8935720611053,36.1381272742691],[-86.8940046689562,36.137807601394],[-86.8942521159457,36.1378870823857],[-86.8940882197459,36.1380091701536],[-86.8937335334733,36.1382711264805],[-86.8935720611053,36.1381272742691]]]},"properties":{"id":"31047","parcel":"10207012300","address":"6684 UPTON LN","owner":"PRIVETTE, GARY W.","point":[-86.89383011969619,36.13806822247145]}},{"type":"Feature","id":"31048","geometry":{"type":"Polygon","coordinates":[[[-86.8930931401544,36.1377022694463],[-86.8934290576284,36.1374580362102],[-86.8935878466566,36.1376041058321],[-86.8932546107901,36.1378461223144],[-86.8930931401544,36.1377022694463]]]},"properties":{"id":"31048","parcel":"10207012600","address":"6704 UPTON LN","owner":"BLEDSOE, HUNTER","point":[-86.89334045618881,36.13765318786178]}},{"type":"Feature","id":"31128","geometry":{"type":"Polygon","coordinates":[[[-86.8926157787207,36.136692664363],[-86.892801173909,36.136555035427],[-86.893124636029,36.1368514713652],[-86.8931461039376,36.1368711461165],[-86.8929660776181,36.1370043429714],[-86.8926157787207,36.136692664363]]]},"properties":{"id":"31128","parcel":"10207001400","address":"6653 CABOT DR","owner":"NOONAN, DANIEL R.","point":[-86.89287150588301,36.13677206929605]}},{"type":"Feature","id":"31129","geometry":{"type":"Polygon","coordinates":[[[-86.8914577348532,36.1375539328866],[-86.89164581804,36.137414087692],[-86.8919933604693,36.1377213938682],[-86.8918079589143,36.1378590197353],[-86.8914577348532,36.1375539328866]]]},"properties":{"id":"31129","parcel":"10207002000","address":"6629 CABOT DR","owner":"SACHAN, DILEEP","point":[-86.89172625928506,36.13763766432045]}},{"type":"Feature","id":"31130","geometry":{"type":"Polygon","coordinates":[[[-86.8900524433688,36.1385972232087],[-86.8902647417978,36.1384418202845],[-86.8906068133089,36.1387447751722],[-86.8905978567218,36.1387514323775],[-86.8903918542282,36.1389045956855],[-86.8900524433688,36.1385972232087]]]},"properties":{"id":"31130","parcel":"10207002700","address":"6601 CABOT DR","owner":"NGUYEN, HUNG NGOC & LE, LIEM THI JOINT REV TRUST","point":[-86.89032871154454,36.13867099867196]}},{"type":"Feature","id":"31131","geometry":{"type":"Polygon","coordinates":[[[-86.889858985313,36.1387415019412],[-86.8900524433688,36.1385972232087],[-86.8903918542282,36.1389045956855],[-86.8902064247365,36.1390400236866],[-86.889858985313,36.1387415019412]]]},"properties":{"id":"31131","parcel":"10207002800","address":"6593 CABOT DR","owner":"NGUYEN, LEE & LYNDA","point":[-86.89012784881069,36.13882305133827]}},{"type":"Feature","id":"31132","geometry":{"type":"Polygon","coordinates":[[[-86.8899485195559,36.139417183123],[-86.8901440386788,36.1392756370921],[-86.8904833821551,36.1395764150836],[-86.8903785861239,36.139654107669],[-86.8902576584054,36.1397429076452],[-86.8899371104587,36.1394266072832],[-86.8899485195559,36.139417183123]]]},"properties":{"id":"31132","parcel":"10207003000","address":"6586 CABOT DR","owner":"PERRY, PHILLIP DALE & PAMELA J.","point":[-86.89020595297659,36.139501507559544]}},{"type":"Feature","id":"31145","geometry":{"type":"Polygon","coordinates":[[[-86.8919229276605,36.1379636616094],[-86.8921244578519,36.1378149260469],[-86.8924637229182,36.138109106276],[-86.8924503029861,36.1381201940043],[-86.8922595108368,36.1382600595581],[-86.8922568257248,36.1382622767469],[-86.8919229276605,36.1379636616094]]]},"properties":{"id":"31145","parcel":"10207004000","address":"6628 CABOT DR","owner":"BAITINGER, JEFFREY & MERIGOLD, JOANNE","point":[-86.89219205049952,36.13803638310073]}},{"type":"Feature","id":"31146","geometry":{"type":"Polygon","coordinates":[[[-86.892580283721,36.1378730898626],[-86.8928382598131,36.1376843772044],[-86.8930216252191,36.1378478470431],[-86.8927475182526,36.1380476688078],[-86.8925765948496,36.138026956508],[-86.892580283721,36.1378730898626]]]},"properties":{"id":"31146","parcel":"10207004300","address":"6705 UPTON LN","owner":"HA LI, MAI TU THI & NGUYEN, HOA THANH","point":[-86.89280092427455,36.13786046862914]}},{"type":"Feature","id":"31147","geometry":{"type":"Polygon","coordinates":[[[-86.8922595108368,36.1382600595581],[-86.8924503029861,36.1381201940043],[-86.8927842048036,36.138418807662],[-86.8925961201308,36.1385586546029],[-86.8922595108368,36.1382600595581]]]},"properties":{"id":"31147","parcel":"10207004600","address":"6661 BEACON LN","owner":"NGUYEN, THUY KIM","point":[-86.8925222199279,36.138339434222615]}},{"type":"Feature","id":"31148","geometry":{"type":"Polygon","coordinates":[[[-86.8922568257248,36.1382622767469],[-86.8922595108368,36.1382600595581],[-86.8925961201308,36.1385586546029],[-86.8924080358962,36.1386985003361],[-86.8920714503064,36.1384021028356],[-86.8922568257248,36.1382622767469]]]},"properties":{"id":"31148","parcel":"10207004700","address":"6657 BEACON LN","owner":"PROCTOR, TOMMIE COWAN & EDWINA LEE","point":[-86.89233410871955,36.13848037929764]}},{"type":"Feature","id":"31149","geometry":{"type":"Polygon","coordinates":[[[-86.8920445563959,36.1384198830359],[-86.8920714503064,36.1384021028356],[-86.8924080358962,36.1386985003361],[-86.8923533207968,36.138738461497],[-86.8922226102951,36.1388339287394],[-86.8918833655186,36.1385419477565],[-86.8920445563959,36.1384198830359]]]},"properties":{"id":"31149","parcel":"10207004800","address":"6653 BEACON LN","owner":"GASKILL, HUBERT G. ETUX","point":[-86.89214672828182,36.138620225259196]}},{"type":"Feature","id":"31150","geometry":{"type":"Polygon","coordinates":[[[-86.8914561132111,36.1388571786397],[-86.8915098533305,36.1388172232925],[-86.8918464374724,36.1391136223359],[-86.8916529813986,36.1392579021231],[-86.891319081418,36.1389592853918],[-86.8914561132111,36.1388571786397]]]},"properties":{"id":"31150","parcel":"10207005100","address":"6641 BEACON LN","owner":"OLDHAM FAMILY REVOCABLE TRUST, THE","point":[-86.89158208777229,36.13903645354639]}},{"type":"Feature","id":"31151","geometry":{"type":"Polygon","coordinates":[[[-86.8910772288204,36.1391368871466],[-86.8911363620756,36.1390946921056],[-86.8914621840092,36.1393977672841],[-86.8912740935669,36.1395376112355],[-86.8909428554582,36.1392345782604],[-86.8910772288204,36.1391368871466]]]},"properties":{"id":"31151","parcel":"10207005300","address":"6633 BEACON LN","owner":"BUI, DUNG H. & TU T. HUYNH","point":[-86.89120325416722,36.139316173721184]}},{"type":"Feature","id":"31513","geometry":{"type":"Polygon","coordinates":[[[-86.8924196459964,36.1368391626596],[-86.8926157787207,36.136692664363],[-86.8929660776181,36.1370043429714],[-86.8929460351885,36.1370190362451],[-86.8927752890592,36.1371442093812],[-86.8924196459964,36.1368391626596]]]},"properties":{"id":"31513","parcel":"10207001500","address":"6649 CABOT DR","owner":"CARNEY, YVONNE F.","point":[-86.89269459251457,36.13692175467798]}},{"type":"Feature","id":"31514","geometry":{"type":"Polygon","coordinates":[[[-86.8918365856544,36.1372720250191],[-86.8920273525963,36.1371299629406],[-86.8923829943333,36.1374350099026],[-86.8921895186316,36.1375770934637],[-86.8918365856544,36.1372720250191]]]},"properties":{"id":"31514","parcel":"10207001800","address":"6637 CABOT DR","owner":"PORT, STEPHEN","point":[-86.89210942501325,36.137353517444005]}},{"type":"Feature","id":"31515","geometry":{"type":"Polygon","coordinates":[[[-86.89164581804,36.137414087692],[-86.8918365856544,36.1372720250191],[-86.8921895186316,36.1375770934637],[-86.8919933604693,36.1377213938682],[-86.89164581804,36.137414087692]]]},"properties":{"id":"31515","parcel":"10207001900","address":"6633 CABOT DR","owner":"EDENS, TAMMY","point":[-86.8919166110244,36.137495589932584]}},{"type":"Feature","id":"31516","geometry":{"type":"Polygon","coordinates":[[[-86.8908612416613,36.1379978780857],[-86.8910519874204,36.1378536195255],[-86.89139950146,36.1381587293515],[-86.8912114160751,36.138298574135],[-86.8908612416613,36.1379978780857]]]},"properties":{"id":"31516","parcel":"10207002300","address":"6617 CABOT DR","owner":"KNIGHT, CARL E. SR. ET UX","point":[-86.89113139848298,36.138078304954696]}},{"type":"Feature","id":"31517","geometry":{"type":"Polygon","coordinates":[[[-86.8904554896974,36.1382975617829],[-86.8906677865159,36.138142156335],[-86.8910125669772,36.1384450900997],[-86.8907975826473,36.1386027142159],[-86.8904554896974,36.1382975617829]]]},"properties":{"id":"31517","parcel":"10207002500","address":"6609 CABOT DR","owner":"WHALEN, ROBERT T. ET UX","point":[-86.8907333990249,36.13837132569131]}},{"type":"Feature","id":"31518","geometry":{"type":"Polygon","coordinates":[[[-86.8902647417978,36.1384418202845],[-86.8904554896974,36.1382975617829],[-86.8907975826473,36.1386027142159],[-86.8906068133089,36.1387447751722],[-86.8902647417978,36.1384418202845]]]},"properties":{"id":"31518","parcel":"10207002600","address":"6605 CABOT DR","owner":"PORT, STEPHEN","point":[-86.89053148597299,36.13852226784272]}},{"type":"Feature","id":"31535","geometry":{"type":"Polygon","coordinates":[[[-86.8903563174123,36.1391180350585],[-86.8905498001507,36.1389759544939],[-86.8908918246136,36.1392745133413],[-86.8907494220814,36.1393810519403],[-86.8907010516073,36.1394165744382],[-86.8903563174123,36.1391180350585]]]},"properties":{"id":"31535","parcel":"10207003200","address":"6594 CABOT DR","owner":"NGUYEN, THUONG BA &NGA THI & TRAN, THAO","point":[-86.89062442847126,36.13919627482591]}},{"type":"Feature","id":"31536","geometry":{"type":"Polygon","coordinates":[[[-86.8905498001507,36.1389759544939],[-86.8907352042431,36.1388383279128],[-86.8910772288204,36.1391368871466],[-86.8909428554582,36.1392345782604],[-86.8908918246136,36.1392745133413],[-86.8905498001507,36.1389759544939]]]},"properties":{"id":"31536","parcel":"10207003300","address":"6600 CABOT DR","owner":"MAHAFFEY, MATTHEW & LETICIA","point":[-86.89081351435492,36.139056421110766]}},{"type":"Feature","id":"31537","geometry":{"type":"Polygon","coordinates":[[[-86.8909286856317,36.1386962476315],[-86.8911167971009,36.1385585986496],[-86.8914561132111,36.1388571786397],[-86.891319081418,36.1389592853918],[-86.8912679993703,36.1389948254527],[-86.8909286856317,36.1386962476315]]]},"properties":{"id":"31537","parcel":"10207003500","address":"6608 CABOT DR","owner":"H. TRANS INVESTMENTS, LLC ETAL","point":[-86.89119239926102,36.13877671342609]}},{"type":"Feature","id":"31538","geometry":{"type":"Polygon","coordinates":[[[-86.8917079486641,36.1381212873509],[-86.8919229276605,36.1379636616094],[-86.8922568257248,36.1382622767469],[-86.8920714503064,36.1384021028356],[-86.8920445563959,36.1384198830359],[-86.8917079486641,36.1381212873509]]]},"properties":{"id":"31538","parcel":"10207003900","address":"6624 CABOT DR","owner":"E CUBED, LLC","point":[-86.89198270898946,36.13819178265373]}},{"type":"Feature","id":"31539","geometry":{"type":"Polygon","coordinates":[[[-86.8921244578519,36.1378149260469],[-86.8923367501125,36.137659517643],[-86.892580283721,36.1378730898626],[-86.8925765948496,36.138026956508],[-86.8924637229182,36.138109106276],[-86.8921244578519,36.1378149260469]]]},"properties":{"id":"31539","parcel":"10207004100","address":"6632 CABOT DR","owner":"CAMP, TRAVIS J & JODY S","point":[-86.8924291945448,36.13794988924126]}},{"type":"Feature","id":"31540","geometry":{"type":"Polygon","coordinates":[[[-86.8923367501125,36.137659517643],[-86.8925463328609,36.1375041279964],[-86.8925545857416,36.1374987493632],[-86.8925637710915,36.1374944796213],[-86.8925736622965,36.1374914222924],[-86.892584021308,36.1374896521413],[-86.8925945941588,36.1374892116047],[-86.8926051390528,36.1374904350454],[-86.892615316662,36.1374929869922],[-86.8926248740352,36.1374968026217],[-86.8926335734611,36.1375017890577],[-86.892641201316,36.1375078217013],[-86.8928382598131,36.1376843772044],[-86.892580283721,36.1378730898626],[-86.8923367501125,36.137659517643]]]},"properties":{"id":"31540","parcel":"10207004200","address":"6636 CABOT DR","owner":"INGRAM, DOROTHY ELAINE","point":[-86.89258765267658,36.13767194781863]}},{"type":"Feature","id":"31541","geometry":{"type":"Polygon","coordinates":[[[-86.8912679993703,36.1389948254527],[-86.891319081418,36.1389592853918],[-86.8916529813986,36.1392579021231],[-86.8914621840092,36.1393977672841],[-86.8911363620756,36.1390946921056],[-86.8912679993703,36.1389948254527]]]},"properties":{"id":"31541","parcel":"10207005200","address":"6637 BEACON LN","owner":"BURT, BRITTANY A & CHRISTOPHER J","point":[-86.8913929144302,36.13917629579977]}},{"type":"Feature","id":"31659","geometry":{"type":"Polygon","coordinates":[[[-86.8922315655349,36.1369790090813],[-86.8924196459964,36.1368391626596],[-86.8927752890592,36.1371442093812],[-86.8926260281148,36.1372553660585],[-86.8925845234621,36.1372862762467],[-86.8922315655349,36.1369790090813]]]},"properties":{"id":"31659","parcel":"10207001600","address":"6645 CABOT DR","owner":"EWING, JOHN W. & KAREN G.","point":[-86.89250271886914,36.137061608904325]}},{"type":"Feature","id":"31660","geometry":{"type":"Polygon","coordinates":[[[-86.8920273525963,36.1371299629406],[-86.8922315655349,36.1369790090813],[-86.8925845234621,36.1372862762467],[-86.8924783235287,36.1373646543855],[-86.8923829943333,36.1374350099026],[-86.8920273525963,36.1371299629406]]]},"properties":{"id":"31660","parcel":"10207001700","address":"6641 CABOT DR","owner":"FRANKLIN, SHANNON, TRUSTEE","point":[-86.89230660762549,36.137208120519965]}},{"type":"Feature","id":"31661","geometry":{"type":"Polygon","coordinates":[[[-86.8912481498324,36.137709319739],[-86.8914577348532,36.1375539328866],[-86.8918079589143,36.1378590197353],[-86.8915956897928,36.1380166270535],[-86.8912481498324,36.137709319739]]]},"properties":{"id":"31661","parcel":"10207002100","address":"6625 CABOT DR","owner":"COOK, LARRY D. ETUX","point":[-86.89152741774872,36.13778416948791]}},{"type":"Feature","id":"31662","geometry":{"type":"Polygon","coordinates":[[[-86.8910519874204,36.1378536195255],[-86.8912481498324,36.137709319739],[-86.8915956897928,36.1380166270535],[-86.89139950146,36.1381587293515],[-86.8910519874204,36.1378536195255]]]},"properties":{"id":"31662","parcel":"10207002200","address":"6621 CABOT DR","owner":"H. TRAN INVESTMENTS, LLC ETAL","point":[-86.89132416657924,36.137935123895915]}},{"type":"Feature","id":"31663","geometry":{"type":"Polygon","coordinates":[[[-86.8906677865159,36.138142156335],[-86.8908612416613,36.1379978780857],[-86.8912114160751,36.138298574135],[-86.8910125669772,36.1384450900997],[-86.8906677865159,36.138142156335]]]},"properties":{"id":"31663","parcel":"10207002400","address":"6613 CABOT DR","owner":"PATTON, KENNETH D. & MELODY C.","point":[-86.89093856955922,36.13822036460427]}},{"type":"Feature","id":"31671","geometry":{"type":"Polygon","coordinates":[[[-86.8901440386788,36.1392756370921],[-86.8903563174123,36.1391180350585],[-86.8907010516073,36.1394165744382],[-86.8905666761977,36.1395142651342],[-86.8904833821551,36.1395764150836],[-86.8901440386788,36.1392756370921]]]},"properties":{"id":"31671","parcel":"10207003100","address":"6590 CABOT DR","owner":"STEPHENS, F. LARRY & ANGELA K.","point":[-86.89042161211245,36.139346105235546]}},{"type":"Feature","id":"31672","geometry":{"type":"Polygon","coordinates":[[[-86.8908561300292,36.1387495256346],[-86.8909286856317,36.1386962476315],[-86.8912679993703,36.1389948254527],[-86.8911363620756,36.1390946921056],[-86.8910772288204,36.1391368871466],[-86.8907352042431,36.1388383279128],[-86.8908561300292,36.1387495256346]]]},"properties":{"id":"31672","parcel":"10207003400","address":"6604 CABOT DR","owner":"GREEN, MARY A.","point":[-86.89100195927759,36.13891657730461]}},{"type":"Feature","id":"31673","geometry":{"type":"Polygon","coordinates":[[[-86.8911167971009,36.1385585986496],[-86.8913021779296,36.1384187767125],[-86.8916414907759,36.138717353513],[-86.8915098533305,36.1388172232925],[-86.8914561132111,36.1388571786397],[-86.8911167971009,36.1385585986496]]]},"properties":{"id":"31673","parcel":"10207003600","address":"6612 CABOT DR","owner":"PENUEL, PAMELA & SMITH, JOHNATHAN","point":[-86.89137914371746,36.13863797636873]}},{"type":"Feature","id":"31674","geometry":{"type":"Polygon","coordinates":[[[-86.8924637229182,36.138109106276],[-86.8925765948496,36.138026956508],[-86.8927475182526,36.1380476688078],[-86.8929884185075,36.1382678525805],[-86.8927842048036,36.138418807662],[-86.8924503029861,36.1381201940043],[-86.8924637229182,36.138109106276]]]},"properties":{"id":"31674","parcel":"10207004500","address":"6665 BEACON LN","owner":"NGUYEN, THIEN & LE, PHOUNG T","point":[-86.89272024863158,36.13819402439011]}},{"type":"Feature","id":"31713","geometry":{"type":"Polygon","coordinates":[[[-86.8932546107901,36.1378461223144],[-86.8935878466566,36.1376041058321],[-86.8936425732609,36.1376520499056],[-86.8937869245355,36.1377191114335],[-86.8934187906982,36.1379899549032],[-86.8932546107901,36.1378461223144]]]},"properties":{"id":"31713","parcel":"10207012500","address":"6700 UPTON LN","owner":"ALLEN, LAURA LYNNE & MATTHEW DOUGLAS","point":[-86.89352133057774,36.137782617670595]}},{"type":"Feature","id":"31714","geometry":{"type":"Polygon","coordinates":[[[-86.8927556448508,36.137385003166],[-86.8927552335985,36.1373742214367],[-86.8927568976742,36.1373635180843],[-86.8927605944744,36.1373531556979],[-86.8927662368438,36.1373433872819],[-86.8927736841156,36.1373344500136],[-86.8927827576462,36.1373265633253],[-86.8930595223678,36.1371223270865],[-86.8932702994633,36.1373141634818],[-86.8929344293364,36.137562792402],[-86.8927784277339,36.1374232941991],[-86.8927701617341,36.1374148580536],[-86.8927635189933,36.1374055257357],[-86.8927586451435,36.1373955016609],[-86.8927556448508,36.137385003166]]]},"properties":{"id":"31714","parcel":"10207012800","address":"6712 UPTON LN","owner":"HUYNK, HANK HUU & LE, KHUE","point":[-86.89300312792747,36.13733912716504]}},{"type":"Feature","id":"31872","geometry":{"type":"Polygon","coordinates":[[[-86.894275361846,36.1332228734839],[-86.8947144745894,36.1331558021776],[-86.8947480859959,36.133156673201],[-86.8947816326876,36.1331547597217],[-86.8948147638107,36.1331500832692],[-86.8948471343612,36.1331426914669],[-86.8955026172781,36.1329632603799],[-86.8954371089282,36.1332213701792],[-86.8953899642434,36.1334071217972],[-86.8952755639672,36.1335016774858],[-86.8946201700239,36.1340499036942],[-86.894598929507,36.1340666412487],[-86.8942163431063,36.1343681122488],[-86.8939760773001,36.1341564594379],[-86.8934991961099,36.1337334552097],[-86.8933399841271,36.1334629002408],[-86.8936539434608,36.1333773268679],[-86.8940107302604,36.1332801367922],[-86.894275361846,36.1332228734839]]]},"properties":{"id":"31872","parcel":"10200005000","address":"6834 CHARLOTTE PIKE","owner":"NASHVILLE WEST SHOPPING CENTER, LLC","point":[-86.89428336717626,36.133617477888066]}},{"type":"Feature","id":"31885","geometry":{"type":"Polygon","coordinates":[[[-86.8920115062105,36.1325852395114],[-86.8919641991451,36.1325045582898],[-86.891812635465,36.1322460661209],[-86.8916054177555,36.1318871753567],[-86.8915584774073,36.1318084055885],[-86.8915097665074,36.131731546092],[-86.8914644557744,36.1316533293492],[-86.8914226029815,36.1315738549796],[-86.8913842614676,36.1314932235366],[-86.8920211957104,36.1312775363409],[-86.8926105855165,36.1314116324639],[-86.8927436919746,36.1314436129793],[-86.8930242570934,36.1313382445595],[-86.8932724638937,36.1312463008958],[-86.8937181432694,36.132091313052],[-86.8930109268119,36.132320715223],[-86.8924251608687,36.1325096565231],[-86.8923236306336,36.1325424031774],[-86.892223744768,36.132578322728],[-86.8921256526435,36.1326173608985],[-86.8921117165409,36.1326213917561],[-86.8920971428817,36.1326234616223],[-86.8920823476669,36.1326235133438],[-86.8920677530701,36.1326215446999],[-86.8920537752369,36.132617610296],[-86.8920408109841,36.1326118243654],[-86.8920292343754,36.132604352683],[-86.8920193721991,36.1325954055363],[-86.8920115062105,36.1325852395114]]]},"properties":{"id":"31885","parcel":"10211000600","address":"6833 OLD CHARLOTTE PIKE","owner":"CHARLOTTE HEIGHTS CHURCH OF CHRIST, INC.","point":[-86.89266430891809,36.13198925112785]}},{"type":"Feature","id":"31893","geometry":{"type":"Polygon","coordinates":[[[-86.8923115893516,36.1331834613883],[-86.8930181855169,36.1329135642503],[-86.8930472543738,36.1329631865693],[-86.8933399841271,36.1334629002408],[-86.8934991961099,36.1337334552097],[-86.8939760773001,36.1341564594379],[-86.8934010924244,36.134582990773],[-86.8928464248853,36.1340906409969],[-86.8923164076202,36.1331916328576],[-86.8923115893516,36.1331834613883]]]},"properties":{"id":"31893","parcel":"10200006200","address":"6820 CHARLOTTE PIKE 100","owner":"NASHVILLE WEST SHOPPING CENTER, LLC","point":[-86.89322098551531,36.13391209150679]}},{"type":"Feature","id":"31907","geometry":{"type":"Polygon","coordinates":[[[-86.8903412393833,36.132191398021],[-86.8906134999201,36.1317582331313],[-86.8912017839767,36.1315660914277],[-86.891239967237,36.1316463960272],[-86.891281610891,36.1317255628616],[-86.8913266593776,36.1318034913941],[-86.8913750594179,36.1318800864783],[-86.8914295954706,36.131976045393],[-86.8903159699815,36.1324350208622],[-86.8903412393833,36.132191398021]]]},"properties":{"id":"31907","parcel":"10211003900","address":"820 TEMPLETON DR","owner":"VALENTINI, MARIO C.","point":[-86.89078845271389,36.13208363457684]}},{"type":"Feature","id":"31938","geometry":{"type":"Polygon","coordinates":[[[-86.8942848020533,36.138383520046],[-86.8946300967803,36.1380095488751],[-86.8951984132933,36.1381921382009],[-86.8956623211877,36.1382458348672],[-86.8956577741735,36.1382480740661],[-86.8956536886405,36.1382508379918],[-86.8956501549817,36.1382540628835],[-86.8956472524185,36.1382576796554],[-86.8956450444553,36.138261604918],[-86.8956435801329,36.1382657535864],[-86.8956002725694,36.1383065941268],[-86.8955547959752,36.1383458527732],[-86.8955072372674,36.1383834531702],[-86.8954576889697,36.1384193234273],[-86.8954422537231,36.1384320776012],[-86.8943509360736,36.1384819259832],[-86.8943470230064,36.1384630190011],[-86.8943400509727,36.1384447007006],[-86.8943301447324,36.1384272946187],[-86.8943174766567,36.138411109519],[-86.8943022721922,36.1383964312393],[-86.8942848020533,36.138383520046]]]},"properties":{"id":"31938","parcel":"10206000300","address":"6672 S UPTON CT","owner":"PATTERSON, DALE R.","point":[-86.89503597687262,36.13824640919152]}},{"type":"Feature","id":"31939","geometry":{"type":"Polygon","coordinates":[[[-86.894303358828,36.1385877676965],[-86.894320723261,36.1385694952258],[-86.8943344390998,36.1385492822938],[-86.8943441828303,36.1385276062769],[-86.8943497246421,36.1385049772039],[-86.8943509360736,36.1384819259832],[-86.8954422537231,36.1384320776012],[-86.8954091968746,36.1384548595596],[-86.8953750207608,36.1384765277157],[-86.8953318507399,36.1385210146338],[-86.8952862433547,36.1385638711724],[-86.8952382909456,36.138605009219],[-86.8952193715,36.138610308554],[-86.8952018451869,36.1386181499873],[-86.8951862249448,36.1386283007874],[-86.8951729696821,36.1386404664351],[-86.8951624686817,36.1386542871343],[-86.8951550285127,36.1386693595395],[-86.8951344399249,36.1386939542283],[-86.8951108617164,36.1387167162498],[-86.8950845411772,36.1387374049271],[-86.895055753679,36.1387558064139],[-86.8950413880258,36.138765183598],[-86.8950261504924,36.1387736073801],[-86.8944566071424,36.1387228869669],[-86.894303358828,36.1385877676965]]]},"properties":{"id":"31939","parcel":"10206000400","address":"6668 S UPTON CT","owner":"BURKE, GLENN RHODES & PATRICIA JEAN","point":[-86.8947802654867,36.13859639766373]}},{"type":"Feature","id":"31940","geometry":{"type":"Polygon","coordinates":[[[-86.8939310673796,36.1389707280998],[-86.8939475816912,36.1389328951],[-86.8939605569283,36.1388941654049],[-86.8939699222131,36.1388547567503],[-86.8939756233638,36.1388148894518],[-86.893977629582,36.1387747881582],[-86.894795143865,36.1389511371041],[-86.8947823493182,36.1389637697607],[-86.894768322463,36.1389755102703],[-86.8947526653228,36.1389923551258],[-86.8947344434818,36.139007408318],[-86.8947139662884,36.139020414291],[-86.8946844942703,36.1390375454451],[-86.8946578080729,36.1390574562252],[-86.8946343021278,36.1390798489884],[-86.8946143260606,36.1391043939778],[-86.8946006103349,36.1391237317905],[-86.8945838918025,36.1391414470219],[-86.8945644581234,36.1391572329041],[-86.8939310673796,36.1389707280998]]]},"properties":{"id":"31940","parcel":"10206000600","address":"6660 UPTON LN","owner":"WILLIAMS, JERRY K. & CAROL","point":[-86.89435524909175,36.13896724839947]}},{"type":"Feature","id":"32687","geometry":{"type":"Polygon","coordinates":[[[-86.8913021779296,36.1384187767125],[-86.8914956786124,36.1382788917788],[-86.8918323109083,36.1385796860937],[-86.8916979394184,36.1386773780626],[-86.8916414907759,36.138717353513],[-86.8913021779296,36.1384187767125]]]},"properties":{"id":"32687","parcel":"10207003700","address":"6616 CABOT DR","owner":"YUCHNITZ, BRIAN C.","point":[-86.89156793910503,36.13849923232562]}},{"type":"Feature","id":"32688","geometry":{"type":"Polygon","coordinates":[[[-86.8914956786124,36.1382788917788],[-86.8917079486641,36.1381212873509],[-86.8920445563959,36.1384198830359],[-86.8918833655186,36.1385419477565],[-86.8918323109083,36.1385796860937],[-86.8914956786124,36.1382788917788]]]},"properties":{"id":"32688","parcel":"10207003800","address":"6620 CABOT DR","owner":"YUCHNITZ, MARIE M. & SHOCKLEY, SUSAN","point":[-86.89176983021936,36.138349387462384]}},{"type":"Feature","id":"32689","geometry":{"type":"Polygon","coordinates":[[[-86.8927475182526,36.1380476688078],[-86.8930216252191,36.1378478470431],[-86.893218660684,36.1380222047605],[-86.8932258983464,36.138029989649],[-86.8932313738261,36.1380386681384],[-86.8932349242243,36.1380479827662],[-86.8932364441719,36.1380576540133],[-86.8932358859718,36.1380673929204],[-86.8932332696897,36.1380769091254],[-86.8932286698823,36.138085916369],[-86.8932222268603,36.1380941459306],[-86.8932141323156,36.1381013530439],[-86.8929884185075,36.1382678525805],[-86.8927475182526,36.1380476688078]]]},"properties":{"id":"32689","parcel":"10207004400","address":"6701 UPTON LN","owner":"CECIL, BRIAN & RHOADS, JILLIAN P.","point":[-86.8929997366946,36.13806231248851]}},{"type":"Feature","id":"32690","geometry":{"type":"Polygon","coordinates":[[[-86.8918323109083,36.1385796860937],[-86.8918833655186,36.1385419477565],[-86.8922226102951,36.1388339287394],[-86.8920345494807,36.1389759746336],[-86.8916979394184,36.1386773780626],[-86.8918323109083,36.1385796860937]]]},"properties":{"id":"32690","parcel":"10207004900","address":"6649 BEACON LN","owner":"PHILLIPS, LUCINDA G.","point":[-86.89195892316975,36.13875565246933]}},{"type":"Feature","id":"32691","geometry":{"type":"Polygon","coordinates":[[[-86.8916414907759,36.138717353513],[-86.8916979394184,36.1386773780626],[-86.8920345494807,36.1389759746336],[-86.8918464374724,36.1391136223359],[-86.8915098533305,36.1388172232925],[-86.8916414907759,36.138717353513]]]},"properties":{"id":"32691","parcel":"10207005000","address":"6645 BEACON LN","owner":"LE, BE T","point":[-86.89177252916352,36.13889659954685]}},{"type":"Feature","id":"32692","geometry":{"type":"Polygon","coordinates":[[[-86.8907010516073,36.1394165744382],[-86.8907494220814,36.1393810519403],[-86.8910833217234,36.139679672919],[-86.8909032855433,36.139812863895],[-86.8905666761977,36.1395142651342],[-86.8907010516073,36.1394165744382]]]},"properties":{"id":"32692","parcel":"10207005500","address":"6625 BEACON LN","owner":"WHITE, ANDREW F. & DAVID T.","point":[-86.89082537717778,36.13959696965028]}},{"type":"Feature","id":"32693","geometry":{"type":"Polygon","coordinates":[[[-86.8904833821551,36.1395764150836],[-86.8905666761977,36.1395142651342],[-86.8909032855433,36.139812863895],[-86.8907178548025,36.1399482926501],[-86.8903785861239,36.139654107669],[-86.8904833821551,36.1395764150836]]]},"properties":{"id":"32693","parcel":"10207005600","address":"6621 BEACON LN","owner":"NGUYEN, CHONG & HONG HANH","point":[-86.89064196474527,36.13973348700908]}},{"type":"Feature","id":"32694","geometry":{"type":"Polygon","coordinates":[[[-86.8902576584054,36.1397429076452],[-86.8903785861239,36.139654107669],[-86.8907178548025,36.1399482926501],[-86.8905297886253,36.140090333454],[-86.8901878079841,36.1397961706686],[-86.8902576584054,36.1397429076452]]]},"properties":{"id":"32694","parcel":"10207005700","address":"6617 BEACON LN","owner":"HAYNES, ROBERT L. JR.,& LUNA, PATTY GAIL","point":[-86.89045318477147,36.13987223227603]}},{"type":"Feature","id":"33623","geometry":{"type":"Polygon","coordinates":[[[-86.8891438634186,36.1365294939942],[-86.88802264781,36.1357274195157],[-86.8880880532943,36.1356774737736],[-86.8881557931508,36.1356296189149],[-86.8882257670667,36.1355839259745],[-86.8882978669429,36.1355404651434],[-86.8883719868224,36.1354992993868],[-86.8884480163152,36.1354604926039],[-86.8885258405174,36.1354241024185],[-86.8891586224296,36.1351413147996],[-86.889244584942,36.1351013788944],[-86.8893288706754,36.135059155208],[-86.8894113857163,36.135014691303],[-86.8894199468911,36.135008967218],[-86.8894271690259,36.1350021354109],[-86.8894328366291,36.1349943993582],[-86.8894367822745,36.1349859883196],[-86.889438887662,36.1349771528234],[-86.8894390912932,36.134968155597],[-86.8894373861484,36.1349592625712],[-86.8894338241006,36.1349507401438],[-86.8894285101879,36.1349428399002],[-86.8892545705525,36.1347302426706],[-86.8892389326797,36.1347135246337],[-86.8892131509956,36.1346884011695],[-86.8891846453483,36.1346652950237],[-86.8891536545574,36.1346443991117],[-86.8891204383789,36.1346258908733],[-86.8890852740705,36.1346099232842],[-86.8890484586751,36.134596630248],[-86.8890102978804,36.1345861239737],[-86.8889711137555,36.1345784913142],[-86.8889312325708,36.1345737974608],[-86.8888909903125,36.1345720822976],[-86.8888662145991,36.1345730832052],[-86.8888417341196,36.1345763387501],[-86.8888178606035,36.1345818060783],[-86.8887948966102,36.1345894171673],[-86.8887762500839,36.1345576147977],[-86.8894905836718,36.1342819989909],[-86.8895090978804,36.1343135742044],[-86.8894815245533,36.134325976393],[-86.8894560633905,36.1343410587469],[-86.8894331073443,36.1343585903453],[-86.889413012221,36.1343782972798],[-86.8893960890559,36.1343998762295],[-86.8893826007598,36.1344229926835],[-86.889369141372,36.1344510704971],[-86.8893596123741,36.1344801882592],[-86.8893541308181,36.1345099836927],[-86.8893527670454,36.1345400903579],[-86.889355535737,36.1345701323109],[-86.8893624038526,36.1345997384655],[-86.8893732850748,36.1346285426344],[-86.8893880454043,36.1346561870929],[-86.8894065021295,36.1346823297971],[-86.8895512952106,36.134859431909],[-86.8895587065995,36.134867012949],[-86.889567583199,36.134873476407],[-86.8895776718362,36.1348786375834],[-86.8895886864423,36.1348823507766],[-86.8896003135978,36.1348845083405],[-86.8896122226528,36.1348850514258],[-86.889624074544,36.1348839636056],[-86.8896355329551,36.1348812752997],[-86.889646270973,36.1348770628244],[-86.8896559844095,36.1348714473924],[-86.8897314927539,36.1348176759881],[-86.8898047384242,36.134761884319],[-86.8898756398738,36.1347041324753],[-86.8899441156272,36.1346444868561],[-86.8900100908759,36.1345830138109],[-86.8900799767847,36.1346330062517],[-86.8910518890153,36.1353282529202],[-86.8911874518696,36.1351636197164],[-86.8920350441053,36.1356301879116],[-86.8920160355553,36.1356529254735],[-86.8923275480826,36.1358242354942],[-86.8922003134274,36.1359185189607],[-86.8921006090497,36.1359933166342],[-86.8912993612165,36.1365825438618],[-86.8903507212098,36.1372842584629],[-86.8892102399249,36.1364684348689],[-86.8891438634186,36.1365294939942]]]},"properties":{"id":"33623","parcel":"10200009300","address":"6806 CHARLOTTE PIKE","owner":"IVT NASHVILLE WEST 1031, LLC","point":[-86.89016530721793,36.13577583786669]}},{"type":"Feature","id":"33625","geometry":{"type":"Polygon","coordinates":[[[-86.8920350441053,36.1356301879116],[-86.8911874518696,36.1351636197164],[-86.8910518890153,36.1353282529202],[-86.8900799767847,36.1346330062517],[-86.890324057329,36.1343959211645],[-86.8903889813546,36.1343355687494],[-86.8904570714265,36.1342775579021],[-86.8905281976618,36.1342219977302],[-86.8906022301181,36.1341689919341],[-86.8906790266035,36.1341186416012],[-86.8907584426344,36.1340710415267],[-86.8908403303149,36.134026279321],[-86.8909245328521,36.1339844417591],[-86.8910108944544,36.133945605695],[-86.8908913236373,36.1337415238165],[-86.8923164076202,36.1331916328576],[-86.8928464248853,36.1340906409969],[-86.8934010924244,36.134582990773],[-86.8939760773001,36.1341564594379],[-86.8942163431063,36.1343681122488],[-86.8942511131128,36.1343988028701],[-86.8940210622808,36.1345700513637],[-86.8923275480826,36.1358242354942],[-86.8920160355553,36.1356529254735],[-86.8920350441053,36.1356301879116]]]},"properties":{"id":"33625","parcel":"10200009900","address":"6814 CHARLOTTE PIKE","owner":"TARGET CORPORATION","point":[-86.89176289587517,36.134482631041024]}},{"type":"Feature","id":"72101","geometry":{"type":"Polygon","coordinates":[[[-86.8939782208654,36.1332016062225],[-86.8937951315818,36.132759315685],[-86.8954105938617,36.132304879826],[-86.8955590364245,36.132740964802],[-86.8955026172781,36.1329632603799],[-86.8948471343612,36.1331426914669],[-86.8948147638107,36.1331500832692],[-86.8947816326876,36.1331547597217],[-86.8947480859959,36.133156673201],[-86.8947144745894,36.1331558021776],[-86.894275361846,36.1332228734839],[-86.8940107302604,36.1332801367922],[-86.8939782208654,36.1332016062225]]]},"properties":{"id":"72101","parcel":"10200011000","address":"6836 CHARLOTTE PIKE","owner":"NWSC OVERLOOK COM, LLC","point":[-86.89468267497841,36.13286132079861]}},{"type":"Feature","id":"102851","geometry":{"type":"Polygon","coordinates":[[[-86.8900310638006,36.133355852964],[-86.890099987248,36.1333314946544],[-86.8901530264245,36.1334302519245],[-86.8900841040186,36.1334546102555],[-86.8900310638006,36.133355852964]]]},"properties":{"id":"102851","parcel":"102110B00800CO","address":"1259 HILLWOOD PRIVATE CV","owner":"TENAX DPI PROPERTY, LLC","point":[-86.89009204529388,36.13339305246003]}},{"type":"Feature","id":"102855","geometry":{"type":"Polygon","coordinates":[[[-86.8901670038504,36.1333078092144],[-86.8902354690443,36.1332836119327],[-86.8902885105792,36.133382369128],[-86.8902200442054,36.1334065664474],[-86.8901670038504,36.1333078092144]]]},"properties":{"id":"102855","parcel":"102110B01000CO","address":"1263 HILLWOOD PRIVATE CV","owner":"TENAX DPI PROPERTY, LLC","point":[-86.8902277569758,36.133345089186484]}},{"type":"Feature","id":"102862","geometry":{"type":"Polygon","coordinates":[[[-86.8901682808069,36.133578448581],[-86.8902235846007,36.1335586078949],[-86.8902695637535,36.1336429407605],[-86.8902142610336,36.1336627823602],[-86.8901682808069,36.133578448581]]]},"properties":{"id":"102862","parcel":"102110B00200CO","address":"6817 CHARLOTTE PIKE #2","owner":"TENAX DPI PROPERTY, LLC","point":[-86.89021892238081,36.133610694681614]}},{"type":"Feature","id":"102960","geometry":{"type":"Polygon","coordinates":[[[-86.8903909233118,36.13349857133],[-86.8904394844456,36.1334811488849],[-86.8904869464159,36.1335681989172],[-86.8904588873184,36.1335782651832],[-86.8904658808105,36.1335910866236],[-86.8904453765066,36.1335984428389],[-86.8904369048295,36.1335829041168],[-86.8903909233118,36.13349857133]]]},"properties":{"id":"102960","parcel":"102110B00600CO","address":"6817 CHARLOTTE PIKE #6","owner":"TENAX DPI PROPERTY, LLC","point":[-86.89043893507268,36.1335333851335]}},{"type":"Feature","id":"102964","geometry":{"type":"Polygon","coordinates":[[[-86.8902354690443,36.1332836119327],[-86.8903057303251,36.1332587803714],[-86.8903587708199,36.1333575375447],[-86.8902885105792,36.133382369128],[-86.8902354690443,36.1332836119327]]]},"properties":{"id":"102964","parcel":"102110B01100CO","address":"1265 HILLWOOD PRIVATE CV","owner":"TENAX DPI PROPERTY, LLC","point":[-86.89029712011194,36.13332057475482]}},{"type":"Feature","id":"102967","geometry":{"type":"Polygon","coordinates":[[[-86.890099987248,36.1333314946544],[-86.8901670038504,36.1333078092144],[-86.8902200442054,36.1334065664474],[-86.8901530264245,36.1334302519245],[-86.890099987248,36.1333314946544]]]},"properties":{"id":"102967","parcel":"102110B00900CO","address":"1261 HILLWOOD PRIVATE CV","owner":"TENAX DPI PROPERTY, LLC","point":[-86.89016001548639,36.13336903056581]}},{"type":"Feature","id":"102978","geometry":{"type":"Polygon","coordinates":[[[-86.8903356384375,36.1335184074477],[-86.8903909233118,36.13349857133],[-86.8904369048295,36.1335829041168],[-86.8903816165752,36.1336027402797],[-86.8903356384375,36.1335184074477]]]},"properties":{"id":"102978","parcel":"102110B00500CO","address":"6817 CHARLOTTE PIKE #5","owner":"TENAX DPI PROPERTY, LLC","point":[-86.8903862709734,36.133550655792426]}},{"type":"Feature","id":"103171","geometry":{"type":"Polygon","coordinates":[[[-86.8901959405624,36.1336879318165],[-86.8901892295068,36.1336756229111],[-86.8901632994497,36.1336849253311],[-86.8901155609289,36.133597363484],[-86.8901682808069,36.133578448581],[-86.8902142610336,36.1336627823602],[-86.8902227315647,36.1336783211059],[-86.8901959405624,36.1336879318165]]]},"properties":{"id":"103171","parcel":"102110B00100CO","address":"6817 CHARLOTTE PIKE #1","owner":"TENAX DPI PROPERTY, LLC","point":[-86.89016491065313,36.133630072932036]}},{"type":"Feature","id":"105242","geometry":{"type":"Polygon","coordinates":[[[-86.890280319217,36.1335382546085],[-86.8903356384375,36.1335184074477],[-86.8903816165752,36.1336027402797],[-86.8903262961964,36.1336225874694],[-86.890280319217,36.1335382546085]]]},"properties":{"id":"105242","parcel":"102110B00400CO","address":"6817 CHARLOTTE PIKE #4","owner":"TENAX DPI PROPERTY, LLC","point":[-86.89033096766232,36.133570497454656]}},{"type":"Feature","id":"105245","geometry":{"type":"Polygon","coordinates":[[[-86.8899622410348,36.1333801771435],[-86.8900310638006,36.133355852964],[-86.8900841040186,36.1334546102555],[-86.8900152811834,36.1334789344647],[-86.8899622410348,36.1333801771435]]]},"properties":{"id":"105245","parcel":"102110B00700CO","address":"1257 HILLWOOD PRIVATE CV","owner":"TENAX DPI PROPERTY, LLC","point":[-86.89002317249805,36.133417393715064]}},{"type":"Feature","id":"105251","geometry":{"type":"Polygon","coordinates":[[[-86.890102769181,36.1337773084452],[-86.8896349569821,36.1326785906595],[-86.8896692377561,36.1326656522684],[-86.8900039518573,36.1325393242985],[-86.8900797831146,36.1326737233489],[-86.8905686650809,36.1335401957342],[-86.8903527951376,36.1336812503484],[-86.890102769181,36.1337773084452]],[[-86.8903816165752,36.1336027402797],[-86.8904369048295,36.1335829041168],[-86.8904453765066,36.1335984428389],[-86.8904658808105,36.1335910866236],[-86.8904588873184,36.1335782651832],[-86.8904869464159,36.1335681989172],[-86.8904394844456,36.1334811488849],[-86.8903909233118,36.13349857133],[-86.8903356384375,36.1335184074477],[-86.890280319217,36.1335382546085],[-86.8902235846007,36.1335586078949],[-86.8901682808069,36.133578448581],[-86.8901155609289,36.133597363484],[-86.8901632994497,36.1336849253311],[-86.8901892295068,36.1336756229111],[-86.8901959405624,36.1336879318165],[-86.8902227315647,36.1336783211059],[-86.8902142610336,36.1336627823602],[-86.8902695637535,36.1336429407605],[-86.8903262961964,36.1336225874694],[-86.8903816165752,36.1336027402797]],[[-86.8903587708199,36.1333575375447],[-86.8903057303251,36.1332587803714],[-86.8902354690443,36.1332836119327],[-86.8901670038504,36.1333078092144],[-86.890099987248,36.1333314946544],[-86.8900310638006,36.133355852964],[-86.8899622410348,36.1333801771435],[-86.8900152811834,36.1334789344647],[-86.8900841040186,36.1334546102555],[-86.8901530264245,36.1334302519245],[-86.8902200442054,36.1334065664474],[-86.8902885105792,36.133382369128],[-86.8903587708199,36.1333575375447]],[[-86.8899889856192,36.1331249079686],[-86.8899615637563,36.1330642545643],[-86.8898347434706,36.1331019850098],[-86.8898621652496,36.1331626384423],[-86.8899889856192,36.1331249079686]],[[-86.8898235639015,36.1330759995889],[-86.8899503841509,36.133038269155],[-86.889923729106,36.1329793126127],[-86.8897969089279,36.133017042118],[-86.8898235639015,36.1330759995889]],[[-86.8897860892387,36.132995704672],[-86.8899129082668,36.1329579742848],[-86.8898871123244,36.1329009194178],[-86.8897602933651,36.1329386488772],[-86.8897860892387,36.132995704672]],[[-86.8897528513723,36.1329180129528],[-86.889879671403,36.1328802825916],[-86.8898521471967,36.1328194045934],[-86.889725328351,36.1328571340167],[-86.8897528513723,36.1329180129528]],[[-86.8897177983301,36.1328448013809],[-86.8898446171496,36.132807071064],[-86.8898174359184,36.1327469512123],[-86.889690617172,36.1327846805999],[-86.8897177983301,36.1328448013809]]]},"properties":{"id":"105251","parcel":"102110B90000CO","address":"1255 HILLWOOD PRIVATE CV","owner":"O.I.C. HILLWOOD CT AT NASHVILLE WEST II ","point":[-86.89013539314274,36.133143965852476]}},{"type":"Feature","id":"105255","geometry":{"type":"Polygon","coordinates":[[[-86.8902235846007,36.1335586078949],[-86.890280319217,36.1335382546085],[-86.8903262961964,36.1336225874694],[-86.8902695637535,36.1336429407605],[-86.8902235846007,36.1335586078949]]]},"properties":{"id":"105255","parcel":"102110B00300CO","address":"6817 CHARLOTTE PIKE #3","owner":"TENAX DPI PROPERTY, LLC","point":[-86.89027494080072,36.13359059769359]}},{"type":"Feature","id":"149175","geometry":{"type":"Polygon","coordinates":[[[-86.8910936974738,36.1394951557238],[-86.8910809203465,36.1394834658014],[-86.8910695044141,36.1394916760903],[-86.8909654318436,36.1393964660266],[-86.8909989201822,36.1393723815642],[-86.8909769641807,36.1393522963575],[-86.8910149694871,36.1393249636534],[-86.8911169224405,36.1394182362485],[-86.8910963060937,36.1394330623213],[-86.8911070511639,36.1394428916783],[-86.8910958645071,36.1394509371441],[-86.8911219722227,36.1394748221224],[-86.8910936974738,36.1394951557238]]]},"properties":{"id":"149175","parcel":"102070C00200CO","address":"6631 BEACON LN","owner":"ZHU, XUN ZHAO, TIANYING","point":[-86.89104117723666,36.13940735116158]}},{"type":"Feature","id":"154296","geometry":{"type":"Polygon","coordinates":[[[-86.8910833217234,36.139679672919],[-86.8907494220814,36.1393810519403],[-86.8908918246136,36.1392745133413],[-86.8909428554582,36.1392345782604],[-86.8912740935669,36.1395376112355],[-86.8910833217234,36.139679672919]],[[-86.8910481309205,36.1395071566707],[-86.8909442890765,36.1394142873224],[-86.8909108244782,36.1394389060553],[-86.8908897647625,36.1394200715061],[-86.8908517233588,36.1394480569655],[-86.8909550297562,36.1395404481593],[-86.8909760754665,36.1395249655099],[-86.8909858965474,36.1395337490012],[-86.890997260808,36.1395253885874],[-86.8910236553768,36.1395489929713],[-86.8910515833298,36.1395284474424],[-86.8910369628162,36.1395153714352],[-86.8910481309205,36.1395071566707]],[[-86.8909654318436,36.1393964660266],[-86.8910695044141,36.1394916760903],[-86.8910809203465,36.1394834658014],[-86.8910936974738,36.1394951557238],[-86.8911219722227,36.1394748221224],[-86.8910958645071,36.1394509371441],[-86.8911070511639,36.1394428916783],[-86.8910963060937,36.1394330623213],[-86.8911169224405,36.1394182362485],[-86.8910149694871,36.1393249636534],[-86.8909769641807,36.1393522963575],[-86.8909989201822,36.1393723815642],[-86.8909654318436,36.1393964660266]]]},"properties":{"id":"154296","parcel":"102070C90000CO","address":"6631 B BEACON LN","owner":"O.I.C. 6629 BEACON LANE COMMONS","point":[-86.89115070364385,36.13946291761551]}},{"type":"Feature","id":"155793","geometry":{"type":"Polygon","coordinates":[[[-86.8910236553768,36.1395489929713],[-86.890997260808,36.1395253885874],[-86.8909858965474,36.1395337490012],[-86.8909760754665,36.1395249655099],[-86.8909550297562,36.1395404481593],[-86.8908517233588,36.1394480569655],[-86.8908897647625,36.1394200715061],[-86.8909108244782,36.1394389060553],[-86.8909442890765,36.1394142873224],[-86.8910481309205,36.1395071566707],[-86.8910369628162,36.1395153714352],[-86.8910515833298,36.1395284474424],[-86.8910236553768,36.1395489929713]]]},"properties":{"id":"155793","parcel":"102070C00100CO","address":"6629 BEACON LN","owner":"O'NEILL, DANIEL RYAN & ANGELA B. & JOHN H. JR.","point":[-86.89094992699981,36.139477606858286]}},{"type":"Feature","id":"233747","geometry":{"type":"Polygon","coordinates":[[[-86.8934156050455,36.1362044675152],[-86.8933219002558,36.1362702801218],[-86.89327703563,36.1362282474085],[-86.8933959816314,36.1361447053151],[-86.8934408473839,36.136186737977],[-86.8934156050455,36.1362044675152]]]},"properties":{"id":"233747","parcel":"102070E00100CO","address":"6675 CABOT DR","owner":"HARVEST & HOMES TENNESSEE III, LLC","point":[-86.8933463201877,36.13621635748178]}},{"type":"Feature","id":"233749","geometry":{"type":"Polygon","coordinates":[[[-86.8931585296558,36.1366003784579],[-86.8931412819558,36.1365846696647],[-86.8931930330463,36.1365472815913],[-86.8932651323953,36.1366129480739],[-86.893283058183,36.1366292746167],[-86.8932313070714,36.1366666618267],[-86.8931585296558,36.1366003784579]]]},"properties":{"id":"233749","parcel":"102070E00600CO","address":"6661 CABOT DR","owner":"HARVEST & HOMES TENNESSEE III, LLC","point":[-86.89321183105663,36.13660666327779]}},{"type":"Feature","id":"233751","geometry":{"type":"Polygon","coordinates":[[[-86.892801173909,36.136555035427],[-86.8947866694643,36.1350744616135],[-86.8949145618966,36.1349886515828],[-86.8949378010197,36.1350084435724],[-86.8949368104111,36.1350091755541],[-86.8938440846742,36.1358167451793],[-86.8937946687015,36.1358546209652],[-86.8937476267039,36.135894436735],[-86.8937030764627,36.1359360942803],[-86.8936611246097,36.13597949187],[-86.8936582371075,36.1359816835528],[-86.8936392875136,36.1360031104659],[-86.8936023018028,36.1360482512873],[-86.8935680405784,36.1360947851326],[-86.8935365848605,36.1361426050526],[-86.8935080067211,36.1361915987563],[-86.8934823737786,36.1362416530843],[-86.8934597436125,36.1362926513463],[-86.893352979964,36.1365617526683],[-86.8933380159398,36.1365962366745],[-86.8933207650484,36.1366300111755],[-86.8933033817931,36.136659627224],[-86.8932769144946,36.1366987532898],[-86.8932473080006,36.136736371308],[-86.8932146937741,36.1367723153679],[-86.8931792144702,36.1368064266863],[-86.8931410261782,36.1368385553931],[-86.893124636029,36.1368514713652],[-86.892801173909,36.136555035427]],[[-86.8931585296558,36.1366003784579],[-86.8931070209899,36.1366375916744],[-86.8931268540565,36.1366556553177],[-86.8930751381327,36.1366930178647],[-86.8931641473429,36.136774084765],[-86.8932158632777,36.1367367221807],[-86.8931974772096,36.1367199763333],[-86.8932489858865,36.1366827630791],[-86.8932313070714,36.1366666618267],[-86.893283058183,36.1366292746167],[-86.8932651323953,36.1366129480739],[-86.8933161571529,36.136576086268],[-86.8932954933375,36.1365572663191],[-86.893347828476,36.136519456559],[-86.8933248105558,36.1364984918636],[-86.8933745997023,36.1364625215381],[-86.8932836822025,36.1363797168186],[-86.8932338930567,36.1364156862062],[-86.8932573420071,36.1364370433919],[-86.8932050068799,36.1364748531135],[-86.8932279787235,36.1364957749111],[-86.8931769539868,36.1365326375817],[-86.8931930330463,36.1365472815913],[-86.8931412819558,36.1365846696647],[-86.8931585296558,36.1366003784579]],[[-86.8930404359908,36.1365174899352],[-86.8931084221976,36.1364681271228],[-86.8930385045675,36.1364047652056],[-86.8929705183613,36.1364541270783],[-86.8929064357143,36.1365006552229],[-86.8929763544345,36.1365640172068],[-86.8930404359908,36.1365174899352]],[[-86.8934156050455,36.1362044675152],[-86.8934408473839,36.136186737977],[-86.8933959816314,36.1361447053151],[-86.89327703563,36.1362282474085],[-86.8933219002558,36.1362702801218],[-86.8933123679395,36.1362769751471],[-86.8933572449645,36.136319019472],[-86.893460482074,36.1362465109013],[-86.8934156050455,36.1362044675152]]]},"properties":{"id":"233751","parcel":"102070E90000CO","address":"6657 B CABOT DR","owner":"O.I.C. CABOT TOWNHOMES","point":[-86.89369228511278,36.135915236166504]}},{"type":"Feature","id":"234520","geometry":{"type":"Polygon","coordinates":[[[-86.8932573420071,36.1364370433919],[-86.8932338930567,36.1364156862062],[-86.8932836822025,36.1363797168186],[-86.8933745997023,36.1364625215381],[-86.8933248105558,36.1364984918636],[-86.8932573420071,36.1364370433919]]]},"properties":{"id":"234520","parcel":"102070E00300CO","address":"6667 CABOT DR","owner":"HARVEST & HOMES TENNESSEE III, LLC","point":[-86.8933159708126,36.13644978247932]}},{"type":"Feature","id":"234521","geometry":{"type":"Polygon","coordinates":[[[-86.8931268540565,36.1366556553177],[-86.8931070209899,36.1366375916744],[-86.8931585296558,36.1366003784579],[-86.8932313070714,36.1366666618267],[-86.8932489858865,36.1366827630791],[-86.8931974772096,36.1367199763333],[-86.8931268540565,36.1366556553177]]]},"properties":{"id":"234521","parcel":"102070E00700CO","address":"6659 CABOT DR","owner":"HARVEST & HOMES TENNESSEE III, LLC","point":[-86.89317908057512,36.1366611585836]}},{"type":"Feature","id":"235512","geometry":{"type":"Polygon","coordinates":[[[-86.8932279787235,36.1364957749111],[-86.8932050068799,36.1364748531135],[-86.8932573420071,36.1364370433919],[-86.8933248105558,36.1364984918636],[-86.893347828476,36.136519456559],[-86.8932954933375,36.1365572663191],[-86.8932279787235,36.1364957749111]]]},"properties":{"id":"235512","parcel":"102070E00400CO","address":"6665 CABOT DR","owner":"HARVEST & HOMES TENNESSEE III, LLC","point":[-86.89327639462715,36.13649713339712]}},{"type":"Feature","id":"235514","geometry":{"type":"Polygon","coordinates":[[[-86.8933219002558,36.1362702801218],[-86.8934156050455,36.1362044675152],[-86.893460482074,36.1362465109013],[-86.8933572449645,36.136319019472],[-86.8933123679395,36.1362769751471],[-86.8933219002558,36.1362702801218]]]},"properties":{"id":"235514","parcel":"102070E00200CO","address":"6673 CABOT DR","owner":"HARVEST & HOMES TENNESSEE III, LLC","point":[-86.89339119129443,36.136258395531726]}},{"type":"Feature","id":"235516","geometry":{"type":"Polygon","coordinates":[[[-86.8931930330463,36.1365472815913],[-86.8931769539868,36.1365326375817],[-86.8932279787235,36.1364957749111],[-86.8932954933375,36.1365572663191],[-86.8933161571529,36.136576086268],[-86.8932651323953,36.1366129480739],[-86.8931930330463,36.1365472815913]]]},"properties":{"id":"235516","parcel":"102070E00500CO","address":"6663 CABOT DR","owner":"HARVEST & HOMES TENNESSEE III, LLC","point":[-86.89324426321515,36.13655227396617]}},{"type":"Feature","id":"235518","geometry":{"type":"Polygon","coordinates":[[[-86.8929705183613,36.1364541270783],[-86.8930404359908,36.1365174899352],[-86.8929763544345,36.1365640172068],[-86.8929064357143,36.1365006552229],[-86.8929705183613,36.1364541270783]]]},"properties":{"id":"235518","parcel":"102070E00900CO","address":"6669 CABOT DR","owner":"HARVEST & HOMES TENNESSEE III, LLC","point":[-86.89297343598446,36.13650907259792]}},{"type":"Feature","id":"235519","geometry":{"type":"Polygon","coordinates":[[[-86.8931268540565,36.1366556553177],[-86.8931974772096,36.1367199763333],[-86.8932158632777,36.1367367221807],[-86.8931641473429,36.136774084765],[-86.8930751381327,36.1366930178647],[-86.8931268540565,36.1366556553177]]]},"properties":{"id":"235519","parcel":"102070E00800CO","address":"6657 CABOT DR","owner":"HARVEST & HOMES TENNESSEE III, LLC","point":[-86.8931363076147,36.13670649711458]}},{"type":"Feature","id":"235523","geometry":{"type":"Polygon","coordinates":[[[-86.8929705183613,36.1364541270783],[-86.8930385045675,36.1364047652056],[-86.8931084221976,36.1364681271228],[-86.8930404359908,36.1365174899352],[-86.8929705183613,36.1364541270783]]]},"properties":{"id":"235523","parcel":"102070E01000CO","address":"6671 CABOT DR","owner":"HARVEST & HOMES TENNESSEE III, LLC","point":[-86.89303947021934,36.136461127120334]}}]}