{"type":"FeatureCollection","features":[{"type":"Feature","id":"118326","geometry":{"type":"Polygon","coordinates":[[[-86.9051679904072,36.0889307838891],[-86.9051680387589,36.0889307393625],[-86.9052594355195,36.0889882364087],[-86.9053173547607,36.0890246726903],[-86.9053616703165,36.089052361259],[-86.9064414255695,36.089947513959],[-86.9046286707995,36.0905479205572],[-86.9046146719089,36.0905290623087],[-86.9045977898944,36.0905118281933],[-86.9045783078937,36.090496508106],[-86.9045565519474,36.0904833564688],[-86.9045328865884,36.0904725949689],[-86.9045077080773,36.0904644035956],[-86.9044814366095,36.0904589188969],[-86.9045997127315,36.0894316928851],[-86.9051679904072,36.0889307838891]]]},"properties":{"id":"118326","parcel":"12909000800","address":"197 CARNAVON PKWY","owner":"SUNNYSIDE HILLS, LLC","point":[-86.90535050488305,36.08968947276682]}},{"type":"Feature","id":"118343","geometry":{"type":"Polygon","coordinates":[[[-86.9028862184136,36.0897126590798],[-86.903803011036,36.0884245235014],[-86.9049525470737,36.0887917050387],[-86.9051680387589,36.0889307393625],[-86.9051679904072,36.0889307838891],[-86.9045997127315,36.0894316928851],[-86.9039670245314,36.0899880673867],[-86.9029690666612,36.0898548905383],[-86.9029705289755,36.0898341686986],[-86.9029683495035,36.0898134894535],[-86.9029625740848,36.0897932706611],[-86.9029533173184,36.089773922454],[-86.9029407691228,36.0897558381768],[-86.9029251834982,36.0897393827542],[-86.9029068762961,36.0897248918059],[-86.9028862184136,36.0897126590798]]]},"properties":{"id":"118343","parcel":"12910002400","address":"6620 CHATSWORTH PL","owner":"SHIFLETT, DEBORA C.","point":[-86.90407460998607,36.08918059370827]}},{"type":"Feature","id":"120879","geometry":{"type":"Polygon","coordinates":[[[-86.903760597687,36.0901698281174],[-86.9039670245314,36.0899880673867],[-86.9045997127315,36.0894316928851],[-86.9044814366095,36.0904589188969],[-86.9044515470503,36.0904606311445],[-86.9044222548211,36.0904657485081],[-86.9043941439609,36.0904741683664],[-86.9043677788945,36.0904857233521],[-86.9043436855461,36.0905001805924],[-86.9043223459109,36.0905172525654],[-86.903760597687,36.0901698281174]]]},"properties":{"id":"120879","parcel":"12909000700","address":"193 CARNAVON PKWY","owner":"SUNNYSIDE HILLS, LLC","point":[-86.9044255128979,36.089709994008196]}},{"type":"Feature","id":"187151","geometry":{"type":"Polygon","coordinates":[[[-86.9102408157622,36.0784137893839],[-86.9102408777781,36.0784137753962],[-86.9101845897319,36.0790078583472],[-86.9101346047438,36.0795354209778],[-86.9108993193906,36.0796507242632],[-86.9115110998384,36.0797429656864],[-86.9121333166832,36.0798367762348],[-86.9121333656257,36.0798367839763],[-86.9121334023145,36.0798367882051],[-86.9121333805655,36.0798368280269],[-86.9119702495041,36.0801778681842],[-86.9116892184625,36.0807653865892],[-86.9116538704857,36.0808251053761],[-86.9116068818967,36.0809044730639],[-86.9104427273493,36.0832626375292],[-86.9096117607302,36.0849457848386],[-86.909392936591,36.0852157897883],[-86.908826819511,36.0859143091878],[-86.9085048070113,36.0870787555247],[-86.9084211640288,36.087381099553],[-86.9082956004667,36.0875152987243],[-86.9078434155704,36.0879985711546],[-86.9053173547607,36.0890246726903],[-86.9052594355195,36.0889882364087],[-86.9051680387589,36.0889307393625],[-86.9049525470737,36.0887917050387],[-86.903803011036,36.0884245235014],[-86.9032948260315,36.0882612971122],[-86.9030828458746,36.0881925577334],[-86.9023771239689,36.0873253438593],[-86.9022974107221,36.0872204499321],[-86.9023748970311,36.0864986377956],[-86.9024761518778,36.0855554322715],[-86.9025029361344,36.0852915022862],[-86.9028404891061,36.0849747053187],[-86.9028570344316,36.0842866895524],[-86.9032532596281,36.0842089988154],[-86.9034513697254,36.0841701538759],[-86.9046250980656,36.0835767595031],[-86.9050784677348,36.0831145548229],[-86.9053851967772,36.0828018456734],[-86.9056870795485,36.0825734299681],[-86.9060482234465,36.0823001755984],[-86.9068264513704,36.0821668585092],[-86.907011643051,36.081910318673],[-86.9070370105066,36.081875174573],[-86.9071834479695,36.0816586948957],[-86.9072514985213,36.0814300587586],[-86.907298173319,36.0812732285614],[-86.9073171349947,36.0811528291942],[-86.9073511848099,36.0809365767181],[-86.907315562053,36.0804540740641],[-86.9072999382145,36.0802424792611],[-86.9071883644392,36.0799554160872],[-86.9071471015884,36.079845703217],[-86.9070515485942,36.0795916222559],[-86.9070118177816,36.0794784566464],[-86.9069592049578,36.0793285915004],[-86.9069593291672,36.0793285788492],[-86.9077868321803,36.0792564279355],[-86.9077494921032,36.0790677643565],[-86.9086159420532,36.0788404811713],[-86.909182787068,36.0786920800074],[-86.9102408157622,36.0784137893839]]]},"properties":{"id":"187151","parcel":"14300000300","address":"2009 ERIN LN","owner":"LAKES OF BELLEVUE HOLDINGS, LLC","point":[-86.90708853582878,36.08387586170019]}}]}