{"type":"FeatureCollection","features":[{"type":"Feature","id":"61846","geometry":{"type":"Polygon","coordinates":[[[-86.9356095962434,36.06930273487],[-86.937455328211,36.0691177943151],[-86.9374907371411,36.0693522851498],[-86.9375134363555,36.069502603811],[-86.9375345665276,36.0696425345227],[-86.9375734393797,36.0698999563743],[-86.9375859566757,36.0699828465527],[-86.9357408877429,36.0701664750762],[-86.9356095962434,36.06930273487]]]},"properties":{"id":"61846","parcel":"14200037500","address":"720 BAUGH RD","owner":"METRO GOV'T  S  BELLEVUE","point":[-86.93661733171994,36.06977075381847]}},{"type":"Feature","id":"102115","geometry":{"type":"Polygon","coordinates":[[[-86.9376125436556,36.0701589050104],[-86.9375859566757,36.0699828465527],[-86.9375734393797,36.0698999563743],[-86.9375345665276,36.0696425345227],[-86.9375134363555,36.069502603811],[-86.9374907371411,36.0693522851498],[-86.9377879360942,36.0693268720892],[-86.937750182874,36.0690841147855],[-86.9379991001877,36.0690595797135],[-86.9380125239925,36.0690653869084],[-86.9380247284255,36.0690727574386],[-86.9380354395538,36.0690815266947],[-86.9380444152319,36.0690914955708],[-86.9380514563508,36.0691024429947],[-86.9380564023338,36.069114120555],[-86.9380676131177,36.0691773390961],[-86.9380760729299,36.0692408395205],[-86.9380817719471,36.0693045425903],[-86.9380853089778,36.0693696135383],[-86.9380865508467,36.0694347402013],[-86.9380854980305,36.0694998693986],[-86.9380794015494,36.0695815335073],[-86.9380696398338,36.0696629629562],[-86.9380601065404,36.0696836274286],[-86.9380474870692,36.0697031721615],[-86.9380319765566,36.0697212936989],[-86.9380142321439,36.0697336597666],[-86.9379987769157,36.069747907967],[-86.9379859129281,36.0697637637568],[-86.937975889639,36.0697809169499],[-86.9379688996279,36.06979903527],[-86.937965081946,36.0698177661272],[-86.9379643396501,36.069831154461],[-86.9379643485232,36.0698319060793],[-86.9379663688923,36.0698517361655],[-86.9379719209592,36.0698711160597],[-86.9379808844274,36.0698896357028],[-86.937993069225,36.0699068990982],[-86.9380082168167,36.069922541426],[-86.9380088305269,36.069923087347],[-86.9380094307886,36.0699236225571],[-86.9380232191606,36.0699343435257],[-86.938047286828,36.0699426357048],[-86.9380727062215,36.069947596957],[-86.9380987863234,36.0699490920559],[-86.9381248139317,36.0699470814862],[-86.938150078051,36.0699416185503],[-86.9381738888057,36.0699328528265],[-86.9381947538485,36.0699175647567],[-86.9382124158274,36.069899814916],[-86.9382264413941,36.0698800411071],[-86.9382364832522,36.0698587291333],[-86.9382422956015,36.069836404566],[-86.9382457900588,36.0698263143107],[-86.9382471090351,36.0698158867757],[-86.9382462128784,36.0698054305154],[-86.9382431285192,36.0697952517635],[-86.9382379461092,36.069785651755],[-86.9382308199494,36.0697769113967],[-86.9382257197611,36.0697722057285],[-86.9382163336319,36.0697616136552],[-86.9382087618067,36.0697501052552],[-86.938203135458,36.0697378832025],[-86.938199554836,36.0697251639313],[-86.9381990069168,36.0696854378235],[-86.9382068019196,36.0696228654269],[-86.9382125269295,36.0695601460038],[-86.9382161780432,36.0694973246503],[-86.9382181330806,36.0694353718339],[-86.9382176832796,36.0693734007806],[-86.9382148326786,36.0693114709449],[-86.9382100806825,36.0692411061832],[-86.9382023288982,36.0691709179896],[-86.9381915827634,36.0691009901426],[-86.9381941526766,36.0690860319297],[-86.9381997187378,36.0690716227253],[-86.9382081312338,36.0690581521564],[-86.9382191591728,36.0690459897521],[-86.9382325022714,36.0690354659236],[-86.9382477953638,36.0690268692257],[-86.9382646237817,36.069020432718],[-86.9384526834616,36.0689998980894],[-86.9384977297854,36.0692878150281],[-86.9387277335642,36.0692687226701],[-86.9387105440278,36.0693770860072],[-86.9386894611561,36.0695099807012],[-86.9386759662683,36.069595048998],[-86.9386591547144,36.0697010254263],[-86.9386412375026,36.0698139658201],[-86.9386290795244,36.0698906073199],[-86.9385836968517,36.070176684792],[-86.9385728912461,36.0702447984288],[-86.9384135366485,36.070230545662],[-86.9378351126913,36.0701788121321],[-86.9376125436556,36.0701589050104]],[[-86.938124786011,36.0701161221156],[-86.938124656275,36.0701051344306],[-86.9381788442818,36.0701091083647],[-86.9381912106023,36.0700101138655],[-86.9381045408163,36.0700063927224],[-86.9381021198767,36.0700305872321],[-86.937991062454,36.0700248575147],[-86.937983746516,36.0700930448892],[-86.9380650544518,36.0701012035033],[-86.9380651841796,36.0701121911884],[-86.9380949845395,36.07011415666],[-86.938124786011,36.0701161221156]],[[-86.937778839979,36.0700235181655],[-86.9378246224243,36.0700033846844],[-86.937832846337,36.0700121093151],[-86.9378597846605,36.0700009110381],[-86.937884016619,36.0699897338116],[-86.9378784990282,36.0699809854243],[-86.9379512196957,36.069949651805],[-86.9379098653944,36.0698862387832],[-86.9378129421007,36.0699309476472],[-86.93779365376,36.0699025272792],[-86.9377182526602,36.0699360799345],[-86.937778839979,36.0700235181655]],[[-86.9383249757562,36.0699964968134],[-86.9383521735396,36.0700072737964],[-86.9383766649721,36.0700180718408],[-86.9383846553853,36.0700070209441],[-86.9384336112041,36.070026419847],[-86.9384893904705,36.0699358777523],[-86.938413261781,36.0699078999948],[-86.9383973328599,36.0699343943425],[-86.938296713945,36.0698956202645],[-86.9382595449588,36.0699574469904],[-86.9383302598172,36.0699854669867],[-86.9383249757562,36.0699964968134]],[[-86.9385201639124,36.0698390247083],[-86.938521650232,36.0697357192146],[-86.9384621005705,36.0697361828366],[-86.9384619707885,36.0697251951509],[-86.9384403166717,36.069725363731],[-86.938405128593,36.0697256376665],[-86.9384052843497,36.0697388252325],[-86.9383240805644,36.0697394573562],[-86.9383221776089,36.0698075999193],[-86.9384385966508,36.0698088919311],[-86.9384362525633,36.069839677987],[-86.9385201639124,36.0698390247083]],[[-86.9384026060615,36.0696353827142],[-86.9384051837428,36.0696243739514],[-86.9384593477038,36.0696261505658],[-86.9384690039279,36.0695271771221],[-86.9383850161466,36.0695212370239],[-86.938382620147,36.0695476287275],[-86.9382715904466,36.0695440973372],[-86.9382642974101,36.0696144819392],[-86.9383482886111,36.0696204220955],[-86.9383484183773,36.0696314097814],[-86.9383728058735,36.0696334173184],[-86.9384026060615,36.0696353827142]],[[-86.9384935010822,36.069460273693],[-86.9384923589628,36.0693635816922],[-86.9384382255824,36.0693640031359],[-86.9384380698529,36.0693508182725],[-86.9384082957213,36.0693510500622],[-86.9383785204794,36.0693512818532],[-86.9383786502493,36.0693622695398],[-86.9382974468486,36.0693629016457],[-86.9382982773071,36.0694332230205],[-86.938409256052,36.0694323591229],[-86.9384095934631,36.0694609269272],[-86.9384935010822,36.069460273693]],[[-86.9384271393956,36.0691731905719],[-86.9384242254161,36.0691556306202],[-86.9384106904412,36.0691557359888],[-86.9384017917077,36.0690898730786],[-86.9383152526763,36.0690971397735],[-86.9383271961692,36.0691915503225],[-86.938294740604,36.0691940003362],[-86.938300932928,36.0692598843185],[-86.9384226373865,36.069250146501],[-86.9384166752206,36.0692040398467],[-86.9384301831425,36.0692017373092],[-86.9384271393956,36.0691731905719]],[[-86.9377641697222,36.0698155176621],[-86.9377665162896,36.0697847316018],[-86.9378748377329,36.0697882845308],[-86.9378767399297,36.0697201392794],[-86.9378008981195,36.0697163363781],[-86.9378007683971,36.0697053459881],[-86.9377709670877,36.0697033804522],[-86.937741192822,36.0697036120771],[-86.9377386150461,36.0697146208255],[-86.9376844792024,36.069715041948],[-86.9376829140134,36.0698117568029],[-86.9377641697222,36.0698155176621]],[[-86.9378823028658,36.0695460452257],[-86.937881965644,36.0695174774204],[-86.9377953460677,36.0695181513268],[-86.9377965132747,36.0696170405075],[-86.9378533813631,36.0696187981594],[-86.9378535110395,36.0696297840434],[-86.9378832886074,36.0696295523649],[-86.9379076468243,36.069629362845],[-86.9379075171404,36.069618376961],[-86.9379914282601,36.0696177240503],[-86.9379933303315,36.0695495769919],[-86.9378823028658,36.0695460452257]],[[-86.9378847933949,36.0694809057474],[-86.9378871625116,36.0694523168851],[-86.9379981931767,36.0694558486209],[-86.9380027767674,36.0693854851175],[-86.9379161076716,36.0693817638384],[-86.9379159520287,36.0693685789743],[-86.9378915905615,36.0693687685217],[-86.9378617905074,36.069366804802],[-86.9378592386733,36.0693800089283],[-86.9378050771136,36.0693782320268],[-86.9377981242005,36.0694771843835],[-86.9378847933949,36.0694809057474]],[[-86.937998129474,36.0692578660104],[-86.9379865247407,36.0691920241303],[-86.9379513876623,36.069196692296],[-86.937936764236,36.069104500846],[-86.9378529585296,36.0691139442209],[-86.9378618568109,36.0691798071711],[-86.9378456414469,36.0691821316105],[-86.9378513664805,36.0692084592198],[-86.9378543073805,36.0692282163535],[-86.9378705475899,36.0692280899998],[-86.9378792124436,36.0692741756504],[-86.937998129474,36.0692578660104]]]},"properties":{"id":"102115","parcel":"142100C90000CO","address":"0 SHEFFIELD SQ","owner":"O.I.C. SHEFFIELD SQUARE","point":[-86.93769238295964,36.06962134103718]}},{"type":"Feature","id":"102297","geometry":{"type":"Polygon","coordinates":[[[-86.9385728912461,36.0702447984288],[-86.9385836968517,36.070176684792],[-86.9386290795244,36.0698906073199],[-86.9386412375026,36.0698139658201],[-86.9386591547144,36.0697010254263],[-86.9386759662683,36.069595048998],[-86.9386894611561,36.0695099807012],[-86.9387105440278,36.0693770860072],[-86.9387277335642,36.0692687226701],[-86.9387449179293,36.0691603954197],[-86.9387752767063,36.0689690230643],[-86.9388942187934,36.0689593026739],[-86.9390400532179,36.0689462812023],[-86.9390532042807,36.068949577571],[-86.9390654812911,36.068954628376],[-86.9390765317458,36.0689612903523],[-86.9390860391871,36.0689693703827],[-86.9390937289026,36.0689786380713],[-86.9390993801568,36.0689888274507],[-86.939102832937,36.0689996441401],[-86.939103985893,36.0690107788808],[-86.9390815823191,36.0691878829958],[-86.9390470498919,36.0694058313375],[-86.9390129452721,36.0696198835925],[-86.9390024230511,36.0697061139842],[-86.9389831500019,36.0698064927069],[-86.938972874227,36.0698230242488],[-86.938960087489,36.0698383558844],[-86.9389416219634,36.0698554514396],[-86.9389264363162,36.0698745565887],[-86.9389148609765,36.0698952613699],[-86.9389071415508,36.0699171177259],[-86.9389034456859,36.069939656575],[-86.9389038531204,36.0699623914937],[-86.9389083558654,36.0699848340376],[-86.9389168560478,36.0700064991659],[-86.9389301365866,36.0700178251568],[-86.938945483205,36.0700272756635],[-86.9389624977879,36.0700346059276],[-86.9389793819677,36.0700417046687],[-86.9389973564013,36.0700467417448],[-86.9390160390544,36.0700496119748],[-86.9390381540639,36.0700486988299],[-86.9390598580799,36.0700451363456],[-86.9390806735321,36.0700390021494],[-86.9391001379633,36.0700304314349],[-86.9391178250889,36.0700196140936],[-86.9391333413926,36.0700067884324],[-86.9391474923332,36.0699885286302],[-86.9391579878894,36.0699687083066],[-86.9391645717428,36.0699478080519],[-86.9391670888696,36.0699263311007],[-86.9391654765846,36.0699047970929],[-86.9391597732405,36.0698837266828],[-86.9391501169577,36.0698636280308],[-86.9391367421658,36.0698449860134],[-86.9391199706054,36.0698282523801],[-86.9391376915516,36.0697036487646],[-86.9391523743848,36.0695926100021],[-86.9391886327372,36.0693609348516],[-86.93922462939,36.0691308993842],[-86.9392459359178,36.0690021704639],[-86.9392482197123,36.0689849071177],[-86.9392539925134,36.0689681880123],[-86.9392630943857,36.0689524767623],[-86.9392752750963,36.068938205239],[-86.9392901984802,36.0689257672267],[-86.9393074512043,36.0689155084409],[-86.9393265592152,36.0689077092748],[-86.9396023625703,36.0688966999494],[-86.939568167951,36.0691152010378],[-86.9395603255613,36.0691653160839],[-86.939537461909,36.0693114109019],[-86.9395240745842,36.0693969525526],[-86.9395067557153,36.0695076207491],[-86.9394878233957,36.0696285889975],[-86.9394760482598,36.0697038305879],[-86.9394515731165,36.0698602263113],[-86.9394341642252,36.0699714666118],[-86.9393997074699,36.0701916307349],[-86.9393800895501,36.0703169873272],[-86.9389764902148,36.0702808935537],[-86.9385728912461,36.0702447984288]],[[-86.9391430329706,36.0701766717824],[-86.939191599428,36.0701631073255],[-86.9391971691212,36.0701762500049],[-86.9392106512021,36.070171749303],[-86.9391828557888,36.0701104293491],[-86.9391909240271,36.0701059708293],[-86.9391853543399,36.0700928281494],[-86.9391772601199,36.0700950885914],[-86.9391690100473,36.0700841641726],[-86.9391069864316,36.0701044273985],[-86.9390557396134,36.0701202109818],[-86.9390612822022,36.0701311564999],[-86.9390558954469,36.0701333958421],[-86.9390614640161,36.0701465394376],[-86.9390668778512,36.0701464972629],[-86.9390946731876,36.0702078172431],[-86.9391081552797,36.0702033165527],[-86.9391052930734,36.0701901527768],[-86.9391430329706,36.0701766717824]],[[-86.9388925138016,36.070193501094],[-86.9389379042647,36.0701404014525],[-86.9389433429657,36.0701425573695],[-86.9389540148081,36.0701292872689],[-86.9389485490427,36.0701249350859],[-86.9389565393764,36.0701138832504],[-86.9389020397116,36.0700835399449],[-86.9388557122029,36.0700575277238],[-86.9388450414531,36.0700707969061],[-86.9388396016603,36.0700686418945],[-86.9388316113042,36.0700796928211],[-86.9388343436271,36.0700818689197],[-86.9387916843736,36.0701371473348],[-86.9388025888072,36.0701436536458],[-86.9388105802838,36.0701326027125],[-86.9388487345758,36.0701542829487],[-86.9388896223264,36.0701781392614],[-86.9388816319662,36.0701891901911],[-86.9388925138016,36.070193501094]],[[-86.9392698751469,36.0700272586038],[-86.9392724516001,36.0700162489309],[-86.9393537866873,36.0700266047448],[-86.939356206744,36.0700162650563],[-86.939340193563,36.0700135408183],[-86.9393400967842,36.0700135244476],[-86.9393449770915,36.0699768069574],[-86.9393527214541,36.0699365051954],[-86.9393689877618,36.0699385740138],[-86.9393714078459,36.0699282370284],[-86.9392902303629,36.0699172121326],[-86.9392901865738,36.0699135081151],[-86.9392739120803,36.0699107462472],[-86.9392712825502,36.0699173597739],[-86.939255016228,36.0699152891398],[-86.9392476251092,36.0699681027466],[-86.9392374747596,36.0700231334272],[-86.9392698751469,36.0700272586038]],[[-86.9393474452139,36.0697294879723],[-86.9393574332548,36.069658390998],[-86.939384553119,36.0696625753183],[-86.9393871013572,36.0696493693841],[-86.9392353148763,36.0696329704108],[-86.939222768071,36.069716582087],[-86.9392417418097,36.0697186316298],[-86.9392368297583,36.0697611186113],[-86.9392313910862,36.0697589636086],[-86.9392238874817,36.0698001017008],[-86.9392237633841,36.0698007795469],[-86.9393836725777,36.069817116139],[-86.939386215968,36.0698032180417],[-86.9393592028249,36.0697990500147],[-86.9393690175132,36.0697315073313],[-86.9393474452139,36.0697294879723]],[[-86.9393821581137,36.0694973777636],[-86.9393921791454,36.0694291701054],[-86.939419272944,36.0694311563403],[-86.9394218244992,36.0694179503786],[-86.9392673525401,36.0694037697557],[-86.939254783161,36.0694851842372],[-86.9392791695251,36.0694871915995],[-86.9392715949546,36.0695334036905],[-86.9392661551764,36.0695312477967],[-86.9392585026505,36.0695708665543],[-86.9394184113886,36.0695872031012],[-86.9394182554853,36.0695740173385],[-86.9393965494452,36.0695697908361],[-86.9394038641013,36.069501601565],[-86.9393821581137,36.0694973777636]],[[-86.9394315788226,36.0692692574472],[-86.9394415737934,36.0691988517032],[-86.9394686675147,36.0692008379271],[-86.9394685116465,36.0691876557681],[-86.9393140694111,36.0691756705526],[-86.9393042302032,36.0692592611491],[-86.9393285905234,36.0692590713248],[-86.9393282498185,36.0692611469789],[-86.9393210159927,36.0693052825202],[-86.9393155762395,36.0693031275297],[-86.9393106312053,36.0693427251954],[-86.9394705123942,36.0693568636049],[-86.9394703564935,36.0693436787427],[-86.9394459441786,36.0693394733412],[-86.9394559911151,36.0692734628517],[-86.9394315788226,36.0692692574472]],[[-86.9394609495286,36.0690395240989],[-86.9394709477533,36.0689691165203],[-86.9394980414289,36.0689711054413],[-86.9395005951658,36.0689578985581],[-86.939346151184,36.068945916104],[-86.9393389923865,36.0690272884416],[-86.9393579388768,36.0690271407983],[-86.9393476580594,36.0690733730876],[-86.9393426859691,36.0691107735887],[-86.9394998863289,36.0691271284235],[-86.939502414111,36.0691117261664],[-86.9394753181992,36.0691097399673],[-86.939485339102,36.069041532295],[-86.9394609495286,36.0690395240989]],[[-86.9388151964908,36.0699410370061],[-86.9388145992696,36.0698904938365],[-86.9387983578162,36.0698906203259],[-86.9387955995608,36.0698862488525],[-86.9387847459327,36.0698841332972],[-86.9387848238268,36.0698907257278],[-86.9386981541752,36.0698870077151],[-86.9386983099169,36.0699001898728],[-86.9387172577266,36.0699000423216],[-86.9387150187233,36.0699396197832],[-86.938712804588,36.0699813962319],[-86.938696564226,36.069981522699],[-86.9386966680503,36.0699903105036],[-86.93877789805,36.0699918753054],[-86.9387806337092,36.0699940522805],[-86.9387941903475,36.0699961440814],[-86.9387968458814,36.0699917277417],[-86.9388157937127,36.069991580175],[-86.9388151964908,36.0699410370061]],[[-86.9388939448978,36.0697136276955],[-86.9389015207939,36.0696674138191],[-86.9389069594721,36.0696695706393],[-86.9389119058379,36.0696299729845],[-86.9387547565141,36.0696180108369],[-86.9387521788814,36.0696290196072],[-86.9387792760624,36.0696310059599],[-86.9387693290521,36.069705806922],[-86.9387882768153,36.0697056593597],[-86.9387809897719,36.0697760439471],[-86.9387538925415,36.0697740575948],[-86.9387513160137,36.069785066356],[-86.9389057852812,36.0697992467637],[-86.938918332433,36.0697156351221],[-86.9388939448978,36.0697136276955]],[[-86.9389533790296,36.0694106700516],[-86.9387907903772,36.0693965520421],[-86.9387882646895,36.0694119560684],[-86.9388153584671,36.0694139424391],[-86.9388080692544,36.0694843270502],[-86.9388270429268,36.0694863766585],[-86.9388170203033,36.0695545851787],[-86.9387899264778,36.0695525988085],[-86.9387873759233,36.0695658047477],[-86.9389391384383,36.0695800070913],[-86.9389544178265,36.069498571538],[-86.9389327378075,36.06949654303],[-86.9389403645128,36.0694547262144],[-86.9389484846398,36.0694546629647],[-86.9389533790296,36.0694106700516]],[[-86.9389764565668,36.0691935266033],[-86.9388139202568,36.0691838011754],[-86.9388140241249,36.0691925916852],[-86.9388438534512,36.069196754123],[-86.9388338794838,36.06926935793],[-86.9388501467728,36.0692714286126],[-86.9388428316414,36.0693396160515],[-86.9388184442128,36.0693376077083],[-86.9388186000161,36.0693507934725],[-86.9389703361493,36.0693627976996],[-86.9389801757213,36.0692792071325],[-86.9389557894178,36.0692771988084],[-86.9389606860128,36.0692332058759],[-86.9389715102284,36.0692331215611],[-86.9389764565668,36.0691935266033]],[[-86.9390173756834,36.0689885271266],[-86.938854839841,36.0689788062595],[-86.9388549956495,36.0689919920248],[-86.9388793818523,36.0689939994682],[-86.9388748001705,36.0690643630029],[-86.938891092283,36.0690686317668],[-86.9388837794149,36.0691368182929],[-86.93885668351,36.0691348319549],[-86.9388568133457,36.0691458196416],[-86.939008599928,36.0691622190847],[-86.9390184405449,36.0690786285018],[-86.9389994702844,36.0690765779963],[-86.9390043872701,36.0690347831812],[-86.9390125073541,36.0690347199272],[-86.9390173756834,36.0689885271266]]]},"properties":{"id":"102297","parcel":"142100A90000CO","address":"0 BAUGH RD","owner":"O.I.C. WESTON WAY ","point":[-86.93884459844142,36.069606595930004]}},{"type":"Feature","id":"178117","geometry":{"type":"Polygon","coordinates":[[[-86.9394515731165,36.0698602263113],[-86.9394760482598,36.0697038305879],[-86.9398756356078,36.0697378196662],[-86.939871789087,36.0697619577347],[-86.9398676210787,36.0697818180171],[-86.939859688235,36.0698009072953],[-86.9398481848651,36.0698187589805],[-86.9398333922057,36.0698349346479],[-86.9398156719312,36.0698490385082],[-86.9398023725756,36.0698621281816],[-86.9397918673252,36.0698767967857],[-86.9397844369068,36.0698926563746],[-86.9397802783874,36.0699092854048],[-86.9397795020038,36.0699262422796],[-86.9394341642252,36.0699714666118],[-86.9394515731165,36.0698602263113]]]},"properties":{"id":"178117","parcel":"14206008100","address":"7416 BIRKDALE PL","owner":"PEREZ, AWILDA MILAGROS REVOCABLE LIVING TRUST","point":[-86.93963949439022,36.0698418935423]}},{"type":"Feature","id":"180131","geometry":{"type":"Polygon","coordinates":[[[-86.9383271961692,36.0691915503225],[-86.9383152526763,36.0690971397735],[-86.9384017917077,36.0690898730786],[-86.9384106904412,36.0691557359888],[-86.9384242254161,36.0691556306202],[-86.9384271393956,36.0691731905719],[-86.9384109240388,36.0691755141861],[-86.938413709341,36.069182085541],[-86.9383271961692,36.0691915503225]]]},"properties":{"id":"180131","parcel":"142100C00100CO","address":"7201 SHEFFIELD SQ","owner":"BONE, DEBRA L.","point":[-86.93836283825752,36.069126381661015]}},{"type":"Feature","id":"180132","geometry":{"type":"Polygon","coordinates":[[[-86.9384109240388,36.0691755141861],[-86.9384271393956,36.0691731905719],[-86.9384301831425,36.0692017373092],[-86.9384166752206,36.0692040398467],[-86.9384226373865,36.069250146501],[-86.938300932928,36.0692598843185],[-86.938294740604,36.0691940003362],[-86.9383271961692,36.0691915503225],[-86.938413709341,36.069182085541],[-86.9384109240388,36.0691755141861]]]},"properties":{"id":"180132","parcel":"142100C00200CO","address":"7203 SHEFFIELD SQ","owner":"BONE, DEBRA L.","point":[-86.93835875067879,36.06922706186878]}},{"type":"Feature","id":"180133","geometry":{"type":"Polygon","coordinates":[[[-86.9383785204794,36.0693512818532],[-86.9384082957213,36.0693510500622],[-86.938409256052,36.0694323591229],[-86.9382982773071,36.0694332230205],[-86.9382974468486,36.0693629016457],[-86.9383786502493,36.0693622695398],[-86.9383785204794,36.0693512818532]]]},"properties":{"id":"180133","parcel":"142100C00300CO","address":"7205 SHEFFIELD SQ","owner":"CREECH, CYNTHIA J.","point":[-86.93835335142586,36.069397630397404]}},{"type":"Feature","id":"180134","geometry":{"type":"Polygon","coordinates":[[[-86.9383728058735,36.0696334173184],[-86.938382620147,36.0695476287275],[-86.9383850161466,36.0695212370239],[-86.9384690039279,36.0695271771221],[-86.9384593477038,36.0696261505658],[-86.9384051837428,36.0696243739514],[-86.9384026060615,36.0696353827142],[-86.9383728058735,36.0696334173184]]]},"properties":{"id":"180134","parcel":"142100C00600CO","address":"7209 SHEFFIELD SQ","owner":"BONE, DEBRA L.","point":[-86.93842074627968,36.06958601513392]}},{"type":"Feature","id":"180136","geometry":{"type":"Polygon","coordinates":[[[-86.9377665162896,36.0697847316018],[-86.9377709670877,36.0697033804522],[-86.9378007683971,36.0697053459881],[-86.9378008981195,36.0697163363781],[-86.9378767399297,36.0697201392794],[-86.9378748377329,36.0697882845308],[-86.9377665162896,36.0697847316018]]]},"properties":{"id":"180136","parcel":"142100C01600CO","address":"7212 SHEFFIELD SQ","owner":"PARGH, FRANKLIN & SVETA","point":[-86.93782206119634,36.06975243567802]}},{"type":"Feature","id":"182689","geometry":{"type":"Polygon","coordinates":[[[-86.937778839979,36.0700235181655],[-86.9377182526602,36.0699360799345],[-86.93779365376,36.0699025272792],[-86.9378129421007,36.0699309476472],[-86.9378597846605,36.0700009110381],[-86.937832846337,36.0700121093151],[-86.9378246224243,36.0700033846844],[-86.937778839979,36.0700235181655]]]},"properties":{"id":"182689","parcel":"142100C01400CO","address":"7216 SHEFFIELD SQ","owner":"CHRIS & CAROLYN SIMPSON LIVING TRUST","point":[-86.93778939752741,36.06996849570391]}},{"type":"Feature","id":"182691","geometry":{"type":"Polygon","coordinates":[[[-86.9377953460677,36.0695181513268],[-86.937881965644,36.0695174774204],[-86.9378823028658,36.0695460452257],[-86.9378832886074,36.0696295523649],[-86.9378535110395,36.0696297840434],[-86.9378533813631,36.0696187981594],[-86.9377965132747,36.0696170405075],[-86.9377953460677,36.0695181513268]]]},"properties":{"id":"182691","parcel":"142100C01800CO","address":"7208 SHEFFIELD SQ","owner":"FIGLIO, CHRISTOPHER A.","point":[-86.93783940808945,36.0695815428744]}},{"type":"Feature","id":"182693","geometry":{"type":"Polygon","coordinates":[[[-86.9377981242005,36.0694771843835],[-86.9378050771136,36.0693782320268],[-86.9378592386733,36.0693800089283],[-86.9378617905074,36.069366804802],[-86.9378915905615,36.0693687685217],[-86.9378871625116,36.0694523168851],[-86.9378847933949,36.0694809057474],[-86.9377981242005,36.0694771843835]]]},"properties":{"id":"182693","parcel":"142100C01900CO","address":"7206 SHEFFIELD SQ","owner":"DIESTELKAMP, VICKI C.","point":[-86.93784574635177,36.069416148674925]}},{"type":"Feature","id":"182697","geometry":{"type":"Polygon","coordinates":[[[-86.9378792124436,36.0692741756504],[-86.9378705475899,36.0692280899998],[-86.9378543073805,36.0692282163535],[-86.9378513664805,36.0692084592198],[-86.9379513876623,36.069196692296],[-86.9379865247407,36.0691920241303],[-86.937998129474,36.0692578660104],[-86.9378792124436,36.0692741756504]]]},"properties":{"id":"182697","parcel":"142100C02100CO","address":"7202 SHEFFIELD SQ","owner":"BONE, DEBRA L.","point":[-86.9379344382043,36.06924304545993]}},{"type":"Feature","id":"182715","geometry":{"type":"Polygon","coordinates":[[[-86.9301111707868,36.069723893715],[-86.9303734010628,36.0694625363263],[-86.9307936961933,36.0697537888973],[-86.930782995068,36.0697648602143],[-86.9305955549577,36.069939929008],[-86.9305286312929,36.0700041803802],[-86.9301111707868,36.069723893715]]]},"properties":{"id":"182715","parcel":"14207000500","address":"7158 WILLOW CREEK DR","owner":"HARWELL, BETTYE W REVOCABLE LIVING TRUST","point":[-86.9304527758148,36.06973884199055]}},{"type":"Feature","id":"183597","geometry":{"type":"Polygon","coordinates":[[[-86.938409256052,36.0694323591229],[-86.9384082957213,36.0693510500622],[-86.9384380698529,36.0693508182725],[-86.9384382255824,36.0693640031359],[-86.9384923589628,36.0693635816922],[-86.9384935010822,36.069460273693],[-86.9384095934631,36.0694609269272],[-86.938409256052,36.0694323591229]]]},"properties":{"id":"183597","parcel":"142100C00400CO","address":"7207 SHEFFIELD SQ","owner":"SHARP, EMMA","point":[-86.93845081017847,36.069398195033045]}},{"type":"Feature","id":"183601","geometry":{"type":"Polygon","coordinates":[[[-86.9382642974101,36.0696144819392],[-86.9382715904466,36.0695440973372],[-86.938382620147,36.0695476287275],[-86.9383728058735,36.0696334173184],[-86.9383484183773,36.0696314097814],[-86.9383482886111,36.0696204220955],[-86.9382642974101,36.0696144819392]]]},"properties":{"id":"183601","parcel":"142100C00500CO","address":"7211 SHEFFIELD SQ","owner":"KIDANEMARIAM, YISHAK","point":[-86.9383232784044,36.06958105525524]}},{"type":"Feature","id":"183604","geometry":{"type":"Polygon","coordinates":[[[-86.938405128593,36.0697256376665],[-86.9384403166717,36.069725363731],[-86.9384385966508,36.0698088919311],[-86.9383221776089,36.0698075999193],[-86.9383240805644,36.0697394573562],[-86.9384052843497,36.0697388252325],[-86.938405128593,36.0697256376665]]]},"properties":{"id":"183604","parcel":"142100C00700CO","address":"7213 SHEFFIELD SQ","owner":"BONE, DEBRA L.","point":[-86.93838122635633,36.06977355851765]}},{"type":"Feature","id":"183606","geometry":{"type":"Polygon","coordinates":[[[-86.9384336112041,36.070026419847],[-86.9383846553853,36.0700070209441],[-86.9383766649721,36.0700180718408],[-86.9383521735396,36.0700072737964],[-86.9383973328599,36.0699343943425],[-86.938413261781,36.0699078999948],[-86.9384893904705,36.0699358777523],[-86.9384336112041,36.070026419847]]]},"properties":{"id":"183606","parcel":"142100C01000CO","address":"7217 SHEFFIELD SQ","owner":"BONE, DEBRA L.","point":[-86.93842092927193,36.06997144109296]}},{"type":"Feature","id":"183612","geometry":{"type":"Polygon","coordinates":[[[-86.937741192822,36.0697036120771],[-86.9377709670877,36.0697033804522],[-86.9377665162896,36.0697847316018],[-86.9377641697222,36.0698155176621],[-86.9376829140134,36.0698117568029],[-86.9376844792024,36.069715041948],[-86.9377386150461,36.0697146208255],[-86.937741192822,36.0697036120771]]]},"properties":{"id":"183612","parcel":"142100C01500CO","address":"7214 SHEFFIELD SQ","owner":"WILLIAMS, GARY D. & BRENDA A.","point":[-86.93772616855188,36.069749887130506]}},{"type":"Feature","id":"183615","geometry":{"type":"Polygon","coordinates":[[[-86.9378832886074,36.0696295523649],[-86.9378823028658,36.0695460452257],[-86.9379933303315,36.0695495769919],[-86.9379914282601,36.0696177240503],[-86.9379075171404,36.069618376961],[-86.9379076468243,36.069629362845],[-86.9378832886074,36.0696295523649]]]},"properties":{"id":"183615","parcel":"142100C01700CO","address":"7210 SHEFFIELD SQ","owner":"FLANK, LLC","point":[-86.93793756269754,36.06958362215167]}},{"type":"Feature","id":"183618","geometry":{"type":"Polygon","coordinates":[[[-86.9378915905615,36.0693687685217],[-86.9379159520287,36.0693685789743],[-86.9379161076716,36.0693817638384],[-86.9380027767674,36.0693854851175],[-86.9379981931767,36.0694558486209],[-86.9378871625116,36.0694523168851],[-86.9378915905615,36.0693687685217]]]},"properties":{"id":"183618","parcel":"142100C02000CO","address":"7204 SHEFFIELD SQ","owner":"MCFADDEN, LESLIE","point":[-86.93794476660753,36.06941890091022]}},{"type":"Feature","id":"183621","geometry":{"type":"Polygon","coordinates":[[[-86.9378529585296,36.0691139442209],[-86.937936764236,36.069104500846],[-86.9379513876623,36.069196692296],[-86.9378513664805,36.0692084592198],[-86.9378456414469,36.0691821316105],[-86.9378618568109,36.0691798071711],[-86.9378529585296,36.0691139442209]]]},"properties":{"id":"183621","parcel":"142100C02200CO","address":"7200 SHEFFIELD SQ","owner":"BONE, DEBRA L.","point":[-86.93790045024075,36.069146898003034]}},{"type":"Feature","id":"183645","geometry":{"type":"Polygon","coordinates":[[[-86.9300496986537,36.0697858422912],[-86.9301111707868,36.069723893715],[-86.9305286312929,36.0700041803802],[-86.9304108181651,36.0701149766314],[-86.9301700197364,36.0698948629609],[-86.9300496349975,36.0697859049722],[-86.9300496986537,36.0697858422912]]]},"properties":{"id":"183645","parcel":"14207000400","address":"0 WILLOW CREEK DR","owner":"HARWELL, BETTYE W REVOCABLE LIVING TRUST","point":[-86.93033852281245,36.0699495155272]}},{"type":"Feature","id":"183804","geometry":{"type":"Polygon","coordinates":[[[-86.9384385966508,36.0698088919311],[-86.9384403166717,36.069725363731],[-86.9384619707885,36.0697251951509],[-86.9384621005705,36.0697361828366],[-86.938521650232,36.0697357192146],[-86.9385201639124,36.0698390247083],[-86.9384362525633,36.069839677987],[-86.9384385966508,36.0698088919311]]]},"properties":{"id":"183804","parcel":"142100C00800CO","address":"7215 SHEFFIELD SQ","owner":"BONE, DEBRA L.","point":[-86.93848023268413,36.069772552725915]}},{"type":"Feature","id":"183806","geometry":{"type":"Polygon","coordinates":[[[-86.9382595449588,36.0699574469904],[-86.938296713945,36.0698956202645],[-86.9383973328599,36.0699343943425],[-86.9383521735396,36.0700072737964],[-86.9383249757562,36.0699964968134],[-86.9383302598172,36.0699854669867],[-86.9382595449588,36.0699574469904]]]},"properties":{"id":"183806","parcel":"142100C00900CO","address":"7219 SHEFFIELD SQ","owner":"PIERONI, MARSHA","point":[-86.93832833224057,36.06994592063139]}},{"type":"Feature","id":"183808","geometry":{"type":"Polygon","coordinates":[[[-86.9378129421007,36.0699309476472],[-86.9379098653944,36.0698862387832],[-86.9379512196957,36.069949651805],[-86.9378784990282,36.0699809854243],[-86.937884016619,36.0699897338116],[-86.9378597846605,36.0700009110381],[-86.9378129421007,36.0699309476472]]]},"properties":{"id":"183808","parcel":"142100C01300CO","address":"7218 SHEFFIELD SQ","owner":"BONE, DEBRA L.","point":[-86.9378821619438,36.06994029978805]}},{"type":"Feature","id":"183917","geometry":{"type":"Polygon","coordinates":[[[-86.9307936961933,36.0697537888973],[-86.9309784313026,36.0695787406721],[-86.9314152798674,36.069896236276],[-86.9312061832838,36.0700714733537],[-86.931206094838,36.0700714100444],[-86.930782995068,36.0697648602143],[-86.9307936961933,36.0697537888973]]]},"properties":{"id":"183917","parcel":"14207001900","address":"7147 OLD HARDING PIKE","owner":"ZIGELSKY FAMILY REV LIVING TRUST","point":[-86.93109927766069,36.069830548742864]}},{"type":"Feature","id":"185531","geometry":{"type":"Polygon","coordinates":[[[-86.939222768071,36.069716582087],[-86.9392353148763,36.0696329704108],[-86.9393871013572,36.0696493693841],[-86.939384553119,36.0696625753183],[-86.9393574332548,36.069658390998],[-86.9393474452139,36.0697294879723],[-86.9392417418097,36.0697186316298],[-86.939222768071,36.069716582087]]]},"properties":{"id":"185531","parcel":"142100A00700CO","address":"7313 WESTON WAY","owner":"PAUL, RINA","point":[-86.939289937198,36.06968957178015]}},{"type":"Feature","id":"185534","geometry":{"type":"Polygon","coordinates":[[[-86.9392237633841,36.0698007795469],[-86.9392238874817,36.0698001017008],[-86.9392313910862,36.0697589636086],[-86.9392368297583,36.0697611186113],[-86.9392417418097,36.0697186316298],[-86.9393474452139,36.0697294879723],[-86.9393690175132,36.0697315073313],[-86.9393592028249,36.0697990500147],[-86.939386215968,36.0698032180417],[-86.9393836725777,36.069817116139],[-86.9392237633841,36.0698007795469]]]},"properties":{"id":"185534","parcel":"142100A00800CO","address":"7315 WESTON WAY","owner":"COCHRAN, PATRICK TRUST & KATHLEEN C. TRUST","point":[-86.93929474960876,36.06978008267429]}},{"type":"Feature","id":"185535","geometry":{"type":"Polygon","coordinates":[[[-86.9387150187233,36.0699396197832],[-86.9387172577266,36.0699000423216],[-86.9386983099169,36.0699001898728],[-86.9386981541752,36.0698870077151],[-86.9387848238268,36.0698907257278],[-86.9387847459327,36.0698841332972],[-86.9387955995608,36.0698862488525],[-86.9387983578162,36.0698906203259],[-86.9388145992696,36.0698904938365],[-86.9388151964908,36.0699410370061],[-86.9387150187233,36.0699396197832]]]},"properties":{"id":"185535","parcel":"142100A01600CO","address":"7316 WESTON WAY","owner":"WILLIAMS, BOBBY N., TRUSTEE","point":[-86.93876554061143,36.069919934920236]}},{"type":"Feature","id":"185544","geometry":{"type":"Polygon","coordinates":[[[-86.938712804588,36.0699813962319],[-86.9387150187233,36.0699396197832],[-86.9388151964908,36.0699410370061],[-86.9388157937127,36.069991580175],[-86.9387968458814,36.0699917277417],[-86.9387941903475,36.0699961440814],[-86.9387806337092,36.0699940522805],[-86.93877789805,36.0699918753054],[-86.9386966680503,36.0699903105036],[-86.938696564226,36.069981522699],[-86.938712804588,36.0699813962319]]]},"properties":{"id":"185544","parcel":"142100A01500CO","address":"7318 WESTON WAY","owner":"HEDAYAT, KAREEM & NASREEN HARIER","point":[-86.93876465535098,36.0699612169645]}},{"type":"Feature","id":"185617","geometry":{"type":"Polygon","coordinates":[[[-86.9388186000161,36.0693507934725],[-86.9388184442128,36.0693376077083],[-86.9388428316414,36.0693396160515],[-86.9388501467728,36.0692714286126],[-86.9389382219352,36.069276239661],[-86.9389557894178,36.0692771988084],[-86.9389801757213,36.0692792071325],[-86.9389703361493,36.0693627976996],[-86.9388186000161,36.0693507934725]]]},"properties":{"id":"185617","parcel":"142100A02100CO","address":"7306 WESTON WAY","owner":"WEEDMAN, ROBERT JESS & BETH","point":[-86.93891145823422,36.0693084136396]}},{"type":"Feature","id":"185619","geometry":{"type":"Polygon","coordinates":[[[-86.9388549956495,36.0689919920248],[-86.938854839841,36.0689788062595],[-86.9390173756834,36.0689885271266],[-86.9390125073541,36.0690347199272],[-86.9390043872701,36.0690347831812],[-86.9389994702844,36.0690765779963],[-86.938891092283,36.0690686317668],[-86.9388748001705,36.0690643630029],[-86.9388793818523,36.0689939994682],[-86.9388549956495,36.0689919920248]]]},"properties":{"id":"185619","parcel":"142100A02400CO","address":"7300 WESTON WAY","owner":"SULLIVAN, KRISTEN & MARK II","point":[-86.93894635391099,36.06901435992469]}},{"type":"Feature","id":"185674","geometry":{"type":"Polygon","coordinates":[[[-86.939791830801,36.0679036504115],[-86.9400137277412,36.0678987611304],[-86.9400214493286,36.0681712057658],[-86.9397968847805,36.0681783249495],[-86.939791830801,36.0679036504115]]]},"properties":{"id":"185674","parcel":"142100B02500CO","address":"438 BELLE POINTE DR","owner":"MARPAKA FAMILY TRUST","point":[-86.93990597532272,36.06803742781178]}},{"type":"Feature","id":"185742","geometry":{"type":"Polygon","coordinates":[[[-86.9392476251092,36.0699681027466],[-86.939255016228,36.0699152891398],[-86.9392712825502,36.0699173597739],[-86.9392739120803,36.0699107462472],[-86.9392901865738,36.0699135081151],[-86.9392902303629,36.0699172121326],[-86.9393714078459,36.0699282370284],[-86.9393689877618,36.0699385740138],[-86.9393527214541,36.0699365051954],[-86.9393449770915,36.0699768069574],[-86.9392476251092,36.0699681027466]]]},"properties":{"id":"185742","parcel":"142100A00900CO","address":"7317 WESTON WAY","owner":"STAPLES, PHIL & JOANN","point":[-86.93929958914399,36.06995333398143]}},{"type":"Feature","id":"185744","geometry":{"type":"Polygon","coordinates":[[[-86.9392476251092,36.0699681027466],[-86.9393449770915,36.0699768069574],[-86.9393400967842,36.0700135244476],[-86.939340193563,36.0700135408183],[-86.939356206744,36.0700162650563],[-86.9393537866873,36.0700266047448],[-86.9392724516001,36.0700162489309],[-86.9392698751469,36.0700272586038],[-86.9392374747596,36.0700231334272],[-86.9392476251092,36.0699681027466]]]},"properties":{"id":"185744","parcel":"142100A01000CO","address":"7319 WESTON WAY","owner":"CHERPACK, MARK S. & JOANNE S.","point":[-86.93929258982406,36.06999514041663]}},{"type":"Feature","id":"185788","geometry":{"type":"Polygon","coordinates":[[[-86.9387513160137,36.069785066356],[-86.9387538925415,36.0697740575948],[-86.9387809897719,36.0697760439471],[-86.9387882768153,36.0697056593597],[-86.9388939448978,36.0697136276955],[-86.938918332433,36.0697156351221],[-86.9389057852812,36.0697992467637],[-86.9387513160137,36.069785066356]]]},"properties":{"id":"185788","parcel":"142100A01700CO","address":"7314 WESTON WAY","owner":"CHESTER, BRIAN","point":[-86.93884908267877,36.06974485300433]}},{"type":"Feature","id":"185790","geometry":{"type":"Polygon","coordinates":[[[-86.9387882646895,36.0694119560684],[-86.9387907903772,36.0693965520421],[-86.9389533790296,36.0694106700516],[-86.9389484846398,36.0694546629647],[-86.9389403645128,36.0694547262144],[-86.9389327378075,36.06949654303],[-86.9388270429268,36.0694863766585],[-86.9388080692544,36.0694843270502],[-86.9388153584671,36.0694139424391],[-86.9387882646895,36.0694119560684]]]},"properties":{"id":"185790","parcel":"142100A02000CO","address":"7308 WESTON WAY","owner":"BROWN, STEPHANIE A.","point":[-86.93888199971552,36.06943430276026]}},{"type":"Feature","id":"185792","geometry":{"type":"Polygon","coordinates":[[[-86.9388140241249,36.0691925916852],[-86.9388139202568,36.0691838011754],[-86.9389764565668,36.0691935266033],[-86.9389715102284,36.0692331215611],[-86.9389606860128,36.0692332058759],[-86.9389557894178,36.0692771988084],[-86.9389382219352,36.069276239661],[-86.9388501467728,36.0692714286126],[-86.9388338794838,36.06926935793],[-86.9388438534512,36.069196754123],[-86.9388140241249,36.0691925916852]]]},"properties":{"id":"185792","parcel":"142100A02200CO","address":"7304 WESTON WAY","owner":"STROGONOVA, LIUDMILA V.","point":[-86.93890756884849,36.06921493780148]}},{"type":"Feature","id":"185794","geometry":{"type":"Polygon","coordinates":[[[-86.9388568133457,36.0691458196416],[-86.93885668351,36.0691348319549],[-86.9388837794149,36.0691368182929],[-86.938891092283,36.0690686317668],[-86.9389994702844,36.0690765779963],[-86.9390184405449,36.0690786285018],[-86.939008599928,36.0691622190847],[-86.9388568133457,36.0691458196416]]]},"properties":{"id":"185794","parcel":"142100A02300CO","address":"7302 WESTON WAY","owner":"CHARRON, CAROLYN JEANNE","point":[-86.93895106835451,36.06910673713534]}},{"type":"Feature","id":"185855","geometry":{"type":"Polygon","coordinates":[[[-86.9388939448978,36.0697136276955],[-86.9387882768153,36.0697056593597],[-86.9387693290521,36.069705806922],[-86.9387792760624,36.0696310059599],[-86.9387521788814,36.0696290196072],[-86.9387547565141,36.0696180108369],[-86.9389119058379,36.0696299729845],[-86.9389069594721,36.0696695706393],[-86.9389015207939,36.0696674138191],[-86.9388939448978,36.0697136276955]]]},"properties":{"id":"185855","parcel":"142100A01800CO","address":"7312 WESTON WAY","owner":"PAUL, MINU","point":[-86.9388431790335,36.06964921132383]}},{"type":"Feature","id":"185883","geometry":{"type":"Polygon","coordinates":[[[-86.9387908495325,36.0679399621983],[-86.9390063224734,36.0677329469359],[-86.9391077581854,36.0678020501588],[-86.9391708973029,36.0678496383166],[-86.9389662917021,36.0680587197287],[-86.9387908495325,36.0679399621983]]]},"properties":{"id":"185883","parcel":"142100B02900CO","address":"430 BELLE POINTE DR","owner":"KADATSKY, VERA L.","point":[-86.93898228098804,36.067894801124815]}},{"type":"Feature","id":"186832","geometry":{"type":"Polygon","coordinates":[[[-86.9398932385636,36.0674489006776],[-86.9399001626882,36.0673477500735],[-86.9399868556519,36.0673536671055],[-86.9399825859101,36.0674504013547],[-86.9399800096279,36.0674614101483],[-86.9398933425382,36.067457690289],[-86.9398932385636,36.0674489006776]]]},"properties":{"id":"186832","parcel":"142100B08700CO","address":"623 BARLIN DR","owner":"SMITH, WILLIAM B., III & SCOTTI W.","point":[-86.9399406262566,36.067401284191064]}},{"type":"Feature","id":"186985","geometry":{"type":"Polygon","coordinates":[[[-86.9396522915969,36.0682477358865],[-86.9396793590138,36.0682475248863],[-86.9399230437461,36.0682522180441],[-86.9399288139039,36.0687399814167],[-86.9399288149807,36.06874007244],[-86.9396797929804,36.0687420139289],[-86.9396797886269,36.0687419274376],[-86.9396522915969,36.0682477358865]]]},"properties":{"id":"186985","parcel":"14210007800","address":"765 BAUGH RD","owner":"ZAGORSKI, MOLLY E. & WILLIAM A.","point":[-86.93979601609027,36.06849603455663]}},{"type":"Feature","id":"187038","geometry":{"type":"Polygon","coordinates":[[[-86.9392585026505,36.0695708665543],[-86.9392661551764,36.0695312477967],[-86.9392715949546,36.0695334036905],[-86.9392791695251,36.0694871915995],[-86.9393821581137,36.0694973777636],[-86.9394038641013,36.069501601565],[-86.9393965494452,36.0695697908361],[-86.9394182554853,36.0695740173385],[-86.9394184113886,36.0695872031012],[-86.9392585026505,36.0695708665543]]]},"properties":{"id":"187038","parcel":"142100A00600CO","address":"7311 WESTON WAY","owner":"SCHERER, PATRICIA A REVOCABLE TRUST, THE","point":[-86.93933036459484,36.06955159540308]}},{"type":"Feature","id":"187094","geometry":{"type":"Polygon","coordinates":[[[-86.9387873759233,36.0695658047477],[-86.9387899264778,36.0695525988085],[-86.9388170203033,36.0695545851787],[-86.9388270429268,36.0694863766585],[-86.9389327378075,36.06949654303],[-86.9389544178265,36.069498571538],[-86.9389391384383,36.0695800070913],[-86.9387873759233,36.0695658047477]]]},"properties":{"id":"187094","parcel":"142100A01900CO","address":"7310 WESTON WAY","owner":"EHREDT, ANTONIE MARIE","point":[-86.938885313701,36.06952559190258]}},{"type":"Feature","id":"187185","geometry":{"type":"Polygon","coordinates":[[[-86.9395174551155,36.0675575135424],[-86.9397473897766,36.0675481312835],[-86.939755352945,36.0678337601502],[-86.9395362016174,36.0678408132199],[-86.9395174551155,36.0675575135424]]]},"properties":{"id":"187185","parcel":"142100B01700CO","address":"433 BELLE POINTE DR","owner":"CORBIN, MCLRA & SMITH, DOVIE S.","point":[-86.9396390475444,36.067695638238014]}},{"type":"Feature","id":"187188","geometry":{"type":"Polygon","coordinates":[[[-86.9397473897766,36.0675481312835],[-86.9399692048689,36.0675388470527],[-86.9399798749783,36.067824443086],[-86.939755352945,36.0678337601502],[-86.9397473897766,36.0675481312835]]]},"properties":{"id":"187188","parcel":"142100B01800CO","address":"435 BELLE POINTE DR","owner":"SANCHEZ, MICHAEL","point":[-86.93986297766708,36.06768628691416]}},{"type":"Feature","id":"187204","geometry":{"type":"Polygon","coordinates":[[[-86.9393507058993,36.0679111969509],[-86.9393821765183,36.0679142189313],[-86.9394138396003,36.0679153034021],[-86.939445513,36.0679144436707],[-86.9395618546932,36.0679108347883],[-86.9395776932031,36.0681831810207],[-86.939304369574,36.068188692861],[-86.9393507058993,36.0679111969509]]]},"properties":{"id":"187204","parcel":"142100B02700CO","address":"434 BELLE POINTE DR","owner":"SNEED, JAMES J. & TERRI L.","point":[-86.93944878767287,36.06804921851882]}},{"type":"Feature","id":"187208","geometry":{"type":"Polygon","coordinates":[[[-86.9389662917021,36.0680587197287],[-86.9391708973029,36.0678496383166],[-86.9392039029459,36.0678670061606],[-86.9392386617461,36.067881951149],[-86.9392749036965,36.0678943591159],[-86.9393123478914,36.0679041331056],[-86.9393507058993,36.0679111969509],[-86.939304369574,36.068188692861],[-86.9391115581847,36.0681558635848],[-86.9389662917021,36.0680587197287]]]},"properties":{"id":"187208","parcel":"142100B02800CO","address":"432 BELLE POINTE DR","owner":"VILLAGE SPACE, LLC","point":[-86.93918845386388,36.067984973694976]}},{"type":"Feature","id":"187729","geometry":{"type":"Polygon","coordinates":[[[-86.9394926897466,36.0675583293672],[-86.9395174551155,36.0675575135424],[-86.9395362016174,36.0678408132199],[-86.939444219775,36.0678441267785],[-86.9394111704505,36.0678456029092],[-86.9393781204599,36.0678441119423],[-86.9393454751962,36.067839669646],[-86.9393136327719,36.0678323333059],[-86.9392829805506,36.0678221900346],[-86.9392538930218,36.0678093649002],[-86.9392267250562,36.0677940137683],[-86.9394119067481,36.0675610301593],[-86.9394119395804,36.0675609902461],[-86.9394595283501,36.0675594242326],[-86.9394926897466,36.0675583293672]]]},"properties":{"id":"187729","parcel":"142100B01600CO","address":"431 BELLE POINTE DR","owner":"CLANTON, PAM & JEFFREY","point":[-86.93942235961363,36.06767757411987]}},{"type":"Feature","id":"187765","geometry":{"type":"Polygon","coordinates":[[[-86.9395618546932,36.0679108347883],[-86.939791830801,36.0679036504115],[-86.9397968847805,36.0681783249495],[-86.9395776932031,36.0681831810207],[-86.9395618546932,36.0679108347883]]]},"properties":{"id":"187765","parcel":"142100B02600CO","address":"436 BELLE POINTE DR","owner":"SCHIBI, DALE M. & TERESA L. TRUST","point":[-86.9396820272333,36.068044581265205]}},{"type":"Feature","id":"188059","geometry":{"type":"Polygon","coordinates":[[[-86.9377856637217,36.0685787480342],[-86.9378657076279,36.0682506608023],[-86.9380339409796,36.0682845161373],[-86.9380672030256,36.0682930477124],[-86.9381053874432,36.0683059005784],[-86.9381418232562,36.068321751259],[-86.9381761522795,36.0683404448154],[-86.9382080393399,36.0683618008934],[-86.9382371744326,36.0683856082986],[-86.9382632706284,36.0684116358288],[-86.9382860728905,36.0684396267967],[-86.9383053604328,36.0684693107289],[-86.9383209421842,36.0685003952893],[-86.9383326680169,36.0685325770071],[-86.938340420976,36.0685655413373],[-86.9383404454473,36.068565639389],[-86.9379753699376,36.0685970511394],[-86.9379525935917,36.068594854332],[-86.9377856637217,36.0685787480342]]]},"properties":{"id":"188059","parcel":"14210009800","address":"7244 GREEN MEADOWS LN","owner":"KOMSIC, GORAN","point":[-86.93804887430419,36.06842551482729]}},{"type":"Feature","id":"188104","geometry":{"type":"Polygon","coordinates":[[[-86.937455328211,36.0691177943151],[-86.937750182874,36.0690841147855],[-86.9377879360942,36.0693268720892],[-86.9374907371411,36.0693522851498],[-86.937455328211,36.0691177943151]]]},"properties":{"id":"188104","parcel":"14210014100","address":"732 BAUGH RD","owner":"CHIMERA, LLC","point":[-86.93762139629474,36.06922233319559]}},{"type":"Feature","id":"188107","geometry":{"type":"Polygon","coordinates":[[[-86.9395603255613,36.0691653160839],[-86.939568167951,36.0691152010378],[-86.9395682157369,36.0691152051718],[-86.939959957276,36.0691499797547],[-86.9399319063921,36.06934542184],[-86.939537461909,36.0693114109019],[-86.9395603255613,36.0691653160839]]]},"properties":{"id":"188107","parcel":"14210014800","address":"7404 BIRKDALE PL","owner":"LIGHT, MITCHELL H.","point":[-86.93974806849852,36.069238463776166]}},{"type":"Feature","id":"188108","geometry":{"type":"Polygon","coordinates":[[[-86.9394878233957,36.0696285889975],[-86.9395067557153,36.0695076207491],[-86.9399032562544,36.0695454940731],[-86.9398827867986,36.0696927275537],[-86.9398756356078,36.0697378196662],[-86.9394760482598,36.0697038305879],[-86.9394878233957,36.0696285889975]]]},"properties":{"id":"188108","parcel":"14210015000","address":"7412 BIRKDALE PL","owner":"CONRICODE, DANIEL T. & CYNTHIA L.","point":[-86.93969590380051,36.06958704189858]}},{"type":"Feature","id":"188775","geometry":{"type":"Polygon","coordinates":[[[-86.9385080826414,36.0685489499705],[-86.9388672246508,36.0684736280189],[-86.9389142854576,36.0687918427163],[-86.9389142976338,36.0687919336532],[-86.9386598048812,36.0688157929979],[-86.938633079673,36.0688182994281],[-86.9386198909488,36.0688189537225],[-86.9386131506929,36.0688184428911],[-86.9385992559884,36.0688164726753],[-86.9385859664502,36.0688126338492],[-86.9385736608396,36.0688070370281],[-86.9385626895993,36.0687998390146],[-86.9385533638054,36.0687912473907],[-86.9385459505469,36.0687815052321],[-86.9385406606933,36.0687708894001],[-86.9385376421494,36.0687597033843],[-86.9385080886707,36.0685489904822],[-86.9385080826414,36.0685489499705]]]},"properties":{"id":"188775","parcel":"14210008200","address":"749 BAUGH RD","owner":"KAPITBAHAY, ERIC L & GUANCO, DYLANI LAURENTE","point":[-86.93870842229887,36.068654441959154]}},{"type":"Feature","id":"188802","geometry":{"type":"Polygon","coordinates":[[[-86.9389305201218,36.0681061275653],[-86.9389305565404,36.0681061092556],[-86.9389374017539,36.0681115611021],[-86.9389374376055,36.0681115887633],[-86.938937467875,36.0681116137641],[-86.9389375026273,36.0681116423351],[-86.9389633514875,36.0681322286671],[-86.9390622865419,36.0682632349493],[-86.9390623497698,36.0682633245871],[-86.9388672246508,36.0684736280189],[-86.9385080826414,36.0685489499705],[-86.9385080766866,36.0685489157673],[-86.9384996529008,36.0685091653438],[-86.938486984979,36.0684701644992],[-86.9384701719041,36.0684322098919],[-86.9384493392464,36.0683955934665],[-86.9384246479374,36.0683605933723],[-86.938930478185,36.068106148622],[-86.9389305201218,36.0681061275653]]]},"properties":{"id":"188802","parcel":"14210012600","address":"7273 GREEN MEADOWS LN","owner":"LAMBERTON, GREGGORY CARTER","point":[-86.93876932668813,36.06831197260017]}},{"type":"Feature","id":"188803","geometry":{"type":"Polygon","coordinates":[[[-86.9384526834616,36.0689998980894],[-86.9387752767063,36.0689690230643],[-86.9387449179293,36.0691603954197],[-86.9387277335642,36.0692687226701],[-86.9384977297854,36.0692878150281],[-86.9384526834616,36.0689998980894]]]},"properties":{"id":"188803","parcel":"14210013400","address":"736 BAUGH RD","owner":"BARRETT, MIRIAM G","point":[-86.93861143178765,36.069080153313635]}},{"type":"Feature","id":"189072","geometry":{"type":"Polygon","coordinates":[[[-86.939568167951,36.0691152010378],[-86.9396023625703,36.0688966999494],[-86.9399013711156,36.0688960732434],[-86.9399136138255,36.0688986898075],[-86.9399253602492,36.0689025224941],[-86.9399364287124,36.06890751053],[-86.9399489487867,36.0689151794412],[-86.9399598676607,36.0689243200481],[-86.9399689230007,36.0689347162814],[-86.9399758998321,36.0689461201563],[-86.939980631745,36.068958259876],[-86.9399830065197,36.0689708460956],[-86.939959957276,36.0691499797547],[-86.9395682157369,36.0691152051718],[-86.939568167951,36.0691152010378]]]},"properties":{"id":"189072","parcel":"14210014700","address":"7400 BIRKDALE PL","owner":"HAYES, S. LYNN","point":[-86.93977659274908,36.06904302425187]}},{"type":"Feature","id":"189403","geometry":{"type":"Polygon","coordinates":[[[-86.9390623497698,36.0682633245871],[-86.9391137783188,36.0682629239299],[-86.9391684648427,36.0687678762167],[-86.9391684738275,36.0687679788954],[-86.9389548575998,36.0687881107481],[-86.9389142976338,36.0687919336532],[-86.9389142854576,36.0687918427163],[-86.9388672246508,36.0684736280189],[-86.9390623497698,36.0682633245871]]]},"properties":{"id":"189403","parcel":"14210008100","address":"753 BAUGH RD","owner":"JENNINGS, JOSEPH MATTHEW","point":[-86.93902075585407,36.068620753695086]}},{"type":"Feature","id":"189537","geometry":{"type":"Polygon","coordinates":[[[-86.9394428801301,36.06825276964],[-86.9396522915969,36.0682477358865],[-86.9396797886269,36.0687419274376],[-86.9396797929804,36.0687420139289],[-86.9396633250498,36.0687424956135],[-86.9396412316454,36.0687431392179],[-86.939619351318,36.0687437766508],[-86.9395769612606,36.0687450137824],[-86.9395256618365,36.0687467845119],[-86.9395255497529,36.0687467880894],[-86.939474433411,36.068748551061],[-86.9394740805413,36.0687485646269],[-86.939431259747,36.0687502719398],[-86.9394227277603,36.0687506115275],[-86.9394227250181,36.0687505673849],[-86.9393816749121,36.0682543326992],[-86.939381668275,36.0682542408179],[-86.9394428801301,36.06825276964]]]},"properties":{"id":"189537","parcel":"14210007900","address":"761 BAUGH RD","owner":"HUYNH, THANH AN","point":[-86.93953403227998,36.068498131830786]}},{"type":"Feature","id":"189575","geometry":{"type":"Polygon","coordinates":[[[-86.939537461909,36.0693114109019],[-86.9399319063921,36.06934542184],[-86.9399032562544,36.0695454940731],[-86.9395067557153,36.0695076207491],[-86.9395240745842,36.0693969525526],[-86.939537461909,36.0693114109019]]]},"properties":{"id":"189575","parcel":"14210014900","address":"7408 BIRKDALE PL","owner":"CRUZ, MANUEL & BETH","point":[-86.93971599487173,36.06945238769616]}},{"type":"Feature","id":"189751","geometry":{"type":"Polygon","coordinates":[[[-86.9392457191427,36.0682586476362],[-86.939381668275,36.0682542408179],[-86.9393816749121,36.0682543326992],[-86.9394227250181,36.0687505673849],[-86.9394227277603,36.0687506115275],[-86.939418932339,36.0687508168605],[-86.9393991131898,36.0687518915461],[-86.9393990566089,36.0687518946909],[-86.9393834865369,36.0687524486549],[-86.9393633212413,36.0687535422555],[-86.939363208069,36.068753547644],[-86.9393482983196,36.0687540829381],[-86.9393211766469,36.0687552595819],[-86.9393036829842,36.0687559339777],[-86.9391684738275,36.0687679788954],[-86.9391684648427,36.0687678762167],[-86.9391137783188,36.0682629239299],[-86.9391489588405,36.0682617836879],[-86.9392457191427,36.0682586476362]]]},"properties":{"id":"189751","parcel":"14210008000","address":"757 BAUGH RD","owner":"GANIER, ALICE","point":[-86.93927136903585,36.06850674734109]}},{"type":"Feature","id":"189753","geometry":{"type":"Polygon","coordinates":[[[-86.9379753699376,36.0685970511394],[-86.9383404454473,36.068565639389],[-86.9383714582471,36.068784897948],[-86.9383703821843,36.068795586777],[-86.9383671578843,36.068805986787],[-86.9383618752704,36.0688158160709],[-86.9383546766195,36.0688248076362],[-86.9383457577681,36.0688327175073],[-86.9383353593173,36.0688393320046],[-86.9383237655547,36.0688444704565],[-86.9383195610475,36.0688456640646],[-86.9383109571978,36.0688480041264],[-86.9382285161156,36.0688560311088],[-86.9380192661227,36.0688758235759],[-86.9380192480036,36.068875699337],[-86.9379753699376,36.0685970511394]]]},"properties":{"id":"189753","parcel":"14210008300","address":"745 BAUGH RD","owner":"HUGULEY, JAMES C. ET UX","point":[-86.9381741658625,36.068690975095684]}},{"type":"Feature","id":"189755","geometry":{"type":"Polygon","coordinates":[[[-86.9376636928926,36.0685644224733],[-86.9376636782744,36.0685643126279],[-86.9377856637217,36.0685787480342],[-86.9379525935917,36.068594854332],[-86.9379753699376,36.0685970511394],[-86.9380192480036,36.068875699337],[-86.9380192661227,36.0688758235759],[-86.9378484602604,36.0688918979357],[-86.9377137121958,36.0689045757535],[-86.9377136953148,36.0689044623206],[-86.9376636928926,36.0685644224733]]]},"properties":{"id":"189755","parcel":"14210008400","address":"741 BAUGH RD","owner":"HUNT, MARSHA P LIVING TRUST","point":[-86.93784313184537,36.06873629539284]}},{"type":"Feature","id":"189805","geometry":{"type":"Polygon","coordinates":[[[-86.9386038289476,36.0678622606497],[-86.9386038519391,36.0678622334316],[-86.9386099578599,36.0678635594748],[-86.9386640222458,36.0679044632816],[-86.938706405674,36.0679365297097],[-86.9387726585922,36.0679866526276],[-86.9389305565404,36.0681061092556],[-86.9389305201218,36.0681061275653],[-86.938930478185,36.068106148622],[-86.9384246479374,36.0683605933723],[-86.9383992572224,36.0683311363302],[-86.93837137559,36.0683032038513],[-86.9383411390176,36.068276935479],[-86.9383087000046,36.0682524598122],[-86.9382742187564,36.0682298999822],[-86.9386037993597,36.0678622933271],[-86.9386038289476,36.0678622606497]]]},"properties":{"id":"189805","parcel":"14210012500","address":"7269 GREEN MEADOWS LN","owner":"PAYNE, THOMAS NELSON","point":[-86.93856854072071,36.0681680074302]}},{"type":"Feature","id":"190424","geometry":{"type":"Polygon","coordinates":[[[-86.939254783161,36.0694851842372],[-86.9392673525401,36.0694037697557],[-86.9394218244992,36.0694179503786],[-86.939419272944,36.0694311563403],[-86.9393921791454,36.0694291701054],[-86.9393821581137,36.0694973777636],[-86.9392791695251,36.0694871915995],[-86.939254783161,36.0694851842372]]]},"properties":{"id":"190424","parcel":"142100A00500CO","address":"7309 WESTON WAY","owner":"CJMK PROPERTIES, LLC","point":[-86.93932343727487,36.069458163438135]}},{"type":"Feature","id":"190627","geometry":{"type":"Polygon","coordinates":[[[-86.9394609495286,36.0690395240989],[-86.9393579388768,36.0690271407983],[-86.9393389923865,36.0690272884416],[-86.939346151184,36.068945916104],[-86.9395005951658,36.0689578985581],[-86.9394980414289,36.0689711054413],[-86.9394709477533,36.0689691165203],[-86.9394609495286,36.0690395240989]]]},"properties":{"id":"190627","parcel":"142100A00100CO","address":"7301 WESTON WAY","owner":"VANDEWEGHE, RONALD & JUDITH A.","point":[-86.93940407899676,36.068999111055014]}},{"type":"Feature","id":"190630","geometry":{"type":"Polygon","coordinates":[[[-86.9393106312053,36.0693427251954],[-86.9393155762395,36.0693031275297],[-86.9393210159927,36.0693052825202],[-86.9393282498185,36.0692611469789],[-86.9393285905234,36.0692590713248],[-86.9394315788226,36.0692692574472],[-86.9394559911151,36.0692734628517],[-86.9394459441786,36.0693394733412],[-86.9394703564935,36.0693436787427],[-86.9394705123942,36.0693568636049],[-86.9393106312053,36.0693427251954]]]},"properties":{"id":"190630","parcel":"142100A00400CO","address":"7307 WESTON WAY","owner":"PARRISH, JESSE","point":[-86.93938085889154,36.06932237662142]}},{"type":"Feature","id":"190974","geometry":{"type":"Polygon","coordinates":[[[-86.9310614915239,36.0695055739929],[-86.931171311487,36.0694058275103],[-86.9311713372297,36.0694058453375],[-86.9311713752888,36.0694058720826],[-86.9316216680686,36.0697210197528],[-86.9316215845381,36.0697210916013],[-86.9315720313153,36.0697631607359],[-86.9314152798674,36.069896236276],[-86.9309784313026,36.0695787406721],[-86.9310614915239,36.0695055739929]]]},"properties":{"id":"190974","parcel":"14211000500","address":"7151 OLD HARDING PIKE","owner":"GILL, JOE M. III & LINDY F.","point":[-86.9312981693132,36.06964987956647]}},{"type":"Feature","id":"191115","geometry":{"type":"Polygon","coordinates":[[[-86.9393476580594,36.0690733730876],[-86.9393579388768,36.0690271407983],[-86.9394609495286,36.0690395240989],[-86.939485339102,36.069041532295],[-86.9394753181992,36.0691097399673],[-86.939502414111,36.0691117261664],[-86.9394998863289,36.0691271284235],[-86.9393426859691,36.0691107735887],[-86.9393476580594,36.0690733730876]]]},"properties":{"id":"191115","parcel":"142100A00200CO","address":"7303 WESTON WAY","owner":"HENRY, KENDALL","point":[-86.93941161495056,36.06909155660856]}},{"type":"Feature","id":"191752","geometry":{"type":"Polygon","coordinates":[[[-86.9394315788226,36.0692692574472],[-86.9393285905234,36.0692590713248],[-86.9393042302032,36.0692592611491],[-86.9393140694111,36.0691756705526],[-86.9394685116465,36.0691876557681],[-86.9394686675147,36.0692008379271],[-86.9394415737934,36.0691988517032],[-86.9394315788226,36.0692692574472]]]},"properties":{"id":"191752","parcel":"142100A00300CO","address":"7305 WESTON WAY","owner":"HEDAYAT, ELIOUS & KAREEM","point":[-86.93937242039365,36.06922994139324]}}]}