{"type":"FeatureCollection","features":[{"type":"Feature","id":"27838","geometry":{"type":"Polygon","coordinates":[[[-86.9831997086147,36.1257252703004],[-86.9837338230306,36.1245197213696],[-86.9840758101585,36.1241458811063],[-86.9844428204985,36.124153948102],[-86.9843994000838,36.1241971824982],[-86.9843580120169,36.1242417107775],[-86.9843187154904,36.1242874684669],[-86.9842803933431,36.124336910801],[-86.9842459154554,36.1243881820298],[-86.9842249475482,36.1244260894644],[-86.9842080497605,36.1244653129265],[-86.9841953440575,36.1245055639094],[-86.9841869256784,36.1245465487162],[-86.9841828531162,36.1245879667392],[-86.9841814614681,36.1246238451564],[-86.9841838010698,36.1246596904268],[-86.9841898543464,36.1246952494298],[-86.9841995792622,36.124730267441],[-86.9842129060885,36.1247644962709],[-86.9842523685385,36.1248476144407],[-86.9842955254264,36.1249295145436],[-86.9843263252618,36.1249880222911],[-86.9843543302625,36.1250474478232],[-86.9843794971162,36.1251077031681],[-86.984401789153,36.1251686984973],[-86.9844241485694,36.1252325269452],[-86.9844440261523,36.1252968929859],[-86.9844614011298,36.1253617346004],[-86.9844685947457,36.1253979467304],[-86.9844715593269,36.1254345466811],[-86.9844702697386,36.1254712101915],[-86.9844647397368,36.1255076135841],[-86.9844541347563,36.1255509956644],[-86.9844401189324,36.1255937350146],[-86.984422746734,36.1256356554365],[-86.9843876158715,36.1257137780008],[-86.9843545117493,36.1257849449407],[-86.9843242741852,36.1258569456112],[-86.9842969322516,36.1259297049696],[-86.9842725172208,36.1260031461526],[-86.9842510536891,36.12607719145],[-86.9833955464831,36.1258301403791],[-86.9831997086147,36.1257252703004]]]},"properties":{"id":"27838","parcel":"10000000800","address":"8076 OLD POND CREEK RD","owner":"KREBS, ALLYSON","point":[-86.98392525421377,36.1251381392875]}},{"type":"Feature","id":"49722","geometry":{"type":"Polygon","coordinates":[[[-86.9839288407883,36.1222243118405],[-86.9836646505132,36.122077948235],[-86.9835891393572,36.1220335171997],[-86.983775524926,36.1220402197693],[-86.9839616948076,36.122050043197],[-86.9841475954027,36.1220627842283],[-86.9843331577952,36.1220784380192],[-86.9845183130579,36.1220969988248],[-86.9847029922409,36.1221184590984],[-86.9848871241611,36.1221428104104],[-86.9850706432118,36.122170046089],[-86.9851090359893,36.1221742336262],[-86.9851477570328,36.1221751521722],[-86.9851863851665,36.1221727907458],[-86.9852245007951,36.122167176208],[-86.9852616858369,36.1221583678543],[-86.9852975371322,36.1221464636149],[-86.98533260937,36.1221308650054],[-86.9853651294069,36.1221120092192],[-86.9853951537733,36.1220906024128],[-86.9854223796393,36.1220668597678],[-86.9854456346568,36.1220404853242],[-86.9854655117559,36.1220123503003],[-86.9854818100652,36.1219827393458],[-86.9854936653753,36.1219517478499],[-86.9855008936624,36.1219198541031],[-86.9855041429099,36.1218875314007],[-86.9855033794384,36.1218551089914],[-86.9854540591231,36.1213758428224],[-86.9854511236956,36.1213319493253],[-86.9854505859298,36.1212879938788],[-86.9854524457734,36.1212440621064],[-86.9874510956792,36.1213471408783],[-86.9870905799126,36.1218212471442],[-86.9861799729179,36.1230187346923],[-86.9851354474227,36.1235340693977],[-86.9851416173628,36.1234957355577],[-86.9851439455732,36.1234571221447],[-86.985142415207,36.1234184825609],[-86.9851370394204,36.1233800708642],[-86.9851278513193,36.1233421373441],[-86.9851079573663,36.1232895298262],[-86.9850850485046,36.1232377373622],[-86.9850591739019,36.123186872211],[-86.9850303893903,36.1231370465768],[-86.9849987596543,36.1230883698876],[-86.9849504242033,36.12301947743],[-86.9849000092358,36.1229515735288],[-86.9848563197676,36.1228963797534],[-86.9848092981255,36.1228430193638],[-86.9847590636902,36.122791622971],[-86.9847057380181,36.1227423175627],[-86.9846494559387,36.122695225512],[-86.9845422434033,36.1226126099524],[-86.9844328077829,36.1225319358066],[-86.984355003978,36.1224760378403],[-86.9842742952679,36.1224229196911],[-86.9841908339474,36.1223726792533],[-86.9839288407883,36.1222243118405]]]},"properties":{"id":"49722","parcel":"11300021700","address":"8300 OLD CHARLOTTE PIKE","owner":"MCWRIGHT, TRISHA STEPHENS","point":[-86.98544224831416,36.12239795258936]}},{"type":"Feature","id":"66778","geometry":{"type":"Polygon","coordinates":[[[-86.9840653647765,36.1219187348535],[-86.9832373131905,36.1209315710551],[-86.9826699566073,36.1203955535395],[-86.9829521893023,36.1189590997716],[-86.9831123556489,36.1189665217002],[-86.983176859348,36.1199870417423],[-86.9851615764093,36.1220371535799],[-86.9851397199893,36.1220378359076],[-86.9851178827154,36.1220368380586],[-86.9850962591124,36.1220341692597],[-86.9848914030562,36.122003879395],[-86.9846857907225,36.1219771798128],[-86.9844794703821,36.1219543819637],[-86.9842726346754,36.1219348975279],[-86.9840653647765,36.1219187348535]]]},"properties":{"id":"66778","parcel":"11300013800","address":"8301 OLD CHARLOTTE PIKE","owner":"HOLLAND, JAMES A. ET UX","point":[-86.9833927686402,36.120663624319526]}},{"type":"Feature","id":"66789","geometry":{"type":"Polygon","coordinates":[[[-86.9891652753665,36.1190258419199],[-86.9892317759141,36.119028311392],[-86.989297460694,36.1190345828819],[-86.9893625630792,36.1190440388906],[-86.9894268504583,36.1190566434726],[-86.9894889682764,36.1190729872755],[-86.9895497886967,36.1190922781173],[-86.9896090987064,36.119114448348],[-86.9896661585359,36.1191402160641],[-86.9897212434425,36.1191686705028],[-86.9897741622548,36.1191997140923],[-86.9898240169448,36.1192339346407],[-86.9898712946171,36.1192704845396],[-86.9899158303509,36.1193092335561],[-86.9900458872909,36.1211753205731],[-86.9901522114088,36.1217961543943],[-86.9905093301823,36.1238813123998],[-86.9906645635007,36.1242355197641],[-86.9909770731666,36.124948584861],[-86.9915601221653,36.1249716770652],[-86.9921431703922,36.1249947664604],[-86.9923166282209,36.1250015838486],[-86.9926904174626,36.1250161639095],[-86.9925604961358,36.1271831521954],[-86.9922537603708,36.1271908301276],[-86.9922129543955,36.1272051701022],[-86.992166674207,36.1272214342886],[-86.9919288762129,36.1273049995032],[-86.9918133925547,36.1280684578289],[-86.991369298431,36.1282655100142],[-86.9916404720813,36.1289649703884],[-86.9923149008742,36.1294857333449],[-86.9923177970728,36.1298634892494],[-86.9862626884242,36.1294757138059],[-86.9862828105992,36.1293919677222],[-86.9863006642794,36.129307882366],[-86.9863162377893,36.1292235010958],[-86.9863225002942,36.129178498714],[-86.9863253169507,36.1291332685372],[-86.9863246765838,36.1290879837055],[-86.9863205813602,36.1290428181511],[-86.986313046766,36.1289979447959],[-86.9863021016068,36.1289535355509],[-86.9862852068265,36.1289001665046],[-86.9862654637282,36.1288474453396],[-86.9862429113302,36.1287954717791],[-86.9861851556802,36.1286761429165],[-86.9861236161291,36.1285580653087],[-86.9860915124789,36.1285024997204],[-86.9860561323516,36.1284482605721],[-86.9860175584135,36.1283954733668],[-86.9859758799732,36.1283442617502],[-86.9859311963139,36.1282947474839],[-86.9858836110608,36.1282470441822],[-86.9858209866785,36.1281842471981],[-86.9857616375767,36.1281193900956],[-86.9857056640525,36.1280525874258],[-86.9856562934399,36.1279909015097],[-86.9856104307262,36.1279274600311],[-86.9855681697196,36.1278623920142],[-86.9854173241811,36.1276162503555],[-86.9853698884293,36.1275418645873],[-86.9853198603973,36.1274686067638],[-86.9852672796863,36.1273965342413],[-86.9852121892521,36.1273257061512],[-86.9851393735595,36.1272326111826],[-86.9850642456324,36.1271407328719],[-86.9849900134315,36.1270590714928],[-86.9849127317852,36.1269792934359],[-86.9848324749422,36.1269014728968],[-86.9847493171387,36.1268256831698],[-86.9846992043141,36.1267812464947],[-86.9846511882615,36.1267353118558],[-86.984605337547,36.1266879435893],[-86.9845670379396,36.1266443198451],[-86.9845316118743,36.1265991260136],[-86.9844991564355,36.126552486585],[-86.9844697609867,36.1265045306187],[-86.9844500021267,36.1264666995674],[-86.9844332334897,36.126427930197],[-86.984419524756,36.1263883769628],[-86.9844089278877,36.1263481989712],[-86.9844014871041,36.1263075580951],[-86.984396970689,36.1262738405388],[-86.984395396175,36.1262399484588],[-86.9843967689915,36.1262060512544],[-86.9844010845481,36.1261723166038],[-86.9844083193695,36.1261389123392],[-86.9844274398404,36.1260674728527],[-86.9844495814679,36.1259966098704],[-86.9844747152907,36.1259264074475],[-86.9845028134477,36.1258569487286],[-86.9845338425012,36.1257883151013],[-86.9845674191391,36.1257154876732],[-86.9845986787726,36.1256419851481],[-86.9846157486201,36.1255943250143],[-86.9846285649115,36.1255457946959],[-86.9846370607671,36.1254966443989],[-86.9846411915464,36.1254471259502],[-86.98463863439,36.1254008337502],[-86.9846319778266,36.1253548111501],[-86.9846212559285,36.1253092967148],[-86.9845985718741,36.1252319361969],[-86.9845732815187,36.1251551088819],[-86.98454540448,36.1250788731926],[-86.9845149614751,36.125003286641],[-86.9844805530158,36.1249314196444],[-86.9844432048971,36.1248605256917],[-86.9844065235627,36.1247906294276],[-86.9843729536081,36.1247197118298],[-86.9843614915987,36.1246896624296],[-86.9843541064828,36.1246587839158],[-86.9843508849492,36.1246274379026],[-86.9843518648986,36.1245959936123],[-86.9843550210842,36.1245631075159],[-86.9843619380901,36.124530602622],[-86.9843725549807,36.1244987615328],[-86.9843867818614,36.1244678607774],[-86.9844044931909,36.1244381690637],[-86.9844298276368,36.1244017455474],[-86.9844611215538,36.1243621296697],[-86.9844941456562,36.1243234487272],[-86.984528858357,36.1242857535301],[-86.9845686539079,36.1242457563862],[-86.9846103496175,36.1242070533017],[-86.9846420959053,36.1241799202341],[-86.9846755254979,36.1241541514986],[-86.9847541672871,36.1240977833038],[-86.9847948390204,36.1240664629149],[-86.9848325666453,36.1240328060542],[-86.9848671479731,36.1239969919305],[-86.9848983943361,36.1239592149642],[-86.9849261382965,36.1239196793166],[-86.9849878511393,36.1238206745816],[-86.9850468687047,36.1237205949438],[-86.9851031627006,36.1236194875056],[-86.9851163918084,36.1235916538006],[-86.9851271716879,36.1235631343813],[-86.9851354474227,36.1235340693977],[-86.9861799729179,36.1230187346923],[-86.9870905799126,36.1218212471442],[-86.9874510956792,36.1213471408783],[-86.9854524457734,36.1212440621064],[-86.9854590904341,36.1211893153405],[-86.9854696660607,36.1211349771923],[-86.9854841371827,36.1210812336176],[-86.9855024549563,36.1210282670758],[-86.9855249996536,36.1209763745902],[-86.9855516664861,36.1209257958581],[-86.9855819304625,36.1208765685142],[-86.9856156881236,36.1208288601413],[-86.9856528248356,36.1207828330052],[-86.9856938080789,36.1207390078374],[-86.9857378779404,36.1206972006705],[-86.9857848828879,36.1206575542432],[-86.9858346635259,36.120620204148],[-86.9858875183078,36.1205857464032],[-86.9859427655337,36.1205538539986],[-86.9860002143628,36.1205246348438],[-86.9860596694114,36.1204981887744],[-86.9863412653532,36.1203830639224],[-86.9864088691549,36.1203572053861],[-86.9864778289539,36.1203338223999],[-86.9865480064802,36.1203129620585],[-86.9866192633973,36.1202946660498],[-86.9866914557365,36.1202789697989],[-86.9874255234664,36.1201359918543],[-86.9874751859394,36.1201254934773],[-86.9875241449045,36.1201130053675],[-86.9875722774106,36.1200985564728],[-86.9876194650621,36.1200821847165],[-86.9876759795711,36.120058483834],[-86.9877305944163,36.1200320125709],[-86.9877831008586,36.1200028690781],[-86.9878326082793,36.1199704531776],[-86.9878795695919,36.1199356318168],[-86.9879238053553,36.1198985362551],[-86.987964294713,36.1198587233068],[-86.9880016927314,36.1198169681336],[-86.9880358591751,36.1197734278113],[-86.9882807780985,36.1194322749379],[-86.9883164696473,36.1193866977198],[-86.9883554899105,36.1193429525915],[-86.9883976931179,36.1193011984712],[-86.9884434805416,36.1192619908717],[-86.9884925960897,36.1192255500017],[-86.98854433293,36.1191915824193],[-86.988598504861,36.1191602113224],[-86.9886554961628,36.1191323222373],[-86.9887144590752,36.1191072767804],[-86.9887751780941,36.119085164141],[-86.9888378181362,36.119066916709],[-86.9889017020727,36.119051771226],[-86.9889665962037,36.119039782783],[-86.9890324367023,36.1190318910536],[-86.9890987429978,36.1190272383369],[-86.9891652753665,36.1190258419199]]]},"properties":{"id":"66789","parcel":"11300015400","address":"0 OLD CHARLOTTE PIKE","owner":"DEBERRY, GEORGE MICHAEL","point":[-86.98757790477076,36.124453387177596]}},{"type":"Feature","id":"67693","geometry":{"type":"Polygon","coordinates":[[[-86.9811322130841,36.1219504297219],[-86.9812705311739,36.120697046358],[-86.9820313101989,36.1208842542641],[-86.9818580361019,36.1213296055271],[-86.9818574651717,36.1219405781271],[-86.9818574415694,36.1219653504428],[-86.9815760592974,36.1219874807351],[-86.981504930467,36.1219910995927],[-86.9814336604772,36.1219911179778],[-86.9813625281583,36.121987534523],[-86.9812918091976,36.1219803632092],[-86.9812217772498,36.1219696333565],[-86.9811767559698,36.1219607675988],[-86.9811322130841,36.1219504297219]]]},"properties":{"id":"67693","parcel":"11300005100","address":"8255 OLD CHARLOTTE PIKE","owner":"HOLT, ANDREW R.","point":[-86.98151238763018,36.12163503903475]}},{"type":"Feature","id":"67809","geometry":{"type":"Polygon","coordinates":[[[-86.9788328704431,36.1253170648807],[-86.9786043458074,36.1253086406256],[-86.9780066562143,36.1254183706729],[-86.9777442776972,36.1240239516874],[-86.9778575766528,36.1240515764132],[-86.9779720642764,36.1240757646714],[-86.9780875812844,36.124096483501],[-86.9782039673373,36.1241137044564],[-86.9783210621505,36.1241274035988],[-86.9784387032617,36.1241375606126],[-86.9785567294191,36.1241441632849],[-86.9786749760716,36.1241472021338],[-86.978793279834,36.1241466721753],[-86.9789114773992,36.1241425747344],[-86.9790294066262,36.1241349156336],[-86.9790953793123,36.1241402088512],[-86.9791616269707,36.1241422145792],[-86.9792279017903,36.1241409276184],[-86.9792939549601,36.1241363517911],[-86.9793595400468,36.1241285035192],[-86.9794244096841,36.1241174136533],[-86.9794883199498,36.1241031220294],[-86.9795510337763,36.1240856837505],[-86.9796123119974,36.1240651638514],[-86.9796719289217,36.1240416389745],[-86.979729657893,36.1240151974874],[-86.9797852834971,36.1239859384824],[-86.9798385971309,36.1239539727135],[-86.9798893991675,36.1239194180725],[-86.979937499035,36.123882405897],[-86.9799827162376,36.1238430737522],[-86.9800248804227,36.1238015708378],[-86.980088452536,36.1237560445388],[-86.9801544788878,36.1237128794861],[-86.9802228283604,36.1236721632656],[-86.9802933631171,36.1236339790117],[-86.9803659396675,36.1235984017929],[-86.9804404111677,36.1235655049029],[-86.9805166284639,36.123535354444],[-86.9805944389929,36.1235080102373],[-86.9806736834716,36.1234835276526],[-86.9807542025622,36.1234619575539],[-86.9808358345943,36.1234433418117],[-86.9809781836032,36.1234165784551],[-86.9811213920648,36.1233930264662],[-86.9812653502367,36.1233727038594],[-86.9814099472326,36.1233556259552],[-86.9815550721447,36.123341806272],[-86.9817006129207,36.1233312556342],[-86.981846459686,36.1233239812441],[-86.981992497012,36.1233199903493],[-86.982138616057,36.1233192838354],[-86.9822847024477,36.1233218644365],[-86.9824306450652,36.123327728551],[-86.9825763305686,36.1233368725966],[-86.9826371148092,36.1233579625919],[-86.9826993797637,36.1233759860023],[-86.9827628912848,36.123390874432],[-86.9828274087158,36.1234025721569],[-86.9828926904336,36.123411035178],[-86.9829584882726,36.1234162294645],[-86.9830245554005,36.123418139001],[-86.9830906428419,36.1234167540994],[-86.9831565018105,36.1234120803923],[-86.9832218814662,36.1234041370494],[-86.9831901719003,36.1224840983801],[-86.9831859739445,36.1223638077614],[-86.9838058402563,36.1223222621104],[-86.984092366593,36.1224844060421],[-86.9841705037843,36.1225313651044],[-86.9842459585534,36.1225811301076],[-86.9843816624623,36.1226795204441],[-86.98451470318,36.1227802766358],[-86.9845686737318,36.1228244376729],[-86.9846197863779,36.1228707833221],[-86.9846679052012,36.1229191930212],[-86.9847129041797,36.1229695380159],[-86.9847656963584,36.123036634854],[-86.9848159779917,36.1231049896446],[-86.98486370165,36.1231745405888],[-86.9848965867357,36.123228326424],[-86.9849254411764,36.1232836142731],[-86.9849501613994,36.1233402048969],[-86.9849605673229,36.1233662548116],[-86.9849681172213,36.1233929445323],[-86.9849727529911,36.1234200681374],[-86.9849744376115,36.12344741773],[-86.9849738000596,36.1234782328402],[-86.9849688678147,36.1235087918994],[-86.9849597015244,36.1235387005457],[-86.9849464208556,36.1235675756514],[-86.9848924960973,36.1236641878364],[-86.9848360497943,36.1237598471807],[-86.9847771069629,36.1238545111158],[-86.984755191454,36.1238859397601],[-86.9847304432784,36.1239159539573],[-86.9847030014295,36.1239443849299],[-86.984673020576,36.1239710736868],[-86.98464066663,36.1239958719607],[-86.9845616119902,36.1240525408804],[-86.9845200744778,36.1240848245312],[-86.9844804490969,36.1241186509021],[-86.9844428204985,36.124153948102],[-86.9840758101585,36.1241458811063],[-86.9837338230306,36.1245197213696],[-86.9834783289115,36.1245785871994],[-86.9831324099571,36.124575164588],[-86.9808900961862,36.1258671842252],[-86.9808764019314,36.1258635425844],[-86.9803069905924,36.1256345005933],[-86.9798248651731,36.1254996596582],[-86.9795215319171,36.1254180611292],[-86.9788328704431,36.1253170648807]]]},"properties":{"id":"67809","parcel":"11300011400","address":"8040 OLD POND CREEK RD","owner":"RUSSELL, TAMMY DENISE","point":[-86.98202144004586,36.12409160923149]}},{"type":"Feature","id":"67829","geometry":{"type":"Polygon","coordinates":[[[-86.9801737179072,36.1222531594647],[-86.9799750148985,36.1221756581682],[-86.9799591458625,36.1222065555284],[-86.9797304867698,36.1223358805088],[-86.9796569733054,36.1220859371535],[-86.9801530599047,36.1215700764877],[-86.9802118607362,36.1216127094682],[-86.9803333196269,36.121697164374],[-86.9804613126058,36.1217808585301],[-86.9805919888526,36.1218617772784],[-86.9807252576641,36.1219398627635],[-86.9807881917329,36.1219729694094],[-86.9808531948789,36.1220033300736],[-86.9809200860799,36.1220308597006],[-86.9809891218534,36.1220546513],[-86.981059610388,36.1220754477547],[-86.9811313565636,36.1220931920651],[-86.9812043480892,36.1221072498164],[-86.9812683373042,36.1221164912259],[-86.9813328071343,36.1221231816289],[-86.9813976029274,36.1221273024545],[-86.9814625701651,36.1221288459463],[-86.9815275521519,36.1221278079713],[-86.9815923933811,36.1221241906961],[-86.9823595868103,36.1220638493749],[-86.9825450795108,36.1220511003304],[-86.9827308389244,36.1220412356788],[-86.9829167973574,36.122034259576],[-86.9831028859608,36.1220301725822],[-86.9832890370186,36.1220289770516],[-86.9835843573032,36.1221999904567],[-86.9838058402563,36.1223222621104],[-86.9831859739445,36.1223638077614],[-86.9831901719003,36.1224840983801],[-86.9801599717543,36.122456288055],[-86.9801737179072,36.1222531594647]]]},"properties":{"id":"67829","parcel":"11300000400","address":"8252 OLD CHARLOTTE PIKE","owner":"BARNES, KENNETH W. & DONNA LEE","point":[-86.98030417930205,36.122015882281076]}},{"type":"Feature","id":"67903","geometry":{"type":"Polygon","coordinates":[[[-86.9818580361019,36.1213296055271],[-86.9820313101989,36.1208842542641],[-86.9828464255292,36.1210842015359],[-86.9828971186117,36.1218969470204],[-86.9828971339095,36.1218971956535],[-86.982712340584,36.1219045759319],[-86.9825277326984,36.1219145555572],[-86.9823433668404,36.1219271304641],[-86.9818574415694,36.1219653504428],[-86.9818574651717,36.1219405781271],[-86.9818580361019,36.1213296055271]]]},"properties":{"id":"67903","parcel":"11300014000","address":"8265 OLD CHARLOTTE PIKE","owner":"HOLT, RAYMOND R. ETUX","point":[-86.98236860045097,36.121613276085974]}},{"type":"Feature","id":"69122","geometry":{"type":"Polygon","coordinates":[[[-86.9838583329822,36.1190010914046],[-86.984998456013,36.1190539164089],[-86.9857814941253,36.1190440548917],[-86.9858775451738,36.1204241100317],[-86.9858157116958,36.1204581598629],[-86.9857562126487,36.1204948458045],[-86.9856992189129,36.1205340628143],[-86.9856456670295,36.1205763530341],[-86.9855949803895,36.1206209064075],[-86.985547305183,36.1206675973645],[-86.9855033708124,36.1207166578918],[-86.9854630471769,36.1207677195246],[-86.9854268059473,36.1208207450653],[-86.9853941147592,36.1208752665869],[-86.9853650661332,36.1209311301162],[-86.9853407971496,36.1209884759824],[-86.9853203461037,36.1210467928974],[-86.9853037709165,36.12110591365],[-86.9852791193868,36.1210584039739],[-86.9852583333396,36.1210096937372],[-86.9852414997379,36.1209599877271],[-86.9852297510332,36.1209100391924],[-86.9852218875862,36.1208595902479],[-86.985217938542,36.1208088416454],[-86.9852383253448,36.1206409582331],[-86.9852416435146,36.1205972651064],[-86.985241378058,36.1205534903908],[-86.9852375291411,36.1205098260609],[-86.985230113614,36.1204664657578],[-86.9852191660768,36.1204236011743],[-86.985204733303,36.1203814202987],[-86.9851868787271,36.1203401109826],[-86.9851656834774,36.1202998546239],[-86.9851234813502,36.1202302217127],[-86.9850784500176,36.1201617637486],[-86.9850408668314,36.120110109108],[-86.9850004564031,36.1200598790594],[-86.9849573011075,36.1200111765766],[-86.9849114876723,36.1199640973872],[-86.9848631095225,36.1199187398681],[-86.9847647869428,36.1198313299964],[-86.9841693488443,36.1193019820795],[-86.9839951976525,36.1191471576617],[-86.9839560609985,36.1191138351144],[-86.9839200756487,36.1190782507308],[-86.9838874406511,36.1190406002742],[-86.9838583329822,36.1190010914046]]]},"properties":{"id":"69122","parcel":"11300013400","address":"8130 DUFFIELD RD","owner":"MOORE, WILLIAM P. III & CHERYL L.","point":[-86.98541469293275,36.12003558167223]}},{"type":"Feature","id":"69130","geometry":{"type":"Polygon","coordinates":[[[-86.9831123556489,36.1189665217002],[-86.9838583329822,36.1190010914046],[-86.9838874406511,36.1190406002742],[-86.9839200756487,36.1190782507308],[-86.9839560609985,36.1191138351144],[-86.9839951976525,36.1191471576617],[-86.9841693488443,36.1193019820795],[-86.9833117364105,36.1199419878563],[-86.9838761159313,36.1204560485886],[-86.9847647869428,36.1198313299964],[-86.9848631095225,36.1199187398681],[-86.9849114876723,36.1199640973872],[-86.9849573011075,36.1200111765766],[-86.9850004564031,36.1200598790594],[-86.9850408668314,36.120110109108],[-86.9850784500176,36.1201617637486],[-86.9851234813502,36.1202302217127],[-86.9851656834774,36.1202998546239],[-86.9851868787271,36.1203401109826],[-86.985204733303,36.1203814202987],[-86.9852191660768,36.1204236011743],[-86.985230113614,36.1204664657578],[-86.9852375291411,36.1205098260609],[-86.985241378058,36.1205534903908],[-86.9852416435146,36.1205972651064],[-86.9852383253448,36.1206409582331],[-86.985217938542,36.1208088416454],[-86.9852218875862,36.1208595902479],[-86.9852297510332,36.1209100391924],[-86.9852414997379,36.1209599877271],[-86.9852583333396,36.1210096937372],[-86.9852791193868,36.1210584039739],[-86.9853037709165,36.12110591365],[-86.985291441525,36.1211704038928],[-86.9852834957741,36.1212353468292],[-86.9852813503489,36.121285993788],[-86.9852819702919,36.1213366686306],[-86.9852853543672,36.121387271323],[-86.9853346725606,36.1218665375687],[-86.9853349554045,36.1218897769898],[-86.9853306810803,36.1219127291697],[-86.9853226680296,36.1219350124832],[-86.9853110590645,36.1219562291925],[-86.9852954180607,36.1219757005776],[-86.9852779592274,36.1219916501216],[-86.9852580660123,36.1220055997417],[-86.985236086452,36.1220173068491],[-86.9852124001674,36.1220265673532],[-86.9851874184301,36.1220332210682],[-86.9851615764093,36.1220371535799],[-86.983176859348,36.1199870417423],[-86.9831123556489,36.1189665217002]]]},"properties":{"id":"69130","parcel":"11300013900","address":"8311 OLD CHARLOTTE PIKE","owner":"JOHNSON, PHILLIP & HANNAH DAWN","point":[-86.98444779524654,36.12048804644643]}}]}