{"type":"FeatureCollection","features":[{"type":"Feature","id":"234025","geometry":{"type":"Polygon","coordinates":[[[-86.9866145150526,36.0467905245885],[-86.9870045855071,36.0463909932887],[-86.9871875165474,36.0464269056783],[-86.9874266154943,36.0464728524615],[-86.9874736116695,36.0464814768975],[-86.9908307083781,36.0470823349016],[-86.9907680670937,36.0470862812264],[-86.9867752801798,36.047337782515],[-86.9863221857006,36.047094235507],[-86.9863211655889,36.0470936868449],[-86.9866145150526,36.0467905245885]]]},"properties":{"id":"234025","parcel":"15500016400","address":"8458 LEWIS RD","owner":"WHITE, LAURA LYNN WEBER REVOC TRT & WHITE, JEFFERY T","point":[-86.9882448713805,36.04693640239171]}},{"type":"Feature","id":"242073","geometry":{"type":"Polygon","coordinates":[[[-86.9875344929881,36.0458482290652],[-86.9879332621221,36.0454397778214],[-86.9885347566302,36.0457890505201],[-86.991427471446,36.0459850627339],[-86.9912905145025,36.0471645306514],[-86.9911417421448,36.0471379362069],[-86.9908307083781,36.0470823349016],[-86.9874736116695,36.0464814768975],[-86.9875344929881,36.0458482290652]]]},"properties":{"id":"242073","parcel":"15500002700","address":"8468 LEWIS RD","owner":"NGUYEN, DEBORAH & PHU THANH","point":[-86.98944806092648,36.04623328590135]}},{"type":"Feature","id":"245431","geometry":{"type":"Polygon","coordinates":[[[-86.9866265184642,36.0478217157728],[-86.9861356604638,36.0476896019],[-86.9857052417184,36.0477351911388],[-86.9863211655889,36.0470936868449],[-86.9863221857006,36.047094235507],[-86.9867752801798,36.047337782515],[-86.9907680670937,36.0470862812264],[-86.9908307083781,36.0470823349016],[-86.9911417421448,36.0471379362069],[-86.991098903883,36.0474108204482],[-86.9910663954483,36.0476338203424],[-86.9909572583808,36.0483824661747],[-86.9908920525048,36.0488240418585],[-86.9908754973596,36.0488251910562],[-86.9897093213876,36.0489061264492],[-86.9895404926733,36.0489178427959],[-86.9893618565498,36.0489302396961],[-86.9888090502599,36.0490076064728],[-86.9886551282495,36.0490291479545],[-86.988395000952,36.0490716587167],[-86.9878164275219,36.0491669493548],[-86.9878158892123,36.0491670375892],[-86.9878158094653,36.0491670508613],[-86.9878145944042,36.0491672509979],[-86.987685272157,36.0491885832838],[-86.9872305006283,36.0492397087455],[-86.9869276590322,36.0492764228867],[-86.9863458295527,36.0493469587229],[-86.9863469850332,36.049338022667],[-86.9864604185429,36.0484606894005],[-86.9864765835282,36.0483356531669],[-86.9865292840893,36.0479280474182],[-86.9866014954394,36.047918639612],[-86.9866032829357,36.0479117146128],[-86.98661997311,36.0478470701121],[-86.9866265184642,36.0478217157728]]]},"properties":{"id":"245431","parcel":"15500002600","address":"8454 LEWIS RD","owner":"WHITE, LAURA LYNN WEBER REVOC TRT & WHITE, JEFFERY T","point":[-86.98874833281867,36.0481320820468]}}]}