{"type":"FeatureCollection","features":[{"type":"Feature","id":"68301","geometry":{"type":"Polygon","coordinates":[[[-86.8949951064191,36.1094655205717],[-86.8957493081617,36.1092178976402],[-86.8965308092799,36.1099796422795],[-86.8951614402861,36.1098653688423],[-86.8949951064191,36.1094655205717]]]},"properties":{"id":"68301","parcel":"11510005701","address":"6501 CURRYWOOD DR","owner":"AGEE, MARY E. & C. KENT","point":[-86.89564387212286,36.10966593870698]}},{"type":"Feature","id":"68822","geometry":{"type":"Polygon","coordinates":[[[-86.8934976699957,36.1086500087245],[-86.8935572998999,36.1081726630172],[-86.8940666362548,36.1079469190796],[-86.8941220408203,36.1080169145296],[-86.8941736205071,36.1080888093931],[-86.8942212738011,36.10816246653],[-86.8942649113627,36.1082377451044],[-86.8943228738693,36.1083432116479],[-86.8943773382034,36.1084498974136],[-86.8944282646599,36.1085577296959],[-86.8944325090953,36.1085687129008],[-86.8944343714347,36.1085801238596],[-86.8944337978931,36.1085916249866],[-86.894430803513,36.1086028754824],[-86.8944254778701,36.1086135448096],[-86.8944179784304,36.1086233145456],[-86.8944085274412,36.1086318982337],[-86.894397404147,36.1086390405397],[-86.8943849360568,36.1086445308361],[-86.8943724476377,36.1086479203717],[-86.894289157497,36.1086606279239],[-86.894205280932,36.1086704799687],[-86.8941209688029,36.1086774582621],[-86.8940363687093,36.1086815508934],[-86.8939516316435,36.1086827513353],[-86.8938669075279,36.1086810566738],[-86.8937823463458,36.1086764694026],[-86.8934976699957,36.1086500087245]]]},"properties":{"id":"68822","parcel":"11514004500","address":"6361 BRESSLYN RD","owner":"KITTRELL, ADAM & NATALIE REVOCABLE TRUST","point":[-86.89391827909031,36.10829014640697]}},{"type":"Feature","id":"69014","geometry":{"type":"Polygon","coordinates":[[[-86.8925352036589,36.1096455560699],[-86.8926913377706,36.1087175153911],[-86.8931630724061,36.1087601752094],[-86.8930136863399,36.1096856943228],[-86.8926158544887,36.109652376819],[-86.8925352036589,36.1096455560699]]]},"properties":{"id":"69014","parcel":"11511007600","address":"6356 BRESSLYN RD","owner":"GEE, JAMES RAY & PATRICIA ANN REVOCABLE LIVING TRUST","point":[-86.89285065136232,36.1092028674221]}},{"type":"Feature","id":"69017","geometry":{"type":"Polygon","coordinates":[[[-86.8930136863399,36.1096856943228],[-86.8931630724061,36.1087601752094],[-86.8936320998465,36.1088028523437],[-86.8934864091199,36.109725322663],[-86.8931912543913,36.1097005873293],[-86.8930136863399,36.1096856943228]]]},"properties":{"id":"69017","parcel":"11511007700","address":"6360 BRESSLYN RD","owner":"VIDALAKIS, JOHN N. REVOCABLE TRUST","point":[-86.89332366017258,36.10924427443287]}},{"type":"Feature","id":"69099","geometry":{"type":"Polygon","coordinates":[[[-86.8918835603307,36.1095910384428],[-86.8914647233439,36.1095562249197],[-86.8917827513681,36.1086033631724],[-86.8919266530936,36.1086297046003],[-86.8920713960906,36.1086528157158],[-86.8922168701582,36.1086726766013],[-86.8920570621912,36.1096056891932],[-86.8918835603307,36.1095910384428]]]},"properties":{"id":"69099","parcel":"11511007400","address":"6348 BRESSLYN RD","owner":"HIGGINBOTHAM, HENRY & DIANNNE","point":[-86.89187669818337,36.10911448377264]}},{"type":"Feature","id":"69152","geometry":{"type":"Polygon","coordinates":[[[-86.8971750081865,36.1100336413317],[-86.897177693763,36.1097918724768],[-86.8973537710597,36.1097949581264],[-86.8973489527504,36.11008728998],[-86.8971756536876,36.1100907765979],[-86.8971750081865,36.1100336413317]]]},"properties":{"id":"69152","parcel":"11510005901","address":"6507 RP CURRYWOOD DR","owner":"METRO GOV'T  WW  WATER & SEWER","point":[-86.8972640687396,36.10991429948854]}},{"type":"Feature","id":"69384","geometry":{"type":"Polygon","coordinates":[[[-86.8947042025756,36.1087663337035],[-86.8947009539535,36.1087550150508],[-86.8947000357884,36.1087434168338],[-86.8947014749458,36.108731853404],[-86.8947052316441,36.1087206387058],[-86.8947112037748,36.1087100754291],[-86.8947192301845,36.1087004504786],[-86.8947290938743,36.108692023233],[-86.8947405264222,36.10868502371],[-86.8948029567184,36.1086574722221],[-86.8948637131662,36.1086275582181],[-86.8949226609983,36.1085953475934],[-86.8949796655289,36.1085609134533],[-86.8950346032098,36.1085243315246],[-86.8957493081617,36.1092178976402],[-86.8949951064191,36.1094655205717],[-86.8947042025756,36.1087663337035]]]},"properties":{"id":"69384","parcel":"11510005702","address":"6400 BRESSLYN RD","owner":"SMITH, DAVID ANTHONY & CAITLIN HEATON","point":[-86.89515744506842,36.108992056184746]}},{"type":"Feature","id":"69387","geometry":{"type":"Polygon","coordinates":[[[-86.8967656509153,36.1099993245542],[-86.8965308092799,36.1099796422795],[-86.8957493081617,36.1092178976402],[-86.8950346032098,36.1085243315246],[-86.8950859088361,36.1084885390188],[-86.8951349097065,36.1084506780079],[-86.8951814747343,36.1084108450048],[-86.8952254873527,36.1083691436246],[-86.8952668299464,36.1083256828981],[-86.8953053993485,36.1082805726501],[-86.8960898521502,36.1086747309044],[-86.8965883934138,36.1089325534979],[-86.897318496202,36.1093095254253],[-86.8971809598034,36.1094517521672],[-86.897177693763,36.1097918724768],[-86.8971750081865,36.1100336413317],[-86.8967656509153,36.1099993245542]]]},"properties":{"id":"69387","parcel":"11510005900","address":"6404 BRESSLYN RD","owner":"CAMPBELL, BENSON W., IV & DANIELLE","point":[-86.89623382961973,36.10907528259933]}},{"type":"Feature","id":"69435","geometry":{"type":"Polygon","coordinates":[[[-86.8920570621912,36.1096056891932],[-86.8922168701582,36.1086726766013],[-86.8923741391263,36.1086890945327],[-86.8926913377706,36.1087175153911],[-86.8925352036589,36.1096455560699],[-86.8923135849717,36.1096271422104],[-86.8920570621912,36.1096056891932]]]},"properties":{"id":"69435","parcel":"11511007500","address":"6352 BRESSLYN RD","owner":"GIANIKAS, TIMOTHY & SUSANNAH","point":[-86.89237487590442,36.10916160333695]}},{"type":"Feature","id":"69451","geometry":{"type":"Polygon","coordinates":[[[-86.8941793937771,36.1097830969625],[-86.8941197519769,36.1097780448632],[-86.8941017953377,36.1097768044164],[-86.8941089303381,36.1088168997748],[-86.8941922041065,36.1088101193624],[-86.8942750480265,36.1088004795782],[-86.8943573134592,36.1087879986499],[-86.8944388540177,36.1087726974926],[-86.8944557468023,36.108771214865],[-86.894472710641,36.1087719975546],[-86.8944892876859,36.1087750246222],[-86.894505030505,36.108780213764],[-86.8945195121179,36.1087874248417],[-86.894532342706,36.1087964642655],[-86.8945431751858,36.1088070867553],[-86.8945504038279,36.1088177467901],[-86.8945559471899,36.1088289691123],[-86.8949513391649,36.1098476981158],[-86.8941793937771,36.1097830969625]]]},"properties":{"id":"69451","parcel":"11510008300","address":"6368 BRESSLYN RD","owner":"LEHNING, ROBERT E., JR. ET UX","point":[-86.89442267206856,36.10930296969175]}},{"type":"Feature","id":"69453","geometry":{"type":"Polygon","coordinates":[[[-86.8940075868374,36.10976871159],[-86.89361551564,36.109735904464],[-86.8934864091199,36.109725322663],[-86.8936320998465,36.1088028523437],[-86.8937270449592,36.1088117601731],[-86.8938223490489,36.108817626113],[-86.8939178631598,36.1088204404511],[-86.8940134394973,36.1088201979734],[-86.8941089303381,36.1088168997748],[-86.8941017953377,36.1097768044164],[-86.8940075868374,36.10976871159]]]},"properties":{"id":"69453","parcel":"11510008400","address":"6364 BRESSLYN RD","owner":"GIBNEY, THOMAS D. ET UX","point":[-86.8938317122979,36.10927299665877]}},{"type":"Feature","id":"69593","geometry":{"type":"Polygon","coordinates":[[[-86.8910871871701,36.1103359059837],[-86.8918835603307,36.1095910384428],[-86.8920570621912,36.1096056891932],[-86.8923135849717,36.1096271422104],[-86.8920057272385,36.1101291240648],[-86.8912119411423,36.1105921161342],[-86.8911817781606,36.1105593734061],[-86.8911682703881,36.1105433301976],[-86.8911575334829,36.1105259623462],[-86.8911497598133,36.1105075856857],[-86.8911450907987,36.110488529044],[-86.8911436091561,36.1104691361033],[-86.8911453421407,36.1104497572646],[-86.8911437332293,36.1104287231124],[-86.8911387172364,36.1104080440067],[-86.8911303815585,36.110388084324],[-86.8911188711634,36.1103691917921],[-86.8911043885792,36.1103516965888],[-86.8910871871701,36.1103359059837]]]},"properties":{"id":"69593","parcel":"11511004800","address":"509 TORRINGTON CT","owner":"WALTON, MARITA PACE","point":[-86.89186841739163,36.109877870751085]}},{"type":"Feature","id":"69873","geometry":{"type":"Polygon","coordinates":[[[-86.8973269625107,36.1102984341723],[-86.8972251703752,36.1101585377533],[-86.8971756536876,36.1100907765979],[-86.8973489527504,36.11008728998],[-86.8973537710597,36.1097949581264],[-86.897177693763,36.1097918724768],[-86.8971809598034,36.1094517521672],[-86.897318496202,36.1093095254253],[-86.8978593576433,36.1087582701204],[-86.8976260170242,36.1085712783553],[-86.8980713607608,36.1081660553197],[-86.8977513221627,36.107497036881],[-86.8984068625317,36.1071190907306],[-86.8990403643392,36.1075758918412],[-86.8991577780287,36.1076607275897],[-86.899633454992,36.1073341165801],[-86.9001113602055,36.1069657301368],[-86.9005497614752,36.1066965337331],[-86.9008974566194,36.1065488874434],[-86.9014990096231,36.1063974194452],[-86.9020815220568,36.1069839754345],[-86.90220035084,36.1071034109011],[-86.9022448824433,36.1071448274288],[-86.9022918778957,36.1071844121062],[-86.902341219479,36.1072220684718],[-86.9023927906361,36.1072577045616],[-86.9024464648649,36.1072912329929],[-86.9025021101914,36.107322573634],[-86.9025488319815,36.1073474403518],[-86.902596977682,36.1073704478441],[-86.9026464356471,36.1073915455713],[-86.9027062687933,36.1074136345537],[-86.9027675735767,36.1074328842351],[-86.9028301459837,36.1074492285435],[-86.9028937765902,36.1074626140661],[-86.9029582538531,36.1074729964189],[-86.9030233629992,36.1074803402559],[-86.903088884946,36.1074846219803],[-86.9031546029241,36.10748582609],[-86.9032202958549,36.1074839488328],[-86.9031110565091,36.1077614014747],[-86.9029504781034,36.1081686342023],[-86.9029501033086,36.1081356713428],[-86.9029458713054,36.1081131842402],[-86.9029376746484,36.1080914298281],[-86.9029256840575,36.1080708673878],[-86.9029101521395,36.1080519294499],[-86.902891406653,36.1080350155359],[-86.9021005114983,36.1075530409944],[-86.9019423442775,36.1074575252186],[-86.9019018113649,36.1074348066323],[-86.9018591776107,36.1074147787781],[-86.9018147143513,36.1073975685096],[-86.9017687049342,36.107383284565],[-86.9017214391853,36.1073720194115],[-86.9016732188908,36.1073638428945],[-86.9016243489735,36.1073588077121],[-86.901572785335,36.1073593229767],[-86.9015214508737,36.1073632956661],[-86.9014706962458,36.1073706979232],[-86.9014208707415,36.1073814793695],[-86.9013723134004,36.1073955671712],[-86.9013253574338,36.107412864204],[-86.9012803247021,36.1074332517976],[-86.901237522394,36.1074565906621],[-86.9011972441366,36.1074827208795],[-86.9011597666848,36.1075114637311],[-86.9011253454885,36.1075426226316],[-86.9010942169144,36.1075759831126],[-86.901066592754,36.1076113182712],[-86.9010478550302,36.1076432071853],[-86.9010318383094,36.1076760581758],[-86.9010186141661,36.1077097183909],[-86.9010082485712,36.1077440305136],[-86.9010007852736,36.1077788364917],[-86.9008408324842,36.1077646472028],[-86.900813726544,36.1077626496123],[-86.9001437736958,36.1083918046323],[-86.8998142108806,36.1087063398391],[-86.899516793782,36.1089898660525],[-86.8991550956665,36.1090980530746],[-86.898782589516,36.1092085177967],[-86.8978432585681,36.1094902279373],[-86.8975575805546,36.1103340793634],[-86.8974920614401,36.1105279651193],[-86.8973269625107,36.1102984341723]]]},"properties":{"id":"69873","parcel":"11514000100","address":"0 CORNWALL DR","owner":"SMITH, CHARLES GREGORY, JR. & VIRGINIA","point":[-86.89888721643273,36.108481550067836]}},{"type":"Feature","id":"69936","geometry":{"type":"Polygon","coordinates":[[[-86.8983752543748,36.1062402418264],[-86.8991850944476,36.1052891886989],[-86.8992983519973,36.1053596923245],[-86.899409381119,36.1054324936348],[-86.8995181101985,36.1055075454012],[-86.8996244709626,36.1055848012723],[-86.8996207140553,36.1055890599644],[-86.8993784681978,36.1058635483058],[-86.8983914307266,36.1067126309959],[-86.8983913774382,36.1067081168202],[-86.8983834538409,36.106486325469],[-86.8983793541321,36.1063632863533],[-86.8983752543748,36.1062402418264]]]},"properties":{"id":"69936","parcel":"11514002600","address":"508 NEILWOOD DR","owner":"LOCKNAR, VICTORIA SHAW","point":[-86.89884756316684,36.10605187138944]}},{"type":"Feature","id":"69942","geometry":{"type":"Polygon","coordinates":[[[-86.8961725207415,36.1059203806589],[-86.896598679564,36.1057655707317],[-86.8972040258359,36.1068489374609],[-86.8968018902629,36.1069728007065],[-86.8965540454438,36.1066098247619],[-86.8961725207415,36.1059203806589]]]},"properties":{"id":"69942","parcel":"11514003200","address":"6428 BRESSLYN RD","owner":"TEPPER, JACQUELINE","point":[-86.89662066412863,36.106265325218516]}},{"type":"Feature","id":"69944","geometry":{"type":"Polygon","coordinates":[[[-86.8970066245235,36.1080745333037],[-86.897028174375,36.1080642082532],[-86.8970316711796,36.1080616793573],[-86.8970465797005,36.108050725929],[-86.8970592719681,36.1080380657137],[-86.8970694547386,36.1080239920103],[-86.8970768928865,36.1080088301322],[-86.8970814148464,36.1079929274522],[-86.8970833873275,36.1079769878556],[-86.897081126376,36.1079566733327],[-86.8970741358292,36.107937223178],[-86.8970628366971,36.1079191335748],[-86.8970480176417,36.1079028033358],[-86.8977513221627,36.107497036881],[-86.8980713607608,36.1081660553197],[-86.8976260170242,36.1085712783553],[-86.8970066245235,36.1080745333037]]]},"properties":{"id":"69944","parcel":"11514003900","address":"6420 BRESSLYN CT","owner":"HARRIS, KIMBERLY","point":[-86.8975357583356,36.10803143292065]}},{"type":"Feature","id":"70004","geometry":{"type":"Polygon","coordinates":[[[-86.8956368602076,36.1064518113701],[-86.8956510072673,36.1064031906586],[-86.8956692184263,36.1063554689939],[-86.8956914106735,36.10630886961],[-86.8957174776252,36.1062636114073],[-86.8957472994908,36.1062199061755],[-86.8957807341874,36.1061779586591],[-86.8958176262043,36.1061379646895],[-86.8958578043929,36.1061001121022],[-86.8959010775032,36.106064578968],[-86.8959472452494,36.1060315299055],[-86.895996089486,36.1060011215544],[-86.896047384122,36.1059734952915],[-86.8961008851661,36.1059487809104],[-86.8961563462444,36.1059270938016],[-86.8961725207415,36.1059203806589],[-86.8965540454438,36.1066098247619],[-86.8956368602076,36.1064518113701]]]},"properties":{"id":"70004","parcel":"11514003300","address":"6424 BRESSLYN RD","owner":"CAMPBELL, MICHAEL A.","point":[-86.89603987283537,36.106286532015616]}},{"type":"Feature","id":"70234","geometry":{"type":"Polygon","coordinates":[[[-86.896598679564,36.1057655707317],[-86.8968980804469,36.1056578536164],[-86.8969703163099,36.1056300396683],[-86.8970409603278,36.1055996508079],[-86.8977384141084,36.1066845271496],[-86.8972040258359,36.1068489374609],[-86.896598679564,36.1057655707317]]]},"properties":{"id":"70234","parcel":"11514003100","address":"6432 BRESSLYN RD","owner":"EISEN, ANN","point":[-86.89714921908758,36.10622503372165]}},{"type":"Feature","id":"70235","geometry":{"type":"Polygon","coordinates":[[[-86.8955596934693,36.1072941090535],[-86.8955929479763,36.10688069189],[-86.8968018902629,36.1069728007065],[-86.8962508511489,36.1073417192355],[-86.8955596934693,36.1072941090535]]]},"properties":{"id":"70235","parcel":"11514003500","address":"6416 BRESSLYN RD","owner":"BERRY ELAM REVOCABLE LIVING TRUST","point":[-86.8960670464979,36.107133357879974]}},{"type":"Feature","id":"70236","geometry":{"type":"Polygon","coordinates":[[[-86.8955406997702,36.1078013727207],[-86.8955336951347,36.1077924577823],[-86.8955284456971,36.107782780837],[-86.895525072863,36.1077725690104],[-86.8955236548256,36.1077620587616],[-86.8955242265763,36.107751496785],[-86.8955596934693,36.1072941090535],[-86.8962508511489,36.1073417192355],[-86.8961811750906,36.1078872706948],[-86.8960022659971,36.1078732158532],[-86.8958999655978,36.1078657875978],[-86.8957980056502,36.1078557501913],[-86.8956964839991,36.107843111921],[-86.8955955041135,36.1078278873415],[-86.8955828075737,36.1078254129435],[-86.895570714769,36.1078214180883],[-86.8955594999354,36.1078159917702],[-86.8955494188353,36.1078092591724],[-86.8955406997702,36.1078013727207]]]},"properties":{"id":"70236","parcel":"11514003600","address":"6412 BRESSLYN RD","owner":"MCELVY, STEPHANIE M. & LARKING, DAPHNE","point":[-86.89588239184344,36.107546604092775]}},{"type":"Feature","id":"70237","geometry":{"type":"Polygon","coordinates":[[[-86.8960898521502,36.1086747309044],[-86.8961664881052,36.1080258353637],[-86.8966733749693,36.1080638246331],[-86.8965883934138,36.1089325534979],[-86.8960898521502,36.1086747309044]]]},"properties":{"id":"70237","parcel":"11514004100","address":"6414 BRESSLYN CT","owner":"HOWELL JR. FAMILY REVOCABLE LIVING TRUST","point":[-86.89638471290135,36.10836928081298]}},{"type":"Feature","id":"70238","geometry":{"type":"Polygon","coordinates":[[[-86.8953053993485,36.1082805726501],[-86.8953439362245,36.1082273600191],[-86.895378958789,36.1081725718701],[-86.8954103732519,36.1081163612211],[-86.8954380891866,36.1080588837682],[-86.8954620317765,36.1080003004994],[-86.895469549879,36.107989838365],[-86.8954791204096,36.1079805452881],[-86.8954904753267,36.1079726846331],[-86.8955032917016,36.1079664787123],[-86.8955173853933,36.1079624408264],[-86.8955321086091,36.1079603513634],[-86.8955470543969,36.1079602701264],[-86.8955618107021,36.1079621983724],[-86.8956755117242,36.1079797962431],[-86.8957898816475,36.1079942615565],[-86.8959047892339,36.1080055799636],[-86.8960201021349,36.108013737124],[-86.8961664881052,36.1080258353637],[-86.8960898521502,36.1086747309044],[-86.8953053993485,36.1082805726501]]]},"properties":{"id":"70238","parcel":"11514004200","address":"6408 BRESSLYN RD","owner":"SHARP & BURMAN REV TRUST, THE","point":[-86.89590535490767,36.10847783307685]}},{"type":"Feature","id":"70280","geometry":{"type":"Polygon","coordinates":[[[-86.8923725587297,36.1085484534166],[-86.8925115312208,36.1076595484924],[-86.8929853823482,36.1078911959356],[-86.8928876970294,36.1085973851911],[-86.8925081390887,36.1085628333984],[-86.8923725587297,36.1085484534166]]]},"properties":{"id":"70280","parcel":"11515000800","address":"6353 BRESSLYN RD","owner":"HAMMOND, WILLIAM S. & PEGGY C.","point":[-86.8926819324399,36.10821982773096]}},{"type":"Feature","id":"70322","geometry":{"type":"Polygon","coordinates":[[[-86.8978432585681,36.1094902279373],[-86.8987381756491,36.1100703528182],[-86.8987202650246,36.1100881092353],[-86.8987053586557,36.1101076088933],[-86.8986937115691,36.1101285182176],[-86.8986855207739,36.1101504806326],[-86.8986809286545,36.1101731219432],[-86.8986800108151,36.1101960558338],[-86.8975575805546,36.1103340793634],[-86.8978432585681,36.1094902279373]]]},"properties":{"id":"70322","parcel":"11510004000","address":"6528 CORNWALL CT","owner":"MARTIN, NINA C.","point":[-86.89801796686346,36.1097800593701]}},{"type":"Feature","id":"70402","geometry":{"type":"Polygon","coordinates":[[[-86.8990403643392,36.1075758918412],[-86.8999631064996,36.1058328151194],[-86.8999800419278,36.1058437836508],[-86.8999989091948,36.1058524331582],[-86.900019227097,36.10585854281],[-86.9000404829898,36.1058619596065],[-86.9000621372091,36.1058625965441],[-86.9000836420128,36.1058604378823],[-86.9001044526564,36.1058555363566],[-86.9001240407813,36.1058480184867],[-86.9001419109512,36.1058380736372],[-86.9008974566194,36.1065488874434],[-86.9005497614752,36.1066965337331],[-86.9001113602055,36.1069657301368],[-86.899633454992,36.1073341165801],[-86.8991577780287,36.1076607275897],[-86.8990403643392,36.1075758918412]]]},"properties":{"id":"70402","parcel":"11514002400","address":"514 NEILWOOD DR","owner":"DAVIDSON, PAUL THOMAS","point":[-86.89988279236756,36.10683075882408]}},{"type":"Feature","id":"70403","geometry":{"type":"Polygon","coordinates":[[[-86.8996207140553,36.1055890599644],[-86.8996244709626,36.1055848012723],[-86.8996286315308,36.1055879391807],[-86.8997275831635,36.1056620515426],[-86.899803163036,36.1057175291296],[-86.8999631064996,36.1058328151194],[-86.8990403643392,36.1075758918412],[-86.8984068625317,36.1071190907306],[-86.8983914307266,36.1067126309959],[-86.8993784681978,36.1058635483058],[-86.8996207140553,36.1055890599644]]]},"properties":{"id":"70403","parcel":"11514002500","address":"512 NEILWOOD DR","owner":"MAGGART, JOHN & RITA COMMUNITY PROPERTY TRUST, THE","point":[-86.89930333946273,36.10628844303764]}},{"type":"Feature","id":"70408","geometry":{"type":"Polygon","coordinates":[[[-86.8955929479763,36.10688069189],[-86.8956190436097,36.1065530380019],[-86.8956217369253,36.1065189545707],[-86.8956276876034,36.1064851434739],[-86.8956368602076,36.1064518113701],[-86.8965540454438,36.1066098247619],[-86.8968018902629,36.1069728007065],[-86.8955929479763,36.10688069189]]]},"properties":{"id":"70408","parcel":"11514003400","address":"6420 BRESSLYN RD","owner":"BAILEY, ANNETTE OLIVER & OSCAR D.","point":[-86.8961253135883,36.10674530422549]}},{"type":"Feature","id":"70412","geometry":{"type":"Polygon","coordinates":[[[-86.8965883934138,36.1089325534979],[-86.8966733749693,36.1080638246331],[-86.8969444623116,36.1080859841769],[-86.8969606280178,36.1080860315898],[-86.8969766181064,36.1080841010699],[-86.8969920676843,36.1080802394945],[-86.8970066245235,36.1080745333037],[-86.8976260170242,36.1085712783553],[-86.8978593576433,36.1087582701204],[-86.897318496202,36.1093095254253],[-86.8965883934138,36.1089325534979]]]},"properties":{"id":"70412","parcel":"11514004000","address":"6416 BRESSLYN CT","owner":"MONETTE, DAVID M. & JO ANNE K.","point":[-86.89717868521335,36.10866429161079]}},{"type":"Feature","id":"70439","geometry":{"type":"Polygon","coordinates":[[[-86.893894008905,36.1075284356539],[-86.8945389766948,36.1070819124],[-86.8945807860681,36.107187093076],[-86.8947789780719,36.1077108757907],[-86.894280775083,36.1079629129148],[-86.894219798,36.1078867002851],[-86.8941564574425,36.1078117678565],[-86.894090793944,36.1077381639944],[-86.894022848027,36.1076659361633],[-86.893894008905,36.1075284356539]]]},"properties":{"id":"70439","parcel":"11514004700","address":"6455 CURRYWOOD DR","owner":"COBB, JARED G. & CHERYL M.","point":[-86.89439307797153,36.107357902179615]}},{"type":"Feature","id":"70862","geometry":{"type":"Polygon","coordinates":[[[-86.8928876970294,36.1085973851911],[-86.8929853823482,36.1078911959356],[-86.8935572998999,36.1081726630172],[-86.8934976699957,36.1086500087245],[-86.8928876970294,36.1085973851911]]]},"properties":{"id":"70862","parcel":"11515000700","address":"6357 BRESSLYN RD","owner":"BARKLEY, GABRIEL J. & CRISTIN R.","point":[-86.89322392388885,36.10838502584672]}},{"type":"Feature","id":"71174","geometry":{"type":"Polygon","coordinates":[[[-86.8947789780719,36.1077108757907],[-86.8945807860681,36.107187093076],[-86.8953992470561,36.1072359593227],[-86.8953635810874,36.1076757696913],[-86.8953582301939,36.1077243764218],[-86.8953511338347,36.1077728356799],[-86.8953434773996,36.1078143744707],[-86.8947789780719,36.1077108757907]]]},"properties":{"id":"71174","parcel":"11514006900","address":"6411 BRESSLYN RD","owner":"PERRY, JOY NICOLE EARLE","point":[-86.8950318336987,36.10745555876184]}},{"type":"Feature","id":"71200","geometry":{"type":"Polygon","coordinates":[[[-86.8970409603278,36.1055996508079],[-86.8971134225847,36.1055662254454],[-86.8971842118982,36.1055305195965],[-86.8972532222505,36.1054925872292],[-86.8973203454638,36.1054524877351],[-86.897385477814,36.1054102813746],[-86.8983793541321,36.1063632863533],[-86.8983834538409,36.106486325469],[-86.8977384141084,36.1066845271496],[-86.8970409603278,36.1055996508079]]]},"properties":{"id":"71200","parcel":"11514003000","address":"6436 BRESSLYN RD","owner":"WILKINS, RODNEY E. & KATHERINE A.","point":[-86.8976337962401,36.105981405244435]}},{"type":"Feature","id":"71203","geometry":{"type":"Polygon","coordinates":[[[-86.8962508511489,36.1073417192355],[-86.8968018902629,36.1069728007065],[-86.896696187392,36.1079251994844],[-86.8961811750906,36.1078872706948],[-86.8962508511489,36.1073417192355]]]},"properties":{"id":"71203","parcel":"11514003700","address":"6428 BRESSLYN CT","owner":"MCNATT, KEVIN J. REVOCABLE TRUST","point":[-86.89647331769909,36.10761471757712]}},{"type":"Feature","id":"71205","geometry":{"type":"Polygon","coordinates":[[[-86.896696187392,36.1079251994844],[-86.8968018902629,36.1069728007065],[-86.8972040258359,36.1068489374609],[-86.8977384141084,36.1066845271496],[-86.8983834538409,36.106486325469],[-86.8983913774382,36.1067081168202],[-86.8983914307266,36.1067126309959],[-86.8984068625317,36.1071190907306],[-86.8977513221627,36.107497036881],[-86.8970480176417,36.1079028033358],[-86.8970306746322,36.1078893832121],[-86.8970108123792,36.1078785036377],[-86.8969889896868,36.1078704704997],[-86.8969658188721,36.1078655090724],[-86.8969419523765,36.1078637587096],[-86.8969181294155,36.1078658628435],[-86.8968950745572,36.1078711680566],[-86.8968734358756,36.1078795253234],[-86.8968538215867,36.1078906984896],[-86.8968367857231,36.1079043742932],[-86.8968278946996,36.107912549331],[-86.8968174920627,36.1079194503665],[-86.8968058489863,36.1079248951245],[-86.8967932759436,36.1079287388919],[-86.8967801016967,36.1079308827857],[-86.896766672125,36.1079312683537],[-86.896696187392,36.1079251994844]]]},"properties":{"id":"71205","parcel":"11514003800","address":"6424 BRESSLYN CT","owner":"HORN, JAMES K. & JANEENE S. LARKIN","point":[-86.89742194950774,36.10730750345961]}},{"type":"Feature","id":"71265","geometry":{"type":"Polygon","coordinates":[[[-86.893540707295,36.1071794193384],[-86.8943714174907,36.1066326236685],[-86.8944021720627,36.1067181066449],[-86.8945389766948,36.1070819124],[-86.893894008905,36.1075284356539],[-86.893540707295,36.1071794193384]]]},"properties":{"id":"71265","parcel":"11514004800","address":"6451 CURRYWOOD DR","owner":"HOFF, JOHN & FRANCES LIVING TRUST","point":[-86.89421822483291,36.106899787019636]}},{"type":"Feature","id":"71278","geometry":{"type":"Polygon","coordinates":[[[-86.8944021720627,36.1067181066449],[-86.8943714174907,36.1066326236685],[-86.8942319315354,36.1062710349252],[-86.8942095745361,36.1062096649881],[-86.8954740299846,36.1064222522015],[-86.8954622602843,36.1064803836984],[-86.8954536812543,36.1065388826635],[-86.8954347144692,36.1067785742725],[-86.8944021720627,36.1067181066449]]]},"properties":{"id":"71278","parcel":"11514006700","address":"6419 BRESSLYN RD","owner":"KINIGOPOULOS, GEORGE & JANICE DEBRA","point":[-86.89489077979013,36.10650913695612]}},{"type":"Feature","id":"71281","geometry":{"type":"Polygon","coordinates":[[[-86.8945389766948,36.1070819124],[-86.8944021720627,36.1067181066449],[-86.8954347144692,36.1067785742725],[-86.8953992470561,36.1072359593227],[-86.8945807860681,36.107187093076],[-86.8945389766948,36.1070819124]]]},"properties":{"id":"71281","parcel":"11514006800","address":"6415 BRESSLYN RD","owner":"STUART FAMILY TRUST, THE","point":[-86.8949523502902,36.10693021393751]}},{"type":"Feature","id":"71470","geometry":{"type":"Polygon","coordinates":[[[-86.8945903463043,36.108516639099],[-86.8945442186336,36.1084162664292],[-86.8944945261889,36.1083170206562],[-86.8944413099078,36.1082189852924],[-86.8943846151487,36.1081222420143],[-86.8943244894909,36.1080268724819],[-86.894280775083,36.1079629129148],[-86.8947789780719,36.1077108757907],[-86.8953434773996,36.1078143744707],[-86.8953285042823,36.1078738978745],[-86.895309941579,36.1079327512246],[-86.8952892443331,36.1079886713901],[-86.8952678514898,36.1080386563015],[-86.8952428473512,36.1080875242759],[-86.8952143188504,36.1081351052231],[-86.8951823684805,36.1081812298382],[-86.895147106631,36.1082257395731],[-86.895108658131,36.1082684757725],[-86.8950671567964,36.1083092887273],[-86.895022749843,36.1083480349376],[-86.8949755923534,36.108384578957],[-86.8949258494776,36.1084187915736],[-86.8948741493322,36.108453482857],[-86.8948203690006,36.1084860246493],[-86.8947646441967,36.1085163366273],[-86.8947071173497,36.1085443429246],[-86.8946949873488,36.1085493755931],[-86.8946818992696,36.1085526749739],[-86.8946683175879,36.10855416011],[-86.8946546194777,36.1085537894479],[-86.8946411904658,36.1085515727457],[-86.894628403351,36.1085475730324],[-86.89461661479,36.1085418994229],[-86.8946061553735,36.1085347135001],[-86.8945973172366,36.1085262140856],[-86.8945903463043,36.108516639099]]]},"properties":{"id":"71470","parcel":"11514004600","address":"6401 BRESSLYN RD","owner":"ROSS FAMILY 2025 CP TRUST","point":[-86.89480306372167,36.10812867749484]}},{"type":"Feature","id":"71517","geometry":{"type":"Polygon","coordinates":[[[-86.8929853823482,36.1078911959356],[-86.8936280709381,36.1074820566722],[-86.8938910907847,36.1077504264778],[-86.893980383895,36.1078477791767],[-86.8940666362548,36.1079469190796],[-86.8935572998999,36.1081726630172],[-86.8929853823482,36.1078911959356]]]},"properties":{"id":"71517","parcel":"11515002600","address":"6458 CURRYWOOD DR","owner":"MOYERS, JAMES D. & DIANE E.","point":[-86.8935334532194,36.1077987460456]}},{"type":"Feature","id":"71571","geometry":{"type":"Polygon","coordinates":[[[-86.8995229918312,36.1095370499045],[-86.8991550956665,36.1090980530746],[-86.899516793782,36.1089898660525],[-86.9004957458291,36.1095759432739],[-86.9004482004614,36.1096283757951],[-86.9004032744688,36.1096823083189],[-86.9003610412959,36.1097376546771],[-86.9003215665826,36.109794326056],[-86.9002849148386,36.1098522318476],[-86.8995229918312,36.1095370499045]]]},"properties":{"id":"71571","parcel":"11510003600","address":"6516 CORNWALL DR","owner":"JONES, LINDA STONE & MELVIN D.","point":[-86.89970209867202,36.10931785610461]}},{"type":"Feature","id":"71574","geometry":{"type":"Polygon","coordinates":[[[-86.8992533028614,36.1101170602219],[-86.8995229918312,36.1095370499045],[-86.9002849148386,36.1098522318476],[-86.9002429267024,36.1099262691201],[-86.9002044369274,36.1100015483817],[-86.900169500928,36.1100779601658],[-86.9001381685563,36.1101553941459],[-86.900110484091,36.1102337382343],[-86.9001063811221,36.1102455045725],[-86.9001001383179,36.110256633444],[-86.9000918971906,36.1102668705294],[-86.9000818472551,36.1102759827819],[-86.9000698330561,36.1102833864231],[-86.9000565375995,36.1102891709911],[-86.9000422891526,36.110293193434],[-86.9000274397863,36.1102953528836],[-86.9000123576929,36.1102955988235],[-86.8999974126452,36.1102939221853],[-86.8998711725622,36.1102710213854],[-86.8997457077456,36.1102454648732],[-86.8996211050515,36.1102172709303],[-86.899497446893,36.110186457872],[-86.8993748190454,36.1101530466925],[-86.8992533028614,36.1101170602219]]]},"properties":{"id":"71574","parcel":"11510003700","address":"6520 CORNWALL DR","owner":"YORK, ANNABELLE, REVOC LIVING TRUST & YORK, FURMAN","point":[-86.89981175053812,36.10988887323022]}},{"type":"Feature","id":"71872","geometry":{"type":"Polygon","coordinates":[[[-86.8988811129406,36.1100165395086],[-86.898782589516,36.1092085177967],[-86.8991550956665,36.1090980530746],[-86.8995229918312,36.1095370499045],[-86.8992533028614,36.1101170602219],[-86.8991074062008,36.1100730256924],[-86.8989624826313,36.1100269242831],[-86.8989359158742,36.1100209115002],[-86.8989086714018,36.1100174345893],[-86.8988811129406,36.1100165395086]]]},"properties":{"id":"71872","parcel":"11510003800","address":"6524 CORNWALL CT","owner":"GARMAN, ROY KEITH ET UX","point":[-86.89913163992419,36.10977673588347]}},{"type":"Feature","id":"71875","geometry":{"type":"Polygon","coordinates":[[[-86.8978432585681,36.1094902279373],[-86.898782589516,36.1092085177967],[-86.8988811129406,36.1100165395086],[-86.8988544581866,36.1100192374447],[-86.8988284199789,36.1100245931951],[-86.8988033983473,36.110032523564],[-86.8987797806559,36.1100429057937],[-86.898757927196,36.1100555803752],[-86.8987381756491,36.1100703528182],[-86.8978432585681,36.1094902279373]]]},"properties":{"id":"71875","parcel":"11510003900","address":"6526 CORNWALL CT","owner":"GUEL, JERRY C. & RACHEL G.","point":[-86.89854906845895,36.10975354323924]}}]}