{"type":"FeatureCollection","features":[{"type":"Feature","id":"118103","geometry":{"type":"Polygon","coordinates":[[[-86.9068836778576,36.0919052950506],[-86.9064246506748,36.0906412093836],[-86.9067202257862,36.0904135331454],[-86.9068496099053,36.0903620127071],[-86.9073865028437,36.0906656554783],[-86.9070162635759,36.0919145536371],[-86.9069991493368,36.0919063264552],[-86.9069807172334,36.0919002623805],[-86.9069613763493,36.0918964962336],[-86.9069415596197,36.0918951121835],[-86.906921709366,36.0918961411523],[-86.9069022706441,36.0918995617666],[-86.9068836778576,36.0919052950506]]]},"properties":{"id":"118103","parcel":"12909000900","address":"201 ROLLING FORK CT","owner":"UNDERWOOD, JACOB & CHANDLER, CAM-RAH","point":[-86.9069304330778,36.09128020287775]}},{"type":"Feature","id":"118104","geometry":{"type":"Polygon","coordinates":[[[-86.9010755395652,36.0924074278842],[-86.9008711408914,36.0920529235517],[-86.9007620949583,36.0915109004089],[-86.9010244810455,36.0914869628059],[-86.9010946030101,36.0914809066423],[-86.901164991919,36.0914774342603],[-86.9012355012912,36.0914765539651],[-86.9013059878847,36.0914782659257],[-86.9013231794289,36.092038556828],[-86.9013101371959,36.0925595148828],[-86.9010755395652,36.0924074278842]]]},"properties":{"id":"118104","parcel":"12910000500","address":"168 CARNAVON PKWY","owner":"NAISBITT, KEITH & MARIA LIVING TRUST","point":[-86.90106511299346,36.09177474750968]}},{"type":"Feature","id":"118107","geometry":{"type":"Polygon","coordinates":[[[-86.9033826636629,36.0905089122858],[-86.903760597687,36.0901698281174],[-86.9043223459109,36.0905172525654],[-86.9043099351436,36.0905310777959],[-86.9043003699638,36.090546321054],[-86.9042938903024,36.0905625983913],[-86.904290659199,36.0905795021007],[-86.9042907573313,36.0905966079684],[-86.9042873385626,36.0906148776476],[-86.904280672617,36.0906325452785],[-86.9042709018132,36.0906492366563],[-86.9042582363668,36.090664591488],[-86.9042429468333,36.0906782823758],[-86.9039426275339,36.0909376676922],[-86.9036799495417,36.0911731949264],[-86.9035298461836,36.091307781919],[-86.9029859983815,36.0908679153395],[-86.9032808280939,36.0906019796642],[-86.9033804150341,36.0905109669637],[-86.9033826636629,36.0905089122858]]]},"properties":{"id":"118107","parcel":"12910001700","address":"185 CARNAVON PKWY","owner":"STUBBS, DANIEL EVAN & AMIEE NICOLE","point":[-86.90361213354494,36.09077309862559]}},{"type":"Feature","id":"118108","geometry":{"type":"Polygon","coordinates":[[[-86.9020938131556,36.0914657814721],[-86.9023531106722,36.0909319919226],[-86.9027646806667,36.0909311085474],[-86.9027591852169,36.0916388175752],[-86.9026977558835,36.0916342112915],[-86.9026367381064,36.0916268304108],[-86.9025763220839,36.0916167014501],[-86.9025166969247,36.0916038527376],[-86.9024580474485,36.0915883261536],[-86.9020938131556,36.0914657814721]]]},"properties":{"id":"118108","parcel":"12910001900","address":"177 CARNAVON PKWY","owner":"BEREZOV, DAVID ET UX","point":[-86.90249303014613,36.09119910641417]}},{"type":"Feature","id":"118109","geometry":{"type":"Polygon","coordinates":[[[-86.9026540884036,36.09001548503],[-86.9026701830847,36.0900021785763],[-86.9032808280939,36.0906019796642],[-86.9029859983815,36.0908679153395],[-86.9029565408349,36.0908967061252],[-86.9023129314511,36.0902553930754],[-86.9026540884036,36.09001548503]]]},"properties":{"id":"118109","parcel":"12910002200","address":"6612 CHATSWORTH PL","owner":"HOFFMAN, KARI & WOMELSDORF, THILO","point":[-86.90279562356709,36.090428686329794]}},{"type":"Feature","id":"118154","geometry":{"type":"Polygon","coordinates":[[[-86.9071022083158,36.0923270766103],[-86.9087038786917,36.0919721717998],[-86.9094901891723,36.0923002981436],[-86.9088951097554,36.0925926844347],[-86.9071335756602,36.0927026540723],[-86.9071022083158,36.0923270766103]]]},"properties":{"id":"118154","parcel":"12905003300","address":"207 ROLLING FORK CT","owner":"CHENERY, GORDON ET UX","point":[-86.90813841386772,36.09245999108837]}},{"type":"Feature","id":"118155","geometry":{"type":"Polygon","coordinates":[[[-86.9049372234231,36.0924378467581],[-86.9069263165855,36.0923371909354],[-86.9069627973495,36.0926863544469],[-86.9069716475691,36.0927500221269],[-86.9048074019532,36.0929267158761],[-86.9049320061177,36.0924554674932],[-86.9049372234231,36.0924378467581]]]},"properties":{"id":"118155","parcel":"12905003500","address":"204 ROLLING FORK CT","owner":"FERGUSON, MARK & EATON, REBECCA","point":[-86.90592625828334,36.09257089867573]}},{"type":"Feature","id":"118156","geometry":{"type":"Polygon","coordinates":[[[-86.9060671586469,36.0955918853935],[-86.9047078338211,36.093694468339],[-86.9051728405967,36.0938667960987],[-86.9055644425298,36.094013301452],[-86.9065250830036,36.0953796604165],[-86.9060671586469,36.0955918853935]]]},"properties":{"id":"118156","parcel":"12905004100","address":"6569 ROLLING FORK DR","owner":"HAYES, ROBERT S., III","point":[-86.90573504218975,36.09469623869517]}},{"type":"Feature","id":"118157","geometry":{"type":"Polygon","coordinates":[[[-86.9041396331733,36.0937338959923],[-86.9044168412147,36.0935845670479],[-86.9047078338211,36.093694468339],[-86.9060671586469,36.0955918853935],[-86.9056146223925,36.0958018707787],[-86.9041396331733,36.0937338959923]]]},"properties":{"id":"118157","parcel":"12905004200","address":"6565 ROLLING FORK DR","owner":"GILES, GREGORY B. & BARRETT, TRACY","point":[-86.90510192209672,36.09466289346549]}},{"type":"Feature","id":"118158","geometry":{"type":"Polygon","coordinates":[[[-86.9028611541132,36.0944159761213],[-86.9031754758297,36.0941960477227],[-86.903549934361,36.0940262152286],[-86.9037007905026,36.093956953102],[-86.9051701815739,36.0960095963111],[-86.9050759130131,36.0960542582625],[-86.9050005438182,36.0960932019863],[-86.9049273603713,36.0961348025005],[-86.9048565049915,36.0961789776245],[-86.9047881155263,36.0962256425075],[-86.9037346701915,36.0952687427729],[-86.9028611541132,36.0944159761213]]]},"properties":{"id":"118158","parcel":"12905004400","address":"6557 ROLLING FORK DR","owner":"ADAMS, DILLARD G., JR.& ERICA","point":[-86.90381655338709,36.09484277766595]}},{"type":"Feature","id":"118161","geometry":{"type":"Polygon","coordinates":[[[-86.9051728405967,36.0938667960987],[-86.9047078338211,36.093694468339],[-86.9044168412147,36.0935845670479],[-86.9045881768614,36.093411859896],[-86.9048074019532,36.0929267158761],[-86.9069716475691,36.0927500221269],[-86.9069840711679,36.0928166876765],[-86.9070005802578,36.0928827672947],[-86.9060183463566,36.0929744885959],[-86.9055399028689,36.0934640549801],[-86.9055148576934,36.0938798872975],[-86.9051728405967,36.0938667960987]]]},"properties":{"id":"118161","parcel":"12905004900","address":"206 ROLLING FORK CT","owner":"AMBROSE, ALBERT & FRANCES","point":[-86.90524572901737,36.0931931309072]}},{"type":"Feature","id":"118327","geometry":{"type":"Polygon","coordinates":[[[-86.9022495535473,36.0919634997005],[-86.9022509094214,36.0919569479499],[-86.9022509516754,36.0919503050836],[-86.9022712193616,36.0918837621722],[-86.9022954825851,36.0918181059751],[-86.9022977766437,36.0918064566842],[-86.9023023990863,36.0917952712617],[-86.9023092245782,36.0917848561845],[-86.9023180675379,36.091775493144],[-86.9023286865785,36.0917674390128],[-86.9023407932171,36.0917609104578],[-86.9023540574565,36.0917560866021],[-86.9023681187776,36.0917530990285],[-86.9023825938801,36.0917520290181],[-86.9023970899873,36.0917529056479],[-86.9024112092664,36.0917557039551],[-86.9024792517503,36.0917705897394],[-86.9025481085182,36.0917827637002],[-86.9026176137788,36.0917921973344],[-86.9026876040224,36.0917988675299],[-86.9027579114002,36.0918027602205],[-86.9028123687701,36.0918038026768],[-86.902866803756,36.0918021918611],[-86.9029210243076,36.0917979337178],[-86.9029748307046,36.0917910432623],[-86.9031372406584,36.0922623375874],[-86.9024482938884,36.0922790315102],[-86.9024457010797,36.0922594982052],[-86.9024396748699,36.0922404718883],[-86.9024303429784,36.0922223445681],[-86.9024178984837,36.0922054942445],[-86.9024025985484,36.0921902704973],[-86.9023847621372,36.0921769890956],[-86.9023647599619,36.092165926666],[-86.9023276906076,36.0921505449594],[-86.9023051340602,36.0921376981422],[-86.9022853637855,36.0921221202748],[-86.902268876158,36.0921042015106],[-86.9022560838585,36.0920843939174],[-86.9022473101161,36.0920631934942],[-86.9022427742026,36.0920411339708],[-86.9022425912384,36.0920187696846],[-86.9022495535473,36.0919634997005]]]},"properties":{"id":"118327","parcel":"12910000300","address":"176 CARNAVON PKWY","owner":"NEAL, JEROME B.","point":[-86.90264503927895,36.09199145947747]}},{"type":"Feature","id":"118329","geometry":{"type":"Polygon","coordinates":[[[-86.9027591852169,36.0916388175752],[-86.9027646806667,36.0909311085474],[-86.9029163276747,36.0909321713273],[-86.9029565408349,36.0908967061252],[-86.9029859983815,36.0908679153395],[-86.9035298461836,36.091307781919],[-86.9035030457701,36.0913321573037],[-86.9034418645678,36.0913797138526],[-86.9033782670557,36.0914251352762],[-86.9033123678017,36.0914683404973],[-86.9032442825466,36.0915092538376],[-86.9031741337046,36.0915478004702],[-86.9031206528152,36.0915725603764],[-86.9030651881568,36.0915942544861],[-86.9030080050673,36.0916127789633],[-86.902946797861,36.0916245864461],[-86.9028847212414,36.091632886255],[-86.9028220812408,36.0916376373415],[-86.9027591852169,36.0916388175752]]]},"properties":{"id":"118329","parcel":"12910001800","address":"181 CARNAVON PKWY","owner":"STUBBS, DANIEL EVAN & AMIEE NICOLE","point":[-86.90303046796775,36.09111982131039]}},{"type":"Feature","id":"118330","geometry":{"type":"Polygon","coordinates":[[[-86.9027646806667,36.0909311085474],[-86.9023531106722,36.0909319919226],[-86.9018594302044,36.0906170150865],[-86.9019051726199,36.0905671710599],[-86.9019540872295,36.0905193519318],[-86.9020060389712,36.0904736921008],[-86.9020608826885,36.0904303170276],[-86.9021184665231,36.0903893486184],[-86.9021786296326,36.0903508998335],[-86.9023129314511,36.0902553930754],[-86.9029565408349,36.0908967061252],[-86.9029163276747,36.0909321713273],[-86.9027646806667,36.0909311085474]]]},"properties":{"id":"118330","parcel":"12910002100","address":"6608 CHATSWORTH PL","owner":"MAYO, JACKIEL ROBERT & SONJE KARIN","point":[-86.9022668831339,36.09059240733542]}},{"type":"Feature","id":"118342","geometry":{"type":"Polygon","coordinates":[[[-86.9026701830847,36.0900021785763],[-86.9026883748231,36.0899916549457],[-86.9027082748629,36.0899834168284],[-86.9027294510532,36.0899776432118],[-86.9027514417499,36.0899744583253],[-86.9027737713601,36.0899739315239],[-86.9027969007044,36.0899750841546],[-86.9028200204965,36.089973833095],[-86.9028427567595,36.0899702000729],[-86.9028647359366,36.0899642437657],[-86.9028856004569,36.0899560614877],[-86.9029067883544,36.0899440904386],[-86.902925385521,36.0899295754996],[-86.9029412101868,36.0899130353771],[-86.902953929818,36.0898948159564],[-86.9029632811335,36.0898752986558],[-86.9029690666612,36.0898548905383],[-86.9039670245314,36.0899880673867],[-86.903760597687,36.0901698281174],[-86.9033826636629,36.0905089122858],[-86.9033804150341,36.0905109669637],[-86.9032808280939,36.0906019796642],[-86.9026701830847,36.0900021785763]]]},"properties":{"id":"118342","parcel":"12910002300","address":"6616 CHATSWORTH PL","owner":"BLANKENSHIP, WENDELL","point":[-86.9032923208052,36.09033914528025]}},{"type":"Feature","id":"118571","geometry":{"type":"Polygon","coordinates":[[[-86.9084397759769,36.0949235088357],[-86.9085318971409,36.0944546988999],[-86.9090299589345,36.0939652485715],[-86.9096619157436,36.0933451219864],[-86.9097520612887,36.0948322995022],[-86.9088759108724,36.0949378039068],[-86.9088031313458,36.0949418395613],[-86.9087302047104,36.0949433066863],[-86.9086572686556,36.0949422033429],[-86.9085844597915,36.0949385303042],[-86.9085119170208,36.0949322946358],[-86.9084397759769,36.0949235088357]]]},"properties":{"id":"118571","parcel":"12905002700","address":"6605 ROLLING FORK DR","owner":"BOLSOM, RICHARD & VICKI JOINT REVOCABLE LIVING TRUST","point":[-86.90924765507724,36.09421032837133]}},{"type":"Feature","id":"118575","geometry":{"type":"Polygon","coordinates":[[[-86.9074275845518,36.0933136052595],[-86.9088951097554,36.0925926844347],[-86.9094901891723,36.0923002981436],[-86.9102296082721,36.0927892068152],[-86.910202834603,36.0928157817516],[-86.9101626740606,36.0928556436942],[-86.9076397114499,36.0936306781202],[-86.9076145293908,36.0935823500081],[-86.907586893352,36.0935349137166],[-86.9075568509008,36.0934884500029],[-86.9074275845518,36.0933136052595]]]},"properties":{"id":"118575","parcel":"12905003100","address":"215 ROLLING FORK CT","owner":"TULLY, JOHN CAMERON & CARLEIGH FELL","point":[-86.90865541823995,36.093084525873195]}},{"type":"Feature","id":"118579","geometry":{"type":"Polygon","coordinates":[[[-86.9063340384133,36.0942998167636],[-86.9074753366275,36.094412107583],[-86.9074027656247,36.0949335142741],[-86.9074000113169,36.0949445767729],[-86.9073955670282,36.0949552707407],[-86.9073877243773,36.0949668248808],[-86.9073776581304,36.09497718351],[-86.9073656416015,36.094986066071],[-86.9073519974584,36.094993234897],[-86.9069560525821,36.0951786241048],[-86.9063340384133,36.0942998167636]]]},"properties":{"id":"118579","parcel":"12905003900","address":"220 ROLLING FORK CT","owner":"VAN ZANDT, JAMIE","point":[-86.9070183142064,36.09467248521634]}},{"type":"Feature","id":"118583","geometry":{"type":"Polygon","coordinates":[[[-86.9065250830036,36.0953796604165],[-86.9055644425298,36.094013301452],[-86.9063340384133,36.0942998167636],[-86.9069560525821,36.0951786241048],[-86.906835141968,36.0952350262224],[-86.9065250830036,36.0953796604165]]]},"properties":{"id":"118583","parcel":"12905004000","address":"6573 ROLLING FORK DR","owner":"CLARK, JOHN B & GARDNER, CAROLINE F","point":[-86.9063597686109,36.09473899826969]}},{"type":"Feature","id":"118587","geometry":{"type":"Polygon","coordinates":[[[-86.907074050319,36.091995432083],[-86.9083350523553,36.0912123404499],[-86.9087038786917,36.0919721717998],[-86.9071022083158,36.0923270766103],[-86.907074050319,36.091995432083]]]},"properties":{"id":"118587","parcel":"12905004700","address":"205 ROLLING FORK CT","owner":"SULLIVAN, WALTER L., JR. ET UX","point":[-86.90812186557665,36.09159195210035]}},{"type":"Feature","id":"118592","geometry":{"type":"Polygon","coordinates":[[[-86.9020808032812,36.0948503724276],[-86.902385670986,36.0947513913702],[-86.9025146143829,36.0946603175575],[-86.9028611541132,36.0944159761213],[-86.9037346701915,36.0952687427729],[-86.9047881155263,36.0962256425075],[-86.904734398584,36.0962680323812],[-86.9046817902225,36.0963113278262],[-86.9044565820466,36.0965097131411],[-86.9020808032812,36.0948503724276]]]},"properties":{"id":"118592","parcel":"12906000100","address":"6553 ROLLING FORK DR","owner":"STEINER, FRANK J. & NIDA","point":[-86.90381258704996,36.09574683440296]}},{"type":"Feature","id":"119686","geometry":{"type":"Polygon","coordinates":[[[-86.9076945145552,36.0948719798774],[-86.907681135606,36.0948727114941],[-86.9076677786069,36.0948717683368],[-86.9076547558557,36.0948691714886],[-86.9076423812135,36.0948649816776],[-86.9076309445756,36.0948593003711],[-86.9076207184406,36.0948522616139],[-86.9076119456861,36.0948440312192],[-86.9076054428768,36.0948353186699],[-86.9076005316534,36.0948259443066],[-86.9075973097053,36.0948160993702],[-86.9075958426019,36.0948059825535],[-86.9075961604612,36.0947958000268],[-86.9076471995924,36.0944290166288],[-86.9076537151872,36.0943821948424],[-86.9085318971409,36.0944546988999],[-86.9084397759769,36.0949235088357],[-86.9083394164543,36.0949088806579],[-86.9081657992169,36.0948816172986],[-86.9080991609316,36.0948719615606],[-86.9080320065241,36.0948650478088],[-86.9079645072195,36.0948608945813],[-86.90789683635,36.0948595104868],[-86.9078291660965,36.0948609005377],[-86.9077616685366,36.0948650607347],[-86.9076945145552,36.0948719798774]]]},"properties":{"id":"119686","parcel":"12905002800","address":"6601 ROLLING FORK DR","owner":"HABER, MURRAY J., JR. ET UX","point":[-86.90805912958712,36.094625246621035]}},{"type":"Feature","id":"119688","geometry":{"type":"Polygon","coordinates":[[[-86.9077083327747,36.0939488318554],[-86.9077087955156,36.0939023530518],[-86.907705797511,36.0938559354497],[-86.907699349607,36.0938097502136],[-86.9076894748334,36.0937639657119],[-86.9076762084236,36.0937187493198],[-86.907659601136,36.0936742664924],[-86.9076397114499,36.0936306781202],[-86.9101626740606,36.0928556436942],[-86.9096619157436,36.0933451219864],[-86.9090299589345,36.0939652485715],[-86.9077083327747,36.0939488318554]]]},"properties":{"id":"119688","parcel":"12905003000","address":"217 ROLLING FORK CT","owner":"MOORE, VALERIE DIDEN & DUSTIN","point":[-86.90881079841358,36.093488026170846]}},{"type":"Feature","id":"119691","geometry":{"type":"Polygon","coordinates":[[[-86.9071335756602,36.0927026540723],[-86.9088951097554,36.0925926844347],[-86.9074275845518,36.0933136052595],[-86.9073037843866,36.0931431139635],[-86.9072706642037,36.0930916161629],[-86.907240796341,36.0930388230551],[-86.9072142578756,36.092984871961],[-86.9071911170004,36.0929299002679],[-86.9071714319554,36.092874049043],[-86.9071552543281,36.0928174603046],[-86.9071426246426,36.0927602797591],[-86.9071335756602,36.0927026540723]]]},"properties":{"id":"119691","parcel":"12905003200","address":"209 ROLLING FORK CT","owner":"GORE, BRENTLEY & CANDIS","point":[-86.90767696065245,36.09295775244229]}},{"type":"Feature","id":"120246","geometry":{"type":"Polygon","coordinates":[[[-86.904253768758,36.0909155548802],[-86.9043905792794,36.09080244541],[-86.9044097514968,36.0907878240849],[-86.9044314726623,36.090775777568],[-86.9044552241369,36.0907665936566],[-86.9044804343362,36.0907604938496],[-86.9045065030243,36.0907576214484],[-86.9045263841253,36.0907565935449],[-86.9045458050824,36.0907529940866],[-86.9045642661554,36.0907469178536],[-86.9045812893884,36.0907385198498],[-86.904596436408,36.0907280178732],[-86.9046093149614,36.0907156816508],[-86.9046195933413,36.0907018318297],[-86.9056293928347,36.0913975214331],[-86.9054608722455,36.0915790030072],[-86.9053297799977,36.0917184417612],[-86.904253768758,36.0909155548802]]]},"properties":{"id":"120246","parcel":"12909000300","address":"194 CARNAVON PKWY","owner":"WORSNICK, MATTHEW & GREBLE, EMILY JOAN","point":[-86.90492816554215,36.09115652949178]}},{"type":"Feature","id":"120247","geometry":{"type":"Polygon","coordinates":[[[-86.9039347012747,36.0911926632381],[-86.904253768758,36.0909155548802],[-86.9053297799977,36.0917184417612],[-86.905065387852,36.0920412942996],[-86.9039347012747,36.0911926632381]]]},"properties":{"id":"120247","parcel":"12909000400","address":"192 CARNAVON PKWY","owner":"MARANDY LIVING TRUST","point":[-86.90463121175674,36.091455553715086]}},{"type":"Feature","id":"120248","geometry":{"type":"Polygon","coordinates":[[[-86.9036826965923,36.0914146522894],[-86.9039347012747,36.0911926632381],[-86.905065387852,36.0920412942996],[-86.9050281075151,36.0920965171261],[-86.9049372234231,36.0924378467581],[-86.9049320061177,36.0924554674932],[-86.9036210196455,36.0914675320931],[-86.9036478450648,36.0914453538555],[-86.9036826965923,36.0914146522894]]]},"properties":{"id":"120248","parcel":"12909000500","address":"188 CARNAVON PKWY","owner":"GOODRUM, MARY ANN REV LIVING TRUST","point":[-86.90434243092034,36.09175441476055]}},{"type":"Feature","id":"120249","geometry":{"type":"Polygon","coordinates":[[[-86.9033038778991,36.0916764944165],[-86.9033714763777,36.0916390519777],[-86.9034371003805,36.0915993647449],[-86.903500637405,36.0915575002603],[-86.9035619794422,36.0915135305387],[-86.9036210196455,36.0914675320931],[-86.9049320061177,36.0924554674932],[-86.9048074019532,36.0929267158761],[-86.9045881768614,36.093411859896],[-86.9033038778991,36.0916764944165]]]},"properties":{"id":"120249","parcel":"12910000100","address":"184 CARNAVON PKWY","owner":"BARNETT, HEATHER M. & BRYAN","point":[-86.90400364123741,36.09206589222206]}},{"type":"Feature","id":"120250","geometry":{"type":"Polygon","coordinates":[[[-86.9013231794289,36.092038556828],[-86.9013059878847,36.0914782659257],[-86.9013891813465,36.0914823037353],[-86.9014720661891,36.0914893820632],[-86.9015544734912,36.0914994886537],[-86.901636234229,36.0915126022393],[-86.9017171837582,36.0915286961125],[-86.9017971551319,36.0915477363729],[-86.901875988034,36.0915696863672],[-86.9019535209351,36.0915945004385],[-86.9020295955751,36.091622127498],[-86.9021040569627,36.0916525110253],[-86.9021182451186,36.0916583453171],[-86.9021309998877,36.0916660578165],[-86.9021419500142,36.0916754214711],[-86.9021507725664,36.0916861619998],[-86.9021572108048,36.0916979667715],[-86.9021610764545,36.0917104892951],[-86.9021622543002,36.0917233627043],[-86.9021607134229,36.09173621139],[-86.9021564961788,36.0917486582935],[-86.9021497261457,36.0917603401691],[-86.9021406026531,36.0917709148351],[-86.9021199973794,36.0918126295513],[-86.9021025810214,36.0918552911012],[-86.9020884206052,36.0918987385543],[-86.9020775675919,36.0919428092934],[-86.9020780965792,36.0919595649314],[-86.90207746184,36.0919647872814],[-86.9020738935148,36.0920030857001],[-86.9020722573019,36.0920414715105],[-86.9013231794289,36.092038556828]]]},"properties":{"id":"120250","parcel":"12910000400","address":"172 CARNAVON PKWY","owner":"PERKERSON IRREV TRUST","point":[-86.90173377682208,36.09175415611001]}},{"type":"Feature","id":"120452","geometry":{"type":"Polygon","coordinates":[[[-86.9060205712016,36.09815477949],[-86.9042664736827,36.0969072778558],[-86.9046355808985,36.0965635882609],[-86.9049681443803,36.0968154789156],[-86.9049815305512,36.0968021925097],[-86.9057785810752,36.0973566270383],[-86.9059348278493,36.0972851288647],[-86.9060256369684,36.0974119122448],[-86.9060353058774,36.0974285964728],[-86.9062522117857,36.0978079970791],[-86.9060205712016,36.09815477949]]]},"properties":{"id":"120452","parcel":"12905001200","address":"6548 ROLLING FORK DR","owner":"SPRAKER, ELDON R III","point":[-86.90547098980106,36.09738393038577]}},{"type":"Feature","id":"120453","geometry":{"type":"Polygon","coordinates":[[[-86.905573328155,36.095980196621],[-86.9060150855839,36.0957746880131],[-86.9067834971416,36.0968505420793],[-86.9063453899924,36.0970586334281],[-86.905573328155,36.095980196621]]]},"properties":{"id":"120453","parcel":"12905001500","address":"6562 ROLLING FORK DR","owner":"KREBS, JEFFREY & MICHELLE","point":[-86.9061787748317,36.09641537117492]}},{"type":"Feature","id":"120454","geometry":{"type":"Polygon","coordinates":[[[-86.9060150855839,36.0957746880131],[-86.9064568145308,36.0955669797139],[-86.9074473360381,36.0969440058051],[-86.9074473992428,36.0969440945577],[-86.9072027626326,36.0970589648888],[-86.9070002746259,36.0971540443181],[-86.9067834971416,36.0968505420793],[-86.9060150855839,36.0957746880131]]]},"properties":{"id":"120454","parcel":"12905001600","address":"6566 ROLLING FORK DR","owner":"LORSCH, TIMOTHY W. & KAREN","point":[-86.90669639070745,36.09631284738322]}},{"type":"Feature","id":"120455","geometry":{"type":"Polygon","coordinates":[[[-86.9064568145308,36.0955669797139],[-86.9069174198139,36.0953525330214],[-86.9078864236813,36.096736402356],[-86.9076949337298,36.0968269937352],[-86.9074473992428,36.0969440945577],[-86.9074473360381,36.0969440058051],[-86.9064568145308,36.0955669797139]]]},"properties":{"id":"120455","parcel":"12905001700","address":"6570 ROLLING FORK DR","owner":"SHAY, MATTHEW EDWARD","point":[-86.9071772020503,36.096151697516596]}},{"type":"Feature","id":"120456","geometry":{"type":"Polygon","coordinates":[[[-86.9074476734792,36.0951054229275],[-86.9075261637144,36.0950688443952],[-86.9078864236813,36.096736402356],[-86.9069174198139,36.0953525330214],[-86.9074476734792,36.0951054229275]]]},"properties":{"id":"120456","parcel":"12905001800","address":"6574 ROLLING FORK DR","owner":"PEEBLES, JOHN ROBERT","point":[-86.90756945474399,36.09604459804758]}},{"type":"Feature","id":"120569","geometry":{"type":"Polygon","coordinates":[[[-86.8996903065825,36.0964549344122],[-86.8994474804375,36.0962080228318],[-86.89866671544,36.0962954048891],[-86.8985218249045,36.0954426512444],[-86.8987656494372,36.0953592940246],[-86.8987932071302,36.0953498737841],[-86.8990302545393,36.0952764131831],[-86.8992550743557,36.0952814938046],[-86.8997610432655,36.0953190104981],[-86.900094202765,36.0953110604521],[-86.900465747903,36.0952718011747],[-86.9005189049845,36.095266184811],[-86.9009124092326,36.0951880585548],[-86.9010166569081,36.0951597270601],[-86.9015256196973,36.0950453755067],[-86.9016067554287,36.0951020155371],[-86.9025600781374,36.0957675085438],[-86.9022099102029,36.0960941742673],[-86.9017146896065,36.0957483391748],[-86.9016170528665,36.0957868866827],[-86.8998433948281,36.0964871057744],[-86.8998286888978,36.0964748398369],[-86.8998118134423,36.0964645756386],[-86.8997931799747,36.0964565633719],[-86.8997732393399,36.096450996154],[-86.8997524750424,36.096448009176],[-86.8997313920909,36.0964476752795],[-86.8997105003109,36.0964500023771],[-86.8996903065825,36.0964549344122]]]},"properties":{"id":"120569","parcel":"12906000300","address":"138 JOCELYN HILLS RD","owner":"O JOCELYN HILLS ROAD TRUST","point":[-86.90011034405768,36.09577556585125]}},{"type":"Feature","id":"120570","geometry":{"type":"Polygon","coordinates":[[[-86.9016170528665,36.0957868866827],[-86.9017146896065,36.0957483391748],[-86.9017660900504,36.0960666815163],[-86.9017679048659,36.0960755024369],[-86.9017675617336,36.0960757979238],[-86.9001270915339,36.0974864383916],[-86.9001110505691,36.0974737876883],[-86.9000883909547,36.0974545934173],[-86.90005375871,36.0974217987447],[-86.9000219840335,36.0973871495013],[-86.9000173811193,36.0973816904663],[-86.9000125199966,36.0973757899214],[-86.9000083263306,36.0973705765889],[-86.8999962097501,36.0973548565142],[-86.8999827130037,36.0973360219512],[-86.8999673875517,36.097312613446],[-86.899953292453,36.0972887018472],[-86.8999375397887,36.0972583637695],[-86.8999190712417,36.0972155251753],[-86.8999044608857,36.0971717168341],[-86.8998938212765,36.0971276598441],[-86.8998039178202,36.0967010459272],[-86.8998027200822,36.0966907025953],[-86.8998034588159,36.0966803312942],[-86.8998061167177,36.0966701691934],[-86.8998106331152,36.0966604483783],[-86.8998169039162,36.0966513913437],[-86.8998231680914,36.0966446903422],[-86.8998303938298,36.0966386608399],[-86.8998460010982,36.0966250087332],[-86.8998585423517,36.0966094137808],[-86.8998676595187,36.0965923238951],[-86.8998730894064,36.0965742295428],[-86.8998746757833,36.0965556519371],[-86.8998723746957,36.0965371222687],[-86.8998662499551,36.0965191754304],[-86.899856479513,36.0965023247328],[-86.8998504684809,36.0964944138618],[-86.8998433948281,36.0964871057744],[-86.9016170528665,36.0957868866827]]]},"properties":{"id":"120570","parcel":"12906000700","address":"205 BASKIN DR","owner":"O JOCELYN HILLS ROAD TRUST","point":[-86.90049448982047,36.09661774626857]}},{"type":"Feature","id":"120571","geometry":{"type":"Polygon","coordinates":[[[-86.9031543317796,36.0937654526642],[-86.902387942527,36.0923890969674],[-86.9024048851692,36.0923755093196],[-86.9024194083499,36.0923601876578],[-86.9024312453986,36.0923434115776],[-86.9024401777406,36.092325490959],[-86.9024460414256,36.0923067541999],[-86.9024487293281,36.0922875463975],[-86.9024482938884,36.0922790315102],[-86.9031372406584,36.0922623375874],[-86.9034217290748,36.0939436626976],[-86.9031543317796,36.0937654526642]]]},"properties":{"id":"120571","parcel":"12906001300","address":"6600 HARCOURT CIR","owner":"ZARE, ZAHRA & SETAREH","point":[-86.90302316671765,36.09307747968669]}},{"type":"Feature","id":"120876","geometry":{"type":"Polygon","coordinates":[[[-86.9046195933413,36.0907018318297],[-86.9046337004804,36.0906817325351],[-86.9046437702002,36.0906600925707],[-86.9046495575858,36.0906374428358],[-86.904650920154,36.0906143377961],[-86.9046478254813,36.0905913428077],[-86.9046403477292,36.0905690215256],[-86.9046286707995,36.0905479205572],[-86.9064414255695,36.089947513959],[-86.9064960997719,36.0899932529187],[-86.9068496099053,36.0903620127071],[-86.9067202257862,36.0904135331454],[-86.9064246506748,36.0906412093836],[-86.9061216403032,36.0908729623316],[-86.9056293928347,36.0913975214331],[-86.9046195933413,36.0907018318297]]]},"properties":{"id":"120876","parcel":"12909000200","address":"198 CARNAVON PKWY","owner":"SUNNYSIDE HILLS, LLC","point":[-86.9055113754447,36.09067160378041]}},{"type":"Feature","id":"120882","geometry":{"type":"Polygon","coordinates":[[[-86.9070349497315,36.091927597236],[-86.9070162635759,36.0919145536371],[-86.9073865028437,36.0906656554783],[-86.90832675407,36.0911970187324],[-86.9083350523553,36.0912123404499],[-86.907074050319,36.091995432083],[-86.9070695139715,36.0919767580027],[-86.9070613270657,36.0919589225504],[-86.9070497048077,36.0919423918792],[-86.9070349497315,36.091927597236]]]},"properties":{"id":"120882","parcel":"12909001000","address":"203 ROLLING FORK CT","owner":"203 ROLLING FORK, LLC","point":[-86.90744501721029,36.091563270958424]}},{"type":"Feature","id":"120885","geometry":{"type":"Polygon","coordinates":[[[-86.9034217290748,36.0939436626976],[-86.9031372406584,36.0922623375874],[-86.9029748307046,36.0917910432623],[-86.9030329508286,36.0917789353212],[-86.9030900432142,36.0917639481983],[-86.9031458908359,36.0917461375986],[-86.9032002823644,36.0917255718024],[-86.9032530110047,36.0917023271683],[-86.9033038778991,36.0916764944165],[-86.9045881768614,36.093411859896],[-86.9044168412147,36.0935845670479],[-86.9041396331733,36.0937338959923],[-86.9037007905026,36.093956953102],[-86.903549934361,36.0940262152286],[-86.9034217290748,36.0939436626976]]]},"properties":{"id":"120885","parcel":"12910000200","address":"180 CARNAVON PKWY","owner":"WELHOELTER, ROBERT J.","point":[-86.90369869487837,36.09283696926972]}},{"type":"Feature","id":"120901","geometry":{"type":"Polygon","coordinates":[[[-86.9018594302044,36.0906170150865],[-86.9023531106722,36.0909319919226],[-86.9020938131556,36.0914657814721],[-86.9020819146187,36.091461199974],[-86.9019825830016,36.0914277569107],[-86.901881614376,36.0913977139815],[-86.9017791870148,36.0913711248282],[-86.9016754779879,36.09134803499],[-86.9016592456359,36.0913438716131],[-86.9016441114045,36.0913375441228],[-86.9016305115586,36.0913292349242],[-86.9016188330198,36.0913191817707],[-86.9016094122047,36.0913076732659],[-86.9016025204774,36.0912950390581],[-86.9015983529542,36.0912816418123],[-86.9015970317219,36.0912678672719],[-86.9015985945503,36.0912541081195],[-86.9016373105763,36.0910568476031],[-86.9016519499474,36.090998161106],[-86.9016704742002,36.0909402035452],[-86.9016928308114,36.0908831420513],[-86.9017189550644,36.0908271456486],[-86.9017487699477,36.0907723762425],[-86.9017821862261,36.0907189949284],[-86.9018191101627,36.0906671574271],[-86.9018594302044,36.0906170150865]]]},"properties":{"id":"120901","parcel":"12910002000","address":"173 CARNAVON PKWY","owner":"NAHMIAS, EVAN & SANDY","point":[-86.90197554071163,36.09102777548918]}},{"type":"Feature","id":"121055","geometry":{"type":"Polygon","coordinates":[[[-86.9101626740606,36.0928556436942],[-86.910202834603,36.0928157817516],[-86.9103091085555,36.0947643612765],[-86.9102955954718,36.0947666606485],[-86.9097520612887,36.0948322995022],[-86.9096619157436,36.0933451219864],[-86.9101626740606,36.0928556436942]]]},"properties":{"id":"121055","parcel":"12905002600","address":"6609 ROLLING FORK DR","owner":"CRIST, LARRY S. ETUX","point":[-86.90998766691779,36.09405474372709]}},{"type":"Feature","id":"121480","geometry":{"type":"Polygon","coordinates":[[[-86.905177375328,36.0961655808363],[-86.905573328155,36.095980196621],[-86.9063453899924,36.0970586334281],[-86.906393364159,36.0971256419377],[-86.9060353058774,36.0974285964728],[-86.9060256369684,36.0974119122448],[-86.9059348278493,36.0972851288647],[-86.905145057986,36.0961812076298],[-86.905177375328,36.0961655808363]]]},"properties":{"id":"121480","parcel":"12905001400","address":"6558 ROLLING FORK DR","owner":"WILLIAMS, ANNE RICHARDSON","point":[-86.90574511517379,36.09661992196007]}},{"type":"Feature","id":"121483","geometry":{"type":"Polygon","coordinates":[[[-86.9075261637144,36.0950688443952],[-86.907578507996,36.0950482253615],[-86.9076325629202,36.0950307569762],[-86.9076880430326,36.0950165315156],[-86.9077069529124,36.0950125406382],[-86.9077676201991,36.0950039470455],[-86.9078288193785,36.0949983624489],[-86.9078903230467,36.0949958083883],[-86.9079519047561,36.0949962928777],[-86.9080133357559,36.094999816738],[-86.9080743893303,36.0950063645523],[-86.9081348397712,36.0950159118835],[-86.90825691073,36.0950347723181],[-86.9078864236813,36.096736402356],[-86.9075261637144,36.0950688443952]]]},"properties":{"id":"121483","parcel":"12905001900","address":"6600 ROLLING FORK DR","owner":"BHAVE, GUATAM B. & CARLY M.","point":[-86.90788709566522,36.095902762684815]}},{"type":"Feature","id":"121485","geometry":{"type":"Polygon","coordinates":[[[-86.9078864236813,36.096736402356],[-86.90825691073,36.0950347723181],[-86.9084088169989,36.095057805292],[-86.9084822618402,36.0950664875536],[-86.908556041088,36.0950730446997],[-86.9086300624676,36.0950774684119],[-86.9087042292837,36.0950797522081],[-86.9086351484937,36.0963791270492],[-86.9083288454064,36.0965253283163],[-86.908139254366,36.0966158213878],[-86.9080256267236,36.0966700130208],[-86.9078864236813,36.096736402356]]]},"properties":{"id":"121485","parcel":"12905002000","address":"6604 ROLLING FORK DR","owner":"BUCK, DAVID REUBEN & SUSAN THI","point":[-86.90838772472495,36.09572922443628]}},{"type":"Feature","id":"121488","geometry":{"type":"Polygon","coordinates":[[[-86.9087042292837,36.0950797522081],[-86.9088003850567,36.0950768482173],[-86.9088963986522,36.095071710008],[-86.9091614224771,36.0950411419302],[-86.9093641184972,36.0961890231707],[-86.9093590572812,36.0961904349128],[-86.9089571162433,36.0962956596513],[-86.9086351484937,36.0963791270492],[-86.9087042292837,36.0950797522081]]]},"properties":{"id":"121488","parcel":"12905002100","address":"6608 ROLLING FORK DR","owner":"MEIER, LANDON & DORSEY","point":[-86.90897048346393,36.09563433980251]}},{"type":"Feature","id":"121491","geometry":{"type":"Polygon","coordinates":[[[-86.9091614224771,36.0950411419302],[-86.9102187866649,36.0949166861316],[-86.9103447111555,36.0957442768914],[-86.9104251992718,36.0959150920532],[-86.9103118033948,36.0959445183183],[-86.9094235371924,36.0961753891113],[-86.9093641184972,36.0961890231707],[-86.9091614224771,36.0950411419302]]]},"properties":{"id":"121491","parcel":"12905002200","address":"6612 ROLLING FORK DR","owner":"FARLER, WILLIAM & OLESEN, ANTOINETTE","point":[-86.90975735548537,36.09539271410971]}},{"type":"Feature","id":"121560","geometry":{"type":"Polygon","coordinates":[[[-86.9077035484661,36.0940038108644],[-86.9077083327747,36.0939488318554],[-86.9090299589345,36.0939652485715],[-86.9085318971409,36.0944546988999],[-86.9076537151872,36.0943821948424],[-86.9077035484661,36.0940038108644]]]},"properties":{"id":"121560","parcel":"12905002900","address":"221 ROLLING FORK CT","owner":"CARLSON, JOHN B. ET UX","point":[-86.9082379793529,36.0941934324832]}},{"type":"Feature","id":"121562","geometry":{"type":"Polygon","coordinates":[[[-86.905065387852,36.0920412942996],[-86.9053297799977,36.0917184417612],[-86.9054608722455,36.0915790030072],[-86.9068724419031,36.0921244170652],[-86.9068813952765,36.0921284641437],[-86.9068894703149,36.0921335858636],[-86.9068964735017,36.0921396593016],[-86.9069022377018,36.0921465379025],[-86.9069066211029,36.0921540559931],[-86.906909521712,36.0921620340817],[-86.9069108684828,36.0921702798251],[-86.9069263165855,36.0923371909354],[-86.9049372234231,36.0924378467581],[-86.9050281075151,36.0920965171261],[-86.905065387852,36.0920412942996]]]},"properties":{"id":"121562","parcel":"12905003400","address":"200 ROLLING FORK CT","owner":"KORDOWSKI, MATTHEW DAVID & CHIU, CYNTHIA JING","point":[-86.90571961721963,36.09188027994846]}},{"type":"Feature","id":"121565","geometry":{"type":"Polygon","coordinates":[[[-86.9055148576934,36.0938798872975],[-86.9055399028689,36.0934640549801],[-86.9060183463566,36.0929744885959],[-86.9070005802578,36.0928827672947],[-86.9070217651573,36.0929500672431],[-86.9070471179506,36.0930164102036],[-86.9070765712091,36.0930816281387],[-86.9071100508514,36.0931455539617],[-86.9071474706217,36.0932080242824],[-86.9071831973887,36.0932539072596],[-86.9058961533578,36.093894330013],[-86.9055148576934,36.0938798872975]]]},"properties":{"id":"121565","parcel":"12905003600","address":"208 ROLLING FORK CT","owner":"SCHWARTZ, MARTIN & ROSS, GAYLE LIVING TRUST","point":[-86.90630710719394,36.09335894138437]}},{"type":"Feature","id":"121568","geometry":{"type":"Polygon","coordinates":[[[-86.9058961533578,36.093894330013],[-86.9071831973887,36.0932539072596],[-86.9074168583178,36.0935598307985],[-86.9074387578315,36.0935905849506],[-86.9074580925985,36.093622451672],[-86.9074747766091,36.0936552901079],[-86.9074887371368,36.0936889556979],[-86.9075052823041,36.0937322862581],[-86.9075185366212,36.0937763554096],[-86.9075284482508,36.0938210004091],[-86.9075349819495,36.0938660529801],[-86.9075381135882,36.0939113456639],[-86.9075378301108,36.0939567082139],[-86.9058961533578,36.093894330013]]]},"properties":{"id":"121568","parcel":"12905003700","address":"212 ROLLING FORK CT","owner":"SMYTHE, DAVID M. ET UX","point":[-86.90696225540717,36.09360614184158]}},{"type":"Feature","id":"121571","geometry":{"type":"Polygon","coordinates":[[[-86.9055644425298,36.094013301452],[-86.9051728405967,36.0938667960987],[-86.9055148576934,36.0938798872975],[-86.9058961533578,36.093894330013],[-86.9075378301108,36.0939567082139],[-86.9075354744548,36.09398749438],[-86.9074753366275,36.094412107583],[-86.9063340384133,36.0942998167636],[-86.9055644425298,36.094013301452]]]},"properties":{"id":"121571","parcel":"12905003800","address":"216 ROLLING FORK CT","owner":"HODGSON, DAVID ANDREW & BATEY, BRENDA DIANE","point":[-86.90673029870737,36.094157170191956]}},{"type":"Feature","id":"121574","geometry":{"type":"Polygon","coordinates":[[[-86.9037007905026,36.093956953102],[-86.9041396331733,36.0937338959923],[-86.9056146223925,36.0958018707787],[-86.9051701815739,36.0960095963111],[-86.9037007905026,36.093956953102]]]},"properties":{"id":"121574","parcel":"12905004300","address":"6561 ROLLING FORK DR","owner":"SCHRAUGER, DEBORAH SUE","point":[-86.90465889744178,36.094879416771875]}},{"type":"Feature","id":"121983","geometry":{"type":"Polygon","coordinates":[[[-86.9057785810752,36.0973566270383],[-86.9049815305512,36.0968021925097],[-86.9049681443803,36.0968154789156],[-86.9046355808985,36.0965635882609],[-86.9047956840548,36.0964145899973],[-86.9048476369951,36.0963699114275],[-86.9049022899391,36.0963274072264],[-86.9049595075346,36.0962871865616],[-86.9050191410024,36.0962493496887],[-86.9050810437544,36.0962139941429],[-86.905145057986,36.0961812076298],[-86.9059348278493,36.0972851288647],[-86.9057785810752,36.0973566270383]]]},"properties":{"id":"121983","parcel":"12905001300","address":"6554 ROLLING FORK DR","owner":"LAWSON, PATRICK & SARAH","point":[-86.90514871960924,36.09668316025022]}},{"type":"Feature","id":"122143","geometry":{"type":"Polygon","coordinates":[[[-86.908832137706,36.0971174509665],[-86.9089249784372,36.0965044084767],[-86.9109566054989,36.0983329694521],[-86.9105269126555,36.0986460934612],[-86.908832137706,36.0971174509665]]]},"properties":{"id":"122143","parcel":"12901003300","address":"6617 JOCELYN HOLLOW RD","owner":"SCHEVING, LAWRENCE A. ET UX","point":[-86.90989364197792,36.097725214394224]}},{"type":"Feature","id":"122144","geometry":{"type":"Polygon","coordinates":[[[-86.90853153997,36.0984479645641],[-86.9087104904379,36.097993885814],[-86.9096184744956,36.0992463348664],[-86.9089640228637,36.0995611483139],[-86.908655769114,36.0991283218203],[-86.9084025782108,36.0987741990053],[-86.90853153997,36.0984479645641]]]},"properties":{"id":"122144","parcel":"12901003600","address":"6605 JOCELYN HOLLOW RD","owner":"PERKERSON, RICHARD & BARBARA LIVING TRUST","point":[-86.90896710402718,36.09895159397922]}},{"type":"Feature","id":"122316","geometry":{"type":"Polygon","coordinates":[[[-86.9087583668425,36.0976814480027],[-86.908832137706,36.0971174509665],[-86.9105269126555,36.0986460934612],[-86.9101321164731,36.0989325797258],[-86.9087583668425,36.0976814480027]]]},"properties":{"id":"122316","parcel":"12901003400","address":"6613 JOCELYN HOLLOW RD","owner":"PAGE, DEBBY M.","point":[-86.90964005926381,36.098163772064666]}},{"type":"Feature","id":"122317","geometry":{"type":"Polygon","coordinates":[[[-86.9072327228362,36.098508565242],[-86.9080025808003,36.0973333081814],[-86.908139254366,36.0966158213878],[-86.9083288454064,36.0965253283163],[-86.9086351484937,36.0963791270492],[-86.9089571162433,36.0962956596513],[-86.9089249784372,36.0965044084767],[-86.908832137706,36.0971174509665],[-86.9087583668425,36.0976814480027],[-86.9087104904379,36.097993885814],[-86.90853153997,36.0984479645641],[-86.9072713195771,36.0985981042054],[-86.907270755946,36.0985773462197],[-86.9072660627499,36.0985569365589],[-86.907257361627,36.0985374123807],[-86.9072443561955,36.0985194663056],[-86.9072327228362,36.098508565242]]]},"properties":{"id":"122317","parcel":"12901003900","address":"401 WAYSIDE CT","owner":"GRAYKEN, K. R. W.","point":[-86.90833494943847,36.09750734387392]}},{"type":"Feature","id":"122318","geometry":{"type":"Polygon","coordinates":[[[-86.9052690070729,36.0987406251116],[-86.9055271279718,36.0983408971177],[-86.9057809319011,36.0985126109782],[-86.9060125734543,36.0981658281653],[-86.9070078852077,36.0985319588428],[-86.9069997760245,36.0985513291746],[-86.9069957531702,36.0985715250008],[-86.9069959279259,36.098591982176],[-86.9070002960012,36.0986121302125],[-86.9070087354978,36.0986314085204],[-86.9070210092436,36.0986492763031],[-86.9070367772952,36.0986652377007],[-86.9070555992211,36.0986788471798],[-86.9070661624719,36.0986870677471],[-86.9070748155035,36.0986966465126],[-86.9070812962603,36.0987072952312],[-86.9070854100648,36.0987186936051],[-86.9070870319425,36.0987304982803],[-86.9070861133866,36.0987423518076],[-86.9070821039765,36.0987928959304],[-86.9070816040374,36.098843542539],[-86.9070846150857,36.0988941320931],[-86.9070911297435,36.0989445042174],[-86.9053950661594,36.0991088931191],[-86.9055174960992,36.0989211679371],[-86.9052690070729,36.0987406251116]]]},"properties":{"id":"122318","parcel":"12901004000","address":"400 WAYSIDE CT","owner":"BACHRACH, ALAN F.","point":[-86.90617474297757,36.098639687532966]}},{"type":"Feature","id":"122346","geometry":{"type":"Polygon","coordinates":[[[-86.9039365517434,36.0972144107424],[-86.9042664736827,36.0969072778558],[-86.9060205712016,36.09815477949],[-86.9060125734543,36.0981658281653],[-86.9057809319011,36.0985126109782],[-86.9055271279718,36.0983408971177],[-86.9039365517434,36.0972144107424]]]},"properties":{"id":"122346","parcel":"12901005400","address":"6544 ROLLING FORK DR","owner":"RAMSEY, KELLY WOODS","point":[-86.90497994278545,36.09768460075624]}},{"type":"Feature","id":"122470","geometry":{"type":"Polygon","coordinates":[[[-86.9015256196973,36.0950453755067],[-86.9020808032812,36.0948503724276],[-86.9044565820466,36.0965097131411],[-86.9041013421311,36.0968228056101],[-86.9025600781374,36.0957675085438],[-86.9016067554287,36.0951020155371],[-86.9015256196973,36.0950453755067]]]},"properties":{"id":"122470","parcel":"12906000200","address":"6549 ROLLING FORK DR","owner":"YANCEY, DONNA S. LIVING TRUST, THE","point":[-86.90351365772808,36.09613861889254]}},{"type":"Feature","id":"122487","geometry":{"type":"Polygon","coordinates":[[[-86.9022099102029,36.0960941742673],[-86.9025600781374,36.0957675085438],[-86.9041013421311,36.0968228056101],[-86.9037266826155,36.0971533735249],[-86.9022099102029,36.0960941742673]]]},"properties":{"id":"122487","parcel":"12906000301","address":"6545 ROLLING FORK DR","owner":"HAYDEN, NANCY LIVING TRUST, THE","point":[-86.90315042932478,36.09645848947844]}},{"type":"Feature","id":"122488","geometry":{"type":"Polygon","coordinates":[[[-86.9017675617336,36.0960757979238],[-86.9017679048659,36.0960755024369],[-86.901809374292,36.0962770706382],[-86.9018787870396,36.0966144568391],[-86.9005454178765,36.0977752055619],[-86.9001270915339,36.0974864383916],[-86.9017675617336,36.0960757979238]]]},"properties":{"id":"122488","parcel":"12906000600","address":"209 BASKIN DR","owner":"BATTEN, WAYNE & SULLIVAN, CHARLES II.","point":[-86.9010060412666,36.097050453398296]}},{"type":"Feature","id":"122489","geometry":{"type":"Polygon","coordinates":[[[-86.9026141763963,36.0934134656677],[-86.9017344057983,36.0928367863451],[-86.9014410734691,36.0926442474972],[-86.9021241654286,36.0923501383802],[-86.9021361951288,36.0923662563794],[-86.9021546675774,36.0923834248533],[-86.902175817085,36.0923978270467],[-86.9021999769564,36.0924091837663],[-86.902225795866,36.0924175069244],[-86.9022532633339,36.0924219719125],[-86.9022810320255,36.0924231377007],[-86.9023087559233,36.0924204579888],[-86.9023354254394,36.0924142125233],[-86.9023539700666,36.0924073293505],[-86.9023715379802,36.0923989275904],[-86.902387942527,36.0923890969674],[-86.9031543317796,36.0937654526642],[-86.9026141763963,36.0934134656677]]]},"properties":{"id":"122489","parcel":"12906001400","address":"6601 HARCOURT CIR","owner":"JOHNSEN, ARTHUR J. ET UX","point":[-86.90248617539464,36.09312538101685]}},{"type":"Feature","id":"122490","geometry":{"type":"Polygon","coordinates":[[[-86.9015888746469,36.0937376090056],[-86.9016076128596,36.0937219197506],[-86.9016231975155,36.0937041026807],[-86.9016352679666,36.0936845723856],[-86.9016435461659,36.0936637806921],[-86.9016478388159,36.0936422103379],[-86.9016480460885,36.0936203604864],[-86.9016441637531,36.0935987385985],[-86.9026141763963,36.0934134656677],[-86.9031543317796,36.0937654526642],[-86.9034217290748,36.0939436626976],[-86.903549934361,36.0940262152286],[-86.9031754758297,36.0941960477227],[-86.9028611541132,36.0944159761213],[-86.9025146143829,36.0946603175575],[-86.9015888746469,36.0937376090056]]]},"properties":{"id":"122490","parcel":"12906002000","address":"6600 ORMOND DR","owner":"HAYES, T. MICHAEL ETUX","point":[-86.90266259250814,36.09411056498556]}},{"type":"Feature","id":"122491","geometry":{"type":"Polygon","coordinates":[[[-86.9009004358467,36.0948745811638],[-86.9014213012347,36.0937652337392],[-86.9014460507947,36.0937706935311],[-86.9014715428225,36.0937729815167],[-86.9014971636944,36.0937720427977],[-86.9015222973245,36.0937678991046],[-86.9015463396315,36.0937606513927],[-86.9015687117924,36.0937504734341],[-86.9015888746469,36.0937376090056],[-86.9025146143829,36.0946603175575],[-86.902385670986,36.0947513913702],[-86.9020808032812,36.0948503724276],[-86.9015256196973,36.0950453755067],[-86.9010166569081,36.0951597270601],[-86.9009004358467,36.0948745811638]]]},"properties":{"id":"122491","parcel":"12906002100","address":"6601 ORMOND DR","owner":"O JOCELYN HILLS ROAD TRUST","point":[-86.90163960158348,36.09421636107007]}},{"type":"Feature","id":"122492","geometry":{"type":"Polygon","coordinates":[[[-86.9001547116505,36.0938265011741],[-86.900733746007,36.0933088498816],[-86.9008152632469,36.0933623231535],[-86.900898802369,36.0934137010745],[-86.9009842806077,36.0934629319838],[-86.9010716163582,36.0935099687186],[-86.9011607213525,36.0935547641658],[-86.9012515084938,36.0935972766116],[-86.9012675977461,36.0936070913347],[-86.9012814293377,36.093618959858],[-86.9012926085298,36.0936325435419],[-86.9013008189099,36.0936474580963],[-86.9013086012212,36.0936692743645],[-86.9013199838819,36.0936900227243],[-86.9013347514888,36.0937093145238],[-86.9013526267613,36.0937267886125],[-86.9013732761557,36.0937421167069],[-86.901396311077,36.0937550123948],[-86.9014213012347,36.0937652337392],[-86.9009004358467,36.0948745811638],[-86.9006330280944,36.0942292361313],[-86.9001547116505,36.0938265011741]]]},"properties":{"id":"122492","parcel":"12906002200","address":"6607 ORMOND DR","owner":"KIRK, CHARLES W., TRUSTEE","point":[-86.90084575363278,36.094028243649944]}},{"type":"Feature","id":"122610","geometry":{"type":"Polygon","coordinates":[[[-86.9087104904379,36.097993885814],[-86.9087583668425,36.0976814480027],[-86.9101321164731,36.0989325797258],[-86.9100542446553,36.0989903086243],[-86.9099794876782,36.0990437535451],[-86.9099020490121,36.0990946211207],[-86.9098220642681,36.0991428247001],[-86.9097396724107,36.0991882794093],[-86.9096184744956,36.0992463348664],[-86.9087104904379,36.097993885814]]]},"properties":{"id":"122610","parcel":"12901003500","address":"6609 JOCELYN HOLLOW RD","owner":"BRANDEL, WYNAND W. ETUX","point":[-86.90933373682628,36.09846316866941]}},{"type":"Feature","id":"123053","geometry":{"type":"Polygon","coordinates":[[[-86.9035435234001,36.0975804221472],[-86.9036263893006,36.0975032632715],[-86.9052690070729,36.0987406251116],[-86.9055174960992,36.0989211679371],[-86.9053950661594,36.0991088931191],[-86.9052353531634,36.0993518418527],[-86.9032971324419,36.0978098404541],[-86.9035435234001,36.0975804221472]]]},"properties":{"id":"123053","parcel":"12901005200","address":"6538 ROLLING FORK DR","owner":"CK FLIPS 615, LLC","point":[-86.9042666370806,36.09827522372563]}},{"type":"Feature","id":"123459","geometry":{"type":"Polygon","coordinates":[[[-86.9036263893006,36.0975032632715],[-86.9039365517434,36.0972144107424],[-86.9055271279718,36.0983408971177],[-86.9052690070729,36.0987406251116],[-86.9036263893006,36.0975032632715]]]},"properties":{"id":"123459","parcel":"12901005300","address":"6542 ROLLING FORK DR","owner":"SMITH, ZACHARY PHILIP & PAIGE TAYLOR","point":[-86.90455905995074,36.0979220698791]}},{"type":"Feature","id":"123461","geometry":{"type":"Polygon","coordinates":[[[-86.9060125734543,36.0981658281653],[-86.9060205712016,36.09815477949],[-86.9062522117857,36.0978079970791],[-86.9060353058774,36.0974285964728],[-86.906393364159,36.0971256419377],[-86.9063453899924,36.0970586334281],[-86.9067834971416,36.0968505420793],[-86.9070002746259,36.0971540443181],[-86.9068925412253,36.0972054028249],[-86.9071101041627,36.0984718514164],[-86.9070855433762,36.0984784164343],[-86.9070625193108,36.0984879693971],[-86.9070415790967,36.0985002826691],[-86.9070232224637,36.0985150622756],[-86.9070078852077,36.0985319588428],[-86.9060125734543,36.0981658281653]]]},"properties":{"id":"123461","parcel":"12901005900","address":"390 WAYSIDE CT","owner":"YOUNG, ELISA GRACE & DEGEY, JEROME JOSEPH PHILIPPE","point":[-86.90655366990913,36.097618617190825]}},{"type":"Feature","id":"123463","geometry":{"type":"Polygon","coordinates":[[[-86.9071562788051,36.0984736446411],[-86.9071358220279,36.0984711090665],[-86.9071101041627,36.0984718514164],[-86.9068925412253,36.0972054028249],[-86.9070002746259,36.0971540443181],[-86.9072027626326,36.0970589648888],[-86.9074473992428,36.0969440945577],[-86.9076949337298,36.0968269937352],[-86.9078864236813,36.096736402356],[-86.9080256267236,36.0966700130208],[-86.908139254366,36.0966158213878],[-86.9080025808003,36.0973333081814],[-86.9072327228362,36.098508565242],[-86.9072163520026,36.0984963217388],[-86.9071978539348,36.0984862708636],[-86.9071776689175,36.0984786508503],[-86.9071562788051,36.0984736446411]]]},"properties":{"id":"123463","parcel":"12901006100","address":"401 B WAYSIDE CT","owner":"GRAYKEN, K. R. W.","point":[-86.90732103121228,36.09790201775136]}},{"type":"Feature","id":"124046","geometry":{"type":"Polygon","coordinates":[[[-86.9017660900504,36.0960666815163],[-86.9017146896065,36.0957483391748],[-86.9022099102029,36.0960941742673],[-86.9037266826155,36.0971533735249],[-86.9033808040498,36.0974581269454],[-86.901809374292,36.0962770706382],[-86.9017679048659,36.0960755024369],[-86.9017660900504,36.0960666815163]]]},"properties":{"id":"124046","parcel":"12906000400","address":"6543 ROLLING FORK DR","owner":"HALL, KRISTEN A.","point":[-86.9027457845542,36.09671520787731]}},{"type":"Feature","id":"124047","geometry":{"type":"Polygon","coordinates":[[[-86.9018787870396,36.0966144568391],[-86.901809374292,36.0962770706382],[-86.9033808040498,36.0974581269454],[-86.9030104710999,36.0977845159733],[-86.9019255038828,36.0969129974879],[-86.9019022452313,36.0967725172],[-86.9018787870396,36.0966144568391]]]},"properties":{"id":"124047","parcel":"12906000500","address":"6537 ROLLING FORK DR","owner":"SMITH, NORTON R. JR. ETUX","point":[-86.90264148412776,36.097185554949434]}},{"type":"Feature","id":"124048","geometry":{"type":"Polygon","coordinates":[[[-86.9014028925423,36.0926203583771],[-86.9013101371959,36.0925595148828],[-86.9013231794289,36.092038556828],[-86.9020722573019,36.0920414715105],[-86.9020723633669,36.0920508108451],[-86.9020705240568,36.092100941157],[-86.9020727445419,36.0921510609246],[-86.9020790135006,36.0922009548229],[-86.902089305166,36.0922504067333],[-86.9021035760352,36.092299203373],[-86.9021217615384,36.0923471343206],[-86.9021241654286,36.0923501383802],[-86.9014410734691,36.0926442474972],[-86.9014028925423,36.0926203583771]]]},"properties":{"id":"124048","parcel":"12906001500","address":"6605 HARCOURT CIR","owner":"GRAVES, BRYAN D.","point":[-86.9017143696487,36.092322842836445]}},{"type":"Feature","id":"124049","geometry":{"type":"Polygon","coordinates":[[[-86.9014737208049,36.0934928741755],[-86.9014480180873,36.0934947147975],[-86.9014260180335,36.0934963826257],[-86.9014039453345,36.0934955634176],[-86.9013822254821,36.0934922720184],[-86.9013612745264,36.0934865720141],[-86.9013007209174,36.0934598280573],[-86.901285086475,36.0934541757264],[-86.9012711162413,36.0934460387011],[-86.9011825548899,36.0934030535794],[-86.9010958692812,36.0933576226806],[-86.901011159949,36.0933097975326],[-86.9009285263877,36.0932596359803],[-86.9008480703116,36.0932071958522],[-86.9007698835221,36.0931525422615],[-86.9014028925423,36.0926203583771],[-86.9014410734691,36.0926442474972],[-86.9017344057983,36.0928367863451],[-86.9026141763963,36.0934134656677],[-86.9016441637531,36.0935987385985],[-86.9016358166163,36.0935790211848],[-86.9016240741328,36.0935605269803],[-86.9016091413902,36.0935436158699],[-86.9015913345463,36.0935286496118],[-86.9015710336603,36.0935159453231],[-86.9015486715786,36.0935057746613],[-86.9015244892031,36.0934987180611],[-86.9014993505724,36.0934943905174],[-86.9014737208049,36.0934928741755]]]},"properties":{"id":"124049","parcel":"12906001900","address":"6604 ORMOND DR","owner":"GUIDRY, JUSTIN P & BETHANN C","point":[-86.90146706430195,36.09299484218453]}},{"type":"Feature","id":"185067","geometry":{"type":"Polygon","coordinates":[[[-86.9054608722455,36.0915790030072],[-86.9056293928347,36.0913975214331],[-86.9061216403032,36.0908729623316],[-86.9064246506748,36.0906412093836],[-86.9068836778576,36.0919052950506],[-86.9068662786163,36.0919110094409],[-86.9068362089946,36.09192909207],[-86.906814261887,36.0919501356524],[-86.9067983117616,36.0919760786421],[-86.9067905143319,36.0920047074696],[-86.9067911822518,36.0920335457273],[-86.9068006437455,36.0920617725698],[-86.9068181963208,36.0920871887077],[-86.9068424707741,36.0921084335636],[-86.9068724419031,36.0921244170652],[-86.9054608722455,36.0915790030072]]]},"properties":{"id":"185067","parcel":"12909012800","address":"0 ROLLING FORK CT","owner":"SMITH, CHARLES GREGORY & ABERNETHY, VIRGINIA D.","point":[-86.90623988564295,36.09113552777571]}},{"type":"Feature","id":"244641","geometry":{"type":"Polygon","coordinates":[[[-86.9003561173835,36.0926881485777],[-86.9010755395652,36.0924074278842],[-86.9013101371959,36.0925595148828],[-86.9014028925423,36.0926203583771],[-86.9007698835221,36.0931525422615],[-86.9007080493229,36.0931009651686],[-86.9006489127503,36.0930473453878],[-86.9005925759021,36.0929917749936],[-86.9005391364949,36.0929343515016],[-86.9004886855921,36.0928751733776],[-86.9004413109558,36.0928143418165],[-86.9003970970874,36.0927519643463],[-86.9003561173835,36.0926881485777]]]},"properties":{"id":"244641","parcel":"12906008500","address":"6606 ORMOND DR","owner":"NIES, EMMA","point":[-86.90081384189854,36.09278348037038]}}]}