{"type":"FeatureCollection","features":[{"type":"Feature","id":"117304","geometry":{"type":"Polygon","coordinates":[[[-86.9125296705496,36.0931811460369],[-86.9120217473044,36.0929866468402],[-86.9112424893059,36.0930386901057],[-86.9109640128268,36.093075958346],[-86.9107341914518,36.093106264579],[-86.9105625035304,36.0930108611237],[-86.9102296082721,36.0927892068152],[-86.9094901891723,36.0923002981436],[-86.9087038786917,36.0919721717998],[-86.9083350523553,36.0912123404499],[-86.90832675407,36.0911970187324],[-86.9073865028437,36.0906656554783],[-86.9068496099053,36.0903620127071],[-86.9064960997719,36.0899932529187],[-86.9064414255695,36.089947513959],[-86.9053616703165,36.089052361259],[-86.9053173547607,36.0890246726903],[-86.9078434155704,36.0879985711546],[-86.9082956004667,36.0875152987243],[-86.9084211640288,36.087381099553],[-86.9085048070113,36.0870787555247],[-86.908826819511,36.0859143091878],[-86.909392936591,36.0852157897883],[-86.9096117607302,36.0849457848386],[-86.9104427273493,36.0832626375292],[-86.9116068818967,36.0809044730639],[-86.9116538704857,36.0808251053761],[-86.9116892184625,36.0807653865892],[-86.9119723523296,36.0809017090634],[-86.9123592624244,36.0810942725816],[-86.9129771371824,36.0814017808608],[-86.9137176754618,36.081053324655],[-86.9140325199581,36.0808861075831],[-86.9145468408207,36.0803066238871],[-86.9146766649356,36.0801603657504],[-86.914955472787,36.080063008927],[-86.9154101021406,36.0799042620779],[-86.9154100882893,36.0799043126558],[-86.9153359833655,36.0800498709773],[-86.9160989918333,36.0797737541341],[-86.916925417989,36.0801254272129],[-86.9166288811029,36.0806466225331],[-86.9161755941004,36.0808698408951],[-86.9152186503765,36.0815273632332],[-86.9145995127933,36.0823078611575],[-86.913724406905,36.0831391958026],[-86.9130678439131,36.0838757395543],[-86.9133050703546,36.0840211906085],[-86.9126104708822,36.0846000582083],[-86.9135715689353,36.0853757139487],[-86.9134964835189,36.0892547529716],[-86.9128550514782,36.0913098878192],[-86.9127918276829,36.0913051272113],[-86.9127681525226,36.0913717139857],[-86.9125634572706,36.092924801374],[-86.9125296705496,36.0931811460369]]]},"properties":{"id":"117304","parcel":"12800015400","address":"0 OLD HICKORY BLVD","owner":"RRPV BELLEVUE VL, LLC","point":[-86.91110780924927,36.08649836868742]}}]}