{"type":"FeatureCollection","features":[{"type":"Feature","id":"40671","geometry":{"type":"Polygon","coordinates":[[[-86.9098894181661,36.3787677660881],[-86.9098642177631,36.3785850102551],[-86.909688928821,36.3781709899996],[-86.9096318246854,36.3779906737717],[-86.9095786793908,36.3778592208439],[-86.9095268306859,36.3777222633942],[-86.9095013767283,36.3776356516933],[-86.9094887697229,36.3776027833415],[-86.9094424635419,36.377475124459],[-86.9094089905512,36.3774001077326],[-86.9093570434356,36.3773136977727],[-86.9093229962241,36.3771886936464],[-86.9093118512587,36.3770464861362],[-86.9092905595135,36.3769082012716],[-86.9092893918212,36.3768065729151],[-86.9092891723034,36.3766692283041],[-86.9093125134459,36.3765718119544],[-86.9092769355496,36.3764319851697],[-86.9091623500553,36.3762746229422],[-86.909013715197,36.3762284919732],[-86.9088305798423,36.376195256853],[-86.9087505570898,36.3761486102891],[-86.9087786759399,36.3759346877805],[-86.9087767267128,36.3757649418572],[-86.908713851735,36.3755555481143],[-86.9086662081992,36.3753702134563],[-86.908667182736,36.3751592416515],[-86.9086995272691,36.3750178069464],[-86.9087530679834,36.3748289655605],[-86.9087798235098,36.3746150531916],[-86.9088172111626,36.3744395179374],[-86.908834836201,36.374258637222],[-86.90883472472,36.3741306310615],[-86.9088668603466,36.3739710679243],[-86.9089016522258,36.3738653238824],[-86.9089264915296,36.3737211984884],[-86.9089232305718,36.3736146416366],[-86.9088753110852,36.3735238031647],[-86.9088173421626,36.3734451273464],[-86.9087944556953,36.3733453103123],[-86.9088211087038,36.3732407268823],[-86.9088752966007,36.3731084673656],[-86.9089727451978,36.3729572032328],[-86.9090411729676,36.3728226385835],[-86.9091039153279,36.3727254759118],[-86.9091794195493,36.3726155803711],[-86.9092205834358,36.3725323134885],[-86.9092487643596,36.3724425516872],[-86.9093487344119,36.3723335716935],[-86.9094982197191,36.3722769599895],[-86.9096768575188,36.3722151848488],[-86.9097567419742,36.3721909605546],[-86.9098112014318,36.3721416561478],[-86.9113462857057,36.3721800989969],[-86.9114281725559,36.3720937777176],[-86.9115226298649,36.3719782449567],[-86.9115931827342,36.3719106876926],[-86.9119279999467,36.3717252193405],[-86.9119883248783,36.3717140014185],[-86.9120494373766,36.3717060453686],[-86.9121110681708,36.3717013865644],[-86.9121729444813,36.3717000459872],[-86.9122347955913,36.3717020301834],[-86.9124339296435,36.3717098691877],[-86.9124748197864,36.3717062335556],[-86.9125151012743,36.3716994887705],[-86.9125544148669,36.3716896970227],[-86.9125924082915,36.3716769447833],[-86.912628741855,36.3716613463672],[-86.9126630906529,36.3716430421135],[-86.9126951478699,36.3716221947556],[-86.9130328380058,36.3713916512425],[-86.9131111911477,36.3713526030191],[-86.9132093345693,36.3713216461954],[-86.913319876653,36.3713048801191],[-86.9136349925907,36.3712964578471],[-86.9137332849532,36.3712781355358],[-86.9138054167617,36.3712297944465],[-86.9138757122933,36.3711990473611],[-86.913928601937,36.3711316220861],[-86.9140162798253,36.3710765710018],[-86.9140751228408,36.3710541510927],[-86.9141620479978,36.3710518461335],[-86.9142289886466,36.3710832050186],[-86.9142727347502,36.3711064983118],[-86.9143402462001,36.3711285125345],[-86.9144463575396,36.3711403468106],[-86.9145197386816,36.371141440619],[-86.9146709785653,36.371119420719],[-86.9147633763109,36.3711203706427],[-86.9148541968232,36.3711021038971],[-86.9149742443183,36.3710852635416],[-86.91515857002,36.3710459624289],[-86.9152631600942,36.3710435230871],[-86.9156219366392,36.3708748935934],[-86.9159686970985,36.37090083732],[-86.9153829736575,36.3720639274257],[-86.9147375232058,36.3733505285895],[-86.9160635331664,36.3735184999585],[-86.914943006685,36.3780791944954],[-86.9126383417004,36.3779482609203],[-86.9126809590855,36.3775787520755],[-86.9127182478081,36.3772186227214],[-86.9125673020469,36.3772670111962],[-86.9124100504178,36.3773577440863],[-86.9123086553634,36.3774612442034],[-86.9122475681157,36.3775254328062],[-86.9121762140527,36.3775825574745],[-86.9121439098128,36.3776091716144],[-86.9120541788076,36.377663685083],[-86.9119891953951,36.3777432894755],[-86.9119246499276,36.3778020101155],[-86.9118417096995,36.3778564749548],[-86.9117361403629,36.3778924314858],[-86.9116013265354,36.3779258603818],[-86.9114696550862,36.3779372909641],[-86.9113804512174,36.3779786168757],[-86.9112245110193,36.3780654954967],[-86.9110807481714,36.3781478869814],[-86.9109405798021,36.3781884976257],[-86.9108139444878,36.3782240621561],[-86.9106985876161,36.3782364677012],[-86.9105746099005,36.3782670669769],[-86.9104469727336,36.378333953412],[-86.9103498677056,36.3783973142828],[-86.9102629663676,36.3784616969181],[-86.9102267994623,36.3785070183047],[-86.9101738143909,36.3785667505261],[-86.910127732726,36.3785769861813],[-86.9100767627326,36.3786345051245],[-86.9100289816575,36.3786744199353],[-86.9099928524261,36.3787230376326],[-86.909962698937,36.3787595241046],[-86.9099200517363,36.3787730296234],[-86.9098894181661,36.3787677660881]]]},"properties":{"id":"40671","parcel":"00400002400","address":"0 COOPERTOWN RD","owner":"OMOHUNDRO, RICHARD BRUCE","point":[-86.91226651793089,36.37472463101285]}}]}