{"type":"FeatureCollection","features":[{"type":"Feature","id":"52255","geometry":{"type":"Polygon","coordinates":[[[-86.9821002058515,36.1014367422866],[-86.9821494395863,36.1014204856364],[-86.982319922626,36.1013548216758],[-86.9824894152319,36.101287493627],[-86.9826578952973,36.1012185106872],[-86.9838759770082,36.1023005932303],[-86.9845312692753,36.1029059341389],[-86.9836564196237,36.103540027753],[-86.9831948113075,36.1029720169263],[-86.9830986056869,36.1027044912712],[-86.9828410690345,36.1022715668984],[-86.9824024445852,36.1019484590556],[-86.9821002058515,36.1014367422866]]]},"properties":{"id":"52255","parcel":"12700030700","address":"7596 BUFFALO RD","owner":"BUFFALO ROAD REVOCABLE LAND TRUST, THE","point":[-86.98353655350262,36.102502549663384]}},{"type":"Feature","id":"64804","geometry":{"type":"Polygon","coordinates":[[[-86.9909776052938,36.1182089777356],[-86.9909902493024,36.1179721506799],[-86.9911144719317,36.1179852767842],[-86.9911258394692,36.1179144522229],[-86.9915095098881,36.1179132340602],[-86.9914551642444,36.1173628462064],[-86.9910118195357,36.1174267936604],[-86.9909555208801,36.1170905150386],[-86.9909517416395,36.1163429021452],[-86.9909451175771,36.1150325534344],[-86.9896733156014,36.1149461268188],[-86.9877212935263,36.1150406274575],[-86.987590453836,36.1173605789641],[-86.9873326380037,36.11752466003],[-86.986778987414,36.1171011464746],[-86.9867779372717,36.1170966449723],[-86.9867683353576,36.1167340124827],[-86.9859242988847,36.1167313689859],[-86.9859243255052,36.1167335129555],[-86.9859291147464,36.1171192273944],[-86.9859291396551,36.1171212334792],[-86.9859370977395,36.1171390393579],[-86.9868310197952,36.1191391158219],[-86.9862930434003,36.1190349285922],[-86.9857814941253,36.1190440548917],[-86.984998456013,36.1190539164089],[-86.9838583329822,36.1190010914046],[-86.9838258507289,36.1189455498414],[-86.9837969429151,36.1188887236087],[-86.9837716858194,36.1188307626033],[-86.9837512213244,36.1187715709899],[-86.9837345474645,36.1187116003808],[-86.9837217084609,36.1186510135514],[-86.983713476213,36.1185898889296],[-86.9837098860818,36.1185284812949],[-86.9837102053222,36.1184670048231],[-86.9837144315252,36.1184056244713],[-86.9837232961211,36.1183445595978],[-86.9837363310786,36.1182857545114],[-86.9837529682051,36.1182275518531],[-86.9837731648273,36.1181700943742],[-86.9850708824474,36.1182283559302],[-86.9851436696438,36.1174088048317],[-86.9851693896918,36.1171174315074],[-86.9852172245517,36.1170843885878],[-86.9853459270643,36.1164321407129],[-86.9853713544256,36.1163032781461],[-86.9853729261581,36.1158724377577],[-86.9853427769069,36.1151515195537],[-86.9841850757619,36.1150709311505],[-86.9841592549189,36.1150691337489],[-86.9841717428636,36.1151749073146],[-86.9815451693513,36.1149531387993],[-86.9798930893088,36.1148420955851],[-86.9801401414508,36.1127306844997],[-86.9773169559082,36.1124371204812],[-86.9773932533015,36.1120343178426],[-86.9774898628754,36.111521464226],[-86.9777821234539,36.1099609045754],[-86.9806673484752,36.1102407658515],[-86.9811615552129,36.107493976266],[-86.9812762237081,36.106910644372],[-86.982458402367,36.1070196974594],[-86.985416627581,36.1072966516186],[-86.9856908820005,36.1049538215779],[-86.9869618011383,36.1050137565898],[-86.986934472647,36.1049457959604],[-86.9869044778573,36.1048785799865],[-86.9868718454015,36.104812177832],[-86.9868366105632,36.1047466577049],[-86.986805177366,36.1046922032712],[-86.9867774873827,36.1046364266371],[-86.9867536271251,36.1045794974427],[-86.9867336675786,36.1045215872579],[-86.9867176708998,36.1044628722309],[-86.9867056848523,36.1044035322324],[-86.9866977449607,36.1043437454304],[-86.9866938757112,36.1042836954906],[-86.9866940904393,36.1042235625643],[-86.9866983858784,36.1041635314448],[-86.9867067520538,36.1041037833745],[-86.9867247898514,36.1039915653664],[-86.9867387000405,36.1038789602174],[-86.9867484683452,36.1037660689915],[-86.9867540893627,36.1036529917785],[-86.9867555543587,36.1035398286949],[-86.9867528646163,36.1034266815775],[-86.9867460213738,36.1033136486577],[-86.9867348062024,36.1031986127642],[-86.9867192925321,36.1030839067627],[-86.9866994950176,36.102969635984],[-86.9866754327443,36.102855904821],[-86.9866471259301,36.1027428194594],[-86.9866146025325,36.1026304833172],[-86.9865778927295,36.102518999794],[-86.9865370289195,36.1024084722708],[-86.9864920490417,36.1022990031815],[-86.9864790977952,36.1022098433724],[-86.9864618455358,36.1021211648867],[-86.9864403150901,36.1020331054351],[-86.9864145414551,36.1019457990229],[-86.9864028766598,36.1018990412014],[-86.9863955694439,36.1018517042509],[-86.9863926597709,36.1018040555318],[-86.9863941665267,36.1017563643788],[-86.9864000797129,36.1017088994611],[-86.9864103648887,36.1016619287463],[-86.9864249653586,36.1016157167782],[-86.9864437988413,36.1015705247042],[-86.9864667596459,36.1015266066527],[-86.9864937164737,36.101484211553],[-86.9865245179035,36.1014435776834],[-86.9865589913038,36.1014049344827],[-86.986596940578,36.1013684998641],[-86.9866306769808,36.1013379446392],[-86.9866612170609,36.1013052488279],[-86.9866883536666,36.101270634045],[-86.9867119064108,36.1012343306992],[-86.9867317150874,36.1011965843562],[-86.9867476473432,36.1011576475638],[-86.9867595976123,36.1011177834661],[-86.9867674836948,36.1010772586206],[-86.9867712523428,36.1010363456571],[-86.9867708792152,36.100995319672],[-86.9867663677447,36.1009544564353],[-86.9867577457837,36.1009140306158],[-86.9867450733442,36.1008743130132],[-86.9867284348348,36.1008355715234],[-86.986348171117,36.1004705016861],[-86.9857809900295,36.0998367251558],[-86.985853431084,36.099808372869],[-86.9857210109831,36.0996219549057],[-86.98541600078,36.0993561131319],[-86.9852880434508,36.0991886540507],[-86.9852909433849,36.0990514315231],[-86.9851233657319,36.0988194247929],[-86.9852927863765,36.0986410150627],[-86.9853454853668,36.0985872823808],[-86.9857106318392,36.0982057261681],[-86.9857949213712,36.0981081282601],[-86.9858537683387,36.09802974495],[-86.9859098769003,36.0979500500709],[-86.9859632023045,36.0978691061822],[-86.986013702055,36.0977869785289],[-86.9860613380757,36.0977037305169],[-86.9861060701037,36.0976194282741],[-86.9862274015109,36.0973191721904],[-86.9864309315578,36.0967900437693],[-86.9865776932105,36.0964310495488],[-86.9866174516277,36.0963349122118],[-86.9866596349745,36.0962394571316],[-86.9867042248811,36.096144725916],[-86.986751202944,36.0960507574689],[-86.9903040924297,36.0969789943252],[-86.9904760210737,36.0978459204741],[-86.9907517372283,36.0992361467123],[-86.9918170786796,36.1009012990288],[-86.9952784288369,36.1007580959088],[-86.9950396418978,36.102614595224],[-86.9949702204475,36.1026425234172],[-86.9948395836261,36.1036721431057],[-86.9944182952674,36.1070117817732],[-86.9943121836718,36.1078513411887],[-86.9937908536978,36.111951507553],[-86.9937752122042,36.1120753515058],[-86.9937708718615,36.1121400996689],[-86.9936007580987,36.1146778300393],[-86.99363455583,36.1152152736905],[-86.9936435099516,36.1153576483866],[-86.9933557443643,36.1153785142626],[-86.9933435956892,36.1154751497128],[-86.9931093134849,36.1173387261806],[-86.9930171449816,36.1173328920236],[-86.9928720573295,36.1176439662384],[-86.9909263221294,36.1186577361068],[-86.9907340008483,36.1188746927276],[-86.9905256474886,36.1191093613871],[-86.9904748990153,36.1191669212866],[-86.9901095002764,36.1192869393708],[-86.990087547738,36.1192629233334],[-86.9900646813974,36.1192394763009],[-86.990815263947,36.1182234955729],[-86.9909776052938,36.1182089777356]]]},"properties":{"id":"64804","parcel":"11300007600","address":"7550 BUFFALO RD","owner":"HIVE TRUST","point":[-86.98773210574615,36.10767283866321]}},{"type":"Feature","id":"110284","geometry":{"type":"Polygon","coordinates":[[[-86.9854868434694,36.103788491582],[-86.9845312692753,36.1029059341389],[-86.9838759770082,36.1023005932303],[-86.9826578952973,36.1012185106872],[-86.9828140544086,36.1011527094713],[-86.9828789801429,36.1011165654102],[-86.9829417748334,36.1010780213942],[-86.9830100381528,36.1010315833371],[-86.9830765023856,36.1009834555463],[-86.9831411003483,36.1009336836375],[-86.9832037726534,36.1008823149656],[-86.9841212763622,36.1017711342132],[-86.9843465119758,36.1018088531261],[-86.9843512812945,36.1018136262418],[-86.9844095883267,36.1018720746421],[-86.9844096915532,36.1018719800641],[-86.9844765258016,36.1018099900872],[-86.9844865037791,36.1018105377386],[-86.9845459695632,36.1018138206028],[-86.9847143577233,36.1018257074755],[-86.9847198940315,36.1018261426616],[-86.9847664124768,36.1018298979692],[-86.984880527804,36.1018402638558],[-86.9849089867457,36.1018429732759],[-86.9849973521485,36.101852165857],[-86.9851079007642,36.1018650834028],[-86.9851353303994,36.1018683482676],[-86.9851691992626,36.1018697182627],[-86.9852030919952,36.1018730123309],[-86.9852031498313,36.1018730190689],[-86.9852366732919,36.1018785072072],[-86.9852590456867,36.1018836060485],[-86.9852632287897,36.1018846299994],[-86.9852674001131,36.1018856891973],[-86.985275700725,36.1018879106841],[-86.9852961893152,36.1018940686162],[-86.9853042715307,36.1018967695751],[-86.9853082871565,36.101898169834],[-86.9853122843175,36.1018996035919],[-86.9853321488847,36.1019068472763],[-86.9853436123712,36.1019120072946],[-86.9853818181548,36.1019307351004],[-86.9854176813116,36.1019523004049],[-86.9854455892472,36.1019729852414],[-86.985466565887,36.1019906361518],[-86.9854856684275,36.1020096804628],[-86.9854997678862,36.1020257048383],[-86.9855129032349,36.1020422589442],[-86.9855249570801,36.1020585641151],[-86.9855379234561,36.1020800271829],[-86.9855448636701,36.1020932646537],[-86.9855526631007,36.1021088853524],[-86.9855527450776,36.102108868459],[-86.9859984635203,36.1020244837525],[-86.9862803380077,36.1033512505747],[-86.9867460213738,36.1033136486577],[-86.9867528646163,36.1034266815775],[-86.9867555543587,36.1035398286949],[-86.9867540893627,36.1036529917785],[-86.9867484683452,36.1037660689915],[-86.9867387000405,36.1038789602174],[-86.9867247898514,36.1039915653664],[-86.9867067520538,36.1041037833745],[-86.9866983858784,36.1041635314448],[-86.9866940904393,36.1042235625643],[-86.9866938757112,36.1042836954906],[-86.9866977449607,36.1043437454304],[-86.9867056848523,36.1044035322324],[-86.9867176708998,36.1044628722309],[-86.9867336675786,36.1045215872579],[-86.9867536271251,36.1045794974427],[-86.9867774873827,36.1046364266371],[-86.986805177366,36.1046922032712],[-86.9868366105632,36.1047466577049],[-86.9868718454015,36.104812177832],[-86.9869044778573,36.1048785799865],[-86.986934472647,36.1049457959604],[-86.9869618011383,36.1050137565898],[-86.9856908820005,36.1049538215779],[-86.9854868434694,36.103788491582]]]},"properties":{"id":"110284","parcel":"12700019000","address":"7588 BUFFALO RD","owner":"7588 BUFFALO ROAD TRUST","point":[-86.98549046556454,36.1031097786667]}},{"type":"Feature","id":"113970","geometry":{"type":"Polygon","coordinates":[[[-86.9794495679257,36.1004141555997],[-86.9786675820463,36.0985991303093],[-86.9783870562978,36.0979475775747],[-86.9785100731271,36.0979589434638],[-86.9793854316475,36.098040571178],[-86.9808494687403,36.0981943993992],[-86.9811235836451,36.0982161359685],[-86.9813516189984,36.0982364542347],[-86.9821416815407,36.098302274899],[-86.9821406072458,36.0983058374805],[-86.9819788143224,36.0993382898319],[-86.982178185992,36.0998947022847],[-86.9826420467656,36.1011470558085],[-86.982622200239,36.1011554175611],[-86.9826221582629,36.1011554359292],[-86.9824804845297,36.101216550188],[-86.982337047089,36.1012748945262],[-86.9821919299382,36.1013304349058],[-86.9820452171085,36.1013831399922],[-86.9818969893232,36.1014329802809],[-86.9817021966403,36.1014942512119],[-86.9814418823748,36.1015750076389],[-86.9811809024827,36.1016543385497],[-86.9808286927123,36.1017712155402],[-86.980689992843,36.1018154978281],[-86.9805527934056,36.1018627591711],[-86.9804171928225,36.1019129663272],[-86.9802832850528,36.1019660842883],[-86.9801464882165,36.1020325990765],[-86.9794495679257,36.1004141555997]]]},"properties":{"id":"113970","parcel":"12700001100","address":"7615 BUFFALO RD","owner":"SMITH, GARY J. & ANN EVERS","point":[-86.98080601692735,36.10015443545657]}},{"type":"Feature","id":"117218","geometry":{"type":"Polygon","coordinates":[[[-86.9832037726534,36.1008823149656],[-86.9833255601964,36.1007979137518],[-86.9843465119758,36.1018088531261],[-86.9841212763622,36.1017711342132],[-86.9832037726534,36.1008823149656]]]},"properties":{"id":"117218","parcel":"12700026900","address":"0 BUFFALO RD","owner":"BENNETT, SYDNEY U.","point":[-86.98376107691725,36.101326738880445]}},{"type":"Feature","id":"117850","geometry":{"type":"Polygon","coordinates":[[[-86.9844865037791,36.1018105377386],[-86.9844765258016,36.1018099900872],[-86.9844096915532,36.1018719800641],[-86.9844095883267,36.1018720746421],[-86.9843512812945,36.1018136262418],[-86.9843465119758,36.1018088531261],[-86.9833255601964,36.1007979137518],[-86.9836180154262,36.1005921428659],[-86.9836180528594,36.1005921164229],[-86.983618085884,36.1005920927197],[-86.9836181233172,36.1005920662766],[-86.9836725928923,36.1005536735943],[-86.9837138397431,36.1005189741266],[-86.9837530239485,36.100482733121],[-86.9846817850753,36.1011777730814],[-86.9849719520013,36.1011588483113],[-86.9852333193985,36.1011418012081],[-86.9853457093588,36.1011344701772],[-86.9859978375427,36.1020236227204],[-86.9859984635203,36.1020244837525],[-86.9855527450776,36.102108868459],[-86.9855526631007,36.1021088853524],[-86.9855448636701,36.1020932646537],[-86.9855379234561,36.1020800271829],[-86.9855249570801,36.1020585641151],[-86.9855129032349,36.1020422589442],[-86.9854997678862,36.1020257048383],[-86.9854856684275,36.1020096804628],[-86.985466565887,36.1019906361518],[-86.9854455892472,36.1019729852414],[-86.9854176813116,36.1019523004049],[-86.9853818181548,36.1019307351004],[-86.9853436123712,36.1019120072946],[-86.9853321488847,36.1019068472763],[-86.9853122843175,36.1018996035919],[-86.9853082871565,36.101898169834],[-86.9853042715307,36.1018967695751],[-86.9852961893152,36.1018940686162],[-86.985275700725,36.1018879106841],[-86.9852674001131,36.1018856891973],[-86.9852632287897,36.1018846299994],[-86.9852590456867,36.1018836060485],[-86.9852366732919,36.1018785072072],[-86.9852031498313,36.1018730190689],[-86.9852030919952,36.1018730123309],[-86.9851691992626,36.1018697182627],[-86.9851353303994,36.1018683482676],[-86.9851079007642,36.1018650834028],[-86.9849973521485,36.101852165857],[-86.9849089867457,36.1018429732759],[-86.984880527804,36.1018402638558],[-86.9847664124768,36.1018298979692],[-86.9847198940315,36.1018261426616],[-86.9847143577233,36.1018257074755],[-86.9845459695632,36.1018138206028],[-86.9844865037791,36.1018105377386]]]},"properties":{"id":"117850","parcel":"12700024900","address":"7578 BUFFALO RD","owner":"ROGERS, SYDNEY U.","point":[-86.98481838556964,36.10149335216235]}},{"type":"Feature","id":"117925","geometry":{"type":"Polygon","coordinates":[[[-86.9859984635203,36.1020244837525],[-86.9859978375427,36.1020236227204],[-86.9853457093588,36.1011344701772],[-86.9853426086209,36.1009744208197],[-86.9855394180184,36.1008389071322],[-86.986348171117,36.1004705016861],[-86.9867284348348,36.1008355715234],[-86.9867450733442,36.1008743130132],[-86.9867577457837,36.1009140306158],[-86.9867663677447,36.1009544564353],[-86.9867708792152,36.100995319672],[-86.9867712523428,36.1010363456571],[-86.9867674836948,36.1010772586206],[-86.9867595976123,36.1011177834661],[-86.9867476473432,36.1011576475638],[-86.9867317150874,36.1011965843562],[-86.9867119064108,36.1012343306992],[-86.9866883536666,36.101270634045],[-86.9866612170609,36.1013052488279],[-86.9866306769808,36.1013379446392],[-86.986596940578,36.1013684998641],[-86.9865589913038,36.1014049344827],[-86.9865245179035,36.1014435776834],[-86.9864937164737,36.101484211553],[-86.9864667596459,36.1015266066527],[-86.9864437988413,36.1015705247042],[-86.9864249653586,36.1016157167782],[-86.9864103648887,36.1016619287463],[-86.9864000797129,36.1017088994611],[-86.9863941665267,36.1017563643788],[-86.9863926597709,36.1018040555318],[-86.9863955694439,36.1018517042509],[-86.9864028766598,36.1018990412014],[-86.9864145414551,36.1019457990229],[-86.9864403150901,36.1020331054351],[-86.9864618455358,36.1021211648867],[-86.9864790977952,36.1022098433724],[-86.9864920490417,36.1022990031815],[-86.9865370289195,36.1024084722708],[-86.9865778927295,36.102518999794],[-86.9866146025325,36.1026304833172],[-86.9866471259301,36.1027428194594],[-86.9866754327443,36.102855904821],[-86.9866994950176,36.102969635984],[-86.9867192925321,36.1030839067627],[-86.9867348062024,36.1031986127642],[-86.9867460213738,36.1033136486577],[-86.9862803380077,36.1033512505747],[-86.9859984635203,36.1020244837525]]]},"properties":{"id":"117925","parcel":"12700027100","address":"7558 BUFFALO RD","owner":"HIVE TRUST","point":[-86.98616613997493,36.1019223923527]}}]}