{"type":"FeatureCollection","features":[{"type":"Feature","id":"225009","geometry":{"type":"Polygon","coordinates":[[[-86.9697568773492,36.0282256360653],[-86.9697784738697,36.0280637734709],[-86.9699058776903,36.0280749904551],[-86.9698842803166,36.0282368530809],[-86.9697568773492,36.0282256360653]]]},"properties":{"id":"225009","parcel":"169070A00500CO","address":"116 MODERN VLY","owner":"HEALTH INVESTMENTS LS, LLC","point":[-86.96983137733245,36.028150313283795]}},{"type":"Feature","id":"225015","geometry":{"type":"Polygon","coordinates":[[[-86.9695665389191,36.0278569436891],[-86.9695881357269,36.0276950811152],[-86.9697155389298,36.0277062983016],[-86.9696939412687,36.0278681609068],[-86.9695665389191,36.0278569436891]]]},"properties":{"id":"225015","parcel":"169070A01600CO","address":"113 MODERN VLY","owner":"HEALTH INVESTMENTS LS, LLC","point":[-86.96964103873714,36.02778162101894]}},{"type":"Feature","id":"225018","geometry":{"type":"Polygon","coordinates":[[[-86.9689356182178,36.027801854827],[-86.9689572162954,36.0276399923643],[-86.9690846193209,36.027651210218],[-86.9690630203903,36.027813072712],[-86.9689356182178,36.027801854827]]]},"properties":{"id":"225018","parcel":"169070A02000CO","address":"105 MODERN VLY","owner":"HEALTH INVESTMENTS LS, LLC","point":[-86.96901011858209,36.02772653254609]}},{"type":"Feature","id":"225166","geometry":{"type":"Polygon","coordinates":[[[-86.9657320313684,36.0296362910725],[-86.9679055373753,36.0282784265209],[-86.9683152369478,36.0280191969347],[-86.9680968288423,36.0295369324831],[-86.9680317338257,36.0295306812353],[-86.968022571619,36.0297040731927],[-86.96807140964,36.0297087624029],[-86.9680623149117,36.0297742493048],[-86.9680510605647,36.0297670003252],[-86.9680384581709,36.0297614025686],[-86.9680248703392,36.0297576189634],[-86.9680106911842,36.0297557572042],[-86.9679963286078,36.0297558725991],[-86.967982196455,36.0297579618233],[-86.9679687045296,36.0297619629986],[-86.967956240918,36.0297677621459],[-86.9679451653,36.0297751905338],[-86.9669538584503,36.0304016110444],[-86.9669520400777,36.0304031867149],[-86.9669505493916,36.0304049733671],[-86.9669494213703,36.0304069274571],[-86.9669486842913,36.0304090018896],[-86.9669483563804,36.0304111442422],[-86.9669484458782,36.0304133021723],[-86.9669489499077,36.0304154216245],[-86.9669498578476,36.0304174504074],[-86.9669511446856,36.0304193391496],[-86.9672849324003,36.0307670639128],[-86.9672914497749,36.0307738543691],[-86.9671546554995,36.0308648613607],[-86.9672672820966,36.0309825071255],[-86.9672757232666,36.0309926449422],[-86.9672830195836,36.0310033534686],[-86.9672855341492,36.0310076505774],[-86.9672932168037,36.0310241190065],[-86.967293986924,36.0310262191957],[-86.9672969228487,36.0310356891707],[-86.9672982693092,36.0310413818789],[-86.9673001372109,36.0310535418389],[-86.9673006624094,36.0310657891905],[-86.967300607794,36.03106823129],[-86.9672998224484,36.0310781935151],[-86.9672520530322,36.0310241448341],[-86.9672379616307,36.0309988706339],[-86.9671204077876,36.0308657698951],[-86.9670889234873,36.0308326929047],[-86.966773311503,36.0305039016934],[-86.9667713739296,36.0305024282691],[-86.9667691754915,36.0305012201217],[-86.9667667720152,36.0305003056455],[-86.9667642214917,36.0304997087106],[-86.9667615884372,36.030499442319],[-86.9667589350945,36.0304995149844],[-86.9667563302207,36.0304999234512],[-86.9667538347188,36.0305006573162],[-86.9667515116339,36.0305016998499],[-86.9667379507894,36.0305102683992],[-86.9666154315108,36.0303823426978],[-86.9666288051426,36.0303738919335],[-86.9666306224115,36.0303723162768],[-86.9666321142137,36.0303705296197],[-86.9666332422423,36.0303685755327],[-86.9666339782196,36.030366501111],[-86.9666343072483,36.0303643587504],[-86.9666342177591,36.0303622008199],[-86.9666337137383,36.0303600813665],[-86.9666328058071,36.0303580525811],[-86.9666315189777,36.0303561638355],[-86.9665260638825,36.0302463076902],[-86.9665035672932,36.0302202896466],[-86.9664842223151,36.0301926509903],[-86.9664682006712,36.030163643615],[-86.9664556508823,36.0301335277116],[-86.9664466850519,36.0301025799869],[-86.9663777295763,36.0297967807479],[-86.966363974364,36.0297810477671],[-86.9663537428001,36.0297636308075],[-86.9663473396617,36.029745047484],[-86.9662577334466,36.0298020775897],[-86.9662264682301,36.029816812457],[-86.9661933118789,36.029828507025],[-86.9661587118631,36.0298370026779],[-86.9661231328439,36.0298421857281],[-86.9660870533341,36.0298439865418],[-86.9660509612812,36.0298423813773],[-86.9660153407316,36.0298373906888],[-86.965980670753,36.02982908184],[-86.9659474198656,36.0298175673448],[-86.9659160338033,36.0298030022623],[-86.9658869366021,36.0297855823851],[-86.9658605194711,36.0297655416244],[-86.9657575378905,36.029662123798],[-86.9657522252713,36.0296565701201],[-86.9657320313684,36.0296362910725]]]},"properties":{"id":"225166","parcel":"16900036500","address":"6001 PASQUO RD","owner":"ROCHFORD REALTY AND CONSTRUCTION COMPANY, INC.","point":[-86.96692040108842,36.029586619254594]}},{"type":"Feature","id":"226163","geometry":{"type":"Polygon","coordinates":[[[-86.9694414620479,36.0282019209597],[-86.9694630592042,36.0280400584209],[-86.9695904629422,36.0280512757387],[-86.9695688649328,36.0282131383088],[-86.9694414620479,36.0282019209597]]]},"properties":{"id":"226163","parcel":"169070A00300CO","address":"112 MODERN VLY","owner":"HEALTH INVESTMENTS LS, LLC","point":[-86.96951596230777,36.028126598372786]}},{"type":"Feature","id":"226164","geometry":{"type":"Polygon","coordinates":[[[-86.9696005293809,36.0282148618699],[-86.9696221262168,36.028052999303],[-86.969749529998,36.0280642164526],[-86.9697279323089,36.0282260790507],[-86.9696005293809,36.0282148618699]]]},"properties":{"id":"226164","parcel":"169070A00400CO","address":"114 MODERN VLY","owner":"HEALTH INVESTMENTS LS, LLC","point":[-86.96967502950216,36.02813953918482]}},{"type":"Feature","id":"226166","geometry":{"type":"Polygon","coordinates":[[[-86.9694073922781,36.0278374399985],[-86.9694289894048,36.0276755774525],[-86.9695563925539,36.0276867948073],[-86.9695347945742,36.0278486573846],[-86.9694073922781,36.0278374399985]]]},"properties":{"id":"226166","parcel":"169070A01700CO","address":"111 MODERN VLY","owner":"HEALTH INVESTMENTS LS, LLC","point":[-86.96948189222876,36.027762117426484]}},{"type":"Feature","id":"227506","geometry":{"type":"Polygon","coordinates":[[[-86.9691237733764,36.028171560794],[-86.9691453711713,36.0280096983111],[-86.9692727748158,36.0280209159649],[-86.9692511761678,36.0281827784792],[-86.9691237733764,36.028171560794]]]},"properties":{"id":"227506","parcel":"169070A00100CO","address":"108 MODERN VLY","owner":"HEALTH INVESTMENTS LS, LLC","point":[-86.96919827390884,36.02809623840303]}},{"type":"Feature","id":"227536","geometry":{"type":"Polygon","coordinates":[[[-86.9692511117976,36.0278321339937],[-86.969272709241,36.0276702714755],[-86.9694001123595,36.0276814889955],[-86.969378514063,36.027843351545],[-86.9692511117976,36.0278321339937]]]},"properties":{"id":"227536","parcel":"169070A01800CO","address":"109 MODERN VLY","owner":"HEALTH INVESTMENTS LS, LLC","point":[-86.96932561189128,36.02775681151818]}},{"type":"Feature","id":"227542","geometry":{"type":"Polygon","coordinates":[[[-86.9690986976109,36.0278125757337],[-86.9691202953592,36.0276507132421],[-86.969247698425,36.0276619309233],[-86.9692260998234,36.0278237934462],[-86.9690986976109,36.0278125757337]]]},"properties":{"id":"227542","parcel":"169070A01900CO","address":"107 MODERN VLY","owner":"HEALTH INVESTMENTS LS, LLC","point":[-86.96917319783064,36.027737253352086]}},{"type":"Feature","id":"227547","geometry":{"type":"Polygon","coordinates":[[[-86.9686021886286,36.0275143331227],[-86.9709288643579,36.0277213783008],[-86.9708340769963,36.0284176404026],[-86.9685050118027,36.0282103826376],[-86.9685511505424,36.0278737490429],[-86.9685923711188,36.027573261634],[-86.9686021886286,36.0275143331227]],[[-86.9689356182178,36.027801854827],[-86.9690630203903,36.027813072712],[-86.9690846193209,36.027651210218],[-86.9689572162954,36.0276399923643],[-86.9689356182178,36.027801854827]],[[-86.9690986976109,36.0278125757337],[-86.9692260998234,36.0278237934462],[-86.969247698425,36.0276619309233],[-86.9691202953592,36.0276507132421],[-86.9690986976109,36.0278125757337]],[[-86.9692511117976,36.0278321339937],[-86.969378514063,36.027843351545],[-86.9694001123595,36.0276814889955],[-86.969272709241,36.0276702714755],[-86.9692511117976,36.0278321339937]],[[-86.9694073922781,36.0278374399985],[-86.9695347945742,36.0278486573846],[-86.9695563925539,36.0276867948073],[-86.9694289894048,36.0276755774525],[-86.9694073922781,36.0278374399985]],[[-86.9695665389191,36.0278569436891],[-86.9696939412687,36.0278681609068],[-86.9697155389298,36.0277062983016],[-86.9695881357269,36.0276950811152],[-86.9695665389191,36.0278569436891]],[[-86.9699615500114,36.027892535138],[-86.9700889524739,36.0279037519379],[-86.9701105493404,36.0277418892632],[-86.9699831460247,36.0277306724947],[-86.9699615500114,36.027892535138]],[[-86.9701246297288,36.0279032546558],[-86.9702520322315,36.0279144712832],[-86.9702736287688,36.0277526085797],[-86.970146225413,36.0277413919836],[-86.9701246297288,36.0279032546558]],[[-86.9702770443418,36.0279228116175],[-86.9704044468973,36.0279340280837],[-86.9704260431296,36.0277721653536],[-86.970298639721,36.0277609489188],[-86.9702770443418,36.0279228116175]],[[-86.9704333250691,36.0279281162915],[-86.9705607276551,36.0279393325925],[-86.9705823235707,36.0277774698345],[-86.9704549201315,36.0277662535649],[-86.9704333250691,36.0279281162915]],[[-86.9705924721432,36.0279476186265],[-86.9707198747829,36.0279588347592],[-86.9707414703797,36.0277969719734],[-86.9706140668868,36.0277857558721],[-86.9705924721432,36.0279476186265]],[[-86.9691237733764,36.028171560794],[-86.9692511761678,36.0281827784792],[-86.9692727748158,36.0280209159649],[-86.9691453711713,36.0280096983111],[-86.9691237733764,36.028171560794]],[[-86.9692850885978,36.0281889581671],[-86.9694124914399,36.0282001756816],[-86.9694340897642,36.028038313139],[-86.969306686069,36.0280270956559],[-86.9692850885978,36.0281889581671]],[[-86.9694414620479,36.0282019209597],[-86.9695688649328,36.0282131383088],[-86.9695904629422,36.0280512757387],[-86.9694630592042,36.0280400584209],[-86.9694414620479,36.0282019209597]],[[-86.9696005293809,36.0282148618699],[-86.9697279323089,36.0282260790507],[-86.969749529998,36.0280642164526],[-86.9696221262168,36.028052999303],[-86.9696005293809,36.0282148618699]],[[-86.9697568773492,36.0282256360653],[-86.9698842803166,36.0282368530809],[-86.9699058776903,36.0280749904551],[-86.9697784738697,36.0280637734709],[-86.9697568773492,36.0282256360653]],[[-86.9699141858766,36.0282426529471],[-86.9700415888936,36.0282538697962],[-86.9700631859515,36.0280920071428],[-86.9699357820815,36.0280807903251],[-86.9699141858766,36.0282426529471]],[[-86.9700772663059,36.0282533725281],[-86.9702046693629,36.0282645892048],[-86.9702262660918,36.0281027265226],[-86.9700988621816,36.0280915098773],[-86.9700772663059,36.0282533725281]],[[-86.9702296815784,36.0282729295482],[-86.9703570846884,36.0282841460637],[-86.9703786811122,36.0281222833549],[-86.9702512771491,36.0281110668708],[-86.9702296815784,36.0282729295482]],[[-86.9703859629908,36.0282782342833],[-86.9705133661314,36.0282894506334],[-86.9705349622385,36.0281275878968],[-86.9704075582448,36.028116371578],[-86.9703859629908,36.0282782342833]],[[-86.9705451107542,36.0282977366793],[-86.9706725139484,36.0283089528611],[-86.9706941097368,36.0281470900967],[-86.9705667056894,36.0281358739462],[-86.9705451107542,36.0282977366793]]]},"properties":{"id":"227547","parcel":"169070A90000CO","address":"100 MODERN VLY","owner":"O.I.C. HOMES AT MODERN VALLEY","point":[-86.96971454744342,36.027984214244114]}},{"type":"Feature","id":"228664","geometry":{"type":"Polygon","coordinates":[[[-86.9692850885978,36.0281889581671],[-86.969306686069,36.0280270956559],[-86.9694340897642,36.028038313139],[-86.9694124914399,36.0282001756816],[-86.9692850885978,36.0281889581671]]]},"properties":{"id":"228664","parcel":"169070A00200CO","address":"110 MODERN VLY","owner":"HEALTH INVESTMENTS LS, LLC","point":[-86.96935958899374,36.02811363567663]}},{"type":"Feature","id":"228665","geometry":{"type":"Polygon","coordinates":[[[-86.9699141858766,36.0282426529471],[-86.9699357820815,36.0280807903251],[-86.9700631859515,36.0280920071428],[-86.9700415888936,36.0282538697962],[-86.9699141858766,36.0282426529471]]]},"properties":{"id":"228665","parcel":"169070A00600CO","address":"118 MODERN VLY","owner":"HEALTH INVESTMENTS LS, LLC","point":[-86.96998868572682,36.028167330068534]}},{"type":"Feature","id":"273140","geometry":{"type":"Polygon","coordinates":[[[-86.9683432264365,36.029550796588],[-86.9683362822361,36.0295420321324],[-86.9683310520956,36.0295325148221],[-86.9683276540928,36.0295224645303],[-86.9683261687136,36.0295121122483],[-86.9683266277135,36.0295016965693],[-86.9685050118027,36.0282103826376],[-86.9708340769963,36.0284176404026],[-86.9707205926515,36.0292819535512],[-86.9706440975587,36.0293051513998],[-86.9705692097811,36.0293315827884],[-86.9704961348093,36.0293611748608],[-86.9704250769154,36.0293938457577],[-86.9703562314084,36.0294295064821],[-86.9702897879192,36.029468057267],[-86.9702259315428,36.0295093902706],[-86.9701648373348,36.0295533932257],[-86.9701213381239,36.0295840231698],[-86.9700751346574,36.0296119177485],[-86.970026486911,36.0296369216424],[-86.9699756683408,36.029658892943],[-86.9699229659598,36.0296777094622],[-86.9698686758344,36.0296932633605],[-86.9698131020621,36.0297054683658],[-86.9697565589467,36.0297142561504],[-86.9696993654396,36.029719575475],[-86.9696418396687,36.0297213985418],[-86.9695843088472,36.029719714605],[-86.9695270948718,36.0297145318903],[-86.9689314392972,36.0296421161606],[-86.968398133132,36.0295772775526],[-86.9683853835081,36.0295748960059],[-86.9683732372584,36.0295709449254],[-86.9683619884787,36.0295655192898],[-86.9683519039548,36.0295587494482],[-86.9683432264365,36.029550796588]]]},"properties":{"id":"273140","parcel":"16900010500","address":"6000 PASQUO RD","owner":"WESTMINSTER CHAPEL, INC.","point":[-86.96959705032461,36.02884950358225]}}]}