{"type":"FeatureCollection","features":[{"type":"Feature","id":"62165","geometry":{"type":"Polygon","coordinates":[[[-86.9383699290237,36.2415043182947],[-86.9382681848447,36.2409187460324],[-86.9368545786351,36.2410612495094],[-86.9366476497827,36.2394727576366],[-86.9379850788965,36.2391769967293],[-86.9384135824095,36.2408084404289],[-86.9385240932279,36.2414444566653],[-86.938458774088,36.2414705058702],[-86.9383699290237,36.2415043182947]]]},"properties":{"id":"62165","parcel":"04600011000","address":"4711 BULL RUN RD","owner":"BARNES, SHANNON L","point":[-86.93748642987572,36.24014057924534]}},{"type":"Feature","id":"67391","geometry":{"type":"Polygon","coordinates":[[[-86.9315247067393,36.2391466719391],[-86.9320545110408,36.2389124868245],[-86.9335104696076,36.2405834690827],[-86.93483249912,36.2427061406113],[-86.9347613966103,36.2427268024365],[-86.9346813854368,36.2427465129142],[-86.9346004645019,36.2427636131111],[-86.9345187625541,36.2427780758931],[-86.9344364117115,36.2427898768041],[-86.9343535430545,36.242798997705],[-86.9342702910331,36.2428054231349],[-86.9341867879573,36.2428091448599],[-86.9332044775495,36.240683706644],[-86.9315247067393,36.2391466719391]]]},"properties":{"id":"67391","parcel":"04600011100","address":"4785 BULL RUN RD","owner":"CHAMBLESS, MICHAEL T. & DANNA U.","point":[-86.93393724479732,36.24169488164368]}},{"type":"Feature","id":"128809","geometry":{"type":"Polygon","coordinates":[[[-86.9378834058223,36.2418298821959],[-86.93795431248,36.2418058727464],[-86.9381774925056,36.2417261211102],[-86.9383803573791,36.2416519975176],[-86.9385814029351,36.2415746891326],[-86.9390888138137,36.2425910176825],[-86.9383971730131,36.2428589611981],[-86.9378834058223,36.2418298821959]]]},"properties":{"id":"128809","parcel":"04600002000","address":"4726 BULL RUN RD","owner":"BINKLEY, KIMBERLY M. & JEFFREY S. ET AL","point":[-86.93848610678583,36.24221045146658]}},{"type":"Feature","id":"128813","geometry":{"type":"Polygon","coordinates":[[[-86.936425019087,36.24232249183],[-86.9372267704312,36.242052066021],[-86.9377527105982,36.2431055459115],[-86.9362470927478,36.2436628670263],[-86.9362459849899,36.2436632775737],[-86.936425019087,36.24232249183]]]},"properties":{"id":"128813","parcel":"04600002201","address":"4744 BULL RUN RD","owner":"GARCIA, GABRIEL LEON & CASIQUE, MA. DOLORES GARCIA","point":[-86.93696507785943,36.24271395556679]}},{"type":"Feature","id":"128817","geometry":{"type":"Polygon","coordinates":[[[-86.9347047732016,36.2432473886011],[-86.9346974661093,36.2432332736908],[-86.9345393783332,36.2429279017517],[-86.934616649859,36.2429113444506],[-86.9346931959049,36.2428927080935],[-86.9347689321498,36.2428720131618],[-86.9348437731814,36.2428492819481],[-86.9350649843925,36.2432648453438],[-86.9347655930925,36.2433779435011],[-86.934710803701,36.2432603336358],[-86.9347047732016,36.2432473886011]]]},"properties":{"id":"128817","parcel":"04600002400","address":"4768 BULL RUN RD","owner":"RICHARDSON, TIM & RITA M.","point":[-86.93479271196884,36.24308068287139]}},{"type":"Feature","id":"128962","geometry":{"type":"Polygon","coordinates":[[[-86.9391305541023,36.2413472760518],[-86.9391881857434,36.2413216620704],[-86.9399758862904,36.2425199537163],[-86.9390888138137,36.2425910176825],[-86.9385814029351,36.2415746891326],[-86.9387078067414,36.2415242772764],[-86.9391305541023,36.2413472760518]]]},"properties":{"id":"128962","parcel":"04600002200","address":"4716 BULL RUN RD","owner":"KIDD, PAUL T. & NANCY A.","point":[-86.93924128865929,36.242047304507565]}},{"type":"Feature","id":"129353","geometry":{"type":"Polygon","coordinates":[[[-86.935026289975,36.2438407033037],[-86.9350649843925,36.2432648453438],[-86.9348437731814,36.2428492819481],[-86.9349785822609,36.2428081848363],[-86.9351123075984,36.2427648292866],[-86.9359563435077,36.2424823944407],[-86.936425019087,36.24232249183],[-86.9362459849899,36.2436632775737],[-86.9362470927478,36.2436628670263],[-86.9362181961837,36.2438792739613],[-86.935026289975,36.2438407033037]]]},"properties":{"id":"129353","parcel":"04600002300","address":"4764 BULL RUN RD","owner":"RICHARDSON, ZACH","point":[-86.93564060646585,36.243057434827854]}},{"type":"Feature","id":"130123","geometry":{"type":"Polygon","coordinates":[[[-86.9355202431209,36.2457598283662],[-86.9354000641699,36.2457159040056],[-86.9342500313461,36.2452782481286],[-86.9340456830211,36.2453165311073],[-86.9339396946633,36.2453253761995],[-86.9341476585847,36.2445403784148],[-86.9344223138757,36.2440398017792],[-86.9343885473841,36.2440273551455],[-86.9344150145167,36.2439877382678],[-86.9361650518356,36.2446656500852],[-86.9355202431209,36.2457598283662]]]},"properties":{"id":"130123","parcel":"04600010800","address":"4770 BULL RUN RD","owner":"SHORT, CALEB A. & BARBARA D.","point":[-86.93500889779722,36.24497184520077]}},{"type":"Feature","id":"130456","geometry":{"type":"Polygon","coordinates":[[[-86.9372267704312,36.242052066021],[-86.9378834058223,36.2418298821959],[-86.9383971730131,36.2428589611981],[-86.9379313182594,36.2430394307674],[-86.9377527105982,36.2431055459115],[-86.9372267704312,36.242052066021]]]},"properties":{"id":"130456","parcel":"04600002100","address":"4732 BULL RUN RD","owner":"SMITH, MOLLY","point":[-86.9378119686025,36.24245551505143]}},{"type":"Feature","id":"131092","geometry":{"type":"Polygon","coordinates":[[[-86.9355202431209,36.2457598283662],[-86.9361650518356,36.2446656500852],[-86.9344150145167,36.2439877382678],[-86.9344482809921,36.2439379449205],[-86.9344713862573,36.243950377565],[-86.9345331705148,36.2438377718812],[-86.9346322807557,36.2436452689491],[-86.9346727987119,36.2434791043764],[-86.9347047732016,36.2432473886011],[-86.934710803701,36.2432603336358],[-86.9347655930925,36.2433779435011],[-86.9350649843925,36.2432648453438],[-86.935026289975,36.2438407033037],[-86.9362181961837,36.2438792739613],[-86.9361348786653,36.2445032151515],[-86.9368745649736,36.2445604381919],[-86.9368387495162,36.2462417202075],[-86.9355202431209,36.2457598283662]]]},"properties":{"id":"131092","parcel":"04600009900","address":"0 BULL RUN RD","owner":"RICHARDSON, TIM & RITA M.","point":[-86.93635165385726,36.24521301157248]}},{"type":"Feature","id":"131101","geometry":{"type":"Polygon","coordinates":[[[-86.9306986077322,36.2436664785469],[-86.9308217430943,36.2426420526584],[-86.931217485307,36.2426010426971],[-86.931364429811,36.2425859025541],[-86.9315116342516,36.2425725312072],[-86.9316590686333,36.2425609315907],[-86.9316802837627,36.242560290317],[-86.9317674941399,36.2425581099261],[-86.9318547449798,36.2425584256556],[-86.9319419283576,36.2425612365354],[-86.9320289340925,36.2425665389095],[-86.9321156553085,36.2425743263928],[-86.9321372038711,36.2425773460961],[-86.9320216828844,36.2438155886237],[-86.9306986077322,36.2436664785469]]]},"properties":{"id":"131101","parcel":"04600010700","address":"4810 BULL RUN RD","owner":"HAY, ROBERT","point":[-86.93142174303327,36.24315464669289]}}]}