{"type":"FeatureCollection","features":[{"type":"Feature","id":"118096","geometry":{"type":"Polygon","coordinates":[[[-86.890063490721,36.0896028303004],[-86.8900767572581,36.0895785569243],[-86.8902345298239,36.0896433246122],[-86.8902399696378,36.0896454818067],[-86.8902133873645,36.0896896324375],[-86.8902351701671,36.0897004602043],[-86.8902165634565,36.0897313659994],[-86.8901050107544,36.0896838395636],[-86.8901263043568,36.0896507165923],[-86.8900664719507,36.0896269828362],[-86.8900770773827,36.0896071256226],[-86.890063490721,36.0896028303004]]]},"properties":{"id":"118096","parcel":"129110A80400CO","address":"804 MARQUETTE DR","owner":"MCCARTHY, MARY CATHERINE & KING, PETER G.","point":[-86.89017122137558,36.089667329013736]}},{"type":"Feature","id":"118097","geometry":{"type":"Polygon","coordinates":[[[-86.8902345298239,36.0896433246122],[-86.8900767572581,36.0895785569243],[-86.8900713174531,36.0895763997225],[-86.8900978751467,36.0895300519454],[-86.890176786531,36.0895646325234],[-86.8902033441591,36.089518284723],[-86.890325771868,36.089570125484],[-86.8902938730059,36.0896231066261],[-86.8902585035435,36.0896079835694],[-86.8902345298239,36.0896433246122]]]},"properties":{"id":"118097","parcel":"129110A80600CO","address":"806 MARQUETTE DR","owner":"H. GAIL GIBSOM-MILLIRON REVOCABLE TRUST","point":[-86.89021211640092,36.08959331104431]}},{"type":"Feature","id":"118296","geometry":{"type":"Polygon","coordinates":[[[-86.889971516081,36.0898659763027],[-86.8899901240389,36.0898350714395],[-86.8900037107363,36.0898393667698],[-86.8900116852433,36.0898261210564],[-86.8900497629124,36.089841224194],[-86.890068394344,36.0898125165029],[-86.8901608927041,36.0898513924103],[-86.8901129953629,36.0899264687917],[-86.889971516081,36.0898659763027]]]},"properties":{"id":"118296","parcel":"129110A80000CO","address":"800 MARQUETTE DR","owner":"DAVIS, SUSAN H","point":[-86.89008724747399,36.089896263841666]}},{"type":"Feature","id":"118297","geometry":{"type":"Polygon","coordinates":[[[-86.8900487040978,36.0897467302999],[-86.8900700436497,36.0897180017159],[-86.8902061075448,36.0897785340719],[-86.8901608927041,36.0898513924103],[-86.890068394344,36.0898125165029],[-86.8900870022416,36.0897816107232],[-86.8900516081283,36.0897642904302],[-86.8900595825995,36.089751042911],[-86.8900487040978,36.0897467302999]]]},"properties":{"id":"118297","parcel":"129110A80200CO","address":"802 MARQUETTE DR","owner":"COLE, BRIAN & TINA","point":[-86.89013612010233,36.08979711718653]}},{"type":"Feature","id":"120254","geometry":{"type":"Polygon","coordinates":[[[-86.8900949812965,36.0866529735727],[-86.8900785651146,36.0866377132447],[-86.8900651267055,36.0866466036901],[-86.8900212662525,36.0865985774428],[-86.889986292119,36.0866186145479],[-86.8899369921338,36.0865684310622],[-86.8899260401886,36.0865575232981],[-86.88999593916,36.0865130529538],[-86.8900233576397,36.0865436190021],[-86.8900448698102,36.0865302733407],[-86.8901352965487,36.0866263058269],[-86.8900949812965,36.0866529735727]]]},"properties":{"id":"120254","parcel":"129110A90300CO","address":"903 GLENMARY CT","owner":"LEVY, NANCY","point":[-86.89002343444712,36.086583544925666]}},{"type":"Feature","id":"120897","geometry":{"type":"Polygon","coordinates":[[[-86.8899925364752,36.0874423528808],[-86.8899785562571,36.0874028973008],[-86.8899434340429,36.0874097495226],[-86.8899265488286,36.0873527338013],[-86.8900535016313,36.0873254238929],[-86.8900675803706,36.0873736699771],[-86.8901567532801,36.0873576274461],[-86.8901708320879,36.0874058735179],[-86.8901627335998,36.0874081306672],[-86.8899925364752,36.0874423528808]]]},"properties":{"id":"120897","parcel":"129110A27200CO","address":"272 CANA CIR","owner":"STRONG, ROBERT A. & JOHNSON, CAROL ROLFE","point":[-86.89005139542687,36.08738830963911]}},{"type":"Feature","id":"122535","geometry":{"type":"Polygon","coordinates":[[[-86.8908929915608,36.0865074815967],[-86.8930233361309,36.086669737601],[-86.8927889435513,36.087045086824],[-86.892745263876,36.0872541936826],[-86.8923994725418,36.0878061844424],[-86.8923212606504,36.0879310727232],[-86.8922396164955,36.0880545046162],[-86.8921545826905,36.0881764194122],[-86.8920662018495,36.0882967564021],[-86.8919745176879,36.088415453967],[-86.8918795772833,36.088532453167],[-86.8917814288145,36.0886476941528],[-86.8916801193913,36.0887611206877],[-86.8915757016361,36.0888726728894],[-86.8914682282429,36.0889822971839],[-86.8913577529967,36.0890899381863],[-86.8912443307942,36.0891955405039],[-86.8911280187941,36.0892990523322],[-86.8910202452742,36.0893909364245],[-86.8909101994179,36.0894810274055],[-86.8907979252246,36.0895692879907],[-86.8906834689556,36.0896556844844],[-86.8905668779327,36.0897401786766],[-86.8904482006391,36.0898227368553],[-86.8908929915608,36.0865074815967]]]},"properties":{"id":"122535","parcel":"12900000400","address":"6501 HARDING PIKE","owner":"VALLEY RIDGE PARTNERS, LLC","point":[-86.89143727303897,36.08811477611397]}},{"type":"Feature","id":"124848","geometry":{"type":"Polygon","coordinates":[[[-86.8908929915608,36.0865074815967],[-86.8857428076296,36.0861146726991],[-86.8857373472327,36.0859894426206],[-86.8863818981787,36.0860022874265],[-86.8865044509388,36.0858233705634],[-86.8862385487335,36.0855308305417],[-86.8860867788202,36.0850947174613],[-86.8860623261829,36.0850244509728],[-86.886117886186,36.0850089179982],[-86.8861719224397,36.0849901740641],[-86.8862241540112,36.0849683185774],[-86.8860444732546,36.0846455421314],[-86.8862675418255,36.0843184013148],[-86.886268793908,36.0843183641708],[-86.8862875633315,36.0840562978101],[-86.8863038235895,36.0838115818015],[-86.8863200324491,36.0835421652261],[-86.8863325185906,36.0832752734899],[-86.8863725644553,36.0832641103542],[-86.8865874150501,36.0832124996599],[-86.886674586179,36.0831915596097],[-86.8868884784899,36.0831401780428],[-86.8871681455951,36.0832219257122],[-86.8874319396531,36.0833010901885],[-86.887774243521,36.083401155713],[-86.88813291688,36.083507055454],[-86.888339097269,36.0831367079022],[-86.8883589762425,36.08314507688],[-86.8886075436621,36.0832497342015],[-86.888780571924,36.0833179640894],[-86.8888850079755,36.0833607709545],[-86.8889911400543,36.0834007360538],[-86.8890676336646,36.0834274245082],[-86.889144883609,36.0834526364205],[-86.8892672872752,36.0834919197696],[-86.8893908417623,36.0835287564983],[-86.8895154701999,36.0835631246378],[-86.8896411001681,36.083595003088],[-86.8897676537254,36.0836243734936],[-86.8898950551507,36.0836512174836],[-86.8906293369982,36.0838084227899],[-86.8925860256644,36.0842274566475],[-86.8927292371614,36.0842617911555],[-86.892871404797,36.0842988704625],[-86.8930124517121,36.0843386717078],[-86.8931522988364,36.0843811729488],[-86.8932908659684,36.0844263504489],[-86.8933580843598,36.0844504253579],[-86.8934264242038,36.0844723224982],[-86.8934505404259,36.0844803230576],[-86.8935626356274,36.0845187996886],[-86.8936730598654,36.0845603394909],[-86.8937816859999,36.0846048920376],[-86.893888390231,36.0846524077787],[-86.8941932431828,36.0847951973997],[-86.8934671671281,36.0859585965931],[-86.8931060141226,36.0865372610621],[-86.8930233361309,36.086669737601],[-86.8908929915608,36.0865074815967]]]},"properties":{"id":"124848","parcel":"12900000700","address":"801 PERCY WARNER BLVD","owner":"NASHVILLE JEWISH COMMUNITY CENTER","point":[-86.89015544162709,36.08488177542981]}}]}