{"type":"FeatureCollection","features":[{"type":"Feature","id":"113044","geometry":{"type":"Polygon","coordinates":[[[-86.9781796530242,36.0870166033528],[-86.9791576589808,36.087005917719],[-86.9791560982482,36.0874009753992],[-86.9791402216488,36.0900669658167],[-86.9790747897445,36.0900707274139],[-86.9790098002463,36.090077949091],[-86.9789455303885,36.0900886006573],[-86.9788497334298,36.0901152016235],[-86.9787736523912,36.0901355640826],[-86.9786987471873,36.0901586217593],[-86.9786251649662,36.0901843311002],[-86.9783795860462,36.0899217708881],[-86.9788578644969,36.0895390551398],[-86.9789152671523,36.0890336556322],[-86.9788029525431,36.0887634211695],[-86.9781783446961,36.0878998319381],[-86.9781796530242,36.0870166033528]]]},"properties":{"id":"113044","parcel":"12700019300","address":"8237 HIGHWAY 70 S","owner":"ASBELL, MARY E. & MICHAEL D.","point":[-86.9788206011718,36.088331685742396]}},{"type":"Feature","id":"117999","geometry":{"type":"Polygon","coordinates":[[[-86.9781649891474,36.0853859969537],[-86.9779854441815,36.0851248233948],[-86.9791644514687,36.0854427177012],[-86.9791576589808,36.087005917719],[-86.9781796530242,36.0870166033528],[-86.9781783446961,36.0878998319381],[-86.9788029525431,36.0887634211695],[-86.9789152671523,36.0890336556322],[-86.9788578644969,36.0895390551398],[-86.9783795860462,36.0899217708881],[-86.9786251649662,36.0901843311002],[-86.9785526597674,36.0902130987889],[-86.9784818066691,36.0902444631998],[-86.9784127481245,36.0902783600884],[-86.9783647006614,36.0902246303255],[-86.9781882343991,36.0900230525921],[-86.9781298793603,36.0899563780219],[-86.9781037754446,36.0899264078469],[-86.9781007033385,36.0899229339096],[-86.9781007704593,36.0899228837934],[-86.9786534508313,36.0895132409346],[-86.9786696797619,36.0895005964186],[-86.9786837513278,36.0894863497696],[-86.9786954264177,36.0894707417745],[-86.9787045072921,36.0894540363185],[-86.9787116305921,36.0894278803645],[-86.9787303087321,36.0891032875464],[-86.9786470278371,36.088799578105],[-86.9785169455442,36.0887355237152],[-86.977821124689,36.0887403439818],[-86.9776806863704,36.0887148357942],[-86.9775704447205,36.0886401824162],[-86.9774666360782,36.0885382790605],[-86.977352582928,36.0883188800426],[-86.9773288550061,36.0881234733417],[-86.97730634592,36.0879445397839],[-86.9774484513166,36.0875280149702],[-86.9774873951969,36.0873647913556],[-86.9775485920157,36.0869195271481],[-86.977573515669,36.0862770344517],[-86.9775694584629,36.0859746024222],[-86.9775818824236,36.0859118664817],[-86.9776324533328,36.0858408510001],[-86.9779494607466,36.0856385629008],[-86.9778950469817,36.0855623582642],[-86.9781649891474,36.0853859969537]]]},"properties":{"id":"117999","parcel":"12700029200","address":"0 HIGHWAY 70 S","owner":"ST. CHARLES, THOMAS A.,JR. & JOYCE","point":[-86.97778183619465,36.08771391816532]}},{"type":"Feature","id":"170227","geometry":{"type":"Polygon","coordinates":[[[-86.9740440181492,36.0869012171682],[-86.9739463253137,36.0867201170425],[-86.9729548969576,36.087125909921],[-86.9729548370184,36.0871258211756],[-86.9729221244498,36.0870753516963],[-86.9729220666983,36.0870752602294],[-86.9728868980806,36.0870167339816],[-86.9728656115293,36.0869791186073],[-86.9728476338373,36.0869461110316],[-86.9728474305011,36.0869457377302],[-86.9728469800697,36.0869448634953],[-86.9728339071288,36.0869194747153],[-86.9728338593371,36.0869193804641],[-86.9728023433326,36.0868552591718],[-86.9727791091826,36.0868034973185],[-86.9727522513341,36.0867387318522],[-86.9727290629316,36.0866766451911],[-86.9727195865542,36.0866492499223],[-86.9727072585756,36.0866104229956],[-86.9726936581842,36.0865718767235],[-86.9726844036768,36.0865476360253],[-86.9726802000474,36.0865364225746],[-86.9726397431777,36.086430393364],[-86.9726371884477,36.0864237993085],[-86.9724516571105,36.0859407164498],[-86.9724438897164,36.0859234713697],[-86.9724419151173,36.0859190925407],[-86.972441610904,36.0859167371847],[-86.9724411683307,36.0859133293212],[-86.972430682923,36.0858862170618],[-86.9734644985261,36.0856295401901],[-86.9733920244084,36.0854440800536],[-86.9732940449714,36.0851935542614],[-86.9731859013657,36.0849149068289],[-86.9731290541887,36.0847685378998],[-86.9721139517187,36.085227250562],[-86.9721139533768,36.0852272045822],[-86.9721564074948,36.0844928613977],[-86.972571793598,36.081931337636],[-86.9722229140914,36.0819627219631],[-86.9714474648354,36.0825359912167],[-86.9709124711315,36.0821820684896],[-86.9715028443119,36.081750949864],[-86.9709812024346,36.0813815363635],[-86.970507785226,36.0809699740904],[-86.9701441618791,36.0806806005037],[-86.9680866312239,36.0821915088684],[-86.9667304943746,36.080651224249],[-86.9674878783854,36.0802972119722],[-86.9679277776042,36.0800915932859],[-86.9685846893214,36.0797845327898],[-86.9690543946416,36.0795649751318],[-86.9694942857515,36.0793593506933],[-86.969934173474,36.0791537246486],[-86.9703740600186,36.0789480960785],[-86.9708139442971,36.0787424667944],[-86.9712538262985,36.0785368358952],[-86.9716937060228,36.0783312033808],[-86.9721343772251,36.0781251978221],[-86.97257425238,36.0779195611733],[-86.9729935970285,36.0777235207506],[-86.9734334677465,36.0775178818482],[-86.9735802197038,36.0761670568213],[-86.9735830395139,36.0756496224273],[-86.9735064931396,36.0756860747011],[-86.9735231336607,36.0756073365523],[-86.97352629904,36.0755162818185],[-86.9735651698442,36.0743982351115],[-86.9737628766435,36.0743943111049],[-86.9739606411574,36.0743936472325],[-86.9741583801176,36.0743962414635],[-86.97435601474,36.0744020953362],[-86.9745534617228,36.0744112041168],[-86.9747567033192,36.0744239502593],[-86.974959573116,36.0744401393519],[-86.9751619822293,36.0744597640039],[-86.9753638417529,36.0744828150227],[-86.9755650638792,36.0745092823061],[-86.9757655630316,36.0745391566357],[-86.975965249115,36.0745724225213],[-86.9761640364965,36.0746090662394],[-86.9763618373006,36.0746490722829],[-86.9765585669476,36.0746924224144],[-86.9767515353645,36.0747384867908],[-86.9769433332453,36.0747876653454],[-86.9771338871085,36.074839939752],[-86.977323117866,36.0748952872237],[-86.9773370742022,36.0748995715507],[-86.9772419476925,36.0750893493292],[-86.9793520911374,36.0758458307903],[-86.9793844677164,36.0756170019199],[-86.9796454895575,36.0757084961409],[-86.9809271729924,36.0761577429431],[-86.9810363173494,36.076199436115],[-86.9810341262889,36.0762015530876],[-86.9809674767447,36.0762700494292],[-86.9809225834818,36.0763616215063],[-86.9807254113265,36.0766181646478],[-86.9806925366274,36.0766964518449],[-86.9806824405275,36.0767558732648],[-86.980660282438,36.0768252828341],[-86.9805850314012,36.0769797370736],[-86.9805385992015,36.0771658243389],[-86.9805113791595,36.0772638455416],[-86.9804859529795,36.0773970183997],[-86.9804703636871,36.0775597768278],[-86.9804644802288,36.0777411385794],[-86.9804919468091,36.0778826698751],[-86.9805670058686,36.0781512839449],[-86.9806003702398,36.0782224392463],[-86.9806326163721,36.0783122849983],[-86.9807400530069,36.0785718442351],[-86.9808292437621,36.078778805601],[-86.9808853119853,36.0789343897751],[-86.9809148634083,36.079025355156],[-86.9809541052851,36.0791338243494],[-86.9810364344822,36.0793331496324],[-86.9811760755727,36.0795693702484],[-86.981246966121,36.0797193392432],[-86.981325612735,36.0798395749855],[-86.9814781825951,36.0800262407768],[-86.9815753954562,36.0801155564379],[-86.9816804626257,36.080182831535],[-86.9817701373935,36.0802095730988],[-86.9818948022034,36.0802195465524],[-86.9819778179182,36.0802551353326],[-86.9820596976278,36.0803083105687],[-86.982209102695,36.0804579142991],[-86.9822464923748,36.0804710706749],[-86.9823163680533,36.0804839623501],[-86.9823939764907,36.0805201428969],[-86.982417261895,36.0805419305838],[-86.9824673024701,36.0806079472128],[-86.9825209262193,36.0806720833379],[-86.9825780271932,36.0807342109313],[-86.9826384894935,36.0807942056514],[-86.9827021939459,36.0808519476898],[-86.9827690125373,36.080907320915],[-86.9828388129133,36.0809602173433],[-86.982911453825,36.0810105281618],[-86.9829867919242,36.0810581544892],[-86.9831219441586,36.0811563168262],[-86.9832544619529,36.081256815951],[-86.98338428592,36.0813596081927],[-86.9835113543734,36.0814646435899],[-86.9836356089897,36.0815718748578],[-86.9837569925208,36.081681251999],[-86.9831191563889,36.0824559405735],[-86.9827297666814,36.0829275450112],[-86.982684349377,36.0829825496045],[-86.9819575096943,36.0841972312714],[-86.9817187944498,36.084599165201],[-86.9814812262096,36.0849088155218],[-86.9809317153487,36.0856250484585],[-86.9791644514687,36.0854427177012],[-86.9779854441815,36.0851248233948],[-86.9771221610016,36.0851603932716],[-86.9754257644272,36.0870268248178],[-86.9749155051368,36.0875891802628],[-86.9746243438238,36.0879101790903],[-86.9746243142432,36.0879102117763],[-86.9746242806793,36.0879101913176],[-86.9746242404093,36.0879101673079],[-86.9745697561733,36.087877682207],[-86.9743840974817,36.0875323766041],[-86.9742732718488,36.0873262473458],[-86.9740440181492,36.0869012171682]]]},"properties":{"id":"170227","parcel":"14100000400","address":"8001 HIGHWAY 70 S","owner":"METRO GOV'T  S  SCHOOL","point":[-86.97685864546652,36.08110619952312]}}]}