{"type":"FeatureCollection","features":[{"type":"Feature","id":"130105","geometry":{"type":"Polygon","coordinates":[[[-86.9368387495162,36.2462417202075],[-86.9368745649736,36.2445604381919],[-86.9361348786653,36.2445032151515],[-86.9362181961837,36.2438792739613],[-86.9362470927478,36.2436628670263],[-86.9377527105982,36.2431055459115],[-86.9379313182594,36.2430394307674],[-86.9383971730131,36.2428589611981],[-86.9390888138137,36.2425910176825],[-86.9399758862904,36.2425199537163],[-86.9391881857434,36.2413216620704],[-86.9395140215261,36.2411765794106],[-86.9403539875613,36.2423056778369],[-86.9408517006187,36.2421547581754],[-86.9413280702614,36.2420103070795],[-86.9407955439655,36.2405967783757],[-86.9409167827148,36.2405421630485],[-86.9413855241147,36.2417863804462],[-86.9420542875649,36.2417978975963],[-86.9422786836622,36.2414431967633],[-86.9422205067141,36.2412691452362],[-86.9430680547171,36.2409053686617],[-86.9435486414796,36.2423431181032],[-86.9509627373869,36.242900198492],[-86.9508611927981,36.2441602482816],[-86.9507171662652,36.2459502642622],[-86.9457862416827,36.2456153658713],[-86.9455157464612,36.2488677948083],[-86.9367792675154,36.2485356871493],[-86.9368387495162,36.2462417202075]]]},"properties":{"id":"130105","parcel":"04600008300","address":"4710 BULL RUN RD","owner":"JONES, GREGORY A. & BARBARA M.","point":[-86.94382478917352,36.24508918228108]}}]}