{"type":"FeatureCollection","features":[{"type":"Feature","id":"190662","geometry":{"type":"Polygon","coordinates":[[[-86.9155876592104,36.2091650260348],[-86.9157113629424,36.2086928883143],[-86.9157660808661,36.2086983523597],[-86.9158743335359,36.2087103474402],[-86.915982309331,36.2087238838918],[-86.9158531827176,36.2092622260928],[-86.9155709241699,36.2092291024657],[-86.9155876592104,36.2091650260348]]]},"properties":{"id":"190662","parcel":"06700003700","address":"4896 OLD HYDES FERRY PIKE","owner":"FUQUA, PATRICIA L V & AUSTAD, SUZANNE","point":[-86.91578742773419,36.20894445684972]}},{"type":"Feature","id":"193035","geometry":{"type":"Polygon","coordinates":[[[-86.9158531827176,36.2092622260928],[-86.915982309331,36.2087238838918],[-86.9160370425971,36.2087313467136],[-86.916137246281,36.2087460730759],[-86.9162371395165,36.2087621292804],[-86.9163665175619,36.2087859180708],[-86.9164952536654,36.2088118917653],[-86.9163083788834,36.2095332166687],[-86.9169650003889,36.2097087856305],[-86.9169018472018,36.2099790122742],[-86.9167939140412,36.2104408407098],[-86.9155829307183,36.2103751119052],[-86.9158531827176,36.2092622260928]]]},"properties":{"id":"193035","parcel":"06700003400","address":"4900 OLD HYDES FERRY PIKE","owner":"POTTS, LOIS ELAINE & ET AL","point":[-86.91620144809481,36.20962069764304]}},{"type":"Feature","id":"193038","geometry":{"type":"Polygon","coordinates":[[[-86.9163083788834,36.2095332166687],[-86.9164952536654,36.2088118917653],[-86.9165489261693,36.2088234036978],[-86.9166973949804,36.2088573902038],[-86.9168448010449,36.2088942893875],[-86.916991059593,36.2089340784636],[-86.9171360813961,36.2089767337796],[-86.9169650003889,36.2097087856305],[-86.9163083788834,36.2095332166687]]]},"properties":{"id":"193038","parcel":"06700003500","address":"4904 OLD HYDES FERRY PIKE","owner":"JONES, THOMAS EUGENE & DEBRA LEE","point":[-86.9167257625464,36.209254978404964]}},{"type":"Feature","id":"195299","geometry":{"type":"Polygon","coordinates":[[[-86.9202768307833,36.2090451641736],[-86.9201959204897,36.2090345959836],[-86.9201152748128,36.2090227738601],[-86.9202127611931,36.2084313993079],[-86.9198414387238,36.2080386492989],[-86.9200581740196,36.2067936710639],[-86.9188130858915,36.2063487848115],[-86.9184931604726,36.208658525186],[-86.9182792493063,36.2086016136413],[-86.9180660697117,36.2085429287679],[-86.9179741250073,36.208517008742],[-86.9178911633489,36.2084949724333],[-86.9178071681003,36.2084756810789],[-86.9177222752944,36.2084591660884],[-86.9176366275838,36.2084454543154],[-86.9175503631308,36.2084345690426],[-86.9174636244726,36.2084265272112],[-86.9173765563388,36.2084213430421],[-86.9172892989379,36.2084190244824],[-86.9162359774201,36.2084083556409],[-86.9161677809156,36.2084064558438],[-86.9160997511402,36.2084021411441],[-86.9160320205441,36.2083954204512],[-86.9159647160692,36.2083863072232],[-86.9158759434674,36.2083732469925],[-86.9157869303323,36.2083613124036],[-86.9156314800357,36.2083432301457],[-86.9154754800142,36.208328580284],[-86.9154868015374,36.2082604864739],[-86.9156494730435,36.207282096769],[-86.9159421134376,36.2055014205857],[-86.9150850426135,36.2053974859304],[-86.9151470261899,36.2050409955919],[-86.914341354245,36.2039262908716],[-86.9142069963065,36.2037383090642],[-86.9136912839003,36.2037532006791],[-86.9140032362126,36.2018806294645],[-86.911352722647,36.1984613193092],[-86.911452291645,36.1982956350583],[-86.9115488847037,36.1981287979232],[-86.9116424788721,36.1979608414313],[-86.911733055688,36.1977918026812],[-86.9118205955369,36.1976217151747],[-86.9119050821816,36.1974506159933],[-86.9119670836755,36.1973195597403],[-86.9120323483192,36.1971895477092],[-86.9121008489246,36.1970606341763],[-86.9121725560597,36.1969328716323],[-86.9122474425276,36.1968063134521],[-86.9123039883168,36.1966799469754],[-86.9123639595676,36.1965546216885],[-86.9124273269616,36.1964303999955],[-86.912494057804,36.1963073407209],[-86.9125641216348,36.1961855035734],[-86.9126374846799,36.1960649500891],[-86.9126780222377,36.1959882860901],[-86.9127212160399,36.1959125807772],[-86.9127670289624,36.1958378939123],[-86.9128154249934,36.1957642852488],[-86.91286636701,36.195691814548],[-86.9129314671403,36.1955684275462],[-86.9129934047211,36.1954439756809],[-86.9130521514586,36.1953185114445],[-86.9131076824059,36.1951920882057],[-86.9131599748711,36.1950647620192],[-86.9132090061215,36.194936585335],[-86.9132547545679,36.1948076132982],[-86.9147249163784,36.1955678653139],[-86.9155191195638,36.1958425975877],[-86.9163517835863,36.1958082586088],[-86.9171084174452,36.1960574450391],[-86.9176481156925,36.1961280653398],[-86.9177764192372,36.1956760185025],[-86.9182161776217,36.1957210237453],[-86.9192074731104,36.1956299699027],[-86.9201997135218,36.1970228760451],[-86.9204002641602,36.1973070436263],[-86.9209214238692,36.1978233671773],[-86.921270485051,36.1981706828404],[-86.9213900641167,36.1984862350568],[-86.9217566427985,36.1992322916535],[-86.921821559964,36.1998603287955],[-86.9218629674316,36.2000768740283],[-86.9226978392386,36.2008224238076],[-86.9228991954264,36.201311848271],[-86.9232939387207,36.2022713048381],[-86.9243695844331,36.2035169944507],[-86.9240364471916,36.2037832633758],[-86.9236079559319,36.2041277267766],[-86.9257375444668,36.2067074112789],[-86.9253368079336,36.2069329965039],[-86.9252637297007,36.2069739387925],[-86.9231982576312,36.2044563907428],[-86.9227542982326,36.2048122351371],[-86.9227409991058,36.2049801831313],[-86.9246366763535,36.2073197428361],[-86.9231892755303,36.2081011036096],[-86.9230880908826,36.2081583687193],[-86.9229892509921,36.208218263752],[-86.9228928618942,36.2082807266165],[-86.9227990240024,36.2083456898572],[-86.9227078355177,36.2084130869368],[-86.9226193934674,36.2084828459196],[-86.922533790411,36.2085548931015],[-86.922451116664,36.208629152993],[-86.9225118131046,36.2078608713264],[-86.9209096325097,36.2077843702359],[-86.9208051112304,36.2090945337746],[-86.9204583908544,36.2090642275267],[-86.920367484822,36.2090554832022],[-86.9202768307833,36.2090451641736]]]},"properties":{"id":"195299","parcel":"06700008400","address":"0 OLD HICKORY BLVD","owner":"100 PIRATAS, LLC","point":[-86.91859303705237,36.20207601952439]}},{"type":"Feature","id":"196208","geometry":{"type":"Polygon","coordinates":[[[-86.913880191158,36.2091691056549],[-86.9137482758085,36.2087537356216],[-86.9137870326689,36.2087480122095],[-86.9139258377409,36.2087288904489],[-86.9140650560895,36.2087118599492],[-86.9142046410832,36.2086969264699],[-86.9143445427337,36.2086840939935],[-86.9143449438288,36.2086840612146],[-86.9144844763232,36.2086737459116],[-86.9146249175478,36.2086659525258],[-86.9147655397585,36.2086607397415],[-86.9149062718416,36.2086581117023],[-86.9150470415401,36.2086580698565],[-86.915187775454,36.208660612958],[-86.9153189590063,36.208665315624],[-86.9154499905629,36.2086722643615],[-86.9155808111671,36.2086814569142],[-86.9157113629424,36.2086928883143],[-86.9155876592104,36.2091650260348],[-86.913880191158,36.2091691056549]]]},"properties":{"id":"196208","parcel":"06800005200","address":"4880 OLD HYDES FERRY PIKE","owner":"LEWIS, JENNIFER BRAMLETT","point":[-86.91472737520647,36.20895942670633]}},{"type":"Feature","id":"199892","geometry":{"type":"Polygon","coordinates":[[[-86.9163086758132,36.2084936211014],[-86.9162957894388,36.2084913773832],[-86.9172880288743,36.2085014272811],[-86.9173171048208,36.2085018904804],[-86.9172601495402,36.2087210702092],[-86.9171046254707,36.2086752529357],[-86.9169477498669,36.208632566821],[-86.9167896208715,36.2085930372514],[-86.9166303332703,36.2085566878369],[-86.9164699851942,36.2085235430636],[-86.9163086758132,36.2084936211014]]]},"properties":{"id":"199892","parcel":"06700006000","address":"4914 OLD HYDES FERRY PIKE","owner":"FUQUA, PATRICIA L. & AUSTAD, SUZANNE M.","point":[-86.91707844679053,36.208612947578835]}},{"type":"Feature","id":"200063","geometry":{"type":"Polygon","coordinates":[[[-86.9185420585683,36.2086712595204],[-86.9184931604726,36.208658525186],[-86.9188130858915,36.2063487848115],[-86.9200581740196,36.2067936710639],[-86.9198414387238,36.2080386492989],[-86.9202127611931,36.2084313993079],[-86.9201152748128,36.2090227738601],[-86.9199931267608,36.2090023885618],[-86.9198717628263,36.2089791275252],[-86.9196039510769,36.2089229893932],[-86.9193370322777,36.2088641247412],[-86.919071049917,36.2088025413556],[-86.9188060441673,36.208738248851],[-86.9185420585683,36.2086712595204]]]},"properties":{"id":"200063","parcel":"06700012400","address":"4939 OLD HYDES FERRY PIKE","owner":"WILSON, ZOE ANN","point":[-86.91930758587753,36.207415728992956]}},{"type":"Feature","id":"200064","geometry":{"type":"Polygon","coordinates":[[[-86.9172601495402,36.2087210702092],[-86.9173171048208,36.2085018904804],[-86.9174079024911,36.2085054871635],[-86.9174984142299,36.2085123413361],[-86.9175884630711,36.2085224399232],[-86.9176778708427,36.2085357617481],[-86.917766462677,36.2085522829059],[-86.9178540624688,36.2085719686859],[-86.9179405007634,36.2085947825253],[-86.9182311001453,36.208675461169],[-86.9185230566808,36.2087528553827],[-86.9184223341413,36.2091853628513],[-86.9182834380014,36.2091174530886],[-86.9181425520871,36.2090522918449],[-86.9179997580147,36.2089899172476],[-86.9178551407147,36.2089303655964],[-86.9177087851168,36.2088736731914],[-86.9175607760977,36.2088198718272],[-86.9174112018794,36.2087689941745],[-86.9172601495402,36.2087210702092]]]},"properties":{"id":"200064","parcel":"06700013000","address":"4940 OLD HYDES FERRY PIKE","owner":"ALBRIGHT, KENNETH & MARSHALL, HANNAH","point":[-86.91806791388964,36.20884706983116]}}]}