{"type":"FeatureCollection","features":[{"type":"Feature","id":"253113","geometry":{"type":"Polygon","coordinates":[[[-86.9388677016085,36.0527069766102],[-86.9392063783244,36.0522801716021],[-86.9393024827517,36.0521828114466],[-86.9394020518261,36.0520877730121],[-86.9395049977276,36.0519951389937],[-86.9396112336944,36.0519049875717],[-86.9397206696367,36.0518173969525],[-86.9398332109628,36.0517324399699],[-86.9399511418866,36.0516591253973],[-86.9400706623298,36.0515875279172],[-86.9401917325984,36.051517669466],[-86.9403143152292,36.0514495728642],[-86.9404647741691,36.0513779967674],[-86.9406136727524,36.051304301966],[-86.9407609657146,36.0512285095491],[-86.9408467908075,36.0511671923457],[-86.9409354527459,36.0511085974131],[-86.9410268204794,36.0510528113928],[-86.9412062874837,36.0508953691585],[-86.9415232936559,36.050697292882],[-86.9415828121693,36.0506608368413],[-86.9416410191301,36.0506230102141],[-86.9416978660583,36.0505838431245],[-86.9417483402969,36.0505541724171],[-86.9417966373557,36.050522201439],[-86.9418425997494,36.0504880341726],[-86.9418860734404,36.0504517844881],[-86.941926917763,36.0504135706575],[-86.9419649976869,36.0503735181194],[-86.9420474582071,36.0502753321805],[-86.9421261977986,36.0501751509316],[-86.942201144345,36.0500730695811],[-86.9422722268197,36.0499691815263],[-86.9423393808987,36.0498635837167],[-86.9424025422806,36.0497563749045],[-86.9426921390474,36.0493013718741],[-86.942726422069,36.0492458661006],[-86.9427641991928,36.0491918769236],[-86.9428053677941,36.0491395484507],[-86.9428498185481,36.0490890212368],[-86.9428974320894,36.0490404314082],[-86.9431087098693,36.0488277935323],[-86.9431364567062,36.0487968237345],[-86.943167594822,36.0487680572263],[-86.9432018596691,36.0487417412316],[-86.9432389619651,36.0487180961286],[-86.9432785855698,36.0486973235784],[-86.9433203951894,36.0486796010572],[-86.9433640352129,36.0486650773584],[-86.9434091353037,36.0486538761547],[-86.943455313686,36.0486460923666],[-86.9435021782545,36.0486417921547],[-86.9435493310023,36.0486410119827],[-86.9435963713606,36.0486437594934],[-86.9436695461019,36.0486517498522],[-86.943742126197,36.0486627506882],[-86.9438139248158,36.0486767301171],[-86.9438847551277,36.0486936562554],[-86.9439544356688,36.0487134818554],[-86.9440363392662,36.0487337686745],[-86.9441193767106,36.04875074416],[-86.9442033477295,36.0487643675173],[-86.944288043236,36.0487746034288],[-86.9444262333036,36.0487889040775],[-86.9446892193743,36.0488286004568],[-86.9448952478282,36.0488577541073],[-86.9451418937761,36.0488887862522],[-86.9454375628807,36.0489458065057],[-86.945613746985,36.0489685990867],[-86.945838796303,36.0490041949517],[-86.9460748014103,36.049050693148],[-86.9462076355542,36.0490694303906],[-86.9464302414795,36.049127021855],[-86.946611917194,36.0491563629278],[-86.9468152928098,36.0491899298271],[-86.9470242381174,36.0492366387655],[-86.9472712265832,36.0492962344657],[-86.9474420541961,36.0493234621697],[-86.9476562782892,36.0493591397572],[-86.9478487787206,36.0493883947517],[-86.9482936290614,36.0494728051913],[-86.9487219009216,36.0495287739138],[-86.9490174448984,36.0495747994431],[-86.9492942551021,36.0496385500496],[-86.9495412990336,36.0497025363624],[-86.9496714808321,36.0497256863816],[-86.949918604136,36.0497962643745],[-86.9500839927993,36.0498213338258],[-86.9503985297551,36.049871599225],[-86.9504798603084,36.0498974626004],[-86.9505595930469,36.0499264200999],[-86.9506375518119,36.0499584046167],[-86.9507135615103,36.0499933454308],[-86.9507874536314,36.0500311654614],[-86.950817327299,36.0500564638568],[-86.9508496655273,36.0500796760977],[-86.9508842500299,36.0501006470769],[-86.9509208448707,36.0501192308393],[-86.950959201054,36.0501353031646],[-86.9509893705758,36.050149979058],[-86.9510177811727,36.0501668094334],[-86.9510442036879,36.0501856581999],[-86.9510684175942,36.0502063684689],[-86.9510902266498,36.0502287723444],[-86.9511698082687,36.0503204500289],[-86.9511906005354,36.0503416334269],[-86.9512081176754,36.0503646867501],[-86.9512221060024,36.0503892794189],[-86.9512323647971,36.0504150551994],[-86.9512387464482,36.0504416439182],[-86.9512411575727,36.0504686623552],[-86.9512395657508,36.0504957204999],[-86.9512407358226,36.0505331092798],[-86.9512459620612,36.0505702677551],[-86.9512552032872,36.0506069078317],[-86.9512683894766,36.0506427425438],[-86.9513103768577,36.0507588917811],[-86.9513920375797,36.0510241756502],[-86.9514372309325,36.0511820571685],[-86.9515264330404,36.051398930676],[-86.9515173181583,36.0515418546867],[-86.9515181075352,36.0516077837016],[-86.9515338749419,36.0517944707826],[-86.9515164048922,36.0519176806255],[-86.9515121806699,36.0522429818734],[-86.9514914027849,36.0525420405978],[-86.9514823700011,36.0526915596943],[-86.9514790715884,36.0527455398695],[-86.9514716176241,36.0527992464066],[-86.9514600333101,36.0528524672983],[-86.9514443672088,36.0529049948589],[-86.9514246790031,36.0529566231175],[-86.9514010472655,36.0530071477558],[-86.9513735650723,36.0530563706504],[-86.9513423388946,36.0531040998807],[-86.9513074918947,36.0531501469996],[-86.9512691617504,36.0531943306553],[-86.9511730157681,36.0532736592724],[-86.9510306740669,36.0533940103781],[-86.9508510114209,36.0534915669473],[-86.950668949643,36.0535861462189],[-86.9505801215032,36.0536290001621],[-86.950489921568,36.053669921637],[-86.950398413868,36.0537088812935],[-86.9503289290356,36.0537287586788],[-86.9502583997901,36.0537460439842],[-86.9501869744583,36.0537607026902],[-86.9501148002791,36.0537727020886],[-86.9500420290494,36.0537820193504],[-86.9499244797638,36.0537986349947],[-86.9498064377543,36.0538127550795],[-86.9496879828331,36.0538243699613],[-86.9496371133847,36.0538254485835],[-86.9495864800413,36.0538295663378],[-86.9495363578021,36.053836701229],[-86.9494870192314,36.0538468132552],[-86.9494387311831,36.0538598489407],[-86.9493773943972,36.0538795624402],[-86.9493395852216,36.0538864542418],[-86.9492423410728,36.0539026037281],[-86.949064019892,36.0539281838868],[-86.9487318584161,36.0539901385448],[-86.9485105486565,36.0540424285532],[-86.9481866359238,36.0541153055277],[-86.9479352424909,36.0541414588801],[-86.9478777315309,36.0541499454714],[-86.9478196940011,36.0541556033653],[-86.9477613427627,36.0541584110585],[-86.9477028886073,36.0541583596827],[-86.9476445446542,36.0541554493645],[-86.94758652302,36.0541496892522],[-86.9475290348618,36.05414110112],[-86.9474722870154,36.0541297166911],[-86.9471768590656,36.0540946751295],[-86.9467377120339,36.0540365879315],[-86.9462392997739,36.0539166038736],[-86.9464335242777,36.0530955915656],[-86.9464644026714,36.0529612858064],[-86.9465647162312,36.0529758824002],[-86.9466471009363,36.0526213970603],[-86.9467321055728,36.0522597481799],[-86.946354776454,36.0518237106126],[-86.9461242388526,36.0515551966922],[-86.9456955938687,36.0512981271116],[-86.9453319946904,36.0511908173446],[-86.9449976131176,36.051093716338],[-86.9445960213937,36.0510916451993],[-86.9442797187609,36.0510922005666],[-86.9438818646195,36.0512052056406],[-86.9435689669444,36.0512933684688],[-86.9433509409041,36.0513939740336],[-86.9431301499109,36.051489656259],[-86.9426940951224,36.0516908680987],[-86.94226883719,36.0518897911216],[-86.9421477102054,36.0519456800312],[-86.9420506526826,36.0519772093988],[-86.9419518960681,36.0520082003671],[-86.9420360312917,36.0521710003321],[-86.9419771619713,36.0521894523848],[-86.9419308591907,36.0522039693245],[-86.9417803632634,36.0522522162708],[-86.9416989994773,36.0522783022893],[-86.9416416146244,36.0522966218018],[-86.9414590326184,36.0523549009314],[-86.9412478451634,36.0525763262827],[-86.9410137086903,36.052652841533],[-86.9408757925974,36.0526979120442],[-86.9407194308167,36.0527496788843],[-86.9403419899505,36.0528735006247],[-86.9400033216914,36.0528431763845],[-86.9398721717034,36.052885219551],[-86.9397714439358,36.0529175102486],[-86.9395369119317,36.0529962600304],[-86.9393610089809,36.0530524081677],[-86.9392969408209,36.0530728543547],[-86.9392472429865,36.0530892606168],[-86.9390650877085,36.0531493849421],[-86.9389032391175,36.0532014805751],[-86.9387711987491,36.053243980121],[-86.9385933914706,36.0533051343011],[-86.9384639076745,36.0533496676756],[-86.9383923969042,36.0533992547143],[-86.9382491472312,36.0534985890668],[-86.9380459018244,36.0536391536491],[-86.9380209562779,36.0536564041443],[-86.9377954476578,36.053812003222],[-86.9376316867432,36.0539268510889],[-86.9375672830668,36.0539720163991],[-86.9373935538508,36.0541579788949],[-86.937203820556,36.0543549596771],[-86.9372037229587,36.0543550604811],[-86.9371416698057,36.054420763384],[-86.9370406531894,36.0545277480189],[-86.9369829233325,36.0545890494887],[-86.9368321546196,36.054749146276],[-86.9365438115309,36.0546002894938],[-86.9366311510734,36.0545504841304],[-86.9367167379899,36.0544987103504],[-86.936800502824,36.0544450083545],[-86.936882381701,36.0543894210047],[-86.9371070985169,36.054252512131],[-86.9371355859491,36.0542294893588],[-86.9372479129501,36.0541440020777],[-86.9373338266774,36.0540850941651],[-86.9374820323253,36.0539724055686],[-86.9377011840801,36.0538226267194],[-86.9378551388267,36.0537098929182],[-86.9379438992669,36.0536342034992],[-86.9381003580636,36.0535044178838],[-86.9383428118546,36.0532940183889],[-86.9385289747296,36.053129935108],[-86.9386823862123,36.0529713260942],[-86.938766784692,36.0528700350321],[-86.9388184739441,36.0527890077371],[-86.9388677016085,36.0527069766102]]]},"properties":{"id":"253113","parcel":"15600011400","address":"938 FOOTPATH TER","owner":"BRANSTETTER LEGACY PARTNERS, LLC","point":[-86.94889392810478,36.05171515796932]}}]}