{"type":"FeatureCollection","features":[{"type":"Feature","id":"108082","geometry":{"type":"Polygon","coordinates":[[[-86.958572640343,36.1894338388014],[-86.9587829435295,36.1892717747261],[-86.9589121486505,36.1893819446263],[-86.9587018454359,36.1895440089218],[-86.958572640343,36.1894338388014]]]},"properties":{"id":"108082","parcel":"077040A00200CO","address":"8114 RIVER ROAD PIKE","owner":"MOORE HOMES, LLC","point":[-86.95874239455229,36.18940789183431]}},{"type":"Feature","id":"108558","geometry":{"type":"Polygon","coordinates":[[[-86.9577025972217,36.1895228491713],[-86.9577268352435,36.1895094703028],[-86.9577102786317,36.1894854275702],[-86.9599967061145,36.1877706581665],[-86.9604808348575,36.1883469955376],[-86.9581243154537,36.1900952951945],[-86.9580147956491,36.1899541869313],[-86.9579079861006,36.1898117204675],[-86.9578039116707,36.1896679298614],[-86.9577025972217,36.1895228491713]],[[-86.9589121486505,36.1893819446263],[-86.9587829435295,36.1892717747261],[-86.958572640343,36.1894338388014],[-86.9587018454359,36.1895440089218],[-86.9589121486505,36.1893819446263]],[[-86.9587511042407,36.1890600488071],[-86.9586192422457,36.1889445155923],[-86.9583942967588,36.189113218187],[-86.9585261586958,36.1892287507408],[-86.9587511042407,36.1890600488071]]]},"properties":{"id":"108558","parcel":"077040A90000CO","address":"8114 B RIVER ROAD PIKE","owner":"O.I.C. RIVER ROAD PIKE TOWNHOMES","point":[-86.95945406182443,36.18864572672281]}}]}