{"type":"FeatureCollection","features":[{"type":"Feature","id":"115181","geometry":{"type":"Polygon","coordinates":[[[-86.9867791622893,36.0885629708363],[-86.9870578980896,36.0885584919344],[-86.9877233941197,36.0892691155576],[-86.9876627007691,36.0892997883913],[-86.9875999428954,36.0893275912273],[-86.9875353270161,36.0893524322407],[-86.9874690653356,36.0893742303759],[-86.9874013757344,36.0893929144456],[-86.9873324795252,36.0894084213468],[-86.9872626015433,36.0894207032698],[-86.9871919722431,36.0894297177676],[-86.9871208222477,36.0894354359117],[-86.9870493867449,36.0894378386514],[-86.9869778977373,36.0894369186791],[-86.9869065929024,36.0894326785561],[-86.9868357022797,36.0894251317221],[-86.9867539818039,36.0894127875079],[-86.9866717181896,36.0894031128386],[-86.9866716826028,36.0894031086233],[-86.9867389647468,36.0888773006184],[-86.9867790601392,36.0885629716723],[-86.9867791622893,36.0885629708363]]]},"properties":{"id":"115181","parcel":"12700012800","address":"8341 MERRYMOUNT DR","owner":"FISHER, JAMES DAVID GAYLON","point":[-86.9871269305642,36.089073197949]}},{"type":"Feature","id":"115184","geometry":{"type":"Polygon","coordinates":[[[-86.9879565695326,36.0904982339974],[-86.9875146664724,36.0895063729227],[-86.9875877963656,36.0894824283847],[-86.9876513013101,36.089459684766],[-86.9877132381446,36.0894342527509],[-86.9877734345031,36.089406202253],[-86.9878317236957,36.089375613054],[-86.98788794242,36.0893425694143],[-86.9887831878823,36.0901288329408],[-86.9887832990072,36.0901289284691],[-86.9887602073641,36.0903376200663],[-86.9885517446451,36.0903322090507],[-86.9884987533478,36.0903322153747],[-86.9884459486202,36.0903349889515],[-86.9884458720733,36.0903349949869],[-86.9883933804227,36.0903405293715],[-86.9883933216637,36.0903405370637],[-86.9883413216832,36.0903488172732],[-86.9883330672353,36.0903503946174],[-86.9882840901722,36.0903612827325],[-86.9882840027235,36.0903613050806],[-86.9882359355208,36.0903746354621],[-86.9882358636171,36.0903746576827],[-86.9881888347466,36.090390403141],[-86.9881431748772,36.0904084546136],[-86.988143100876,36.0904084867657],[-86.9880988883462,36.0904288039546],[-86.9880988320658,36.0904288323563],[-86.9880561994653,36.0904513619011],[-86.9880082228671,36.0904806436237],[-86.9879630112754,36.0905126913051],[-86.9879565695326,36.0904982339974]]]},"properties":{"id":"115184","parcel":"12700013100","address":"8342 MERRYMOUNT DR","owner":"KRAMER JOINT REVOCABLE TRUST","point":[-86.98804107740322,36.08981759390412]}},{"type":"Feature","id":"115335","geometry":{"type":"Polygon","coordinates":[[[-86.9791576589808,36.087005917719],[-86.9791644514687,36.0854427177012],[-86.9809317153487,36.0856250484585],[-86.9809318020846,36.0856250585685],[-86.9810404961755,36.0856362525726],[-86.9817468908086,36.0856129209673],[-86.98295391177,36.0858404432564],[-86.9829763018477,36.085844656377],[-86.9829597897,36.0859500561299],[-86.9829436798504,36.0860528838806],[-86.9828718574295,36.0865122485644],[-86.9827749506355,36.0871317035429],[-86.9827680856637,36.0871754736455],[-86.9826940113255,36.0876485580581],[-86.9825405504793,36.0886287093411],[-86.9825158429812,36.0887865180428],[-86.9820980147481,36.091456058363],[-86.981723325657,36.0915931721162],[-86.981575018912,36.0915935548231],[-86.9813279990543,36.0915941918776],[-86.9813282480569,36.0909568451687],[-86.9809303842854,36.0909408136225],[-86.9806022007825,36.0909275858765],[-86.9805899806345,36.0909246658926],[-86.9800566748461,36.0907925067081],[-86.9798987373226,36.0907533668997],[-86.9796494166826,36.090691672505],[-86.9790893513612,36.0905530793625],[-86.9790823016107,36.0905303354455],[-86.9789901412979,36.0902326100717],[-86.9789684741326,36.0901626159488],[-86.9789642128757,36.0901488867484],[-86.9789455303885,36.0900886006573],[-86.9790098002463,36.090077949091],[-86.9790747897445,36.0900707274139],[-86.9791402216488,36.0900669658167],[-86.9791560982482,36.0874009753992],[-86.9791576589808,36.087005917719]]]},"properties":{"id":"115335","parcel":"12700009100","address":"0 HIGHWAY 70","owner":"WISE, CATHERINE O.,TR.& O'NEIL, MARY L.P., TR.","point":[-86.98088449503977,36.08813836988073]}},{"type":"Feature","id":"116521","geometry":{"type":"Polygon","coordinates":[[[-86.9834360136569,36.0888048395797],[-86.9835841192972,36.0876454208805],[-86.985144741655,36.087644154208],[-86.9851595987091,36.087661845289],[-86.9851778009143,36.0876773413989],[-86.9851988645614,36.0876902300861],[-86.983866714849,36.0888144650709],[-86.9838666588138,36.0888145132972],[-86.9837205460731,36.0888112323052],[-86.9834360136569,36.0888048395797]]]},"properties":{"id":"116521","parcel":"12710002000","address":"8449 ROLLING HILLS DR","owner":"HORSMAN, DHALTON & SOPHIE","point":[-86.98402284004403,36.088247499187396]}},{"type":"Feature","id":"116860","geometry":{"type":"Polygon","coordinates":[[[-86.9825405504793,36.0886287093411],[-86.9826940113255,36.0876485580581],[-86.9835841192972,36.0876454208805],[-86.9834360136569,36.0888048395797],[-86.9831240678324,36.0887986291497],[-86.9825158429812,36.0887865180428],[-86.9825405504793,36.0886287093411]]]},"properties":{"id":"116860","parcel":"12710002500","address":"8445 ROLLING HILLS DR","owner":"NORRIS, RONALD C. & ARNTZ, PAUL DENNIS","point":[-86.9830691906277,36.08813869844067]}},{"type":"Feature","id":"117289","geometry":{"type":"Polygon","coordinates":[[[-86.983866714849,36.0888144650709],[-86.9851988645614,36.0876902300861],[-86.9852196526484,36.0876995230152],[-86.9852418188751,36.0877064063091],[-86.9852649407986,36.0877107518288],[-86.9855756771482,36.0888511035724],[-86.9854660339419,36.0888487586664],[-86.9838666588138,36.0888145132972],[-86.983866714849,36.0888144650709]]]},"properties":{"id":"117289","parcel":"12709001300","address":"8436 ROLLING HILLS DR","owner":"LEWIS, GARRY N.","point":[-86.98496799407684,36.088262661634616]}},{"type":"Feature","id":"117574","geometry":{"type":"Polygon","coordinates":[[[-86.9855756771482,36.0888511035724],[-86.9852649407986,36.0877107518288],[-86.9852904360656,36.0877125299626],[-86.9853159571277,36.0877110163176],[-86.9853408626107,36.0877062476808],[-86.9853645266147,36.0876983445345],[-86.9868033143163,36.0883706998593],[-86.9868034114855,36.0883707450305],[-86.9867910538536,36.0884682996758],[-86.9867790601392,36.0885629716723],[-86.9867389647468,36.0888773006184],[-86.9855756771482,36.0888511035724]]]},"properties":{"id":"117574","parcel":"12709001200","address":"8432 ROLLING HILLS DR","owner":"BOTTS, CHARLES & LIGIA","point":[-86.98572709208736,36.088041579648106]}}]}