{"type":"FeatureCollection","features":[{"type":"Feature","id":"26004","geometry":{"type":"Polygon","coordinates":[[[-86.9346752550759,36.1364571931223],[-86.9342122115982,36.1362480763276],[-86.9346732452543,36.136286492931],[-86.9353946339889,36.13634660239],[-86.9354764945604,36.1363514195806],[-86.9355579378747,36.1363596738609],[-86.9356387425663,36.1363713426137],[-86.9357186938183,36.1363863932576],[-86.9357975756282,36.1364047869116],[-86.935875175198,36.136426473855],[-86.9359512840777,36.1364513962225],[-86.936025697022,36.1364794853088],[-86.9360982153866,36.13651066695],[-86.93616864151,36.1365448561594],[-86.9362367898759,36.1365819615477],[-86.9363024726601,36.1366218845332],[-86.9363655152309,36.1366645147156],[-86.9364257484997,36.1367097407501],[-86.9365427911754,36.1368068167396],[-86.9366565804444,36.1369064045284],[-86.9367670387735,36.1370084308219],[-86.9368740841948,36.1371128232613],[-86.9369776402618,36.1372195067408],[-86.9370776327172,36.1373284034338],[-86.9371739895345,36.1374394363977],[-86.9372666419766,36.1375525250589],[-86.9373555224159,36.1376675888352],[-86.9346752550759,36.1364571931223]]]},"properties":{"id":"26004","parcel":"10100006000","address":"0 RIVER ROAD PIKE","owner":"GANIER, ALBERT F., III","point":[-86.93624681303098,36.13695717108824]}},{"type":"Feature","id":"26022","geometry":{"type":"Polygon","coordinates":[[[-86.9373580258532,36.1340549422152],[-86.9373836414805,36.1340467469496],[-86.9374102331289,36.134040946932],[-86.9374631712688,36.1340321094333],[-86.9375152532982,36.1340204007473],[-86.937566247637,36.1340058749494],[-86.9376159217327,36.13398859784],[-86.9376640476264,36.1339686478018],[-86.9377193045685,36.1339481529171],[-86.9377732626263,36.1339254932919],[-86.9384031013103,36.1345556677545],[-86.9380680447059,36.1347723061995],[-86.9373580258532,36.1340549422152]]]},"properties":{"id":"26022","parcel":"10100006601","address":"7144 STRINGFELLOW RD","owner":"DISON, J. DIANE","point":[-86.93787934765245,36.13430530549851]}},{"type":"Feature","id":"26023","geometry":{"type":"Polygon","coordinates":[[[-86.9384031013103,36.1345556677545],[-86.9377732626263,36.1339254932919],[-86.9378257125305,36.1339003542021],[-86.937876459784,36.1338730129561],[-86.9379253652755,36.1338435445432],[-86.9379805438828,36.133813987681],[-86.9380377097495,36.1337870299822],[-86.9380966772492,36.1337627585097],[-86.9381572540153,36.1337412540706],[-86.9382192431003,36.1337225857906],[-86.9382576685536,36.1337096418659],[-86.9382975407084,36.1336999971133],[-86.9383468767765,36.1337479630666],[-86.9390321320343,36.1345065101328],[-86.9389474347101,36.1345525474573],[-86.9389469988468,36.134552050634],[-86.9388608563122,36.1345988733516],[-86.9389487142642,36.1346970862768],[-86.9387081387963,36.1348608614721],[-86.9384031013103,36.1345556677545]]]},"properties":{"id":"26023","parcel":"10100007200","address":"7148 STRINGFELLOW RD","owner":"QUARRIER, SIDNEY & ANNE MCGEE","point":[-86.93841665194272,36.13421601054754]}},{"type":"Feature","id":"27172","geometry":{"type":"Polygon","coordinates":[[[-86.9378855660397,36.1371250317266],[-86.9374836098454,36.137042445004],[-86.9369938845418,36.1370989945728],[-86.9368836077705,36.1369898865532],[-86.9367705700914,36.1368826529185],[-86.936654822056,36.1367773401357],[-86.9365364097602,36.1366739938049],[-86.9375168159411,36.1359543215559],[-86.9381296514853,36.1362286671359],[-86.9386862237672,36.1365561917044],[-86.9392471021365,36.1367891791573],[-86.9391909540647,36.1373104701291],[-86.9385848175022,36.1373745279259],[-86.9378855660397,36.1371250317266]]]},"properties":{"id":"27172","parcel":"10100012500","address":"6995 OLD RIVER ROAD PIKE","owner":"HARGROVE, SARAH E","point":[-86.9377234486682,36.13661515593255]}},{"type":"Feature","id":"27175","geometry":{"type":"Polygon","coordinates":[[[-86.9373337580603,36.1351359990916],[-86.9370973054571,36.1348433433464],[-86.9367204010835,36.1345869406151],[-86.9368153745789,36.134490122148],[-86.9369126993828,36.1343948526838],[-86.9370123370445,36.1343011694683],[-86.9370329861118,36.1342757333357],[-86.9377502682916,36.134977769483],[-86.9380680447059,36.1347723061995],[-86.9384031013103,36.1345556677545],[-86.9387081387963,36.1348608614721],[-86.9386450119272,36.1349038366998],[-86.9385372995354,36.1349753898283],[-86.9385247717527,36.1349585403448],[-86.937992241449,36.1351631366518],[-86.9380082524957,36.1351900553474],[-86.9376427595454,36.1353775435554],[-86.9373043776897,36.1356307123416],[-86.9371754595218,36.1357262148853],[-86.9369085325109,36.1353766547093],[-86.9373337580603,36.1351359990916]]]},"properties":{"id":"27175","parcel":"10100012600","address":"6985 OLD RIVER ROAD PIKE","owner":"BARLOW CAPITAL, LLC","point":[-86.93776877093913,36.13505700249554]}},{"type":"Feature","id":"27786","geometry":{"type":"Polygon","coordinates":[[[-86.9346723319227,36.136208920694],[-86.9345340212353,36.136197234391],[-86.9346556563554,36.1357127967673],[-86.9355842537044,36.1354242926288],[-86.9362240804013,36.1350017647482],[-86.9363842886906,36.134802728121],[-86.9366138557743,36.1347416079508],[-86.9367204010835,36.1345869406151],[-86.9370973054571,36.1348433433464],[-86.9373337580603,36.1351359990916],[-86.9369085325109,36.1353766547093],[-86.9371754595218,36.1357262148853],[-86.9362032577792,36.136452412761],[-86.9361352411411,36.1364203427323],[-86.9360651400734,36.136391377554],[-86.9359931689664,36.1363656074907],[-86.9359195476153,36.1363431101474],[-86.9358445035064,36.1363239558596],[-86.935768266209,36.1363082032303],[-86.9356910707089,36.1362958991044],[-86.9356131541279,36.1362870831006],[-86.9355347545498,36.1362817822122],[-86.9346723319227,36.136208920694]]]},"properties":{"id":"27786","parcel":"10100018300","address":"0 OLD RIVER ROAD PIKE","owner":"REAGAN, KELLY RYAN","point":[-86.93608790312514,36.13556906599452]}},{"type":"Feature","id":"28651","geometry":{"type":"Polygon","coordinates":[[[-86.9370329861118,36.1342757333357],[-86.9370597095391,36.1342466376519],[-86.9370885590098,36.1342189089269],[-86.9371194257391,36.13419264985],[-86.9371479075538,36.1341693574078],[-86.9371788144419,36.1341481974977],[-86.9372119050273,36.1341293351265],[-86.9372469199253,36.1341129156123],[-86.9372835851498,36.1340990708679],[-86.9373060017383,36.1340818172791],[-86.9373309528666,36.134067027046],[-86.9373580258532,36.1340549422152],[-86.9380680447059,36.1347723061995],[-86.9377502682916,36.134977769483],[-86.9370329861118,36.1342757333357]]]},"properties":{"id":"28651","parcel":"10100011800","address":"0 STRINGFELLOW RD","owner":"STEVENS, BELINDA","point":[-86.93755448124003,36.13452402295762]}},{"type":"Feature","id":"29399","geometry":{"type":"Polygon","coordinates":[[[-86.9373043776897,36.1356307123416],[-86.9376427595454,36.1353775435554],[-86.9378616627706,36.1355604494916],[-86.9379437647225,36.1356301379087],[-86.9376081443652,36.1358876807452],[-86.9373043776897,36.1356307123416]]]},"properties":{"id":"29399","parcel":"10100012200","address":"6989 OLD RIVER ROAD PIKE","owner":"GOURLEY, CHRISTIANA S. & DANIEL","point":[-86.93761581237578,36.135759279846475]}},{"type":"Feature","id":"29403","geometry":{"type":"Polygon","coordinates":[[[-86.9378616627706,36.1355604494916],[-86.9381987872232,36.1354303617237],[-86.9382315209485,36.1356784501455],[-86.9381216181585,36.1357781996122],[-86.9379437647225,36.1356301379087],[-86.9378616627706,36.1355604494916]]]},"properties":{"id":"29403","parcel":"10100012300","address":"0 RIVER ROAD PIKE","owner":"STEVENS, GAYDEN M. MRS.","point":[-86.93806164218256,36.13559537599583]}},{"type":"Feature","id":"29409","geometry":{"type":"Polygon","coordinates":[[[-86.9387956828643,36.1383860275543],[-86.9375571129407,36.1377605234534],[-86.9374709926066,36.1376460647742],[-86.9373817092434,36.1375332123685],[-86.9372893090813,36.1374220226516],[-86.93719383836,36.1373125529397],[-86.9370953477411,36.1372048587121],[-86.9369938845418,36.1370989945728],[-86.9374836098454,36.137042445004],[-86.9378855660397,36.1371250317266],[-86.9385848175022,36.1373745279259],[-86.9391909540647,36.1373104701291],[-86.9402323688923,36.1373968606605],[-86.9393667574406,36.138658495357],[-86.938859968049,36.1384184973574],[-86.9387956828643,36.1383860275543]]]},"properties":{"id":"29409","parcel":"10100012700","address":"7030 RIVER ROAD PIKE","owner":"POLICASTRO, ROBERT ANDREW","point":[-86.93897206030665,36.13807368516121]}},{"type":"Feature","id":"62497","geometry":{"type":"Polygon","coordinates":[[[-86.937992241449,36.1351631366518],[-86.9385247717527,36.1349585403448],[-86.9385372995354,36.1349753898283],[-86.9387032603879,36.1351985989677],[-86.9381428697935,36.1354163858407],[-86.9380082524957,36.1351900553474],[-86.937992241449,36.1351631366518]]]},"properties":{"id":"62497","parcel":"10100020400","address":"0 OLD RIVER ROAD PIKE","owner":"CEMETERY","point":[-86.93834370526197,36.135176773287604]}}]}