{"type":"FeatureCollection","features":[{"type":"Feature","id":"66146","geometry":{"type":"Polygon","coordinates":[[[-87.0001261422806,36.1151633608044],[-87.0004143901263,36.113019151602],[-87.0004144462841,36.1130192007076],[-87.0010695661318,36.1138554474495],[-87.0020182881035,36.1148308495466],[-87.0010029504213,36.1152791343549],[-87.0009053749948,36.1152523183873],[-87.0008064644768,36.1152289428636],[-87.0007064027117,36.1152090531225],[-87.0006053767383,36.1151926836615],[-87.0005035746608,36.1151798653646],[-87.000401185636,36.115170624601],[-87.0002984008949,36.1151649760068],[-87.0001954116223,36.1151629306134],[-87.0001261422806,36.1151633608044]]]},"properties":{"id":"66146","parcel":"11200006400","address":"4046 MANNING HOLLOW RD","owner":"STANDRIDGE, WILBURN ROSS","point":[-87.00089016436716,36.11434315609826]}},{"type":"Feature","id":"66605","geometry":{"type":"Polygon","coordinates":[[[-86.9999595816988,36.1173004196098],[-86.9999636224327,36.1172468363396],[-87.0001123518191,36.1152743331715],[-87.0001964336514,36.1152721136544],[-87.000280556159,36.1152727706889],[-87.0003645693841,36.1152763037161],[-87.0004483254994,36.1152827049495],[-87.0005320690627,36.1152920760105],[-87.0006152415699,36.1153043467245],[-87.0006976916567,36.1153194931122],[-87.0007792657257,36.115337490312],[-87.0008598167069,36.1153583025929],[-87.000939196408,36.1153818933319],[-87.0010172587663,36.1154082186788],[-87.0011505189129,36.1154540243679],[-87.0012820150283,36.1155030730092],[-87.0014116244025,36.1155553223648],[-87.0014763372808,36.1155837627404],[-87.0015394559079,36.1156144713706],[-87.0016008584701,36.1156473897838],[-87.0016604297493,36.1156824540458],[-87.0016918832259,36.1157046027403],[-87.0017379895268,36.1157433902952],[-87.0017818102323,36.1157838849495],[-87.0018232520046,36.1158259964498],[-87.0018622226047,36.1158696336319],[-87.0020425605963,36.1160764258409],[-87.0021291798944,36.1161721326083],[-87.0022193355066,36.116265665738],[-87.0024030154862,36.1164498340602],[-87.0026506475818,36.1167068858321],[-87.0027921687288,36.1168496152662],[-87.002914600173,36.1169739283881],[-87.0030392199458,36.1170968018383],[-87.0031660032843,36.1172182096783],[-87.0032665967882,36.1173139571268],[-87.0033705682079,36.1174072987643],[-87.0033324588613,36.117462628372],[-87.0032915063655,36.1175166044306],[-87.0032477816958,36.1175691299079],[-87.0032013658706,36.1176201112933],[-87.0031523388436,36.1176694586901],[-87.0031007883559,36.1177170830381],[-87.0030474605552,36.1177651556679],[-87.0029985488858,36.1178067652886],[-87.002946608633,36.117845884546],[-87.0028918334882,36.1178823694204],[-87.0028344261323,36.1179160839295],[-87.0027468509104,36.117962873795],[-87.0026571787505,36.1180069726233],[-87.0025655354856,36.1180483162729],[-87.0024720492852,36.1180868495965],[-87.0023999668454,36.1181133195436],[-87.0023270607523,36.1181382568731],[-87.0022533786004,36.1181616476684],[-87.0020022608983,36.1182251214802],[-87.0018022276012,36.1182794233875],[-87.0013580617027,36.1183959839506],[-87.0008101032116,36.1185459229606],[-87.0004904903828,36.1186292010225],[-87.0003498515703,36.1186612667054],[-87.0001838381081,36.1186967548622],[-87.0000170374434,36.1187297283834],[-86.9998495094239,36.118760175053],[-86.9999595816988,36.1173004196098]]]},"properties":{"id":"66605","parcel":"11200001200","address":"4019 MANNING HOLLOW RD","owner":"BILLUPS, ANTHONY E. & KUHN, KATJE","point":[-87.00147823761418,36.117035392995476]}}]}