{"type":"FeatureCollection","features":[{"type":"Feature","id":"27525","geometry":{"type":"Polygon","coordinates":[[[-86.994710827561,36.1415830163454],[-86.9949038315964,36.1397146255298],[-86.995433415334,36.139894590779],[-86.9959260144594,36.1401099085005],[-86.9960545776297,36.1401661018592],[-86.9963359397519,36.1403753095423],[-86.9963980261861,36.1406536316906],[-86.9964184491321,36.1407427451248],[-86.9963080537695,36.1414455531269],[-86.9963576728523,36.1418099642151],[-86.9964984940783,36.1423436707525],[-86.996495438636,36.1431524574166],[-86.9945661109727,36.142981019041],[-86.994710827561,36.1415830163454]]]},"properties":{"id":"27525","parcel":"10000003500","address":"0 OLD POND CREEK RD","owner":"MARTINEZ, JOSEFINA A.","point":[-86.99556229303526,36.141094122150335]}}]}