{"type":"FeatureCollection","features":[{"type":"Feature","id":"4010","geometry":{"type":"Polygon","coordinates":[[[-87.0237523682422,36.0122419968527],[-87.0242032581801,36.0121944406527],[-87.0244125100383,36.0128149116241],[-87.0246368735858,36.0135626710204],[-87.0240532462466,36.013673758614],[-87.0239374850857,36.0131986754023],[-87.0238656157613,36.0129037234208],[-87.0239558747737,36.0128968596388],[-87.0237523682422,36.0122419968527]]]},"properties":{"id":"4010","parcel":"17800001400","address":"8719 OLD HARDING PIKE","owner":"GLEAN, BRENDAN & KELLY & PETTYJOHN, LANCE","point":[-87.0241924611686,36.013051141094444]}},{"type":"Feature","id":"4011","geometry":{"type":"Polygon","coordinates":[[[-87.0232182746315,36.0132475790351],[-87.0231294899017,36.0129597069125],[-87.0231120895331,36.0129610300326],[-87.0229308246817,36.012328641689],[-87.0237523682422,36.0122419968527],[-87.0239558747737,36.0128968596388],[-87.0238656157613,36.0129037234208],[-87.0239374850857,36.0131986754023],[-87.0232182746315,36.0132475790351]]]},"properties":{"id":"4011","parcel":"17800001401","address":"8723 OLD HARDING PIKE","owner":"GLEAN, BRENDAN & KELLY","point":[-87.02343992130875,36.012612752436056]}},{"type":"Feature","id":"4753","geometry":{"type":"Polygon","coordinates":[[[-87.0247000767185,36.0121115756772],[-87.0255845402818,36.0120471396547],[-87.0255064631552,36.012707350751],[-87.0248896749143,36.0126844419992],[-87.0247000767185,36.0121115756772]]]},"properties":{"id":"4753","parcel":"17800001200","address":"8711 OLD HARDING PIKE","owner":"ENOCH, STEPHEN","point":[-87.02516897019663,36.0123979309655]}},{"type":"Feature","id":"4754","geometry":{"type":"Polygon","coordinates":[[[-87.0278461690001,36.0155181814114],[-87.023311092741,36.0140727298494],[-87.0232849306607,36.0141235785206],[-87.0227614122714,36.0151410549584],[-87.0227478401562,36.0151414396876],[-87.0227474963087,36.015141445311],[-87.0227340212922,36.0151410126157],[-87.0227282705845,36.0151403629155],[-87.0227259094672,36.0151400828215],[-87.0227235556281,36.01513976481],[-87.022718870028,36.0151390339605],[-87.0227119067372,36.015137695128],[-87.0227073157378,36.015136642604],[-87.0227050374016,36.0151360706795],[-87.0227027729993,36.0151354607809],[-87.0227004204525,36.0151348119726],[-87.0226980841047,36.0151341287763],[-87.0226957617489,36.0151334121123],[-87.0226936204985,36.0151327164437],[-87.0226934556038,36.0151326619616],[-87.0226911656807,36.0151318792255],[-87.0226892665933,36.0151312076393],[-87.0226888920262,36.015131067509],[-87.0226735315311,36.0151244659367],[-87.0226731765142,36.0151242931927],[-87.0226714254051,36.0151233959205],[-87.0226693411172,36.0151222986792],[-87.0226691936468,36.0151222188121],[-87.0226672797538,36.0151211724009],[-87.0226652435217,36.0151200161655],[-87.0226632335418,36.0151188308649],[-87.0226612487165,36.0151176174097],[-87.0226592571624,36.0151163120767],[-87.0226572962978,36.0151149776408],[-87.0226553617433,36.0151136186457],[-87.0226534523898,36.015112235101],[-87.0226391542433,36.0151003346411],[-87.0226208653311,36.0150797071999],[-87.0225967821715,36.0150551297746],[-87.022571368219,36.0150314532473],[-87.0225713165655,36.0150314050144],[-87.0225460210491,36.0150104665967],[-87.0225369500213,36.0150036178328],[-87.0225288900109,36.0149975716766],[-87.0225207104562,36.0149916328908],[-87.0225040169676,36.0149800655069],[-87.02247817216,36.0149635139697],[-87.0224513962176,36.014947970799],[-87.0224330647566,36.0149381766908],[-87.0224237625853,36.014933453397],[-87.0224143665803,36.0149288525776],[-87.0223914871978,36.0149182480181],[-87.0223692123556,36.0149086712394],[-87.0223394920389,36.0148975262526],[-87.022336252485,36.0148963135264],[-87.0223009830146,36.0148883711573],[-87.0222663714519,36.0148790495785],[-87.0222320841074,36.0148686265258],[-87.022231968231,36.0148685878509],[-87.0222153460728,36.0148629946917],[-87.0221988722404,36.0148571163548],[-87.0221504513968,36.0148377513128],[-87.0221346706935,36.0148307305173],[-87.0221190773275,36.0148234386348],[-87.0220860768114,36.0148069639554],[-87.0220542086309,36.0147890781025],[-87.0220187794831,36.0147672404092],[-87.0219846512807,36.0147440757367],[-87.0219580108614,36.014723699315],[-87.0219420314246,36.014706047274],[-87.0219051042739,36.0146662273438],[-87.021869023897,36.014628326346],[-87.0218190582879,36.0145780039186],[-87.0218015349091,36.0145608066041],[-87.0217805858395,36.0145403413059],[-87.0217508329069,36.0145119649593],[-87.0217363331578,36.0144984293003],[-87.0217027688996,36.0144675074861],[-87.0216528548373,36.014422993579],[-87.0216527987823,36.0144229480869],[-87.021614764827,36.0143902164454],[-87.0215818521756,36.0143624256751],[-87.0215817433705,36.0143623328603],[-87.0215496580173,36.0143358969641],[-87.0215136949865,36.014307104536],[-87.0215089565359,36.0143032915635],[-87.0215008084665,36.0140902185042],[-87.0213980593656,36.0118564859922],[-87.0213980564641,36.0118564328388],[-87.0213956560644,36.0118010118863],[-87.0229308246817,36.012328641689],[-87.0231120895331,36.0129610300326],[-87.0231294899017,36.0129597069125],[-87.0232182746315,36.0132475790351],[-87.0239374850857,36.0131986754023],[-87.0240532462466,36.013673758614],[-87.0246368735858,36.0135626710204],[-87.0244125100383,36.0128149116241],[-87.0248896749143,36.0126844419992],[-87.0255064631552,36.012707350751],[-87.0258146208985,36.0127518498354],[-87.0262806893565,36.0128191502017],[-87.0268480186344,36.0126950277201],[-87.0269005370247,36.0128487054713],[-87.0273135913771,36.0140407847968],[-87.0278461690001,36.0155181814114]]]},"properties":{"id":"4754","parcel":"17800001402","address":"8687 OLD HARDING PIKE","owner":"NASHVILLE LUTHERAN MENS CLUB INC.","point":[-87.02575601004334,36.013617920485906]}},{"type":"Feature","id":"4994","geometry":{"type":"Polygon","coordinates":[[[-87.0258146208985,36.0127518498354],[-87.0259575844918,36.0120833335918],[-87.0266733243349,36.0121866198924],[-87.0267290432725,36.0123468780559],[-87.0268480186344,36.0126950277201],[-87.0262806893565,36.0128191502017],[-87.0258146208985,36.0127518498354]]]},"properties":{"id":"4994","parcel":"17800003000","address":"8703 OLD HARDING PIKE","owner":"HIPKENS, HENRY & SUSAN","point":[-87.02632624319688,36.012521055263825]}},{"type":"Feature","id":"5543","geometry":{"type":"Polygon","coordinates":[[[-87.0255064631552,36.012707350751],[-87.0255845402818,36.0120471396547],[-87.0259575844918,36.0120833335918],[-87.0258146208985,36.0127518498354],[-87.0255064631552,36.012707350751]]]},"properties":{"id":"5543","parcel":"17800001100","address":"0 OLD HARDING PIKE","owner":"ENOCH, STEPHEN","point":[-87.02571711265007,36.0123953455895]}},{"type":"Feature","id":"5545","geometry":{"type":"Polygon","coordinates":[[[-87.0242032581801,36.0121944406527],[-87.0247000767185,36.0121115756772],[-87.0248896749143,36.0126844419992],[-87.0244125100383,36.0128149116241],[-87.0242032581801,36.0121944406527]]]},"properties":{"id":"5545","parcel":"17800001300","address":"8715 OLD HARDING PIKE","owner":"HAILE, PAMELA J","point":[-87.02454723598622,36.012439441664725]}},{"type":"Feature","id":"6075","geometry":{"type":"Polygon","coordinates":[[[-87.0174279535303,36.0178425657991],[-87.0175047253347,36.0176996770519],[-87.0178461922581,36.0176342784424],[-87.0184104068539,36.0176384482266],[-87.0185511792552,36.0176123400868],[-87.0185958733752,36.0172613487955],[-87.0185980174908,36.0168755251335],[-87.0184954018661,36.0163612628027],[-87.0185474208014,36.016037441148],[-87.0189099086647,36.0152937373195],[-87.019013931811,36.015232323668],[-87.0193749818389,36.0148667758299],[-87.0199084902957,36.01403737646],[-87.0202799280549,36.013894444766],[-87.0203117082809,36.0138656820592],[-87.0199961086,36.0134090172663],[-87.0200342647278,36.0125350723346],[-87.020035433753,36.0123889092738],[-87.0199341943128,36.0115348253584],[-87.019360288008,36.0107528930869],[-87.0196628767349,36.0100895157807],[-87.0196351415122,36.0099871429815],[-87.0195774005348,36.009774011735],[-87.0195554963175,36.0095358159523],[-87.0198029539071,36.0093097538469],[-87.0199507036445,36.0092896417163],[-87.0199524187481,36.0092915497167],[-87.0211117261631,36.0106506777129],[-87.0207266237631,36.010974168485],[-87.0206049201457,36.0110763994559],[-87.0201927243583,36.0112337364131],[-87.0200804714117,36.011357754704],[-87.0200343552555,36.0114087013696],[-87.0202163748783,36.0124181453638],[-87.020207650847,36.0126524632376],[-87.0201919821975,36.0130732939224],[-87.0201682674124,36.0132033844386],[-87.0201370137747,36.0133748572421],[-87.0204369652681,36.0137681866797],[-87.0205266892434,36.0138858387668],[-87.0205281057443,36.0138897123693],[-87.0205294935069,36.0138935078002],[-87.0204480809359,36.0139606484461],[-87.0200783786218,36.0140995433562],[-87.0199193686671,36.0143961676705],[-87.019519293069,36.0149232508851],[-87.0190133276997,36.015389040825],[-87.0187102147501,36.0160407739517],[-87.0186583000453,36.0163635005953],[-87.0187424580475,36.01679509189],[-87.0187111926246,36.0177443267957],[-87.0184773405488,36.0177625009233],[-87.0180151252153,36.0177655408468],[-87.0176439861568,36.0177965816381],[-87.0175812971943,36.0179064712906],[-87.0175081661101,36.0178772453547],[-87.0174361811382,36.0178461980377],[-87.0174279535303,36.0178425657991]]]},"properties":{"id":"6075","parcel":"17800007800","address":"9244 HESTER BEASLEY RD","owner":"HUNT, WENDY ELIZABETH","point":[-87.0202101167596,36.013588603260295]}},{"type":"Feature","id":"6177","geometry":{"type":"Polygon","coordinates":[[[-87.0276247480791,36.0119024330952],[-87.0276804862147,36.0117432046555],[-87.027697691138,36.0114002022867],[-87.0267610678627,36.0111904732062],[-87.0267747128445,36.0111317834452],[-87.0267926420547,36.0110738584383],[-87.0268147893887,36.0110169060516],[-87.0268410775566,36.0109611270356],[-87.0268714126196,36.0109067213809],[-87.0269056872472,36.0108538828831],[-87.0276330382675,36.0101214178254],[-87.0278474311651,36.0101721429604],[-87.0280737329877,36.0119656810933],[-87.0276247480791,36.0119024330952]]]},"properties":{"id":"6177","parcel":"17800003500","address":"8722 OLD HARDING PIKE","owner":"CIRIMELLI, ALEXANDRA & GARY G.","point":[-87.02738064718663,36.01104525193268]}},{"type":"Feature","id":"6861","geometry":{"type":"Polygon","coordinates":[[[-87.0285566698241,36.0107125247687],[-87.0284937952676,36.0101668482362],[-87.0285156842499,36.0101426085867],[-87.0288036614871,36.0098220411754],[-87.0287461677922,36.0097178893498],[-87.0302731116402,36.0094731942675],[-87.0305256292722,36.0093409188396],[-87.0305869110084,36.0094052556577],[-87.0306468414018,36.0094704278184],[-87.0306657849402,36.0094915153581],[-87.0306740409786,36.0095007833392],[-87.030675206098,36.0095020911063],[-87.0306920162489,36.0095211139353],[-87.0306939558892,36.0095232929651],[-87.0307151463034,36.0095468957958],[-87.031008138394,36.0098732465231],[-87.030942442216,36.0101507489731],[-87.0309290796669,36.0102071862216],[-87.0311412198846,36.0104866719847],[-87.0297519501177,36.0107380280713],[-87.0285566698241,36.0107125247687]]]},"properties":{"id":"6861","parcel":"17800007300","address":"1 FOX VALE LN","owner":"BLOSSOM, MARK M., JR. & TURNER-BLOSSOM, KIANDREA","point":[-87.02980637335055,36.01000792298953]}},{"type":"Feature","id":"9861","geometry":{"type":"Polygon","coordinates":[[[-87.0269307733054,36.0122280286418],[-87.0267778056152,36.0117831205337],[-87.0276247480791,36.0119024330952],[-87.0280737329877,36.0119656810933],[-87.0281246697472,36.0123656406123],[-87.0269307733054,36.0122280286418]]]},"properties":{"id":"9861","parcel":"17800000100","address":"8706 OLD HARDING PIKE","owner":"HITE, DONALD W., JR. ET UX","point":[-87.027488071509,36.01209685948115]}},{"type":"Feature","id":"10337","geometry":{"type":"Polygon","coordinates":[[[-87.0267778056152,36.0117831205337],[-87.0267757894704,36.0117772466663],[-87.0267563968867,36.0117311407022],[-87.0267405849356,36.0116841416465],[-87.0267284158614,36.0116364310376],[-87.0267199375692,36.0115881968447],[-87.0267151813136,36.0115396262778],[-87.0267141673027,36.0114909102453],[-87.0267168979503,36.0114422362025],[-87.0267233635266,36.0113937962137],[-87.0267335398351,36.0113457788614],[-87.0267473849203,36.0112983719777],[-87.0267524272819,36.0112442720847],[-87.0267610678627,36.0111904732062],[-87.027697691138,36.0114002022867],[-87.0276804862147,36.0117432046555],[-87.0276247480791,36.0119024330952],[-87.0267778056152,36.0117831205337]]]},"properties":{"id":"10337","parcel":"17800000200","address":"8712 OLD HARDING PIKE","owner":"CIRIMELLI, GARY & ALEXANDRA","point":[-87.02720352501788,36.011563802327856]}},{"type":"Feature","id":"10339","geometry":{"type":"Polygon","coordinates":[[[-87.0259575844918,36.0120833335918],[-87.0255845402818,36.0120471396547],[-87.0261564335842,36.0112954365114],[-87.0264590629853,36.0111841592106],[-87.0264523611828,36.0112484275483],[-87.026449363719,36.0113128815371],[-87.026450077627,36.0113773778066],[-87.0264545011126,36.0114417766672],[-87.0264626245934,36.0115059366923],[-87.0264744296479,36.0115697192342],[-87.026489892273,36.0116329829886],[-87.0265001475621,36.0116830155164],[-87.0265134807133,36.0117325675459],[-87.026529857935,36.0117815131788],[-87.0265492388029,36.0118297283758],[-87.0266733243349,36.0121866198924],[-87.0259575844918,36.0120833335918]]]},"properties":{"id":"10339","parcel":"17800001000","address":"8727 OLD HARDING PIKE","owner":"SOUTH HARPETH CHURCH OF CHRIST","point":[-87.02617471034993,36.01170786446444]}},{"type":"Feature","id":"36203","geometry":{"type":"Polygon","coordinates":[[[-87.0196156377988,36.0205999588253],[-87.0217289579027,36.0181937693245],[-87.0217850296704,36.0182247300478],[-87.0218397841043,36.0182572098315],[-87.0222584820355,36.0185423248506],[-87.019984471969,36.0211407524952],[-87.0196156377988,36.0205999588253]]]},"properties":{"id":"36203","parcel":"16800026000","address":"0 HESTER BEASLEY RD","owner":"JONES, JAMES R. & GLADYS F.","point":[-87.02093868881944,36.01957114891901]}},{"type":"Feature","id":"37580","geometry":{"type":"Polygon","coordinates":[[[-87.0193130883389,36.0201563487848],[-87.0194923233841,36.0199592984662],[-87.0198020100303,36.0195967461251],[-87.0199456280487,36.0190928306251],[-87.0199963571915,36.018986603042],[-87.0201270012256,36.0187526537895],[-87.01990350567,36.0180434878738],[-87.0199193146104,36.0180403084593],[-87.0200745790766,36.018010229001],[-87.0202304035685,36.0179821275072],[-87.0203283360806,36.0179686065397],[-87.0204267926411,36.0179578841651],[-87.0205256513718,36.0179499722303],[-87.0206247903718,36.0179448807808],[-87.0206940359606,36.017940120957],[-87.0207634934047,36.0179382958057],[-87.0208301959158,36.017939310592],[-87.0208967523352,36.0179430314473],[-87.020962996142,36.0179494498688],[-87.0210287629295,36.017958549224],[-87.0210938871234,36.017970308384],[-87.0211582074596,36.0179846962695],[-87.021244270465,36.0180055218108],[-87.0213291019474,36.0180294510701],[-87.0214125326594,36.0180564359121],[-87.021494395502,36.0180864227762],[-87.0215745266343,36.0181193526663],[-87.0216527654377,36.0181551584477],[-87.0217289579027,36.0181937693245],[-87.0196156377988,36.0205999588253],[-87.0193130883389,36.0201563487848]]]},"properties":{"id":"37580","parcel":"16800026100","address":"0 HESTER BEASLEY RD","owner":"JONES, JAMES R. & GLADYS F.","point":[-87.02029600005464,36.01934471770047]}},{"type":"Feature","id":"267619","geometry":{"type":"Polygon","coordinates":[[[-87.0290957486642,36.01915606852],[-87.0291485770727,36.0190975864491],[-87.0292441971506,36.019377487381],[-87.029177359409,36.019392701305],[-87.0290487064088,36.019208145913],[-87.0290957486642,36.01915606852]]]},"properties":{"id":"267619","parcel":"16800023200","address":"0 OLD HARDING PIKE","owner":"VAN RYEN, DONALD B. & CYNTHIA K.","point":[-87.02916150133555,36.01929281302914]}},{"type":"Feature","id":"270384","geometry":{"type":"Polygon","coordinates":[[[-87.0292278579913,36.0189878941282],[-87.0293693704362,36.0188538092805],[-87.0295140356623,36.01872196324],[-87.0297954885536,36.0184656350664],[-87.0298810538276,36.0183905173928],[-87.0299688434212,36.0183171129806],[-87.0301228969611,36.0187589581899],[-87.0301326813814,36.0187966345422],[-87.0301880437266,36.0190098169936],[-87.0291936603589,36.0190206925064],[-87.0292278579913,36.0189878941282]]]},"properties":{"id":"270384","parcel":"16800000700","address":"9320 HIGHWAY 100","owner":"STALEY, CLAY L & JULIA HARGROVE","point":[-87.0298600196049,36.0185937483099]}},{"type":"Feature","id":"272689","geometry":{"type":"Polygon","coordinates":[[[-87.0292502422868,36.0181565651296],[-87.0292413132171,36.0181272456733],[-87.02955938421,36.0179094305259],[-87.0297421269516,36.0181045228083],[-87.0298291650729,36.0181974415433],[-87.029734908257,36.018276401011],[-87.0296427110572,36.0183569516592],[-87.0295526151389,36.018439055281],[-87.0292502422868,36.0181565651296]]]},"properties":{"id":"272689","parcel":"16800006500","address":"9323 HIGHWAY 100","owner":"STALEY, CLAY L &  JULIA CHRISTINE","point":[-87.02954107375638,36.018177003348356]}},{"type":"Feature","id":"273340","geometry":{"type":"Polygon","coordinates":[[[-87.0293833224195,36.0185935142087],[-87.0292502422868,36.0181565651296],[-87.0295526151389,36.018439055281],[-87.0293833224195,36.0185935142087]]]},"properties":{"id":"273340","parcel":"16800006600","address":"0 HIGHWAY 100","owner":"STALEY, CLAY L &  JULIA CHRISTINE","point":[-87.02934734859889,36.0182978235476]}},{"type":"Feature","id":"274121","geometry":{"type":"Polygon","coordinates":[[[-87.0296411619061,36.0178261262164],[-87.0299263256741,36.0175948921217],[-87.0299271361508,36.0175950221935],[-87.0299263477547,36.0175952263238],[-87.0301467673989,36.0178031299549],[-87.0301174943982,36.0178253941962],[-87.0298412677487,36.0180304725446],[-87.0296411619061,36.0178261262164]]]},"properties":{"id":"274121","parcel":"16800006300","address":"0 HIGHWAY 100","owner":"INMAN, ALLISON","point":[-87.0298938887825,36.01781432169483]}},{"type":"Feature","id":"274122","geometry":{"type":"Polygon","coordinates":[[[-87.02955938421,36.0179094305259],[-87.0296411619061,36.0178261262164],[-87.0298412677487,36.0180304725446],[-87.0297421269516,36.0181045228083],[-87.02955938421,36.0179094305259]]]},"properties":{"id":"274122","parcel":"16800006400","address":"0 HIGHWAY 100","owner":"INMAN, ALLISON","point":[-87.02969903819525,36.017969951937275]}},{"type":"Feature","id":"274123","geometry":{"type":"Polygon","coordinates":[[[-87.0289669325176,36.018216320368],[-87.0292282927803,36.0180844954076],[-87.0292413132171,36.0181272456733],[-87.0292502422868,36.0181565651296],[-87.0293833224195,36.0185935142087],[-87.029252640836,36.0187121525115],[-87.0291623676592,36.018795880625],[-87.029162351545,36.0187958356965],[-87.0289669325176,36.018216320368]]]},"properties":{"id":"274123","parcel":"16800006700","address":"9315 HIGHWAY 100","owner":"STALEY, CLAY L &  JULIA CHRISTINE","point":[-87.02917820590908,36.018404916723235]}},{"type":"Feature","id":"274489","geometry":{"type":"Polygon","coordinates":[[[-87.0241929830892,36.0145508722385],[-87.0242531830826,36.0144311711976],[-87.0245737374396,36.0145339296614],[-87.0239728334688,36.0157284909155],[-87.0239727977786,36.0157285624234],[-87.0238728176282,36.0156970538715],[-87.0238630715692,36.0156941443176],[-87.0238533805189,36.0156911126167],[-87.0238341887489,36.0156846663354],[-87.0238035830012,36.0156731209337],[-87.023773757392,36.0156602989301],[-87.0237558325225,36.0156517787409],[-87.0237470009429,36.0156473417753],[-87.0237382544858,36.0156427950255],[-87.0237338416511,36.0156405044112],[-87.0237294550222,36.0156381811264],[-87.0237250902315,36.0156358306161],[-87.0237164392908,36.0156310333866],[-87.023689000156,36.0156146840334],[-87.0236627093408,36.0155971324653],[-87.0236627450659,36.0155970636612],[-87.0241929830892,36.0145508722385]]]},"properties":{"id":"274489","parcel":"16800011300","address":"0 OLD HARDING PIKE","owner":"NASHVILLE LUTHERAN MEN, INC.","point":[-87.02411499311012,36.01507393078722]}},{"type":"Feature","id":"274822","geometry":{"type":"Polygon","coordinates":[[[-87.0207030684286,36.0178021403284],[-87.0206571378481,36.0178028134129],[-87.0205480822099,36.0178080384763],[-87.0204393392237,36.0178165325919],[-87.0203310562675,36.0178282827948],[-87.0202233818171,36.0178432752103],[-87.0201164609053,36.0178614869797],[-87.020010441893,36.0178828952172],[-87.0199054686005,36.0179074689636],[-87.0197285401221,36.0179457831046],[-87.0195509606817,36.0179820564924],[-87.0193727668307,36.018016283407],[-87.0191939940003,36.0180484572369],[-87.0191122398507,36.0180582964149],[-87.0190302648249,36.0180668313902],[-87.0189203743187,36.0180762036126],[-87.0188102196778,36.01808323363],[-87.01869987518,36.0180879163071],[-87.0187111926246,36.0177443267957],[-87.0187424580475,36.01679509189],[-87.0186583000453,36.0163635005953],[-87.0187102147501,36.0160407739517],[-87.0190133276997,36.015389040825],[-87.019519293069,36.0149232508851],[-87.0199193686671,36.0143961676705],[-87.0200783786218,36.0140995433562],[-87.0204480809359,36.0139606484461],[-87.0205294935069,36.0138935078002],[-87.0205389584051,36.0139196570112],[-87.0206034650841,36.0140978247924],[-87.0206163128009,36.0140977159365],[-87.0209492371767,36.014979148279],[-87.0212212006556,36.0156991737997],[-87.0216905435296,36.0160138737028],[-87.0220955867338,36.0170082332757],[-87.0225582414905,36.0178953253755],[-87.0231135384256,36.0189600203247],[-87.0230270094513,36.0189119828413],[-87.0229424671527,36.0188616652061],[-87.0228600009882,36.0188091216442],[-87.0227797026694,36.0187544090657],[-87.0227016561528,36.0186975853482],[-87.0226341019611,36.0186367923184],[-87.0225637923177,36.0185780974841],[-87.0224908292284,36.0185215819954],[-87.0224153113464,36.0184673252276],[-87.0220037206689,36.0181830905294],[-87.0219217221797,36.0181335104149],[-87.0218371378981,36.0180868850816],[-87.0217501287569,36.0180433059952],[-87.0216608588881,36.0180028546802],[-87.0215695012394,36.01796560808],[-87.0214762275783,36.0179316377404],[-87.021381218465,36.017901008824],[-87.0212846532449,36.0178737783919],[-87.0212036754284,36.0178545402633],[-87.0211217204823,36.0178382594895],[-87.0210389519101,36.017824968933],[-87.0209555364388,36.0178146933173],[-87.0208716385531,36.0178074555829],[-87.0207874259267,36.0178032678275],[-87.0207030684286,36.0178021403284]]]},"properties":{"id":"274822","parcel":"16800015500","address":"9262 HESTER BEASLEY RD","owner":"HAMBLEN, JAMES CLAYTON JR. & MATTHEWS, MYRA ELIZABETH","point":[-87.02031050934283,36.016579034397736]}},{"type":"Feature","id":"275436","geometry":{"type":"Polygon","coordinates":[[[-87.0301326813814,36.0187966345422],[-87.031004392052,36.0186582698538],[-87.0311588261346,36.018633756977],[-87.0311560893918,36.018750118672],[-87.0313698212669,36.0187480861766],[-87.0313700259935,36.0190769726786],[-87.0309281134058,36.0191064033775],[-87.0306710164145,36.0191552242388],[-87.030712310456,36.01962705774],[-87.0293752024828,36.0197609768199],[-87.0292441971506,36.019377487381],[-87.0291485770727,36.0190975864491],[-87.0291399156701,36.0190722368336],[-87.0291936603589,36.0190206925064],[-87.0301880437266,36.0190098169936],[-87.0301326813814,36.0187966345422]]]},"properties":{"id":"275436","parcel":"16800000800","address":"8540 OLD HARDING PIKE","owner":"VAN RYEN, DONALD B. & CYNTHIA K.","point":[-87.02994351140335,36.01926636145251]}},{"type":"Feature","id":"275935","geometry":{"type":"Polygon","coordinates":[[[-87.0232849306607,36.0141235785206],[-87.023311092741,36.0140727298494],[-87.0278461690001,36.0155181814114],[-87.0279028129566,36.0156753106795],[-87.0287332467261,36.0181251068128],[-87.0274763851968,36.0194969695666],[-87.0274763556634,36.0194970022662],[-87.0274763283138,36.0194970322431],[-87.0274407846493,36.0194709050158],[-87.0274002877898,36.0194413904896],[-87.0274002273255,36.0194413477419],[-87.0273477372717,36.0194035234395],[-87.0273402596874,36.0193982234389],[-87.0272537014382,36.0193375103162],[-87.0272124554126,36.0193089088462],[-87.0271961495629,36.019297756117],[-87.0271238836531,36.0192489681082],[-87.0271175889943,36.0192440266487],[-87.0270822675377,36.0192169609475],[-87.0270285907758,36.0191779442602],[-87.0269734517221,36.019140297407],[-87.0269419668588,36.0191196686507],[-87.0268884700405,36.0190863268966],[-87.0268336648619,36.0190544194595],[-87.0267562681143,36.0190121626856],[-87.0267056992818,36.0189865481699],[-87.0266707387387,36.0189695407359],[-87.0266204807054,36.0189465968584],[-87.0266085994345,36.0189412748542],[-87.0265739712497,36.0189288667128],[-87.0265407629156,36.0189141165436],[-87.0265092154616,36.0188971313537],[-87.026502187988,36.0188929144609],[-87.0264952622768,36.0188885876404],[-87.0264918410298,36.0188863815134],[-87.026485077374,36.0188818883695],[-87.0264821777893,36.0188796985274],[-87.0264584401243,36.0188617833099],[-87.0264341479292,36.0188400160535],[-87.0264303688851,36.0188359625582],[-87.026412545865,36.0188168468476],[-87.0264003270477,36.0188013607808],[-87.0263929504448,36.0187920138245],[-87.0263845142848,36.0187787984057],[-87.0263763826852,36.0187660562898],[-87.0263721943192,36.0187578827295],[-87.0263622441174,36.0187378211444],[-87.0263539108685,36.018717278897],[-87.0263370329823,36.0186780385046],[-87.0263183349077,36.0186393472],[-87.0263093988255,36.0186224685534],[-87.0262874562813,36.0185835732455],[-87.0262756395142,36.0185523006809],[-87.0262658969601,36.0185205597829],[-87.0262623491681,36.0185068295156],[-87.0262591888916,36.0184930373608],[-87.0262564162116,36.0184791896272],[-87.0262533356219,36.0184606549351],[-87.026250217749,36.0184342466064],[-87.0262486730232,36.0184077464605],[-87.026248347509,36.0183851071084],[-87.0262488026323,36.0183660447646],[-87.0262496900656,36.0183561496954],[-87.0262511502164,36.0183382793512],[-87.0262548560493,36.0183110503705],[-87.0262587407862,36.0182912350467],[-87.0262605543917,36.0182826975908],[-87.0262669812965,36.0182572399613],[-87.0262694508886,36.0182488113845],[-87.0262754510536,36.0182298315903],[-87.0262852544531,36.0182033744693],[-87.0263198888976,36.0181445312807],[-87.0263466287008,36.0180938780634],[-87.0263664986447,36.0180521586961],[-87.0263696121091,36.0180453082548],[-87.0263855274962,36.0180086267208],[-87.0264002815956,36.0179716269975],[-87.0264028055461,36.0179649185792],[-87.0264052894205,36.0179581996864],[-87.0264101403154,36.0179447340539],[-87.026431934707,36.0178768599176],[-87.0264357976874,36.0178631845814],[-87.0264376696764,36.017856335703],[-87.026439501636,36.0178494799551],[-87.0264428456721,36.017837201584],[-87.0264442133106,36.0178285831998],[-87.0264506996435,36.0177877133331],[-87.0264519131831,36.0177797055559],[-87.0264588068368,36.0177304264815],[-87.0264610654731,36.0177135669213],[-87.0264673251512,36.0176645095651],[-87.0264676777667,36.0176614871292],[-87.0264740245207,36.0176067146435],[-87.0264789444868,36.0175581274745],[-87.026479905085,36.0175500353249],[-87.0264809023258,36.0175419455671],[-87.0264819384278,36.017533858182],[-87.0264830056608,36.0175257759397],[-87.0264837370859,36.017520642983],[-87.0264839121447,36.0175184765139],[-87.0264865880289,36.0174818609075],[-87.0264875990211,36.0174451900859],[-87.0264869804536,36.017420481085],[-87.0264849669434,36.0173928222238],[-87.0264808651928,36.0173580111336],[-87.026474976102,36.0173233703006],[-87.0264747421979,36.0173220960206],[-87.0264682980001,36.0172941279037],[-87.0264605006607,36.0172664471212],[-87.0264516860863,36.0172387759072],[-87.0264380190466,36.0172033901563],[-87.0264300231869,36.0171845647575],[-87.0264219611597,36.0171679184194],[-87.0264131695271,36.0171505301993],[-87.0263936673252,36.0171153545976],[-87.026372213419,36.0170809365091],[-87.026372150145,36.0170808478172],[-87.0263505603814,36.0170508581804],[-87.0263276268153,36.017021534349],[-87.0263239475208,36.0170171221745],[-87.0263202285704,36.0170127319694],[-87.0263126860295,36.0170040101351],[-87.0262912346977,36.0169804439377],[-87.0262687213049,36.0169575393423],[-87.0262602884178,36.0169493739956],[-87.0262560191986,36.0169453282752],[-87.0262517169792,36.0169413044676],[-87.0262281138205,36.0169203524008],[-87.0262071939127,36.0168977280501],[-87.0261825566603,36.0168713516094],[-87.026156030517,36.0168429488564],[-87.0261334493588,36.0168193435838],[-87.0261110941999,36.0167959698244],[-87.0260943648067,36.0167785960174],[-87.0260668021081,36.0167504201943],[-87.0260227790073,36.0167054216691],[-87.0259976613735,36.0166802399296],[-87.0259710068179,36.0166540843263],[-87.0259164333314,36.0166003372468],[-87.0259135197284,36.0165974832351],[-87.025904509659,36.0165889469274],[-87.0258686605593,36.0165553435597],[-87.0258287139081,36.0165205033087],[-87.0257955648036,36.0164933150762],[-87.0257688428861,36.0164724192212],[-87.0257551486532,36.0164619795373],[-87.0257161068041,36.0164337148073],[-87.0256761721474,36.0164065022999],[-87.0256351958834,36.0163803315639],[-87.0255981401317,36.0163580968614],[-87.0255603211667,36.0163367267047],[-87.0255407457541,36.0163259341753],[-87.0255148748936,36.0163126931652],[-87.0255137205568,36.0163120504346],[-87.0254737099018,36.0162920959598],[-87.0253216766562,36.016215302195],[-87.0252322944773,36.0161690508496],[-87.0251598326743,36.016130825934],[-87.0250868944794,36.0160916144751],[-87.024987182236,36.0160372407038],[-87.0249585727278,36.0160212729414],[-87.0249249554892,36.0160105727494],[-87.0249248396215,36.0160105349784],[-87.0248024163825,36.0159705302945],[-87.0247672874484,36.0159587433052],[-87.0247250459191,36.0159444561525],[-87.0247249289307,36.0159444174895],[-87.0246763301309,36.0159275282006],[-87.0246254043737,36.0159098249614],[-87.0245598320766,36.0158859325089],[-87.0245597194791,36.0158858902031],[-87.0244939225896,36.0158620428886],[-87.0244613003322,36.0158496828821],[-87.0243588311617,36.0158228070676],[-87.024308570022,36.015811384771],[-87.0242723659569,36.0158037988334],[-87.024243089644,36.0157980584755],[-87.0241974369042,36.0157896353081],[-87.0241754068884,36.0157859234907],[-87.0240854172288,36.0157725224746],[-87.0240789110467,36.0157716223842],[-87.0240523740109,36.015759599906],[-87.0240373618353,36.0157530135718],[-87.0240264861663,36.0157487102741],[-87.023981323958,36.0157315093779],[-87.0239727977786,36.0157285624234],[-87.0239728334688,36.0157284909155],[-87.0245737374396,36.0145339296614],[-87.0242531830826,36.0144311711976],[-87.0232849306607,36.0141235785206]]]},"properties":{"id":"275935","parcel":"16800011400","address":"8643 OLD HARDING PIKE","owner":"NASHVILLE LUTHERANS (THE)","point":[-87.02719115286051,36.01678704110119]}},{"type":"Feature","id":"276357","geometry":{"type":"Polygon","coordinates":[[[-87.0243783172745,36.0193830446285],[-87.0240275790473,36.0187478592147],[-87.0247176928092,36.0187675397072],[-87.0262496900656,36.0183561496954],[-87.0262488026323,36.0183660447646],[-87.026248347509,36.0183851071084],[-87.0262486730232,36.0184077464605],[-87.026250217749,36.0184342466064],[-87.0262533356219,36.0184606549351],[-87.0262564162116,36.0184791896272],[-87.0262591888916,36.0184930373608],[-87.0262623491681,36.0185068295156],[-87.0262658969601,36.0185205597829],[-87.0262756395142,36.0185523006809],[-87.0262874562813,36.0185835732455],[-87.0263093988255,36.0186224685534],[-87.0263183349077,36.0186393472],[-87.0263370329823,36.0186780385046],[-87.0263539108685,36.018717278897],[-87.0263622441174,36.0187378211444],[-87.0263721943192,36.0187578827295],[-87.0263763826852,36.0187660562898],[-87.0263845142848,36.0187787984057],[-87.0263929504448,36.0187920138245],[-87.0264003270477,36.0188013607808],[-87.026412545865,36.0188168468476],[-87.0264303688851,36.0188359625582],[-87.0264341479292,36.0188400160535],[-87.0264584401243,36.0188617833099],[-87.0264821777893,36.0188796985274],[-87.026485077374,36.0188818883695],[-87.0264918410298,36.0188863815134],[-87.0264952622768,36.0188885876404],[-87.026502187988,36.0188929144609],[-87.0265092154616,36.0188971313537],[-87.0265407629156,36.0189141165436],[-87.0265739712497,36.0189288667128],[-87.0266085994345,36.0189412748542],[-87.0266204807054,36.0189465968584],[-87.0266707387387,36.0189695407359],[-87.0267056992818,36.0189865481699],[-87.0267562681143,36.0190121626856],[-87.0268336648619,36.0190544194595],[-87.0268884700405,36.0190863268966],[-87.0269419668588,36.0191196686507],[-87.0269734517221,36.019140297407],[-87.0270285907758,36.0191779442602],[-87.0270822675377,36.0192169609475],[-87.0271175889943,36.0192440266487],[-87.0271238836531,36.0192489681082],[-87.0271961495629,36.019297756117],[-87.0272124554126,36.0193089088462],[-87.0272537014382,36.0193375103162],[-87.0273402596874,36.0193982234389],[-87.0273477372717,36.0194035234395],[-87.0274002273255,36.0194413477419],[-87.0274002877898,36.0194413904896],[-87.0274407846493,36.0194709050158],[-87.0274763283138,36.0194970322431],[-87.0275150240932,36.0195239365536],[-87.0275331474979,36.0195355289046],[-87.027560617527,36.0195522133159],[-87.0275684787007,36.0195567159658],[-87.0275835149541,36.0195653440543],[-87.0275882534487,36.0195680833131],[-87.0275880318682,36.0195681077363],[-87.0263370610285,36.0197018252033],[-87.0263123674246,36.0196905779736],[-87.0262966274418,36.0196835492609],[-87.026232908095,36.0196565945515],[-87.0262167950954,36.0196501485563],[-87.0262166813591,36.0196501044591],[-87.0261551670725,36.0196264522973],[-87.0260917120414,36.0196041523947],[-87.0260395805316,36.0195873640417],[-87.0260133887292,36.0195792607054],[-87.0259757030415,36.0195683457859],[-87.0259447204707,36.0195598091408],[-87.0259008661466,36.019548124727],[-87.0258975762421,36.0195473280341],[-87.025842693277,36.0195344071677],[-87.0257874735797,36.0195224733877],[-87.0257564909889,36.0195162539944],[-87.0257122059289,36.0195082433643],[-87.0256754544861,36.0195021433724],[-87.0256585601529,36.019499455259],[-87.0255916634269,36.0194899444175],[-87.0255244036265,36.0194823032683],[-87.0254788503917,36.019478070876],[-87.0254694618559,36.0194772873298],[-87.025460068157,36.0194765335706],[-87.0254506705325,36.0194758195021],[-87.0253942189116,36.0194721908984],[-87.0253847997416,36.0194716987335],[-87.0253753787714,36.0194712390309],[-87.0253659549149,36.0194708136023],[-87.0253320673731,36.0194697257183],[-87.0252808228598,36.0194687882547],[-87.0252454962086,36.0194683795731],[-87.0251597547625,36.019466503538],[-87.025074094657,36.0194629331652],[-87.0250434193494,36.0194613509814],[-87.0249734610796,36.0194570430431],[-87.0249044642399,36.0194520941564],[-87.0247938507815,36.0194419750631],[-87.0247510149471,36.0194375876863],[-87.0247509049697,36.0194375769046],[-87.024667870101,36.0194276485175],[-87.0246211775031,36.0194216075258],[-87.0246094856512,36.0194200449321],[-87.024564609986,36.0194137144628],[-87.0245004423771,36.0194038273886],[-87.024413805845,36.0193893931023],[-87.0244135767834,36.0193893535895],[-87.024378874378,36.019383142041],[-87.0243783172745,36.0193830446285]]]},"properties":{"id":"276357","parcel":"16800014600","address":"9352 HESTER BEASLEY RD","owner":"PRIDE FAMILY TRUST","point":[-87.02549023073787,36.01903357547862]}},{"type":"Feature","id":"276630","geometry":{"type":"Polygon","coordinates":[[[-87.0228963989166,36.0151317698285],[-87.0228776005971,36.0151304503849],[-87.0228566939035,36.0151309046183],[-87.0228566406573,36.0151309050705],[-87.0228342822098,36.0151338971341],[-87.0228050311159,36.0151409559016],[-87.0228046647153,36.0151410194013],[-87.0227942874671,36.0151424189377],[-87.022794227623,36.0151424239525],[-87.0227832767421,36.015143042405],[-87.0227723101827,36.0151426145537],[-87.0227722535506,36.015142610528],[-87.0227639530987,36.0151414200529],[-87.0227614122714,36.0151410549584],[-87.0232849306607,36.0141235785206],[-87.0242531830826,36.0144311711976],[-87.0241929830892,36.0145508722385],[-87.0236627450659,36.0155970636612],[-87.0236627093408,36.0155971324653],[-87.0236568774314,36.0155928502666],[-87.0236453526162,36.0155841386728],[-87.0236364805368,36.015577071983],[-87.0236121381746,36.0155563537229],[-87.0236114997874,36.0155558003274],[-87.0235960623746,36.0155422025557],[-87.0235813753202,36.0155282036267],[-87.023575971518,36.0155223593989],[-87.0235590477741,36.0155037854299],[-87.0235413375316,36.0154863375844],[-87.0235375569301,36.0154826562575],[-87.0235337488633,36.0154789958943],[-87.0235260315334,36.0154717427253],[-87.0235181855769,36.015464580781],[-87.0235142158947,36.0154610344558],[-87.0234855371518,36.0154368910338],[-87.0234554082716,36.0154139433628],[-87.0234465402174,36.0154076175123],[-87.0234375570686,36.0154013998964],[-87.0234284654459,36.015395287755],[-87.0234238780096,36.0153922730478],[-87.0234192664706,36.0153892819797],[-87.0234049475886,36.0153800929656],[-87.0233756443176,36.0153627598116],[-87.0233706534564,36.0153599486235],[-87.0233656352806,36.0153571701149],[-87.0233605952324,36.0153544161275],[-87.023355529002,36.0153516966127],[-87.0233141881274,36.0153309703776],[-87.023308923325,36.0153285103261],[-87.0233036345707,36.0153260856293],[-87.023298327295,36.0153236872281],[-87.0232929960674,36.0153213241817],[-87.0232794972065,36.0153155072465],[-87.0232704083667,36.0153117646475],[-87.0232612510802,36.0153081343934],[-87.0232566475149,36.0153063654452],[-87.0232520275887,36.0153046182676],[-87.0232239540398,36.0152948178026],[-87.0231977879552,36.015284873141],[-87.0231967931599,36.0152844696864],[-87.0231719531967,36.0152743803592],[-87.0231467880198,36.0152633302749],[-87.0231450812087,36.0152625137523],[-87.0230999022475,36.0152402670643],[-87.0230974411059,36.0152390252141],[-87.0230927061627,36.0152364434809],[-87.0230652132471,36.0152210669707],[-87.0230385547463,36.0152047513997],[-87.0230134873568,36.0151883646255],[-87.0230054208485,36.0151829386664],[-87.0230003534811,36.0151783182563],[-87.0229913918325,36.0151701454553],[-87.022975689923,36.0151587400655],[-87.0229733401833,36.015157361167],[-87.0229709653124,36.0151560122255],[-87.0229685642011,36.0151546932505],[-87.0229661390681,36.015153404223],[-87.0229612167248,36.0151509151098],[-87.0229406495988,36.0151422360727],[-87.0229379904781,36.0151412996464],[-87.0229353140145,36.0151403949135],[-87.0229326213405,36.0151395236673],[-87.0229299124677,36.0151386868088],[-87.0229271885055,36.0151378843286],[-87.0229244494421,36.0151371153256],[-87.0229192588671,36.0151355938053],[-87.0229066081411,36.0151333496811],[-87.0228985841933,36.0151319207206],[-87.0228963989166,36.0151317698285]]]},"properties":{"id":"276630","parcel":"16800011200","address":"0 OLD HARDING PIKE","owner":"NASHVILLE LUTHERAN MEN INC","point":[-87.02348103686936,36.014840673755494]}},{"type":"Feature","id":"277065","geometry":{"type":"Polygon","coordinates":[[[-87.0269307733054,36.0122280286418],[-87.0281246697472,36.0123656406123],[-87.0281432330772,36.0125106358867],[-87.0281637693458,36.012765130579],[-87.0281829560061,36.0130199125797],[-87.0281987352323,36.0132464229828],[-87.0282538134896,36.0135833138194],[-87.0283207741119,36.01397614748],[-87.0283323154659,36.0140320923586],[-87.0283747501545,36.014187084942],[-87.0284214037083,36.0143412762639],[-87.0284722540713,36.014494588994],[-87.0285272758826,36.0146469476328],[-87.0285864404641,36.0147982776098],[-87.0286497213673,36.0149485052366],[-87.0287170854755,36.0150975559798],[-87.028788501913,36.0152453570894],[-87.0288639331359,36.0153918349707],[-87.0289433438528,36.0155369187134],[-87.0290266943109,36.015680535642],[-87.0291139436938,36.0158226166957],[-87.0292050489417,36.0159630910295],[-87.0293909950701,36.0162013902914],[-87.0295803022996,36.0164379372056],[-87.0297729458224,36.0166726995212],[-87.0299688997438,36.016905646799],[-87.0301681381564,36.0171367476986],[-87.0303706351748,36.0173659726819],[-87.0303368956509,36.0174890782692],[-87.0299271361508,36.0175950221935],[-87.0299263256741,36.0175948921217],[-87.0296411619061,36.0178261262164],[-87.02955938421,36.0179094305259],[-87.0292413132171,36.0181272456733],[-87.0292282927803,36.0180844954076],[-87.0289669325176,36.018216320368],[-87.0275570331806,36.0140387083714],[-87.0269307733054,36.0122280286418]]]},"properties":{"id":"277065","parcel":"16800015200","address":"9770 HIGHWAY 96","owner":"EMMANUEL PRESBYTERIAN CHURCH, INC","point":[-87.02834608336748,36.01517155335075]}},{"type":"Feature","id":"278617","geometry":{"type":"Polygon","coordinates":[[[-87.025514836335,36.0163127142239],[-87.0255148748936,36.0163126931652],[-87.0255407457541,36.0163259341753],[-87.0255603211667,36.0163367267047],[-87.0255981401317,36.0163580968614],[-87.0256351958834,36.0163803315639],[-87.0256761721474,36.0164065022999],[-87.0257161068041,36.0164337148073],[-87.0257551486532,36.0164619795373],[-87.0257688428861,36.0164724192212],[-87.0257955648036,36.0164933150762],[-87.0258287139081,36.0165205033087],[-87.0258686605593,36.0165553435597],[-87.025904509659,36.0165889469274],[-87.0259135197284,36.0165974832351],[-87.0249659135565,36.0180335649546],[-87.0237314613291,36.0185468078929],[-87.0241694078792,36.0193399624006],[-87.0241694601518,36.0193400583978],[-87.0241566833915,36.0193373008174],[-87.0241205030355,36.0193290088897],[-87.0241037482967,36.0193250061457],[-87.0240372448483,36.0193083598388],[-87.0239255195937,36.0192786528543],[-87.0238628628042,36.0192607164115],[-87.023848548501,36.0192565072179],[-87.0237917337609,36.0192392223147],[-87.0237857215772,36.0192373319619],[-87.0237343395744,36.0192209643744],[-87.0237210617538,36.019216685969],[-87.0236973774337,36.0192089042266],[-87.022865145141,36.0177896094395],[-87.0255147944717,36.0163127371134],[-87.025514836335,36.0163127142239]]]},"properties":{"id":"278617","parcel":"16800022100","address":"9366 HESTER BEASLEY RD","owner":"PRIDE FAMILY TRUST","point":[-87.02399166741641,36.01791157659182]}},{"type":"Feature","id":"284388","geometry":{"type":"Polygon","coordinates":[[[-87.0241694078792,36.0193399624006],[-87.0237314613291,36.0185468078929],[-87.0249659135565,36.0180335649546],[-87.0259135197284,36.0165974832351],[-87.0259164333314,36.0166003372468],[-87.0259710068179,36.0166540843263],[-87.0259976613735,36.0166802399296],[-87.0260227790073,36.0167054216691],[-87.0260668021081,36.0167504201943],[-87.0260943648067,36.0167785960174],[-87.0261110941999,36.0167959698244],[-87.0261334493588,36.0168193435838],[-87.026156030517,36.0168429488564],[-87.0261825566603,36.0168713516094],[-87.0262071939127,36.0168977280501],[-87.0262281138205,36.0169203524008],[-87.0262517169792,36.0169413044676],[-87.0262560191986,36.0169453282752],[-87.0262602884178,36.0169493739956],[-87.0262687213049,36.0169575393423],[-87.0262912346977,36.0169804439377],[-87.0263126860295,36.0170040101351],[-87.0263202285704,36.0170127319694],[-87.0263239475208,36.0170171221745],[-87.0263276268153,36.017021534349],[-87.0263505603814,36.0170508581804],[-87.026372150145,36.0170808478172],[-87.026372213419,36.0170809365091],[-87.0263936673252,36.0171153545976],[-87.0264131695271,36.0171505301993],[-87.0264219611597,36.0171679184194],[-87.0264300231869,36.0171845647575],[-87.0264380190466,36.0172033901563],[-87.0264516860863,36.0172387759072],[-87.0264605006607,36.0172664471212],[-87.0264682980001,36.0172941279037],[-87.0264747421979,36.0173220960206],[-87.026474976102,36.0173233703006],[-87.0264808651928,36.0173580111336],[-87.0264849669434,36.0173928222238],[-87.0264869804536,36.017420481085],[-87.0264875990211,36.0174451900859],[-87.0264865880289,36.0174818609075],[-87.0264839121447,36.0175184765139],[-87.0264837370859,36.017520642983],[-87.0264830056608,36.0175257759397],[-87.0264819384278,36.017533858182],[-87.0264809023258,36.0175419455671],[-87.026479905085,36.0175500353249],[-87.0264789444868,36.0175581274745],[-87.0264740245207,36.0176067146435],[-87.0264676777667,36.0176614871292],[-87.0264673251512,36.0176645095651],[-87.0264610654731,36.0177135669213],[-87.0264588068368,36.0177304264815],[-87.0264519131831,36.0177797055559],[-87.0264506996435,36.0177877133331],[-87.0264442133106,36.0178285831998],[-87.0264428456721,36.017837201584],[-87.026439501636,36.0178494799551],[-87.0264376696764,36.017856335703],[-87.0264357976874,36.0178631845814],[-87.026431934707,36.0178768599176],[-87.0264101403154,36.0179447340539],[-87.0264052894205,36.0179581996864],[-87.0264028055461,36.0179649185792],[-87.0264002815956,36.0179716269975],[-87.0263855274962,36.0180086267208],[-87.0263696121091,36.0180453082548],[-87.0263664986447,36.0180521586961],[-87.0263466287008,36.0180938780634],[-87.0263198888976,36.0181445312807],[-87.0262852544531,36.0182033744693],[-87.0262754510536,36.0182298315903],[-87.0262694508886,36.0182488113845],[-87.0262669812965,36.0182572399613],[-87.0262605543917,36.0182826975908],[-87.0262587407862,36.0182912350467],[-87.0262548560493,36.0183110503705],[-87.0262511502164,36.0183382793512],[-87.0262496900656,36.0183561496954],[-87.0247176928092,36.0187675397072],[-87.0240275790473,36.0187478592147],[-87.0243783195435,36.019383048515],[-87.0243725438854,36.0193819511462],[-87.0243291089415,36.0193736849168],[-87.0242624268123,36.0193604860078],[-87.0242170217544,36.0193508646766],[-87.0242099031272,36.0193492974122],[-87.0241694601518,36.0193400583978],[-87.0241694078792,36.0193399624006]]]},"properties":{"id":"284388","parcel":"16800022000","address":"9360 HESTER BEASLEY RD","owner":"GREG & CONNIE GAMMELL LIVING TRUST","point":[-87.02569364192391,36.017990278700296]}},{"type":"Feature","id":"284389","geometry":{"type":"Polygon","coordinates":[[[-87.0212212006556,36.0156991737997],[-87.0209492371767,36.014979148279],[-87.0206163128009,36.0140977159365],[-87.0206034650841,36.0140978247924],[-87.0205389584051,36.0139196570112],[-87.0205294935069,36.0138935078002],[-87.0205281057443,36.0138897123693],[-87.0205266892434,36.0138858387668],[-87.0204369652681,36.0137681866797],[-87.0201370137747,36.0133748572421],[-87.0201682674124,36.0132033844386],[-87.0201919821975,36.0130732939224],[-87.020207650847,36.0126524632376],[-87.0202163748783,36.0124181453638],[-87.0200343552555,36.0114087013696],[-87.0200804714117,36.011357754704],[-87.0201927243583,36.0112337364131],[-87.0206049201457,36.0110763994559],[-87.0207266237631,36.010974168485],[-87.0211117261631,36.0106506777129],[-87.0211117949028,36.0106507609533],[-87.0211793579046,36.0107300490624],[-87.0213721482969,36.0117230132971],[-87.0213980564641,36.0118564328388],[-87.0213980593656,36.0118564859922],[-87.0215008084665,36.0140902185042],[-87.0215089565359,36.0143032915635],[-87.0215136949865,36.014307104536],[-87.0215496580173,36.0143358969641],[-87.0215817433705,36.0143623328603],[-87.0215818521756,36.0143624256751],[-87.021614764827,36.0143902164454],[-87.0216527987823,36.0144229480869],[-87.0216528548373,36.014422993579],[-87.0217027688996,36.0144675074861],[-87.0217363331578,36.0144984293003],[-87.0217508329069,36.0145119649593],[-87.0217805858395,36.0145403413059],[-87.0218015349091,36.0145608066041],[-87.0218190582879,36.0145780039186],[-87.021869023897,36.014628326346],[-87.0219051042739,36.0146662273438],[-87.0219420314246,36.014706047274],[-87.0219580108614,36.014723699315],[-87.0219846512807,36.0147440757367],[-87.0220187794831,36.0147672404092],[-87.0220542086309,36.0147890781025],[-87.0220860768114,36.0148069639554],[-87.0221190773275,36.0148234386348],[-87.0221346706935,36.0148307305173],[-87.0221504513968,36.0148377513128],[-87.0221988722404,36.0148571163548],[-87.0222153460728,36.0148629946917],[-87.022231968231,36.0148685878509],[-87.0222320841074,36.0148686265258],[-87.0222663714519,36.0148790495785],[-87.0223009830146,36.0148883711573],[-87.022336252485,36.0148963135264],[-87.0223394920389,36.0148975262526],[-87.0223692123556,36.0149086712394],[-87.0223914871978,36.0149182480181],[-87.0224143665803,36.0149288525776],[-87.0224237625853,36.014933453397],[-87.0224330647566,36.0149381766908],[-87.0224513962176,36.014947970799],[-87.02247817216,36.0149635139697],[-87.0225040169676,36.0149800655069],[-87.0225207104562,36.0149916328908],[-87.0225288900109,36.0149975716766],[-87.0225369500213,36.0150036178328],[-87.0225460210491,36.0150104665967],[-87.0225713165655,36.0150314050144],[-87.022571368219,36.0150314532473],[-87.0225967821715,36.0150551297746],[-87.0226208653311,36.0150797071999],[-87.0226391542433,36.0151003346411],[-87.0226534523898,36.015112235101],[-87.0226553617433,36.0151136186457],[-87.0226572962978,36.0151149776408],[-87.0226592571624,36.0151163120767],[-87.0226612487165,36.0151176174097],[-87.0226632335418,36.0151188308649],[-87.0226652435217,36.0151200161655],[-87.0226672797538,36.0151211724009],[-87.0226691936468,36.0151222188121],[-87.0226693411172,36.0151222986792],[-87.0226714254051,36.0151233959205],[-87.0226731765142,36.0151242931927],[-87.0226735315311,36.0151244659367],[-87.0226888920262,36.015131067509],[-87.0226892665933,36.0151312076393],[-87.0226911656807,36.0151318792255],[-87.0226934556038,36.0151326619616],[-87.0226936204985,36.0151327164437],[-87.0226957617489,36.0151334121123],[-87.0226980841047,36.0151341287763],[-87.0227004204525,36.0151348119726],[-87.0227027729993,36.0151354607809],[-87.0227050374016,36.0151360706795],[-87.0227073157378,36.015136642604],[-87.0227119067372,36.015137695128],[-87.022718870028,36.0151390339605],[-87.0227235556281,36.01513976481],[-87.0227259094672,36.0151400828215],[-87.0227282705845,36.0151403629155],[-87.0227340212922,36.0151410126157],[-87.0227474963087,36.015141445311],[-87.0227478401562,36.0151414396876],[-87.0227614122714,36.0151410549584],[-87.0227639530987,36.0151414200529],[-87.0227722535506,36.015142610528],[-87.0227723101827,36.0151426145537],[-87.0227832767421,36.015143042405],[-87.022794227623,36.0151424239525],[-87.0227942874671,36.0151424189377],[-87.0228046647153,36.0151410194013],[-87.0228050311159,36.0151409559016],[-87.0228342822098,36.0151338971341],[-87.0228566406573,36.0151309050705],[-87.0228566939035,36.0151309046183],[-87.0228776005971,36.0151304503849],[-87.0228963989166,36.0151317698285],[-87.0228985841933,36.0151319207206],[-87.0229066081411,36.0151333496811],[-87.0229192588671,36.0151355938053],[-87.0229244494421,36.0151371153256],[-87.0229271885055,36.0151378843286],[-87.0229299124677,36.0151386868088],[-87.0229326213405,36.0151395236673],[-87.0229351346524,36.0151403369494],[-87.0229353140145,36.0151403949135],[-87.0229379904781,36.0151412996464],[-87.0229406495988,36.0151422360727],[-87.0229612167248,36.0151509151098],[-87.0229661390681,36.015153404223],[-87.0229662999201,36.015153489384],[-87.0229685642011,36.0151546932505],[-87.0229709653124,36.0151560122255],[-87.0229733401833,36.015157361167],[-87.022975689923,36.0151587400655],[-87.0229913918325,36.0151701454553],[-87.0230003534811,36.0151783182563],[-87.0230054208485,36.0151829386664],[-87.0230134873568,36.0151883646255],[-87.0230385547463,36.0152047513997],[-87.0230652132471,36.0152210669707],[-87.0230927061627,36.0152364434809],[-87.0230974411059,36.0152390252141],[-87.0230999022475,36.0152402670643],[-87.0231450812087,36.0152625137523],[-87.0231467880198,36.0152633302749],[-87.0231719531967,36.0152743803592],[-87.0231967931599,36.0152844696864],[-87.0231977879552,36.015284873141],[-87.0232239540398,36.0152948178026],[-87.0232520275887,36.0153046182676],[-87.0232566475149,36.0153063654452],[-87.0232612510802,36.0153081343934],[-87.0232704083667,36.0153117646475],[-87.0232794972065,36.0153155072465],[-87.0232929960674,36.0153213241817],[-87.023298327295,36.0153236872281],[-87.0233036345707,36.0153260856293],[-87.023308923325,36.0153285103261],[-87.0233141881274,36.0153309703776],[-87.023355529002,36.0153516966127],[-87.0233605952324,36.0153544161275],[-87.0233656352806,36.0153571701149],[-87.0233706534564,36.0153599486235],[-87.0233756443176,36.0153627598116],[-87.0234049475886,36.0153800929656],[-87.0234192664706,36.0153892819797],[-87.0234238780096,36.0153922730478],[-87.0234284654459,36.015395287755],[-87.0234375570686,36.0154013998964],[-87.0234465402174,36.0154076175123],[-87.0234554082716,36.0154139433628],[-87.0234855371518,36.0154368910338],[-87.0235142158947,36.0154610344558],[-87.0235181855769,36.015464580781],[-87.0235260315334,36.0154717427253],[-87.0235337488633,36.0154789958943],[-87.0235375569301,36.0154826562575],[-87.0235413375316,36.0154863375844],[-87.0235590477741,36.0155037854299],[-87.023575971518,36.0155223593989],[-87.0235813753202,36.0155282036267],[-87.0235960623746,36.0155422025557],[-87.0236114997874,36.0155558003274],[-87.0236121381746,36.0155563537229],[-87.0236364805368,36.015577071983],[-87.0236453526162,36.0155841386728],[-87.0236568774314,36.0155928502666],[-87.0236627093408,36.0155971324653],[-87.023689000156,36.0156146840334],[-87.0237164392908,36.0156310333866],[-87.0237250902315,36.0156358306161],[-87.0237294550222,36.0156381811264],[-87.0237338416511,36.0156405044112],[-87.0237382544858,36.0156427950255],[-87.0237470009429,36.0156473417753],[-87.0237558325225,36.0156517787409],[-87.023773757392,36.0156602989301],[-87.0238035830012,36.0156731209337],[-87.0238341887489,36.0156846663354],[-87.0238533805189,36.0156911126167],[-87.0238630715692,36.0156941443176],[-87.0238728176282,36.0156970538715],[-87.0239727977786,36.0157285624234],[-87.023981323958,36.0157315093779],[-87.0240264861663,36.0157487102741],[-87.0240373618353,36.0157530135718],[-87.0240523740109,36.015759599906],[-87.0240789110467,36.0157716223842],[-87.0240854172288,36.0157725224746],[-87.0241754068884,36.0157859234907],[-87.0241974369042,36.0157896353081],[-87.024243089644,36.0157980584755],[-87.0242723659569,36.0158037988334],[-87.024308570022,36.015811384771],[-87.0243588311617,36.0158228070676],[-87.0244613003322,36.0158496828821],[-87.0244939225896,36.0158620428886],[-87.0245597194791,36.0158858902031],[-87.0245598320766,36.0158859325089],[-87.0246254043737,36.0159098249614],[-87.0246763301309,36.0159275282006],[-87.0247249289307,36.0159444174895],[-87.0247250459191,36.0159444561525],[-87.0247672874484,36.0159587433052],[-87.0248024163825,36.0159705302945],[-87.0249248396215,36.0160105349784],[-87.0249249554892,36.0160105727494],[-87.0249585727278,36.0160212729414],[-87.024987182236,36.0160372407038],[-87.0250868944794,36.0160916144751],[-87.0251598326743,36.016130825934],[-87.0252322944773,36.0161690508496],[-87.0253216766562,36.016215302195],[-87.0254737099018,36.0162920959598],[-87.0255137205568,36.0163120504346],[-87.0255148748936,36.0163126931652],[-87.025514836335,36.0163127142239],[-87.0255147944717,36.0163127371134],[-87.022865145141,36.0177896094395],[-87.0236973774337,36.0192089042266],[-87.0236963191261,36.0192085698162],[-87.0236623947535,36.0191971138674],[-87.0236622788469,36.0191970733915],[-87.0236113501674,36.0191795464046],[-87.0235679586631,36.0191641257386],[-87.0235153612818,36.0191446092508],[-87.0234511697072,36.0191199049883],[-87.0234338627923,36.0191130784938],[-87.0233950369348,36.019096716754],[-87.023356975184,36.0190792083381],[-87.0233470527906,36.0190746111614],[-87.0233029308555,36.0190540653783],[-87.0232790990902,36.0190426650967],[-87.0231802460503,36.0189942078382],[-87.0231577710684,36.0189827969102],[-87.0231135384256,36.0189600203247],[-87.0225582414905,36.0178953253755],[-87.0220955867338,36.0170082332757],[-87.0216905435296,36.0160138737028],[-87.0212212006556,36.0156991737997]]]},"properties":{"id":"284389","parcel":"16800022200","address":"9370 HESTER BEASLEY RD","owner":"PRIDE, CAROLL R.","point":[-87.02167513744962,36.01493128973504]}}]}