{"type":"FeatureCollection","features":[{"type":"Feature","id":"113393","geometry":{"type":"Polygon","coordinates":[[[-87.0052603224093,36.1011859216035],[-87.0024011070037,36.100401288734],[-87.0024342556599,36.100244957088],[-87.0029024139332,36.0997542364943],[-87.0031416227728,36.0995034970887],[-87.0038992541389,36.0987093305438],[-87.0043783613582,36.0982071076363],[-87.0045856486133,36.0980335483193],[-87.0046408516149,36.0979877807893],[-87.0050198293174,36.097817429198],[-87.0053146680387,36.0976062259713],[-87.0057437705998,36.0972533168691],[-87.0061281313272,36.0968019325803],[-87.0063906271724,36.0965956228636],[-87.0063492377421,36.0963728044771],[-87.0072431625145,36.0955545256374],[-87.0074831494364,36.0951549733713],[-87.007418721924,36.0951137451999],[-87.0075312010192,36.0948149332709],[-87.0076935331117,36.0947891451224],[-87.0078550263241,36.0947600929313],[-87.0080155809062,36.0947277937579],[-87.0081750971543,36.0946922682682],[-87.0083334764869,36.0946535380203],[-87.0084906225786,36.0946116272582],[-87.0086464357846,36.0945665611549],[-87.0088008231693,36.0945183684335],[-87.008953687356,36.0944670778545],[-87.0091049343462,36.0944127217556],[-87.0092544723742,36.0943553333579],[-87.0094022063784,36.0942949486139],[-87.0095480468619,36.0942316043318],[-87.0096919043512,36.094165339122],[-87.0098336894202,36.0940961952005],[-87.0099733137423,36.0940242138728],[-87.0107976590723,36.097682512561],[-87.0126930019497,36.1032158436205],[-87.0126932980247,36.1032189425187],[-87.0126941474767,36.1032191886517],[-87.0126964050847,36.1032257816541],[-87.0052603224093,36.1011859216035]]]},"properties":{"id":"113393","parcel":"12600003900","address":"0 HIGHWAY 70","owner":"CONNOR FAMILY TRUST, THE","point":[-87.00760100240483,36.09845804973503]}}]}