{"type":"FeatureCollection","features":[{"type":"Feature","id":"94322","geometry":{"type":"Polygon","coordinates":[[[-87.0050555915371,36.0438926031527],[-87.0052357176523,36.0429470745681],[-87.0060311783712,36.0426501458158],[-87.0063020082154,36.0419587888412],[-87.0069591489348,36.041968439564],[-87.0073663071474,36.0419629427156],[-87.0077950280816,36.0420065967862],[-87.0083096137247,36.0419523275462],[-87.0079916526339,36.0438461322378],[-87.0076954744403,36.0438294933518],[-87.0073479505384,36.0437666083455],[-87.0072674872922,36.0437234878286],[-87.0070633479974,36.0436602650498],[-87.0066083105643,36.043443556544],[-87.0058797799276,36.043478256814],[-87.005756021101,36.0440959139582],[-87.0050341388197,36.0440052103504],[-87.0050555915371,36.0438926031527]]]},"properties":{"id":"94322","parcel":"15400029800","address":"0 GRIFFITH RD","owner":"METROPOLITAN EQUITIES, L.P.","point":[-87.0066446825615,36.043195279654526]}},{"type":"Feature","id":"232395","geometry":{"type":"Polygon","coordinates":[[[-87.0069092054633,36.0500646033842],[-87.0066437658496,36.049929185698],[-87.0063650881187,36.0497870081613],[-87.0063343132561,36.0497699518035],[-87.0063060453316,36.0497502390615],[-87.0062806303839,36.0497281131064],[-87.006258380367,36.049703842631],[-87.0062395665369,36.0496777255095],[-87.0062244193604,36.0496500815885],[-87.0062131229094,36.0496212482267],[-87.0061805127854,36.0495572360607],[-87.0064436758303,36.0495814092287],[-87.0066697962808,36.0492718353121],[-87.00688451277,36.0487030173882],[-87.0077238506522,36.0478784308462],[-87.0077121968122,36.0473862274306],[-87.0072892415494,36.0477523957926],[-87.0072238508998,36.0477177784538],[-87.0077333218012,36.0469179258269],[-87.0085189301554,36.0469531116525],[-87.0085201850276,36.0470520006476],[-87.0085374250116,36.0479573380854],[-87.0087685420632,36.0486820418452],[-87.0086074039539,36.0492064595271],[-87.0084353003146,36.0495067964352],[-87.0084101226085,36.0500553506054],[-87.0083858085959,36.0500485796831],[-87.0083605334004,36.0500447821227],[-87.0083348463516,36.0500440398535],[-87.0083093037008,36.0500463680501],[-87.008284458657,36.0500517170184],[-87.008260850277,36.0500599713871],[-87.0082389901605,36.0500709511206],[-87.0082193525528,36.0500844188116],[-87.0082087596684,36.0500926463005],[-87.0081999567651,36.0501021630156],[-87.0081828266285,36.0501385698051],[-87.0081654272459,36.0501589156198],[-87.0081453100116,36.0501775365194],[-87.0081227316201,36.0501941942108],[-87.0080979834789,36.0502086744462],[-87.0080713773615,36.0502207934521],[-87.00804325869,36.0502303951147],[-87.0079965853573,36.0502510831067],[-87.0079481394728,36.0502688827722],[-87.0078981905835,36.0502836936116],[-87.0078470195522,36.0502954321559],[-87.0077949108232,36.0503040347356],[-87.0077421579026,36.0503094520269],[-87.0076890523168,36.0503116536507],[-87.0076358936016,36.0503106280888],[-87.0075829781687,36.0503063800737],[-87.0075306004616,36.0502989341833],[-87.0074790540307,36.0502883321289],[-87.0074286270829,36.0502746318903],[-87.0073796014168,36.0502579113303],[-87.0073322512562,36.0502382636979],[-87.0070370643627,36.0501165566455],[-87.0069092054633,36.0500646033842]]]},"properties":{"id":"232395","parcel":"15400002200","address":"5081 PINE HILL RD","owner":"CARTER, DAVID N. & MOORE, JUANITA M.","point":[-87.00796379518232,36.04831973779097]}},{"type":"Feature","id":"232503","geometry":{"type":"Polygon","coordinates":[[[-87.0065499599581,36.0479299993196],[-87.0042428731122,36.0476129900194],[-87.0040029286598,36.0471232366087],[-87.002422581413,36.0469993063956],[-87.0024117100295,36.0468884098629],[-87.0041198031952,36.0470024844228],[-87.0043631732617,36.0474955033721],[-87.0062470856734,36.0477347288656],[-87.0055960051343,36.0467555628885],[-87.0073675933309,36.0468880171292],[-87.007571111316,36.046904447437],[-87.0077333218012,36.0469179258269],[-87.0072238508998,36.0477177784538],[-87.0064323297152,36.0477504898928],[-87.0065499599581,36.0479299993196]]]},"properties":{"id":"232503","parcel":"15400008500","address":"710 PINE HILL LN","owner":"SLAYDEN FAMILY REVOCABLE LIVING TRUST","point":[-87.0067241453347,36.047309254544196]}},{"type":"Feature","id":"233947","geometry":{"type":"Polygon","coordinates":[[[-87.0023984913222,36.0467522581904],[-87.002384889144,36.0466125377927],[-87.0038965825473,36.046711490823],[-87.0039323701744,36.0459562586649],[-87.0049099229509,36.0459497592909],[-87.0050905250031,36.0459466046041],[-87.0050944536628,36.0460230276786],[-87.0051026657312,36.0460992266506],[-87.0051151458866,36.0461750421145],[-87.0051318666225,36.0462503165684],[-87.0051527938077,36.0463248952692],[-87.0051778844101,36.0463986217449],[-87.0052070854435,36.0464713423103],[-87.005240337308,36.0465429069401],[-87.005277569317,36.0466131666024],[-87.0053051295414,36.0466524972014],[-87.0059090905038,36.0475441474316],[-87.0044832775557,36.0473626363964],[-87.0042372293848,36.0468718391971],[-87.0023984913222,36.0467522581904]]]},"properties":{"id":"233947","parcel":"15400005300","address":"719 PINE HILL LN","owner":"FONT, MADISON K","point":[-87.00387767627599,36.04673185545569]}},{"type":"Feature","id":"233949","geometry":{"type":"Polygon","coordinates":[[[-87.0038914646231,36.0483150810083],[-87.0039986678228,36.0483122654193],[-87.0041245607184,36.0483161611229],[-87.0041603632611,36.0483922356726],[-87.0031094768609,36.0484872497356],[-87.0025492047999,36.0486166358895],[-87.0025475955611,36.0485963192352],[-87.0025540132622,36.0485836780919],[-87.0025629157124,36.0485720708144],[-87.0025740572498,36.0485618194125],[-87.0025871317509,36.0485532040373],[-87.002601780377,36.0485464611136],[-87.0026176003833,36.0485417778599],[-87.0026341549712,36.0485392813899],[-87.0030074811586,36.0484738110534],[-87.0032370308482,36.0484350897235],[-87.0034840555948,36.0483871552201],[-87.0036145115243,36.0483605715709],[-87.0037455875308,36.048336076368],[-87.0038914646231,36.0483150810083]]]},"properties":{"id":"233949","parcel":"15400006700","address":"0 GRIFFITH RD","owner":"LUCKETT, J. D. ETUX","point":[-87.00329731100871,36.04845444575689]}},{"type":"Feature","id":"234020","geometry":{"type":"Polygon","coordinates":[[[-87.0016675256997,36.0436913657721],[-87.0016026155837,36.043642194179],[-87.0031573690715,36.0437401987819],[-87.0032513493918,36.0447665902441],[-87.0022364913292,36.0447575414426],[-87.0022344555253,36.0447117463394],[-87.0022291858116,36.0446513515933],[-87.0022291745741,36.0446512525421],[-87.0022209922077,36.0445911722425],[-87.0022209740961,36.0445910561235],[-87.0022098869992,36.0445313019211],[-87.0022098704746,36.0445312236442],[-87.0022026638211,36.0444990552609],[-87.002195886899,36.0444718333249],[-87.0021776002435,36.0444083696951],[-87.0021775725082,36.0444082824983],[-87.0021560172154,36.0443455923371],[-87.0021559781672,36.0443454881092],[-87.0021311758854,36.0442836153992],[-87.0021311301335,36.0442835076219],[-87.0021031220349,36.0442225484596],[-87.0021030856039,36.044222475756],[-87.0020719047966,36.0441625028704],[-87.002033697549,36.0440973193162],[-87.0020336374962,36.0440972215722],[-87.0019917910528,36.0440336978431],[-87.0019917672946,36.044033661988],[-87.0019917480774,36.044033634207],[-87.0019917221111,36.0440335992717],[-87.0019461980096,36.0439716770982],[-87.0019461438464,36.0439716063446],[-87.0018970956931,36.0439114971561],[-87.0018970382463,36.0439114300351],[-87.0018445674866,36.0438532573653],[-87.001844519122,36.0438532063924],[-87.001788727098,36.0437970856641],[-87.0017886563349,36.0437970186538],[-87.0017297014933,36.0437431053742],[-87.0017296655968,36.0437430750279],[-87.0016676176262,36.0436914389158],[-87.0016675256997,36.0436913657721]]]},"properties":{"id":"234020","parcel":"15400004300","address":"8776 GRIFFITH RD","owner":"HILL, CAMERON & MELODIE","point":[-87.00264313758358,36.044192478352926]}},{"type":"Feature","id":"234021","geometry":{"type":"Polygon","coordinates":[[[-86.9995666406995,36.0441797486804],[-87.0015257636023,36.044407399524],[-87.0019585131291,36.0443030837738],[-87.0019822998463,36.0443591505794],[-87.0020034461651,36.044415909012],[-87.0020219233377,36.0444732799963],[-87.0020368964213,36.0445311478974],[-87.002048977378,36.0445894607595],[-87.0020581461093,36.0446481214084],[-87.0020643870011,36.0447070362379],[-87.0020676910403,36.04476610708],[-87.0020916195086,36.0450771339255],[-86.9989904546147,36.0453646593716],[-86.9995666406995,36.0441797486804]]]},"properties":{"id":"234021","parcel":"15400004800","address":"8765 GRIFFITH RD","owner":"STILLWELL, THOMAS C. & DEBORAH","point":[-87.00064277045642,36.04492163681829]}},{"type":"Feature","id":"234187","geometry":{"type":"Polygon","coordinates":[[[-87.0050905250031,36.0459466046041],[-87.0050928029001,36.0459261077298],[-87.0050925426452,36.0459055283737],[-87.0050897468616,36.0458850738164],[-87.005119831722,36.0454025175131],[-87.0051662415243,36.0446580794401],[-87.0061957496256,36.044605573723],[-87.0062466937329,36.0446056359483],[-87.0062974845282,36.0446088414176],[-87.0063478287914,36.0446151718496],[-87.0063974352936,36.0446245909204],[-87.0064460169928,36.044637042443],[-87.006493293334,36.0446524566565],[-87.0065389901799,36.0446707448196],[-87.0065828442385,36.0446917982714],[-87.0066246020787,36.0447154983548],[-87.0066640222129,36.0447417055827],[-87.0067008752336,36.0447702704529],[-87.0067349492707,36.0448010261916],[-87.0070770319602,36.045154756129],[-87.0077828010933,36.0458845598846],[-87.0077608021681,36.0460438070599],[-87.0073733017885,36.0456569433507],[-87.0066144061728,36.0448987344031],[-87.0065864927628,36.0448720930504],[-87.0065556157746,36.0448477026942],[-87.0065220509712,36.0448257800486],[-87.0064860938155,36.0448065200318],[-87.006448063886,36.0447900939263],[-87.0064083004044,36.0447766467128],[-87.0063671555769,36.0447662971259],[-87.0063249934961,36.0447591385642],[-87.0062821900732,36.0447552336839],[-87.0062391230959,36.0447546180859],[-87.0053333881129,36.0448215176309],[-87.0052915369405,36.0455779007066],[-87.0052720193985,36.0459604752526],[-87.0052696659972,36.0460198365595],[-87.005271468019,36.0460792100693],[-87.0052774197273,36.046138404751],[-87.005287500959,36.0461972296936],[-87.0053016804646,36.0462554949793],[-87.0053199103599,36.0463130117301],[-87.0053421350488,36.0463695956386],[-87.0053682789593,36.0464250625636],[-87.0053982610385,36.0464792338172],[-87.0054319825225,36.0465319344642],[-87.005469335848,36.0465829959519],[-87.0053051295414,36.0466524972014],[-87.005277569317,36.0466131666024],[-87.005240337308,36.0465429069401],[-87.0052070854435,36.0464713423103],[-87.0051778844101,36.0463986217449],[-87.0051527938077,36.0463248952692],[-87.0051318666225,36.0462503165684],[-87.0051151458866,36.0461750421145],[-87.0051026657312,36.0460992266506],[-87.0050944536628,36.0460230276786],[-87.0050905250031,36.0459466046041]]]},"properties":{"id":"234187","parcel":"15400011200","address":"0 GRIFFITH RD","owner":"FREEMAN, WILLIAM H.","point":[-87.00742904412893,36.04561736361376]}},{"type":"Feature","id":"234618","geometry":{"type":"Polygon","coordinates":[[[-87.0022654924574,36.0451344906003],[-87.0022548212359,36.0449957768667],[-87.0039348418467,36.045093994257],[-87.0041400246874,36.0437567573456],[-87.0050555915371,36.0438926031527],[-87.0050341388197,36.0440052103504],[-87.005756021101,36.0440959139582],[-87.007132591607,36.0442688765142],[-87.0070770319602,36.045154756129],[-87.0067349492707,36.0448010261916],[-87.0067008752336,36.0447702704529],[-87.0066640222129,36.0447417055827],[-87.0066246020787,36.0447154983548],[-87.0065828442385,36.0446917982714],[-87.0065389901799,36.0446707448196],[-87.006493293334,36.0446524566565],[-87.0064460169928,36.044637042443],[-87.0063974352936,36.0446245909204],[-87.0063478287914,36.0446151718496],[-87.0062974845282,36.0446088414176],[-87.0062466937329,36.0446056359483],[-87.0061957496256,36.044605573723],[-87.0051662415243,36.0446580794401],[-87.0042990911261,36.0439427692433],[-87.0040943285968,36.0452459863553],[-87.0022654924574,36.0451344906003]]]},"properties":{"id":"234618","parcel":"15400005500","address":"757 PINE HILL LN","owner":"WALLACE, JOE & SUE, CO-TRUSTEES","point":[-87.0060103214328,36.0444372605948]}},{"type":"Feature","id":"234764","geometry":{"type":"Polygon","coordinates":[[[-86.9976103854665,36.0469933616997],[-86.9978776455128,36.0469406023397],[-86.9980604936632,36.0469544699403],[-87.0008802153229,36.0471654029635],[-87.002276137776,36.0472703004911],[-87.0023718744109,36.0485310242243],[-86.9974901047476,36.047113036082],[-86.9976103854665,36.0469933616997]]]},"properties":{"id":"234764","parcel":"15400003800","address":"0 GRIFFITH RD","owner":"HUTCHINS, BRENDA J. REVOCABLE LIVING TRUST","point":[-87.00126283833654,36.04790067827368]}},{"type":"Feature","id":"234765","geometry":{"type":"Polygon","coordinates":[[[-86.9995666406995,36.0441797486804],[-86.9986523240686,36.0440859954443],[-86.9986722668696,36.0440052147786],[-86.9995894966171,36.0440985858712],[-86.9997525042491,36.0435702320889],[-86.9997682728845,36.0435256222729],[-87.0013591560477,36.0436558742355],[-87.0014251414992,36.0436991496319],[-87.0014891468785,36.0437443441247],[-87.0015510903839,36.0437913953047],[-87.0016092402414,36.0438407069374],[-87.0016645303026,36.0438921423777],[-87.0017168426621,36.0439455926491],[-87.0017660660146,36.0440009442138],[-87.0018116500691,36.0440582115647],[-87.0018535359693,36.0441173041623],[-87.0018920281746,36.0441778995123],[-87.0019270451675,36.0442398703087],[-87.0019585131291,36.0443030837738],[-87.0015257636023,36.044407399524],[-86.9995666406995,36.0441797486804]]]},"properties":{"id":"234765","parcel":"15400004400","address":"8877 GRIFFITH RD","owner":"NEWPORT, BOB A. ET UX","point":[-87.00068480517267,36.043973279125005]}},{"type":"Feature","id":"234766","geometry":{"type":"Polygon","coordinates":[[[-87.0054302792748,36.0507692485147],[-87.0050027806516,36.0499758481299],[-87.004596072255,36.0492207346274],[-87.0041603632611,36.0483922356726],[-87.0041245607184,36.0483161611229],[-87.0041928584095,36.0483210918495],[-87.0042608681768,36.0483281808808],[-87.0043284855828,36.0483374191732],[-87.0043956072313,36.0483487922668],[-87.004680725777,36.0483974606459],[-87.0055448995803,36.0485449744849],[-87.0055820967935,36.048554846254],[-87.0056179322364,36.0485676162852],[-87.0056520647388,36.0485831621442],[-87.0056841672369,36.0486013360422],[-87.005713936762,36.048621964753],[-87.0057410867056,36.0486448523811],[-87.0057653601253,36.0486697793491],[-87.005786525397,36.048696509645],[-87.0058043817412,36.0487247889728],[-87.005818757026,36.0487543465735],[-87.0058295167253,36.0487849014599],[-87.0058365572607,36.0488161624713],[-87.0058522635378,36.0490948737132],[-87.0058567467377,36.0491403265305],[-87.0058648606218,36.0491854462017],[-87.005876568375,36.0492300419548],[-87.0058918221185,36.0492739258137],[-87.0059105573373,36.0493169108423],[-87.0060486489156,36.0496698736838],[-87.0060643112487,36.0497041983733],[-87.0060835011887,36.0497373219025],[-87.0061060780911,36.0497690056942],[-87.0061318814602,36.0497990212514],[-87.0061607243241,36.0498271529164],[-87.0061923987838,36.0498531978246],[-87.006226679377,36.0498769685802],[-87.0062633164413,36.0498982951147],[-87.0063294092686,36.0499318093044],[-87.006383166802,36.0499591091572],[-87.006162093073,36.0508546224607],[-87.0054302792748,36.0507692485147]]]},"properties":{"id":"234766","parcel":"15400004700","address":"5050 PINE HILL RD","owner":"LUCKETT, J. D. ETUX","point":[-87.00536127948956,36.04949342152966]}},{"type":"Feature","id":"235110","geometry":{"type":"Polygon","coordinates":[[[-87.0024117100295,36.0468884098629],[-87.0023984913222,36.0467522581904],[-87.0042372293848,36.0468718391971],[-87.0044832775557,36.0473626363964],[-87.0059090905038,36.0475441474316],[-87.0053051295414,36.0466524972014],[-87.005469335848,36.0465829959519],[-87.0054319825225,36.0465319344642],[-87.0053982610385,36.0464792338172],[-87.0053682789593,36.0464250625636],[-87.0053421350488,36.0463695956386],[-87.0053199103599,36.0463130117301],[-87.0053016804646,36.0462554949793],[-87.005287500959,36.0461972296936],[-87.0052774197273,36.046138404751],[-87.005271468019,36.0460792100693],[-87.0052696659972,36.0460198365595],[-87.0052720193985,36.0459604752526],[-87.0052915369405,36.0455779007066],[-87.0073733017885,36.0456569433507],[-87.0077608021681,36.0460438070599],[-87.0077530600274,36.0461001877788],[-87.0076024384039,36.0466003432043],[-87.007571111316,36.046904447437],[-87.0073675933309,36.0468880171292],[-87.0055960051343,36.0467555628885],[-87.0062470856734,36.0477347288656],[-87.0043631732617,36.0474955033721],[-87.0041198031952,36.0470024844228],[-87.0024117100295,36.0468884098629]]]},"properties":{"id":"235110","parcel":"15400008700","address":"724 PINE HILL LN","owner":"CAUL, WILLIAM F. ET UX","point":[-87.00646541401682,36.046702274052805]}},{"type":"Feature","id":"235112","geometry":{"type":"Polygon","coordinates":[[[-87.0052915369405,36.0455779007066],[-87.0053333881129,36.0448215176309],[-87.0062391230959,36.0447546180859],[-87.0062821900732,36.0447552336839],[-87.0063249934961,36.0447591385642],[-87.0063671555769,36.0447662971259],[-87.0064083004044,36.0447766467128],[-87.006448063886,36.0447900939263],[-87.0064860938155,36.0448065200318],[-87.0065220509712,36.0448257800486],[-87.0065556157746,36.0448477026942],[-87.0065864927628,36.0448720930504],[-87.0066144061728,36.0448987344031],[-87.0073733017885,36.0456569433507],[-87.0052915369405,36.0455779007066]]]},"properties":{"id":"235112","parcel":"15400008900","address":"0 GRIFFITH RD","owner":"FREEMAN, WILLIAM H.","point":[-87.00613228349124,36.045238310351884]}},{"type":"Feature","id":"235116","geometry":{"type":"Polygon","coordinates":[[[-87.0025492047999,36.0486166358895],[-87.0031094768609,36.0484872497356],[-87.0041603632611,36.0483922356726],[-87.004596072255,36.0492207346274],[-87.0035721627494,36.0495512384886],[-87.0032672774004,36.0497323462794],[-87.0026519483827,36.0497619172629],[-87.0026532284283,36.0497561373027],[-87.0026320315246,36.0496221476716],[-87.002614976359,36.0494877693592],[-87.0026020728464,36.0493530861068],[-87.0025933298029,36.0492181825657],[-87.0025492047999,36.0486166358895]]]},"properties":{"id":"235116","parcel":"15400009800","address":"5010 PINE HILL RD","owner":"AMBLER, LAURA & TIMOTHY","point":[-87.00350389515471,36.04891738560853]}},{"type":"Feature","id":"236140","geometry":{"type":"Polygon","coordinates":[[[-87.0061805127854,36.0495572360607],[-87.0061725234544,36.0495408195292],[-87.0061390403246,36.0494658816976],[-87.0061088188333,36.0493900351405],[-87.006081893452,36.0493133733091],[-87.0060582997843,36.0492359914475],[-87.0060380656765,36.0491579857657],[-87.0060212156108,36.0490794497977],[-87.0060072835159,36.0488073195802],[-87.0060014607907,36.0488015997749],[-87.0059947136018,36.0487632682159],[-87.0059839607647,36.0487255442313],[-87.0059692812509,36.0486887038645],[-87.0059507827832,36.0486530148066],[-87.0059285985392,36.048618739128],[-87.0059028926213,36.0485861269237],[-87.0058738522759,36.0485554154771],[-87.0058611001844,36.0484566224802],[-87.0052614596889,36.0481209714765],[-87.0042893782774,36.0480807253726],[-87.0042098564691,36.0479182041755],[-87.0041726979706,36.0478421409323],[-87.0038807490937,36.0472525493889],[-87.0024385321995,36.0471642809991],[-87.002422581413,36.0469993063956],[-87.0040029286598,36.0471232366087],[-87.0042428731122,36.0476129900194],[-87.0065499599581,36.0479299993196],[-87.0064323297152,36.0477504898928],[-87.0072238508998,36.0477177784538],[-87.0072892415494,36.0477523957926],[-87.0077121968122,36.0473862274306],[-87.0077238506522,36.0478784308462],[-87.00688451277,36.0487030173882],[-87.0066697962808,36.0492718353121],[-87.0064436758303,36.0495814092287],[-87.0061805127854,36.0495572360607]]]},"properties":{"id":"236140","parcel":"15400008600","address":"5041 PINE HILL RD","owner":"SHAPLAND, MICHAEL D. & EMILY A.","point":[-87.0064337602532,36.048288753711326]}},{"type":"Feature","id":"236385","geometry":{"type":"Polygon","coordinates":[[[-87.0084402121383,36.0511201927287],[-87.0082426879092,36.0510971205553],[-87.0082675408363,36.0507894995952],[-87.0081209634377,36.0507555610539],[-87.0081556245997,36.0503409919149],[-87.0082150153159,36.0503292313424],[-87.008250515655,36.0503259014189],[-87.0082862418066,36.0503252356835],[-87.0083218930442,36.0503272384546],[-87.0083495659537,36.0503279920521],[-87.0083770405898,36.050325190716],[-87.0084036252633,36.0503189051285],[-87.0084286560066,36.0503092913659],[-87.0084515054643,36.0502965917244],[-87.0084716016222,36.0502811237478],[-87.0084884410569,36.0502632747089],[-87.0085016021155,36.0502434906831],[-87.0085107537141,36.050222270165],[-87.008515669479,36.0502001414176],[-87.0085162232837,36.0501776607065],[-87.0085124033908,36.0501553896489],[-87.0085043034807,36.0501338880781],[-87.0084921290474,36.0501136932595],[-87.0084761828567,36.0500953109996],[-87.0084568647738,36.050079202128],[-87.0084346593844,36.0500657690807],[-87.0084101226085,36.0500553506054],[-87.0084353003146,36.0495067964352],[-87.0086074039539,36.0492064595271],[-87.0087685420632,36.0486820418452],[-87.0085374250116,36.0479573380854],[-87.009000292898,36.0479908256973],[-87.0102788834896,36.0480856061931],[-87.0101590521407,36.0490909918457],[-87.0105084719953,36.0491144357842],[-87.0104927937331,36.0491585225671],[-87.0104139864133,36.0493459943443],[-87.010272240595,36.0494790486533],[-87.0101005333751,36.0495969693795],[-87.0095321690147,36.0498083249256],[-87.0106382697951,36.0512341955263],[-87.0106372583281,36.0513674435052],[-87.0084402121383,36.0511201927287]]]},"properties":{"id":"236385","parcel":"15400010700","address":"5091 PINE HILL RD","owner":"MOSS BOSS TRUST","point":[-87.00912132892317,36.04970270238141]}},{"type":"Feature","id":"237101","geometry":{"type":"Polygon","coordinates":[[[-87.0024436896708,36.0472169830175],[-87.0024385321995,36.0471642809991],[-87.0038807490937,36.0472525493889],[-87.0041726979706,36.0478421409323],[-87.0042098564691,36.0479182041755],[-87.0025251971385,36.0482956865555],[-87.0024529004905,36.0473111379182],[-87.0024436896708,36.0472169830175]]]},"properties":{"id":"237101","parcel":"15400002700","address":"8724 GRIFFITH RD","owner":"ELLISON, GLEN & YONG AE","point":[-87.00325680861756,36.04757664404882]}},{"type":"Feature","id":"237658","geometry":{"type":"Polygon","coordinates":[[[-87.0040943285968,36.0452459863553],[-87.0042990911261,36.0439427692433],[-87.0051662415243,36.0446580794401],[-87.005119831722,36.0454025175131],[-87.0040943285968,36.0452459863553]]]},"properties":{"id":"237658","parcel":"15400005400","address":"747 PINE HILL LN","owner":"WALLACE, CARL L. & HEIDI L.","point":[-87.00464421480162,36.04495203356397]}},{"type":"Feature","id":"238793","geometry":{"type":"Polygon","coordinates":[[[-87.0022548212359,36.0449957768667],[-87.0022364913292,36.0447575414426],[-87.0032513493918,36.0447665902441],[-87.0031573690715,36.0437401987819],[-87.0032272753598,36.0437446046895],[-87.0034833282138,36.0437607423596],[-87.0037154810516,36.0425422314121],[-87.0052754976138,36.042738253995],[-87.0052357176523,36.0429470745681],[-87.0050555915371,36.0438926031527],[-87.0041400246874,36.0437567573456],[-87.0039348418467,36.045093994257],[-87.0022548212359,36.0449957768667]]]},"properties":{"id":"238793","parcel":"15400027600","address":"747 PINE HILL LN","owner":"WALLACE, CARL L. & HEIDI L.","point":[-87.00364729313644,36.04382669587377]}},{"type":"Feature","id":"238795","geometry":{"type":"Polygon","coordinates":[[[-87.004678925637,36.0482550625701],[-87.0044300861683,36.0482130670878],[-87.0044243317788,36.0482125661489],[-87.0043464748238,36.0482021054416],[-87.0042681128137,36.0481945367044],[-87.0041894057848,36.0481898775301],[-87.0041105203065,36.0481881355435],[-87.0040316195732,36.0481893147921],[-87.0039528656128,36.0481934148275],[-87.0038744236457,36.0482004243591],[-87.0037964577602,36.0482103303036],[-87.003719127503,36.0482231115039],[-87.0034070240638,36.0482877976157],[-87.0030580573904,36.0483533395492],[-87.002941457413,36.0483702785861],[-87.0028244709762,36.0483853568079],[-87.0027071423877,36.0483985666343],[-87.0026486878786,36.0484068015885],[-87.002589944937,36.0484135526467],[-87.0025821505215,36.0484125187902],[-87.0025686970093,36.0484053408862],[-87.0025568648496,36.0483964766531],[-87.0025469744592,36.0483861631755],[-87.0025391932076,36.0483743828376],[-87.0025332567823,36.0483619147717],[-87.002529254143,36.0483489484152],[-87.0025251971385,36.0482956865555],[-87.0042098564691,36.0479182041755],[-87.0042893782774,36.0480807253726],[-87.0052614596889,36.0481209714765],[-87.0058611001844,36.0484566224802],[-87.0058738522759,36.0485554154771],[-87.0058441293343,36.0485288224187],[-87.0058118869166,36.0485042413848],[-87.0057773290073,36.0484818293023],[-87.0057406794059,36.0484617303146],[-87.0057021694743,36.0484440722781],[-87.0056620459277,36.0484289685004],[-87.0056205652405,36.0484165141819],[-87.005577992582,36.0484067900293],[-87.004678925637,36.0482550625701]]]},"properties":{"id":"238795","parcel":"15400028600","address":"0 PINE HILL RD","owner":"CARTER, NEAL W. ET UX","point":[-87.0050282840153,36.04823905608692]}},{"type":"Feature","id":"239368","geometry":{"type":"Polygon","coordinates":[[[-86.996814248037,36.0478175189469],[-86.9972603380667,36.0473500995363],[-86.9996633219806,36.0481939128599],[-86.9996449599209,36.0482402178586],[-87.0024128640896,36.0490718863352],[-87.0024210324653,36.0491830774947],[-87.0024415376228,36.0493872997065],[-87.0017895494217,36.0494605776168],[-87.0010600985293,36.0496954818332],[-87.0006346680627,36.0499492854797],[-87.0002941388912,36.0497183252087],[-86.9998780568821,36.0493437617345],[-86.999416608401,36.0488047407963],[-86.9988618665281,36.0485939585268],[-86.9969937288644,36.0478863628235],[-86.996814248037,36.0478175189469]]]},"properties":{"id":"239368","parcel":"15400013500","address":"8675 GRIFFITH RD","owner":"RICHARDSON, P. MICHAEL ET UX","point":[-87.00015610395701,36.048699352971546]}},{"type":"Feature","id":"239376","geometry":{"type":"Polygon","coordinates":[[[-87.0070770319602,36.045154756129],[-87.007132591607,36.0442688765142],[-87.0079027553547,36.0443656388184],[-87.0077482916798,36.0452682821377],[-87.0087511756298,36.0454215186703],[-87.0089787544564,36.0454415910754],[-87.0091012771308,36.046139456789],[-87.0085092537759,36.0461905655641],[-87.0077828010933,36.0458845598846],[-87.0070770319602,36.045154756129]]]},"properties":{"id":"239376","parcel":"15400029000","address":"771 PINE HILL LN","owner":"WALLACE, MICHAEL LOUIS & LINDA CLAIRE","point":[-87.00744497541737,36.04521151760128]}},{"type":"Feature","id":"239575","geometry":{"type":"Polygon","coordinates":[[[-87.0076024384039,36.0466003432043],[-87.0077530600274,36.0461001877788],[-87.0077608021681,36.0460438070599],[-87.0077828010933,36.0458845598846],[-87.0085092537759,36.0461905655641],[-87.0091012771308,36.046139456789],[-87.0089787544564,36.0454415910754],[-87.0103767014468,36.0455617442274],[-87.0120355430541,36.0457676020572],[-87.0118021624396,36.0465673531337],[-87.0103544824685,36.046368513194],[-87.0102469935654,36.0462155706361],[-87.0101406502236,36.046152726482],[-87.0093153565833,36.046375023516],[-87.0090146583524,36.0465643545506],[-87.0084538203506,36.046727285843],[-87.0085189301554,36.0469531116525],[-87.0077333218012,36.0469179258269],[-87.007571111316,36.046904447437],[-87.0076024384039,36.0466003432043]]]},"properties":{"id":"239575","parcel":"15400011100","address":"811 PINE HILL LN","owner":"FREEMAN, WILLIAM H.","point":[-87.00883797878899,36.04620311228066]}},{"type":"Feature","id":"239794","geometry":{"type":"Polygon","coordinates":[[[-87.002384889144,36.0466125377927],[-87.0023577524112,36.0463336074631],[-87.0022654924574,36.0451344906003],[-87.0040943285968,36.0452459863553],[-87.005119831722,36.0454025175131],[-87.0050897468616,36.0458850738164],[-87.0050925426452,36.0459055283737],[-87.0050928029001,36.0459261077298],[-87.0050905250031,36.0459466046041],[-87.0049099229509,36.0459497592909],[-87.0039323701744,36.0459562586649],[-87.0038965825473,36.046711490823],[-87.002384889144,36.0466125377927]]]},"properties":{"id":"239794","parcel":"15400003100","address":"737 PINE HILL LN","owner":"PHILEN, WILLIAM A & MORGAS, EVA BASCOMPTE","point":[-87.0037091433846,36.04591586883487]}},{"type":"Feature","id":"240661","geometry":{"type":"Polygon","coordinates":[[[-87.0058797799276,36.043478256814],[-87.0066083105643,36.043443556544],[-87.0070633479974,36.0436602650498],[-87.0072674872922,36.0437234878286],[-87.0073479505384,36.0437666083455],[-87.0076954744403,36.0438294933518],[-87.0079916526339,36.0438461322378],[-87.0079027553547,36.0443656388184],[-87.007132591607,36.0442688765142],[-87.005756021101,36.0440959139582],[-87.0058797799276,36.043478256814]]]},"properties":{"id":"240661","parcel":"15400002800","address":"0 GRIFFITH RD","owner":"WALLACE, JOE & SUE CO-TRS","point":[-87.00687566256082,36.043971028205156]}},{"type":"Feature","id":"241196","geometry":{"type":"Polygon","coordinates":[[[-86.9989904546147,36.0453646593716],[-87.0020916195086,36.0450771339255],[-87.0021889488107,36.0463421750697],[-87.0021869906552,36.046342585229],[-87.0022711505699,36.0472184181485],[-87.002276137776,36.0472703004911],[-87.0008802153229,36.0471654029635],[-87.0004305798411,36.0464012428891],[-86.9989995431991,36.0456392668184],[-86.9989904546147,36.0453646593716]]]},"properties":{"id":"241196","parcel":"15400003102","address":"8731 GRIFFITH RD","owner":"AVERY FAMILY TRUST","point":[-87.00091075865016,36.04599072957309]}},{"type":"Feature","id":"251054","geometry":{"type":"Polygon","coordinates":[[[-87.0101590521407,36.0490909918457],[-87.0102788834896,36.0480856061931],[-87.009000292898,36.0479908256973],[-87.0085374250116,36.0479573380854],[-87.0085201850276,36.0470520006476],[-87.0085189301554,36.0469531116525],[-87.0095236685203,36.0472216198919],[-87.0100386789288,36.0474986175188],[-87.0105599224769,36.0467755758318],[-87.0107799664851,36.0476923995109],[-87.0109016873525,36.0479001663494],[-87.0111183717491,36.0481269165831],[-87.0112336472885,36.0482534205143],[-87.0114957213273,36.0484314381387],[-87.0119476033896,36.0484254461477],[-87.011675886512,36.0485530003694],[-87.0114357467067,36.0486099611434],[-87.0111385217772,36.0484344357353],[-87.0106089221554,36.0487135989388],[-87.0105772048387,36.0487732047844],[-87.0105084719953,36.0491144357842],[-87.0101590521407,36.0490909918457]]]},"properties":{"id":"251054","parcel":"15400027900","address":"5141 PINE HILL RD","owner":"WESTFALL, BRANDON ROBERT & CARLEY GORDON","point":[-87.00973289634807,36.047928756962975]}},{"type":"Feature","id":"251058","geometry":{"type":"Polygon","coordinates":[[[-87.0093153565833,36.046375023516],[-87.0101406502236,36.046152726482],[-87.0102469935654,36.0462155706361],[-87.0103544824685,36.046368513194],[-87.0105399185314,36.0466922286063],[-87.0105599224769,36.0467755758318],[-87.0100386789288,36.0474986175188],[-87.0095236685203,36.0472216198919],[-87.0085189301554,36.0469531116525],[-87.0084538203506,36.046727285843],[-87.0090146583524,36.0465643545506],[-87.0093153565833,36.046375023516]]]},"properties":{"id":"251058","parcel":"15400028000","address":"0 GRIFFITH RD","owner":"PINE HILL COUNTRY CLUB, INC.","point":[-87.00949467251723,36.04686435163811]}},{"type":"Feature","id":"251740","geometry":{"type":"Polygon","coordinates":[[[-87.0032853749493,36.04313389808],[-87.0033769746382,36.0424316379914],[-87.0034408198323,36.0418800122718],[-87.004513938818,36.0419118153132],[-87.0054954174764,36.041940959332],[-87.0059267181926,36.0419532804919],[-87.0063020082154,36.0419587888412],[-87.0060311783712,36.0426501458158],[-87.0052357176523,36.0429470745681],[-87.0052754976138,36.042738253995],[-87.0037154810516,36.0425422314121],[-87.0034833282138,36.0437607423596],[-87.0032272753598,36.0437446046895],[-87.0032380266421,36.0435752184359],[-87.0032853749493,36.04313389808]]]},"properties":{"id":"251740","parcel":"15400029300","address":"0 GRIFFITH RD","owner":"WALLACE, CARL L. & HEILDI L.","point":[-87.00349079239781,36.04284272865243]}}]}