{"type":"FeatureCollection","features":[{"type":"Feature","id":"36201","geometry":{"type":"Polygon","coordinates":[[[-87.0162391659859,36.0232268605944],[-87.0166825416177,36.0196058919676],[-87.016713452546,36.0193619939808],[-87.0180673488264,36.0195866176036],[-87.0193130883389,36.0201563487848],[-87.0196156377988,36.0205999588253],[-87.019984471969,36.0211407524952],[-87.0203438995986,36.0216677452364],[-87.020566794641,36.0219945483362],[-87.0208664757037,36.0220127116458],[-87.0216796306994,36.0220619903376],[-87.0224201666583,36.0221068622275],[-87.0232642021965,36.0221580006812],[-87.0239858645631,36.0222017217624],[-87.0248549024343,36.0222543634995],[-87.0260002090514,36.0223237328035],[-87.0258603188035,36.0224806644046],[-87.0207624042083,36.0221563168397],[-87.0206967257769,36.0221534167593],[-87.02071550924,36.0237177744804],[-87.0202439922503,36.0236345188671],[-87.019799821094,36.0235449739596],[-87.0189681975582,36.0234319981304],[-87.0162391659859,36.0232268605944]]]},"properties":{"id":"36201","parcel":"16800026200","address":"9247 HIGHWAY 100","owner":"BUTLER, LEONA A. 2012 TRUST","point":[-87.01831322993137,36.02140454592769]}},{"type":"Feature","id":"36993","geometry":{"type":"Polygon","coordinates":[[[-87.0198715669784,36.0237347291934],[-87.019001560923,36.0236146200772],[-87.0172521144254,36.0234821534187],[-87.0160553478549,36.0234087364694],[-87.0134660462695,36.0232075979013],[-87.0130740624746,36.0231058017678],[-87.0134990723499,36.0191421261153],[-87.0155561602053,36.019394260902],[-87.015929714855,36.0194258075309],[-87.0159420367209,36.0192752568465],[-87.0166447435709,36.0193576409229],[-87.016713452546,36.0193619939808],[-87.0166825416177,36.0196058919676],[-87.0162391659859,36.0232268605944],[-87.0189681975582,36.0234319981304],[-87.019799821094,36.0235449739596],[-87.0202439922503,36.0236345188671],[-87.02071550924,36.0237177744804],[-87.0206967257769,36.0221534167593],[-87.0207624042083,36.0221563168397],[-87.0258603188035,36.0224806644046],[-87.0257343835936,36.0226249549527],[-87.0209327433268,36.0223081692353],[-87.0209364260915,36.0237188165056],[-87.0209368870504,36.0238949352294],[-87.0207186052587,36.0238928866326],[-87.0198715669784,36.0237347291934]]]},"properties":{"id":"36993","parcel":"16800026300","address":"9245 HIGHWAY 100","owner":"JONES, JAMES R. & BUTLER, LEONA A. 2012 TRUST","point":[-87.01491961385062,36.02088019954801]}}]}