{"type":"FeatureCollection","features":[{"type":"Feature","id":"110577","geometry":{"type":"Polygon","coordinates":[[[-86.9886405727653,36.093237706979],[-86.9884413066872,36.0924569444585],[-86.9881964228148,36.0923622508007],[-86.9885867479955,36.0919590627201],[-86.9887020759854,36.0916765661196],[-86.9899964746353,36.0916580410355],[-86.9928637593642,36.0916169546952],[-86.9943955030355,36.0916043349238],[-86.9945024750617,36.0916050678209],[-86.9946093398218,36.0916090290781],[-86.9947159484491,36.0916162127133],[-86.9948221542636,36.0916266100232],[-86.9949064514617,36.0916371916188],[-86.9949903231828,36.0916497973907],[-86.9950736993328,36.0916644162011],[-86.9951758714598,36.0916852304139],[-86.9952770365327,36.0917090659127],[-86.9953770576027,36.0917358931864],[-86.9954758009612,36.0917656754869],[-86.995573135063,36.0917983715423],[-86.9956689283622,36.0918339400808],[-86.9957630525305,36.0918723307916],[-86.9957631027684,36.091872352008],[-86.9958625862769,36.0919168569941],[-86.9959598262714,36.0919645151656],[-86.9960546719208,36.0920152529658],[-86.9961469756449,36.092068990502],[-86.9962365931595,36.0921256451508],[-86.9963233823202,36.0921851279622],[-86.9964072120289,36.0922473453886],[-86.9964879478321,36.0923122021076],[-86.9965654662769,36.0923795945945],[-86.9966396439205,36.0924494202257],[-86.9974298015481,36.0932235827311],[-86.9973273504778,36.0933011293266],[-86.9969065937669,36.0935012723271],[-86.9963849902011,36.0931482904949],[-86.9959887532636,36.0933772298278],[-86.996257674497,36.0938760935262],[-86.995100484171,36.0938024098509],[-86.9886405727653,36.093237706979]]]},"properties":{"id":"110577","parcel":"12700000600","address":"8500 HIGHWAY 70","owner":"ROBERTS, STEPHEN RAY & PATRICIA L.","point":[-86.99276493839206,36.092802705063114]}},{"type":"Feature","id":"113964","geometry":{"type":"Polygon","coordinates":[[[-87.0003535521761,36.1013679579608],[-86.9974555334768,36.0999912986686],[-86.9972115514917,36.1001867170907],[-86.9969943695589,36.1003599369747],[-86.9958189440355,36.1013043085499],[-86.9958186196686,36.1013045690008],[-86.9958033633359,36.1012686257739],[-86.9947300188134,36.0993266345281],[-86.9943932093537,36.0980869731252],[-86.9933333117837,36.097785827279],[-86.9910104651871,36.0974256405871],[-86.9913727350685,36.0967046427854],[-86.9870205919171,36.0955266985886],[-86.9870818637793,36.0953933892038],[-86.987139310192,36.0952589619376],[-86.9871928976566,36.0951234900753],[-86.9872670630022,36.0949553144791],[-86.9876741446358,36.0939820924246],[-86.9876807312872,36.0939651390429],[-86.9877492193469,36.0938113934823],[-86.9878330559852,36.0936163434015],[-86.9878623073353,36.0935475416374],[-86.9878873106522,36.0934776453351],[-86.9879080014519,36.0934068262731],[-86.9879243308531,36.0933352606084],[-86.9879362577476,36.0932631244336],[-86.9879487027053,36.0929703314712],[-86.9879455163308,36.0929091455699],[-86.9879381663126,36.0928481965748],[-86.9879266760666,36.0927876699618],[-86.9879110790131,36.0927277520258],[-86.9878914240838,36.0926686262302],[-86.9878677723792,36.0926104723332],[-86.9878401938597,36.0925534682175],[-86.9878087751183,36.0924977898267],[-86.98777361043,36.0924436058304],[-86.9877348096034,36.0923910838698],[-86.9876924889955,36.092340382519],[-86.9876198228577,36.0922659910907],[-86.9875163384725,36.0921699800901],[-86.9874424132047,36.0921040621051],[-86.9873715569444,36.0920359594208],[-86.98730386859,36.0919657667709],[-86.987239441509,36.0918935807371],[-86.9871783635498,36.0918195006497],[-86.9871207214939,36.0917436294532],[-86.9870870382422,36.0916996611165],[-86.9887020759854,36.0916765661196],[-86.9885867479955,36.0919590627201],[-86.9881964228148,36.0923622508007],[-86.9884413066872,36.0924569444585],[-86.9886405727653,36.093237706979],[-86.995100484171,36.0938024098509],[-86.996257674497,36.0938760935262],[-86.996359227424,36.094200520545],[-86.9982621783366,36.0948832496328],[-86.9982893756727,36.0947591456767],[-86.9986649758921,36.0944983058949],[-86.9988018788296,36.0946324306529],[-86.9988758215892,36.0947022397242],[-86.9989523034969,36.0947702224031],[-86.9990312582573,36.0948363170443],[-86.9991126129573,36.0949004656623],[-86.9991450109247,36.0948686344585],[-86.999141074552,36.0949629551726],[-86.9989854944868,36.0986907569679],[-87.0005396099683,36.0989080857943],[-87.0005880064414,36.0989879020084],[-87.0008649837195,36.0994268003147],[-87.0009613894394,36.0995795668362],[-87.0009696314212,36.0995888395268],[-87.0010221832394,36.0996760378903],[-87.0011031374172,36.099787450991],[-87.001185772105,36.0999246733136],[-87.0011927493802,36.099941098413],[-87.0012021392889,36.1000146442818],[-87.0011960242401,36.1000666173081],[-87.0011807177916,36.1001142700883],[-87.0005777743659,36.1014718160354],[-87.0004869618872,36.1014313285894],[-87.0003535521761,36.1013679579608]]]},"properties":{"id":"113964","parcel":"12700000500","address":"7430 BUFFALO RD","owner":"BIBB, RICHARD C.","point":[-86.99414479682828,36.096116034410464]}}]}