{"type":"FeatureCollection","features":[{"type":"Feature","id":"66617","geometry":{"type":"Polygon","coordinates":[[[-87.0107946192187,36.1118071415635],[-87.0118655505918,36.1108805367466],[-87.0122593970013,36.1110585998177],[-87.0134371500851,36.1111392259841],[-87.0132366974538,36.1122960189391],[-87.0128159462537,36.1123135438272],[-87.0126242297521,36.1123202441616],[-87.0124323861229,36.1123238583017],[-87.0122404931231,36.112324384693],[-87.0121288636712,36.1123228240105],[-87.0120173831479,36.1123178703788],[-87.0119062105063,36.1123095314779],[-87.0117955003138,36.1122978195317],[-87.0117301153369,36.1122873306971],[-87.0116655633693,36.1122738704606],[-87.0116020471194,36.1122574812871],[-87.011529799407,36.1122363199152],[-87.0114591839675,36.1122117973792],[-87.0113904384683,36.1121839973126],[-87.0113237940149,36.1121530115162],[-87.0112594729986,36.1121189453835],[-87.0111976923594,36.1120819124658],[-87.0110606597963,36.1119929257635],[-87.0109262777955,36.1119013182382],[-87.0107946192187,36.1118071415635]]]},"properties":{"id":"66617","parcel":"11200003000","address":"0 LONGVIEW DR","owner":"WEST, SANDRA E.","point":[-87.01227989396276,36.111473174370296]}},{"type":"Feature","id":"66619","geometry":{"type":"Polygon","coordinates":[[[-87.0134371500851,36.1111392259841],[-87.0114049179655,36.1098365040514],[-87.0112187562086,36.1098621009827],[-87.0111145433381,36.1094182553481],[-87.0113474820624,36.1093438592069],[-87.0116444469411,36.1092508553701],[-87.0119022883033,36.1096232751162],[-87.0136863749458,36.1097009261702],[-87.013546342188,36.1105090746043],[-87.0134371500851,36.1111392259841]]]},"properties":{"id":"66619","parcel":"11200003500","address":"8828 OLD CHARLOTTE PIKE","owner":"MADDUX, STEPHEN G. & LOUISE A.","point":[-87.01277598366926,36.11018555214763]}},{"type":"Feature","id":"67177","geometry":{"type":"Polygon","coordinates":[[[-87.0150277532255,36.1125377055316],[-87.0138991703779,36.1122956864543],[-87.0132267426038,36.1123534676901],[-87.0132366974538,36.1122960189391],[-87.0134371500851,36.1111392259841],[-87.013546342188,36.1105090746043],[-87.0147930024713,36.1106067892245],[-87.0151508714898,36.1106345462003],[-87.015276270622,36.111121388732],[-87.0150995914939,36.1121316369656],[-87.0150277532255,36.1125377055316]]]},"properties":{"id":"67177","parcel":"11200009700","address":"564 LONGVIEW DR","owner":"WEST, WAYNE & SANDRA E.","point":[-87.0142687695489,36.11163543433192]}},{"type":"Feature","id":"67522","geometry":{"type":"Polygon","coordinates":[[[-87.015276270622,36.111121388732],[-87.0151508714898,36.1106345462003],[-87.0186318207442,36.1109054465662],[-87.0168829368441,36.1123566210555],[-87.0150995914939,36.1121316369656],[-87.015276270622,36.111121388732]]]},"properties":{"id":"67522","parcel":"11200009800","address":"0 SEARS RD","owner":"THOMPSON, WAYNE L. ET UX","point":[-87.01647559877027,36.11162634274983]}},{"type":"Feature","id":"67983","geometry":{"type":"Polygon","coordinates":[[[-87.0186318207442,36.1109054465662],[-87.0151508714898,36.1106345462003],[-87.0147930024713,36.1106067892245],[-87.0148403578771,36.1102855210019],[-87.015640511611,36.1101645030716],[-87.017708450141,36.1098503757627],[-87.017858402774,36.1099138382426],[-87.0180099665577,36.1099747272393],[-87.0181630756078,36.1100330162638],[-87.0183176607071,36.1100886788558],[-87.0184736560045,36.1101416912303],[-87.0186309900836,36.1101920287487],[-87.0187480604852,36.1102393893808],[-87.018950961114,36.1106404871221],[-87.0191037572758,36.1109418587944],[-87.0186318207442,36.1109054465662]]]},"properties":{"id":"67983","parcel":"11200011900","address":"6044 SEARS RD","owner":"RYAN, JAMES CHRISTIAN & RUSSELL LEE","point":[-87.01683452440267,36.11044588858641]}},{"type":"Feature","id":"68630","geometry":{"type":"Polygon","coordinates":[[[-87.0118655505918,36.1108805367466],[-87.011561259598,36.1107429603531],[-87.0110284744232,36.110379910402],[-87.0108184822213,36.1102368169895],[-87.0098335398679,36.1108796128965],[-87.0098108452182,36.1108191029786],[-87.009785789206,36.1107592094879],[-87.0097635191883,36.1107126959176],[-87.0097090042088,36.1106099343984],[-87.0096526306266,36.1105078355465],[-87.0095944120614,36.1104064217782],[-87.0095112373007,36.1102747691115],[-87.0094248766789,36.1101444733705],[-87.0094950973828,36.1100941022477],[-87.0095675892085,36.1100458950236],[-87.0096422486072,36.1099999192574],[-87.0097189730954,36.1099562388941],[-87.0098181067172,36.1099043492706],[-87.009918685679,36.1098543248719],[-87.0100206581183,36.1098061922667],[-87.0101239688414,36.1097599780515],[-87.0101857909523,36.1097346167722],[-87.0103178124885,36.1096848739562],[-87.0104510341825,36.1096372831612],[-87.0105854029968,36.1095918655576],[-87.0109177759758,36.1094822361457],[-87.0111145433381,36.1094182553481],[-87.0112187562086,36.1098621009827],[-87.0114049179655,36.1098365040514],[-87.0134371500851,36.1111392259841],[-87.0122593970013,36.1110585998177],[-87.0118655505918,36.1108805367466]]]},"properties":{"id":"68630","parcel":"11200015500","address":"8814 OLD CHARLOTTE PIKE","owner":"DENNING, PHILLIP CURTIS & CASEY LYNN","point":[-87.01156078453845,36.110327224550275]}}]}