{"type":"FeatureCollection","features":[{"type":"Feature","id":"64974","geometry":{"type":"Polygon","coordinates":[[[-86.9989163047112,36.1190269816666],[-86.9990928282158,36.1190092395009],[-86.9992689066275,36.118988795967],[-86.9994444789396,36.1189656596838],[-86.9996194807905,36.1189398374958],[-86.9993264525611,36.122160294414],[-86.9992906009055,36.1222192307534],[-86.9981528249319,36.1221451728685],[-86.9989163047112,36.1190269816666]]]},"properties":{"id":"64974","parcel":"11200000600","address":"8522 OLD CHARLOTTE PIKE","owner":"BERKON, ROY & ADELE","point":[-86.99900213231214,36.120586082886255]}},{"type":"Feature","id":"66595","geometry":{"type":"Polygon","coordinates":[[[-86.9996194807905,36.1189398374958],[-86.9997898162508,36.1189129054773],[-86.9999595155468,36.1188834530526],[-87.0001285232505,36.1188514905982],[-87.0002967839342,36.1188170284907],[-87.0002966639546,36.1188166752754],[-87.0005065792948,36.1187676368213],[-87.0007140224135,36.1187110827522],[-87.0010373884505,36.1186294394535],[-87.0014306710718,36.1185187031401],[-87.0016015907679,36.1184659919607],[-87.0015987758797,36.1184933823703],[-87.0015375854859,36.1188573040181],[-87.0014684739244,36.1189434264136],[-87.0014009008473,36.1190303480637],[-87.0013760988301,36.1190629646682],[-87.0013422764721,36.1191080841571],[-87.0013041045299,36.1191912195631],[-87.0012631230616,36.1192734697675],[-87.001219362377,36.1193547723262],[-87.0011890699873,36.1194077190852],[-87.0011575987455,36.1194602114514],[-87.0011261274464,36.1195104118068],[-87.0010935783851,36.1195601578306],[-87.0010385203676,36.1196398343994],[-87.0009806975617,36.1197182125809],[-87.0008890757796,36.1198053722403],[-87.0007944721086,36.1198904096746],[-87.000696962349,36.119973257552],[-87.0005092808204,36.1201204480268],[-87.0004358095507,36.1201740762903],[-87.0003610524414,36.1202265227539],[-87.0003156784607,36.1202550105403],[-87.0002643886938,36.1202905297237],[-87.000215434974,36.1203281574788],[-87.0001689515435,36.1203677917498],[-87.000125060381,36.1204093269776],[-87.0000838811654,36.1204526513131],[-87.0000455235227,36.1204976484839],[-87.0000100925911,36.1205441986497],[-86.9999776800898,36.1205921748709],[-86.9999662300537,36.1206233925179],[-86.9999560255426,36.12065489276],[-86.9999423203551,36.1207057792001],[-86.9999318664215,36.1207571704515],[-86.9999246898149,36.1208089311045],[-86.9999208099101,36.1208609231003],[-86.9999150220833,36.1209255770238],[-86.9999062331227,36.1209900070657],[-86.9998944541048,36.1210541230036],[-86.9998803495448,36.1211152947485],[-86.9998635230877,36.121176011365],[-86.999843998166,36.1212361933433],[-86.9998163302584,36.1213093385836],[-86.9997692555846,36.1214132428299],[-86.9997455622387,36.121458852002],[-86.9997202586257,36.1215038886708],[-86.9996841205118,36.12156287889],[-86.9996452225994,36.1216207013538],[-86.9996036215901,36.1216772717691],[-86.9995139148522,36.1218392870496],[-86.9994215190066,36.1220003042648],[-86.9993264525611,36.122160294414],[-86.9996194807905,36.1189398374958]]]},"properties":{"id":"66595","parcel":"11200000500","address":"8532 OLD CHARLOTTE PIKE","owner":"LAMPLEY, CORY ETAL","point":[-86.99986739239198,36.12030934377062]}},{"type":"Feature","id":"66749","geometry":{"type":"Polygon","coordinates":[[[-86.99715679341,36.1238655547722],[-86.9971641232849,36.1235863822882],[-86.9972556636704,36.1225441774181],[-86.9973807217001,36.1211242351722],[-86.997439093271,36.1204611372732],[-86.9978910934554,36.1193541387365],[-86.9989163047112,36.1190269816666],[-86.9981528249319,36.1221451728685],[-86.9992906009055,36.1222192307534],[-86.999254025924,36.1222786029918],[-86.9991377267858,36.1224625883574],[-86.9984168359276,36.1234327779398],[-86.9973623792001,36.1234111227557],[-86.9973411174948,36.1238750195451],[-86.99715679341,36.1238655547722]]]},"properties":{"id":"66749","parcel":"11200000700","address":"8514 OLD CHARLOTTE PIKE","owner":"SVENSSON, SUMNER","point":[-86.99780678916754,36.12163470540342]}},{"type":"Feature","id":"67222","geometry":{"type":"Polygon","coordinates":[[[-86.9962142901335,36.1195633222522],[-86.996289992807,36.1195519832658],[-86.9963238108284,36.1195486818824],[-86.997166575389,36.1194678184907],[-86.9978910934554,36.1193541387365],[-86.997439093271,36.1204611372732],[-86.9973807217001,36.1211242351722],[-86.9962538808899,36.1210453634064],[-86.9961732686736,36.1208007076634],[-86.9962142901335,36.1195633222522]]]},"properties":{"id":"67222","parcel":"11200016600","address":"0 OLD CHARLOTTE PIKE","owner":"CHAPMAN, CYNTHIA & PLUNKETT, JOEL","point":[-86.99691089478942,36.12001223354556]}},{"type":"Feature","id":"67540","geometry":{"type":"Polygon","coordinates":[[[-86.9958032386968,36.1251375360181],[-86.9954930669713,36.12512544553],[-86.9926904174626,36.1250161639095],[-86.9923166282209,36.1250015838486],[-86.9921431703922,36.1249947664604],[-86.9925299448477,36.1219125729385],[-86.9931989463812,36.1216894914117],[-86.9935638695967,36.1198014098522],[-86.9936315088313,36.1197660896321],[-86.9937013162468,36.1197336834328],[-86.9937729440441,36.119704005745],[-86.9938462286592,36.1196771237078],[-86.9939210053394,36.1196530981616],[-86.9939971048107,36.1196319836752],[-86.9940745248287,36.1196143102279],[-86.9941528933564,36.1195996419514],[-86.994232031965,36.1195880118602],[-86.9943117632689,36.1195794475528],[-86.9943919053269,36.1195739676526],[-86.9949225083471,36.1195476807658],[-86.9945297290107,36.1215867709425],[-86.9953364002596,36.1214880876533],[-86.9953844131441,36.1214802683755],[-86.9954314189871,36.1214691261934],[-86.9954770677693,36.1214547433111],[-86.9955210231176,36.1214372270566],[-86.995562956718,36.1214167072242],[-86.995602558324,36.1213933368936],[-86.9956395345891,36.1213672879321],[-86.9956736113228,36.1213387536805],[-86.995704535678,36.1213079462306],[-86.9957320772392,36.1212750946139],[-86.9957560335426,36.1212404420518],[-86.9957762245221,36.1212042460012],[-86.9957925024608,36.1211667744679],[-86.9958047453152,36.1211283051591],[-86.9958128633566,36.121089123627],[-86.9958167958165,36.1210495214932],[-86.9957893058218,36.1205854782916],[-86.9959552823389,36.1203475776935],[-86.9959552237607,36.120342907652],[-86.9959854364979,36.120834949715],[-86.9962040326742,36.1214985068038],[-86.9960704933111,36.1224328201705],[-86.9972556636704,36.1225441774181],[-86.9971641232849,36.1235863822882],[-86.99715679341,36.1238655547722],[-86.9971363894848,36.1241821958734],[-86.9970711278289,36.1251870964229],[-86.9958032386968,36.1251375360181]]]},"properties":{"id":"67540","parcel":"11300020600","address":"0 OLD CHARLOTTE PIKE","owner":"CHAPMAN, CYNTHIA & PLUNKETT, JOEL & LINDA REVOCABLE TRUST","point":[-86.99430248754935,36.12217270974783]}},{"type":"Feature","id":"67917","geometry":{"type":"Polygon","coordinates":[[[-86.992039692157,36.1206155508988],[-86.9918262520983,36.120193877501],[-86.9918839790208,36.1202164571081],[-86.991981850335,36.1202596950644],[-86.9920325328707,36.1202790445999],[-86.9920844889412,36.1202960285494],[-86.992137550096,36.1203105906139],[-86.9921915435644,36.1203226844443],[-86.9922462977877,36.1203322717935],[-86.9923074674955,36.1203393791465],[-86.9923690678622,36.120343345509],[-86.9924308542742,36.1203441539657],[-86.9924925811992,36.1203418029313],[-86.9925540010064,36.1203363007526],[-86.9926147410688,36.1203270763699],[-86.9926747028994,36.1203149606895],[-86.9927336792624,36.1202999941741],[-86.992680358942,36.1207267593054],[-86.992039692157,36.1206155508988]]]},"properties":{"id":"67917","parcel":"11300000300","address":"8422 OLD CHARLOTTE PIKE","owner":"CHESTNUT GROVE CIVIC CLUB INC.","point":[-86.99234110004818,36.120479859405876]}},{"type":"Feature","id":"68239","geometry":{"type":"Polygon","coordinates":[[[-86.9959552237607,36.120342907652],[-86.9959217428512,36.1195901875741],[-86.9960196589443,36.1195842750264],[-86.9961172224186,36.1195753153187],[-86.9962142901335,36.1195633222522],[-86.9961732686736,36.1208007076634],[-86.9962538808899,36.1210453634064],[-86.9973807217001,36.1211242351722],[-86.9972556636704,36.1225441774181],[-86.9960704933111,36.1224328201705],[-86.9962040326742,36.1214985068038],[-86.9959854364979,36.120834949715],[-86.9959552237607,36.120342907652]]]},"properties":{"id":"68239","parcel":"11200016500","address":"8466 OLD CHARLOTTE PIKE","owner":"CHAPMAN, CYNTHIA","point":[-86.9964425191612,36.121084790071144]}},{"type":"Feature","id":"69102","geometry":{"type":"Polygon","coordinates":[[[-86.9909770731666,36.124948584861],[-86.9906645635007,36.1242355197641],[-86.9905093301823,36.1238813123998],[-86.9901522114088,36.1217961543943],[-86.9900458872909,36.1211753205731],[-86.9899158303509,36.1193092335561],[-86.9899469874481,36.1193402826146],[-86.9899764185173,36.1193724201778],[-86.9900040672331,36.1194055836183],[-86.9904341967365,36.1199553373833],[-86.9904611359834,36.1199864515849],[-86.9904918068968,36.1200151773437],[-86.9905253926979,36.1200416700783],[-86.9905616476779,36.1200657353212],[-86.9906009257426,36.1200864454326],[-86.9906422406771,36.1201043546955],[-86.9906852931396,36.1201193330753],[-86.9907301031943,36.1201304070046],[-86.9907759170826,36.1201383316505],[-86.9908223974831,36.120143049396],[-86.9908617664653,36.1201437967422],[-86.9909010970956,36.1201421829916],[-86.9909401728606,36.1201382171331],[-86.9909787807257,36.1201319198447],[-86.9910411884116,36.1201208403016],[-86.9911041432123,36.1201120320066],[-86.9911675198191,36.1201055122118],[-86.9912396004295,36.1201017716602],[-86.9913118214417,36.1201010023904],[-86.991383997377,36.1201032068281],[-86.9914599760587,36.1201096971804],[-86.9915354119488,36.1201195123264],[-86.9916100825315,36.1201326243539],[-86.9916834661018,36.1201498658456],[-86.9917555932291,36.1201703037098],[-86.9918262520983,36.120193877501],[-86.992039692157,36.1206155508988],[-86.992680358942,36.1207267593054],[-86.9925299448477,36.1219125729385],[-86.9921431703922,36.1249947664604],[-86.9915601221653,36.1249716770652],[-86.9909770731666,36.124948584861]]]},"properties":{"id":"69102","parcel":"11300019900","address":"8400 OLD CHARLOTTE PIKE","owner":"DEBERRY, G. MICHAEL & B. CAROLYN","point":[-86.99137356899526,36.12289693658197]}},{"type":"Feature","id":"69905","geometry":{"type":"Polygon","coordinates":[[[-86.9949225083471,36.1195476807658],[-86.9950506014723,36.1195413353241],[-86.9951508647721,36.1195473832689],[-86.9952508899749,36.1195556160384],[-86.9952187589187,36.1196935120413],[-86.9953862185343,36.1197088898839],[-86.9954177061563,36.1195737444981],[-86.9954234724724,36.1195745234019],[-86.995522685844,36.1195838315855],[-86.9956222649536,36.1195900578352],[-86.9957220641899,36.1195931961415],[-86.9958219390293,36.1195932386839],[-86.9959217428512,36.1195901875741],[-86.9959552237607,36.120342907652],[-86.9959552823389,36.1203475776935],[-86.9957893058218,36.1205854782916],[-86.9958167958165,36.1210495214932],[-86.9958128633566,36.121089123627],[-86.9958047453152,36.1211283051591],[-86.9957925024608,36.1211667744679],[-86.9957762245221,36.1212042460012],[-86.9957560335426,36.1212404420518],[-86.9957320772392,36.1212750946139],[-86.995704535678,36.1213079462306],[-86.9956736113228,36.1213387536805],[-86.9956395345891,36.1213672879321],[-86.995602558324,36.1213933368936],[-86.995562956718,36.1214167072242],[-86.9955210231176,36.1214372270566],[-86.9954770677693,36.1214547433111],[-86.9954314189871,36.1214691261934],[-86.9953844131441,36.1214802683755],[-86.9953364002596,36.1214880876533],[-86.9945297290107,36.1215867709425],[-86.9949225083471,36.1195476807658]]]},"properties":{"id":"69905","parcel":"11300000100","address":"8460 OLD CHARLOTTE PIKE","owner":"TARKINGTON, WILLIAM JEFFREY & PAMELA","point":[-86.99530891042245,36.120466507286146]}},{"type":"Feature","id":"69909","geometry":{"type":"Polygon","coordinates":[[[-86.992680358942,36.1207267593054],[-86.9927336792624,36.1202999941741],[-86.9927876853879,36.1202827080394],[-86.9928403261121,36.1202628373821],[-86.9928914101473,36.1202404540796],[-86.9929407563152,36.1202156389395],[-86.992988191282,36.1201884781127],[-86.9930335440822,36.1201590694478],[-86.993418108675,36.1198917595611],[-86.9934654319312,36.1198603155937],[-86.9935140369082,36.1198301877603],[-86.9935638695967,36.1198014098522],[-86.9931989463812,36.1216894914117],[-86.9925299448477,36.1219125729385],[-86.992680358942,36.1207267593054]]]},"properties":{"id":"69909","parcel":"11300000200","address":"8436 OLD CHARLOTTE PIKE","owner":"ACOSTA, ADAM NOEL P.","point":[-86.99295564220739,36.12120812659975]}}]}