{"type":"FeatureCollection","features":[{"type":"Feature","id":"276121","geometry":{"type":"Polygon","coordinates":[[[-86.9925778348337,36.1532626312692],[-86.9929431045356,36.1506179791216],[-86.9934204786033,36.1506536085702],[-86.9939823232161,36.1468315557272],[-86.9949180621976,36.1469029609601],[-86.9949291687214,36.1469038085275],[-86.9947218748405,36.1482563279757],[-86.9944021058911,36.1502836406186],[-86.9941027121764,36.1521864449595],[-86.9937530027645,36.1544287342216],[-86.9937189674757,36.1544290144963],[-86.9936870391725,36.1546292690635],[-86.9936435694412,36.1533219899246],[-86.9925778348337,36.1532626312692]]]},"properties":{"id":"276121","parcel":"08800004400","address":"0 POND CREEK RD","owner":"LOVELL, BERT A. & NANCY","point":[-86.99352781972004,36.15142001489366]}}]}